{"type":"FeatureCollection","features":[{"type":"Feature","geometry":{"type":"Polygon","coordinates":[[[-88.203,35.008],[-88.198,34.9903],[-88.1725,34.9569],[-88.1597,34.929],[-88.1389,34.9089],[-88.0979,34.8922],[-88.0409,34.9066],[-87.9732,34.8826],[-87.9525,34.8679],[-87.9392,34.8504],[-87.9276,34.8167],[-87.9174,34.8015],[-87.8613,34.763],[-87.8438,34.7457],[-87.807,34.7321],[-87.761,34.7353],[-87.7306,34.747],[-87.7076,34.7729],[-87.6137,34.799],[-87.5915,34.8093],[-87.5806,34.8218],[-87.5244,34.8324],[-87.4845,34.8137],[-87.4253,34.7998],[-87.3702,34.805],[-87.3442,34.7965],[-87.2979,34.7508],[-87.25,34.7623],[-87.2163,34.7611],[-87.1389,34.7241],[-87.1195,34.6973],[-87.1302,34.7191],[-87.1212,34.7203],[-87.1212,34.726],[-87.1078,34.7259],[-87.1078,34.7405],[-87.0903,34.7409],[-87.0903,34.7521],[-87.1076,34.7605],[-87.1068,34.821],[-86.9476,34.8187],[-86.9475,34.8233],[-86.939,34.8243],[-86.9357,34.7295],[-86.842,34.7295],[-86.8419,34.7433],[-86.838,34.7439],[-86.8415,34.7441],[-86.8405,34.761],[-86.8416,34.7673],[-86.8461,34.7679],[-86.8459,34.7811],[-86.8325,34.7742],[-86.8311,34.8608],[-86.8228,34.8526],[-86.8144,34.8516],[-86.7845,34.86],[-86.7836,34.9919],[-87.4189,35.0027],[-88.203,35.008]]]},"properties":{"geoid":"01001","state":"01","district":"1","name":"State Senate District 1","chamber":"Senate"}},{"type":"Feature","geometry":{"type":"Polygon","coordinates":[[[-86.8461,34.7684],[-86.8416,34.7673],[-86.8415,34.7441],[-86.838,34.7439],[-86.8419,34.7433],[-86.842,34.7295],[-86.8066,34.7291],[-86.8067,34.7145],[-86.7932,34.7166],[-86.7909,34.709],[-86.7865,34.7085],[-86.7869,34.6626],[-86.7342,34.6811],[-86.7385,34.6748],[-86.7353,34.6699],[-86.7168,34.6696],[-86.716,34.6911],[-86.6441,34.7162],[-86.6269,34.7128],[-86.6273,34.7351],[-86.6133,34.7352],[-86.6203,34.7432],[-86.6062,34.7431],[-86.6161,34.764],[-86.6455,34.7642],[-86.651,34.7715],[-86.6167,34.7713],[-86.6166,34.7785],[-86.657,34.7788],[-86.6691,34.7934],[-86.6607,34.7933],[-86.6606,34.8225],[-86.6427,34.8224],[-86.6427,34.8604],[-86.6654,34.8729],[-86.6853,34.8742],[-86.6844,34.8815],[-86.737,34.8819],[-86.7486,34.898],[-86.7752,34.8967],[-86.777,34.8899],[-86.7842,34.8945],[-86.7845,34.86],[-86.8144,34.8516],[-86.8228,34.8526],[-86.8311,34.8608],[-86.8325,34.7742],[-86.8459,34.7811],[-86.8461,34.7684]]]},"properties":{"geoid":"01002","state":"01","district":"2","name":"State Senate District 2","chamber":"Senate"}},{"type":"Feature","geometry":{"type":"Polygon","coordinates":[[[-87.1102,34.3709],[-87.1101,34.3138],[-86.5819,34.3047],[-86.5813,34.3711],[-86.5509,34.5552],[-86.5625,34.5719],[-86.5855,34.5827],[-86.6142,34.5772],[-86.6479,34.5488],[-86.6719,34.5567],[-86.6756,34.576],[-86.6854,34.5851],[-86.7062,34.5888],[-86.7238,34.581],[-86.7181,34.61],[-86.7168,34.6696],[-86.7353,34.6699],[-86.7385,34.6748],[-86.7342,34.6811],[-86.7869,34.6626],[-86.7865,34.7085],[-86.7909,34.709],[-86.7932,34.7166],[-86.8067,34.7145],[-86.8066,34.7291],[-86.9569,34.7312],[-86.9563,34.7167],[-86.9662,34.717],[-86.966,34.7241],[-86.9574,34.7246],[-86.9572,34.7457],[-87.0016,34.747],[-87.0014,34.6886],[-87.0188,34.6887],[-87.0193,34.6814],[-87.0416,34.6774],[-87.0465,34.6507],[-87.0529,34.6504],[-87.0855,34.6695],[-87.1051,34.686],[-87.1102,34.3709]]]},"properties":{"geoid":"01003","state":"01","district":"3","name":"State Senate District 3","chamber":"Senate"}},{"type":"Feature","geometry":{"type":"Polygon","coordinates":[[[-88.2072,34.0584],[-87.9869,34.0521],[-87.9874,34.0229],[-87.9519,34.0222],[-87.9518,33.9199],[-87.6359,33.9153],[-87.6361,34.0022],[-87.2167,33.9939],[-87.2,33.9849],[-87.1898,34.003],[-87.1693,34.0052],[-87.1437,33.9864],[-87.1369,33.9666],[-87.1115,33.9587],[-87.1052,33.936],[-87.0928,33.9282],[-87.0821,33.9079],[-87.1007,33.899],[-87.0918,33.8901],[-87.0071,33.8889],[-87.0069,33.8662],[-87.0006,33.87],[-86.9922,33.8596],[-86.9597,33.858],[-86.9627,33.8676],[-86.9489,33.8614],[-86.9518,33.8715],[-86.9421,33.8666],[-86.9202,33.8727],[-86.9243,33.877],[-86.9199,33.884],[-86.9211,33.8947],[-86.9274,33.8977],[-86.9254,33.908],[-86.9159,33.9159],[-86.9085,33.9127],[-86.8865,33.917],[-86.8856,33.9339],[-86.877,33.9363],[-86.8597,33.9291],[-86.86,33.9351],[-86.8426,33.9489],[-86.8352,33.9505],[-86.8204,33.9414],[-86.8241,33.9527],[-86.8209,33.9575],[-86.793,33.9522],[-86.7877,33.9575],[-86.7917,33.9635],[-86.7828,33.9692],[-86.7716,33.9662],[-86.7764,33.9713],[-86.7627,33.9755],[-86.7625,33.985],[-86.7573,33.9904],[-86.7613,33.9955],[-86.7415,33.9989],[-86.744,34.0079],[-86.7236,34.0177],[-86.7203,34.0324],[-86.7097,34.029],[-86.7017,34.0356],[-86.7095,34.0475],[-86.7039,34.0586],[-86.696,34.0616],[-86.6897,34.053],[-86.6846,34.0539],[-86.7042,34.0815],[-86.6915,34.0927],[-86.6878,34.0918],[-86.6869,34.0797],[-86.6729,34.0884],[-86.6686,34.0838],[-86.6567,34.0918],[-86.6531,34.1077],[-86.6395,34.1065],[-86.6399,34.1131],[-86.624,34.1223],[-86.6132,34.1136],[-86.5997,34.1198],[-86.6043,34.1252],[-86.5992,34.1331],[-86.5877,34.1374],[-86.5904,34.1464],[-86.5845,34.1458],[-86.5737,34.166],[-86.5456,34.1855],[-86.5557,34.1888],[-86.5566,34.1935],[-86.549,34.1995],[-86.5543,34.2052],[-86.5426,34.2114],[-86.5473,34.2161],[-86.5426,34.2163],[-86.5401,34.2258],[-86.5235,34.2265],[-86.5254,34.2384],[-86.5194,34.252],[-86.511,34.2549],[-86.4979,34.2488],[-86.4869,34.2605],[-86.453,34.2593],[-86.4563,34.2634],[-86.4511,34.2745],[-86.4596,34.2746],[-86.4594,34.2891],[-86.477,34.2894],[-86.4775,34.3028],[-87.1101,34.3138],[-87.1099,34.2993],[-87.3025,34.2994],[-88.1736,34.3211],[-88.2072,34.0584]]]},"properties":{"geoid":"01004","state":"01","district":"4","name":"State Senate District 4","chamber":"Senate"}},{"type":"Feature","geometry":{"type":"Polygon","coordinates":[[[-88.2745,33.5343],[-87.9465,33.524],[-87.8407,33.5248],[-87.838,33.2841],[-87.7785,33.2788],[-87.7171,33.2666],[-87.655,33.2372],[-87.6386,33.2342],[-87.6445,33.2575],[-87.6391,33.2696],[-87.629,33.2606],[-87.6269,33.2721],[-87.6188,33.2644],[-87.6133,33.2693],[-87.6028,33.2655],[-87.6059,33.2587],[-87.5884,33.2627],[-87.5869,33.2837],[-87.598,33.2877],[-87.601,33.305],[-87.5687,33.301],[-87.5702,33.2896],[-87.5522,33.2809],[-87.5422,33.2637],[-87.5308,33.2814],[-87.5152,33.2911],[-87.5209,33.2995],[-87.5211,33.3127],[-87.5001,33.3225],[-87.4969,33.2981],[-87.4807,33.2875],[-87.4822,33.2748],[-87.4679,33.2616],[-87.4623,33.2647],[-87.4606,33.2578],[-87.4315,33.2536],[-87.4219,33.2622],[-87.4222,33.2787],[-87.3932,33.2879],[-87.394,33.31],[-87.383,33.3196],[-87.3515,33.3108],[-87.3152,33.3135],[-87.2949,33.3051],[-87.2065,33.3479],[-87.2001,33.3404],[-87.18,33.343],[-87.1793,33.3275],[-87.161,33.3385],[-87.1517,33.338],[-87.1445,33.3468],[-87.1464,33.3602],[-87.1426,33.3612],[-87.1525,33.3746],[-87.1539,33.3982],[-87.1666,33.4036],[-87.1528,33.413],[-87.1567,33.4246],[-87.1369,33.4271],[-87.1214,33.4428],[-87.1229,33.4521],[-87.112,33.4568],[-87.1017,33.4689],[-87.1065,33.471],[-87.1014,33.4867],[-87.1102,33.4913],[-87.1118,33.4978],[-87.0943,33.5097],[-87.0979,33.5119],[-87.0947,33.5223],[-87.0745,33.5325],[-87.0614,33.5231],[-87.0608,33.5406],[-87.0508,33.547],[-87.0486,33.5372],[-87.0383,33.5401],[-87.0382,33.5326],[-87.0328,33.5402],[-87.022,33.5434],[-87.022,33.5529],[-87.0347,33.555],[-87.0112,33.5739],[-87.0204,33.5782],[-87.0164,33.5798],[-87.0203,33.5816],[-87.018,33.5868],[-87.0236,33.5854],[-87.0198,33.5918],[-87.0297,33.5892],[-87.0226,33.5969],[-87.0248,33.6051],[-87.0149,33.6016],[-87.0051,33.6065],[-87.0069,33.6147],[-87.018,33.6151],[-87.0178,33.6086],[-87.0224,33.6087],[-87.0193,33.6123],[-87.0227,33.6234],[-87.005,33.626],[-87.0052,33.6415],[-87.0141,33.6471],[-87.0074,33.656],[-86.9732,33.6557],[-86.9708,33.6635],[-86.9753,33.6858],[-86.9895,33.6986],[-86.9753,33.7074],[-86.9653,33.7044],[-86.9649,33.7112],[-86.9541,33.7089],[-86.9636,33.7206],[-86.9534,33.7332],[-86.9446,33.7259],[-86.9421,33.7381],[-86.924,33.736],[-86.9176,33.7423],[-86.9359,33.7623],[-86.9342,33.7716],[-86.949,33.7795],[-86.9557,33.799],[-86.9543,33.8449],[-86.963,33.8449],[-86.9634,33.8582],[-86.9922,33.8596],[-86.9996,33.8698],[-87.0069,33.8662],[-87.0071,33.8889],[-87.0918,33.8901],[-87.1007,33.899],[-87.0821,33.9079],[-87.0928,33.9282],[-87.1052,33.936],[-87.1115,33.9587],[-87.1369,33.9666],[-87.1437,33.9864],[-87.1693,34.0052],[-87.1898,34.003],[-87.2,33.9849],[-87.2167,33.9939],[-87.6361,34.0022],[-87.6359,33.9153],[-87.9518,33.9199],[-87.9519,34.0222],[-87.9874,34.0229],[-87.9869,34.0521],[-88.2072,34.0583],[-88.2745,33.5343]]]},"properties":{"geoid":"01005","state":"01","district":"5","name":"State Senate District 5","chamber":"Senate"}},{"type":"Feature","geometry":{"type":"Polygon","coordinates":[[[-88.1735,34.322],[-87.3742,34.3008],[-87.1099,34.2993],[-87.1051,34.686],[-87.0855,34.6695],[-87.0488,34.65],[-87.0389,34.6796],[-87.0193,34.6814],[-87.0188,34.6887],[-87.0014,34.6886],[-87.0016,34.747],[-86.9572,34.7457],[-86.9574,34.7246],[-86.966,34.7241],[-86.9662,34.717],[-86.9563,34.7167],[-86.9569,34.7312],[-86.9364,34.7308],[-86.939,34.8243],[-86.9475,34.8233],[-86.9476,34.8187],[-87.1068,34.821],[-87.1076,34.7605],[-87.0903,34.7521],[-87.0903,34.7409],[-87.1078,34.7405],[-87.1078,34.7259],[-87.1212,34.726],[-87.1212,34.7203],[-87.1302,34.7191],[-87.1195,34.6973],[-87.1389,34.7241],[-87.2163,34.7611],[-87.25,34.7623],[-87.2979,34.7508],[-87.3442,34.7965],[-87.3702,34.805],[-87.4253,34.7998],[-87.4845,34.8137],[-87.5244,34.8324],[-87.5806,34.8218],[-87.5915,34.8093],[-87.6137,34.799],[-87.7076,34.7729],[-87.7306,34.747],[-87.761,34.7353],[-87.8058,34.7319],[-87.8438,34.7457],[-87.8613,34.763],[-87.9174,34.8015],[-87.9276,34.8167],[-87.9392,34.8504],[-87.9525,34.8679],[-87.9732,34.8826],[-88.0409,34.9066],[-88.0584,34.9043],[-88.0791,34.8944],[-88.0976,34.8947],[-88.1735,34.322]]]},"properties":{"geoid":"01006","state":"01","district":"6","name":"State Senate District 6","chamber":"Senate"}},{"type":"Feature","geometry":{"type":"Polygon","coordinates":[[[-86.784,34.8989],[-86.777,34.8899],[-86.7752,34.8967],[-86.7486,34.898],[-86.737,34.8819],[-86.6844,34.8815],[-86.6853,34.8742],[-86.6654,34.8729],[-86.6427,34.8604],[-86.6427,34.8224],[-86.6606,34.8225],[-86.6607,34.7933],[-86.6691,34.7934],[-86.657,34.7788],[-86.6166,34.7785],[-86.6167,34.7713],[-86.651,34.7715],[-86.6455,34.7642],[-86.6135,34.761],[-86.6062,34.7431],[-86.6203,34.7432],[-86.6133,34.7352],[-86.6273,34.7351],[-86.6278,34.7203],[-86.6269,34.7128],[-86.6092,34.7128],[-86.6106,34.6616],[-86.6018,34.6604],[-86.574,34.6715],[-86.5665,34.6467],[-86.5522,34.6464],[-86.5611,34.6377],[-86.5491,34.6246],[-86.5499,34.5952],[-86.5292,34.5953],[-86.5232,34.6048],[-86.5265,34.6129],[-86.517,34.6133],[-86.5155,34.6311],[-86.5118,34.6311],[-86.5119,34.62],[-86.4921,34.6161],[-86.4903,34.6014],[-86.4797,34.5979],[-86.4767,34.6014],[-86.4681,34.594],[-86.3974,34.603],[-86.3959,34.6194],[-86.3575,34.6098],[-86.3538,34.6291],[-86.359,34.6326],[-86.3582,34.7311],[-86.3626,34.7355],[-86.369,34.7272],[-86.3721,34.732],[-86.388,34.7294],[-86.3899,34.7259],[-86.3843,34.7259],[-86.3905,34.7058],[-86.4144,34.7044],[-86.4181,34.7115],[-86.4348,34.7079],[-86.4481,34.7189],[-86.4792,34.7154],[-86.4835,34.7226],[-86.486,34.7189],[-86.497,34.7228],[-86.5013,34.7191],[-86.5061,34.7265],[-86.5198,34.7266],[-86.5199,34.7193],[-86.5288,34.7194],[-86.5292,34.7088],[-86.5447,34.712],[-86.543,34.7224],[-86.5557,34.7266],[-86.5572,34.7319],[-86.5566,34.7394],[-86.5348,34.7542],[-86.5412,34.7544],[-86.5528,34.7684],[-86.564,34.7585],[-86.5737,34.7609],[-86.5644,34.7708],[-86.5833,34.7702],[-86.5722,34.788],[-86.5688,34.8094],[-86.5714,34.8512],[-86.5358,34.8548],[-86.5337,34.8447],[-86.5102,34.8443],[-86.5085,34.8356],[-86.4996,34.8312],[-86.5,34.8807],[-86.518,34.8808],[-86.5182,34.8955],[-86.527,34.8955],[-86.5271,34.9028],[-86.5539,34.9027],[-86.5541,34.9321],[-86.5318,34.9323],[-86.5225,34.9377],[-86.5402,34.9375],[-86.554,34.959],[-86.5473,34.9639],[-86.5434,34.9771],[-86.5283,34.9813],[-86.5225,34.9907],[-86.7836,34.9919],[-86.784,34.8989]]]},"properties":{"geoid":"01007","state":"01","district":"7","name":"State Senate District 7","chamber":"Senate"}},{"type":"Feature","geometry":{"type":"MultiPolygon","coordinates":[[[[-86.583,34.7709],[-86.5644,34.7708],[-86.5737,34.7609],[-86.5662,34.7586],[-86.5525,34.7683],[-86.5412,34.7544],[-86.5348,34.7542],[-86.5566,34.7394],[-86.5572,34.7319],[-86.5557,34.7266],[-86.543,34.7224],[-86.5447,34.712],[-86.5292,34.7088],[-86.5288,34.7194],[-86.5199,34.7193],[-86.5198,34.7266],[-86.5061,34.7265],[-86.5013,34.7191],[-86.497,34.7228],[-86.486,34.7189],[-86.4835,34.7226],[-86.4792,34.7154],[-86.4481,34.7189],[-86.4348,34.7079],[-86.4181,34.7115],[-86.4144,34.7044],[-86.3905,34.7058],[-86.3843,34.7259],[-86.3899,34.7259],[-86.388,34.7294],[-86.3721,34.732],[-86.369,34.7272],[-86.3626,34.7355],[-86.3582,34.7311],[-86.359,34.6326],[-86.3258,34.6096],[-86.3312,34.6077],[-86.3307,34.6025],[-86.3269,34.5994],[-86.1485,34.5991],[-86.1494,34.5497],[-86.1551,34.5502],[-86.1433,34.5412],[-86.1441,34.5343],[-86.1498,34.5336],[-86.1398,34.5333],[-86.1478,34.5209],[-86.1277,34.5339],[-86.1196,34.5245],[-86.1098,34.5286],[-86.109,34.5199],[-86.0949,34.5196],[-86.0999,34.5154],[-86.0957,34.5135],[-86.1046,34.5069],[-86.0999,34.5042],[-86.0957,34.488],[-86.0877,34.4818],[-86.0897,34.4683],[-86.0834,34.4646],[-86.0576,34.476],[-86.0348,34.4734],[-86.0214,34.4817],[-86.0038,34.48],[-85.9662,34.4986],[-85.9572,34.492],[-85.9394,34.4895],[-85.928,34.4788],[-85.9325,34.4624],[-85.917,34.4588],[-85.9167,34.4481],[-85.93,34.4443],[-85.93,34.4409],[-85.921,34.4408],[-85.9255,34.4334],[-85.9079,34.4335],[-85.9079,34.4409],[-85.9035,34.4408],[-85.9035,34.4335],[-85.8859,34.4337],[-85.8729,34.423],[-85.8726,34.3934],[-85.8458,34.3893],[-85.8857,34.3289],[-85.9159,34.3114],[-85.9179,34.2997],[-85.8733,34.2827],[-85.8661,34.2754],[-85.8324,34.2925],[-85.8238,34.2713],[-85.7845,34.2787],[-85.7609,34.2705],[-85.6753,34.3434],[-85.6764,34.3474],[-85.6642,34.3619],[-85.6478,34.364],[-85.6455,34.3695],[-85.6366,34.3666],[-85.6286,34.3729],[-85.6299,34.3809],[-85.6202,34.3872],[-85.6273,34.3971],[-85.6155,34.3939],[-85.6111,34.4062],[-85.5992,34.4157],[-85.6007,34.4209],[-85.5894,34.4242],[-85.5905,34.4291],[-85.5797,34.4397],[-85.5839,34.458],[-85.5782,34.4615],[-85.5811,34.4691],[-85.5702,34.4686],[-85.5768,34.4844],[-85.56,34.4903],[-85.5592,34.5024],[-85.5444,34.5001],[-85.5342,34.5136],[-85.523,34.5168],[-85.5237,34.5248],[-85.5136,34.5238],[-85.6052,34.9847],[-86.5231,34.9906],[-86.5283,34.9813],[-86.5434,34.9771],[-86.5473,34.9639],[-86.554,34.959],[-86.5402,34.9375],[-86.5225,34.9377],[-86.5318,34.9323],[-86.5541,34.9321],[-86.5539,34.9027],[-86.5271,34.9028],[-86.527,34.8955],[-86.5182,34.8955],[-86.518,34.8808],[-86.5,34.8807],[-86.4996,34.8312],[-86.5085,34.8356],[-86.5102,34.8443],[-86.5337,34.8447],[-86.5358,34.8548],[-86.5714,34.8512],[-86.5688,34.8094],[-86.5722,34.788],[-86.583,34.7709]]],[[[-86.1543,34.5303],[-86.1498,34.5302],[-86.1498,34.5336],[-86.1543,34.5303]]]]},"properties":{"geoid":"01008","state":"01","district":"8","name":"State Senate District 8","chamber":"Senate"}},{"type":"Feature","geometry":{"type":"Polygon","coordinates":[[[-86.7238,34.5837],[-86.7041,34.589],[-86.6854,34.5851],[-86.6756,34.576],[-86.6719,34.5567],[-86.6495,34.5489],[-86.6386,34.5527],[-86.6164,34.5759],[-86.6,34.5818],[-86.5789,34.5814],[-86.5581,34.5683],[-86.5498,34.5472],[-86.5813,34.3711],[-86.5819,34.3047],[-86.4775,34.3028],[-86.477,34.2894],[-86.4594,34.2891],[-86.4596,34.2746],[-86.4511,34.2745],[-86.4563,34.2634],[-86.453,34.2593],[-86.4869,34.2605],[-86.4979,34.2488],[-86.511,34.2549],[-86.5194,34.252],[-86.5254,34.2384],[-86.5235,34.2265],[-86.5401,34.2258],[-86.5426,34.2163],[-86.5473,34.2161],[-86.5426,34.2114],[-86.5543,34.2052],[-86.549,34.1995],[-86.5566,34.1935],[-86.5557,34.1888],[-86.5456,34.1855],[-86.5737,34.166],[-86.5845,34.1458],[-86.5904,34.1464],[-86.5877,34.1374],[-86.5992,34.1331],[-86.6043,34.1252],[-86.5995,34.1201],[-86.6132,34.1136],[-86.6229,34.1226],[-86.6398,34.1132],[-86.6395,34.1065],[-86.6528,34.108],[-86.6567,34.0918],[-86.6688,34.0838],[-86.6729,34.0884],[-86.6868,34.0796],[-86.6878,34.0919],[-86.6923,34.0925],[-86.7046,34.0805],[-86.6844,34.0543],[-86.6893,34.0527],[-86.696,34.0616],[-86.7063,34.0538],[-86.6975,34.0613],[-86.6887,34.0523],[-86.6841,34.0545],[-86.7044,34.0805],[-86.6963,34.0863],[-86.6911,34.0758],[-86.6695,34.0765],[-86.6687,34.0603],[-86.6465,34.0519],[-86.6341,34.0554],[-86.608,34.0776],[-86.6081,34.0721],[-86.5997,34.0719],[-86.5999,34.0645],[-86.5907,34.0644],[-86.5908,34.0575],[-86.5834,34.0679],[-86.5749,34.0676],[-86.5681,34.0595],[-86.5161,34.1078],[-86.4981,34.1094],[-86.4683,34.0991],[-86.4561,34.0994],[-86.4654,34.0828],[-86.4814,34.0826],[-86.4944,34.0733],[-86.4931,34.0677],[-86.4823,34.0724],[-86.4837,34.0494],[-86.4672,34.0544],[-86.4623,34.049],[-86.4634,34.0386],[-86.4499,34.0378],[-86.4255,34.055],[-86.4096,34.0356],[-86.3894,34.0424],[-86.3879,34.0386],[-86.3752,34.0411],[-86.3626,34.0531],[-86.3442,34.0537],[-86.3324,34.0378],[-86.3227,34.0723],[-86.3034,34.0992],[-86.1935,34.1817],[-86.1747,34.1827],[-86.1672,34.1875],[-86.1056,34.1862],[-86.11,34.3929],[-86.1188,34.393],[-86.1189,34.4038],[-86.11,34.4039],[-86.1104,34.4278],[-86.0577,34.476],[-86.0744,34.4667],[-86.0891,34.4675],[-86.0877,34.4818],[-86.0957,34.488],[-86.0999,34.5042],[-86.1046,34.5069],[-86.0947,34.5194],[-86.1098,34.5203],[-86.111,34.5293],[-86.1196,34.5245],[-86.1283,34.5338],[-86.1478,34.5209],[-86.1398,34.5333],[-86.1543,34.5301],[-86.1542,34.5338],[-86.1441,34.5343],[-86.1433,34.5412],[-86.1551,34.5502],[-86.1494,34.5497],[-86.1485,34.5991],[-86.3269,34.5994],[-86.3316,34.6054],[-86.3258,34.6096],[-86.3538,34.6291],[-86.3575,34.6098],[-86.3959,34.6194],[-86.3974,34.603],[-86.4681,34.594],[-86.4767,34.6014],[-86.4797,34.5979],[-86.4903,34.6014],[-86.4921,34.6161],[-86.5119,34.62],[-86.5118,34.6311],[-86.5155,34.6311],[-86.517,34.6133],[-86.5265,34.6129],[-86.5232,34.6048],[-86.5292,34.5953],[-86.5499,34.5952],[-86.5491,34.6246],[-86.5611,34.6377],[-86.5522,34.6464],[-86.5665,34.6467],[-86.574,34.6715],[-86.6018,34.6604],[-86.6106,34.6616],[-86.6092,34.7128],[-86.6441,34.7162],[-86.716,34.6911],[-86.7181,34.61],[-86.7238,34.5837]]]},"properties":{"geoid":"01009","state":"01","district":"9","name":"State Senate District 9","chamber":"Senate"}},{"type":"Feature","geometry":{"type":"Polygon","coordinates":[[[-86.3702,33.9398],[-86.3256,33.9401],[-86.3188,33.9557],[-86.3124,33.9576],[-86.2901,33.9837],[-86.2822,33.9837],[-86.2778,33.9893],[-86.2705,33.9846],[-86.2678,33.9753],[-86.2516,33.9656],[-86.2302,33.9828],[-86.1989,33.9889],[-86.1898,33.9835],[-86.1922,33.9731],[-86.168,33.9651],[-86.167,33.9285],[-86.1476,33.9191],[-86.1427,33.8994],[-86.1347,33.8965],[-86.1294,33.9027],[-86.1103,33.9034],[-86.1118,33.8864],[-86.1004,33.874],[-86.1003,33.8632],[-86.0654,33.8646],[-86.057,33.8578],[-86.0544,33.848],[-86.0653,33.8422],[-86.0491,33.8416],[-86.0488,33.8527],[-86.0213,33.8515],[-86.0215,33.8661],[-85.9952,33.8649],[-85.995,33.8796],[-85.9864,33.8792],[-85.9865,33.8937],[-85.9692,33.8929],[-85.9692,33.9146],[-85.9518,33.9136],[-85.9518,33.9209],[-85.9345,33.921],[-85.9343,33.9064],[-85.8996,33.9064],[-85.8997,33.943],[-85.8819,33.9431],[-85.8818,33.9503],[-85.8464,33.95],[-85.8462,33.9573],[-85.741,33.9353],[-85.739,33.9685],[-85.5294,33.956],[-85.5301,33.9414],[-85.4958,33.9424],[-85.4953,33.9569],[-85.4256,33.9571],[-85.4254,33.9606],[-85.3988,33.9641],[-85.4705,34.3282],[-85.5137,34.5242],[-85.5237,34.5248],[-85.523,34.5168],[-85.5342,34.5136],[-85.5444,34.5001],[-85.5592,34.5024],[-85.56,34.4903],[-85.5768,34.4844],[-85.5702,34.4686],[-85.5811,34.4691],[-85.5782,34.4615],[-85.5839,34.458],[-85.5797,34.4397],[-85.5905,34.4291],[-85.5894,34.4242],[-85.6007,34.4209],[-85.5992,34.4157],[-85.6111,34.4062],[-85.6155,34.3939],[-85.6273,34.3971],[-85.6202,34.3872],[-85.6299,34.3809],[-85.6286,34.3729],[-85.6366,34.3666],[-85.6455,34.3695],[-85.6478,34.364],[-85.6642,34.3619],[-85.6764,34.3474],[-85.6753,34.3434],[-85.7609,34.2705],[-85.7845,34.2787],[-85.8238,34.2713],[-85.8324,34.2925],[-85.8661,34.2754],[-85.8733,34.2827],[-85.9179,34.2997],[-85.9142,34.313],[-85.8854,34.3292],[-85.8458,34.3892],[-85.8726,34.3934],[-85.8729,34.423],[-85.8859,34.4337],[-85.9035,34.4335],[-85.9035,34.4408],[-85.9079,34.4409],[-85.9079,34.4335],[-85.9255,34.4334],[-85.921,34.4408],[-85.93,34.4409],[-85.93,34.4443],[-85.9167,34.4481],[-85.917,34.4588],[-85.9325,34.4624],[-85.928,34.4788],[-85.9394,34.4895],[-85.9572,34.492],[-85.9662,34.4986],[-86.0038,34.48],[-86.0214,34.4817],[-86.0348,34.4734],[-86.0577,34.476],[-86.1104,34.4278],[-86.11,34.4039],[-86.1189,34.4038],[-86.1188,34.393],[-86.11,34.3929],[-86.1056,34.1862],[-86.1672,34.1875],[-86.1747,34.1827],[-86.1935,34.1817],[-86.3034,34.0992],[-86.3227,34.0723],[-86.3324,34.0465],[-86.3337,33.9821],[-86.3416,33.9773],[-86.3393,33.9715],[-86.3514,33.9603],[-86.35,33.9564],[-86.3702,33.9398]]]},"properties":{"geoid":"01010","state":"01","district":"10","name":"State Senate District 10","chamber":"Senate"}},{"type":"Feature","geometry":{"type":"Polygon","coordinates":[[[-86.8173,33.0786],[-86.8023,33.0688],[-86.61,33.07],[-86.6091,33.0664],[-86.6187,33.0603],[-86.6164,33.0539],[-86.6017,33.0543],[-86.5983,33.0462],[-86.5675,33.0274],[-86.564,33.0199],[-86.5505,33.0188],[-86.5369,33.0244],[-86.5173,33.0206],[-86.5205,33.056],[-86.506,33.0677],[-86.5111,33.0884],[-86.4935,33.0992],[-86.4841,33.1132],[-86.4599,33.1251],[-86.4638,33.1338],[-86.4818,33.1455],[-86.4843,33.1612],[-86.4484,33.1719],[-86.4177,33.1716],[-86.4144,33.16],[-86.404,33.1552],[-86.3691,33.1583],[-86.3532,33.1646],[-86.3117,33.1592],[-86.3061,33.1621],[-86.3075,33.1677],[-86.2903,33.1638],[-86.2604,33.1674],[-86.2762,33.1748],[-86.2851,33.1854],[-86.2715,33.1982],[-86.2816,33.2062],[-86.2693,33.2275],[-86.2643,33.253],[-86.2597,33.2553],[-86.266,33.2581],[-86.2676,33.2673],[-86.2749,33.2702],[-86.2565,33.2701],[-86.2921,33.2997],[-86.2923,33.3181],[-86.2997,33.3375],[-86.2862,33.347],[-86.2632,33.3457],[-86.2287,33.3612],[-86.2216,33.3608],[-86.2144,33.3527],[-86.2076,33.354],[-86.1885,33.3812],[-86.1676,33.3893],[-86.1714,33.3997],[-86.1658,33.4005],[-86.1605,33.4151],[-86.1519,33.4139],[-86.141,33.4034],[-86.1307,33.4053],[-86.1261,33.4001],[-86.1306,33.3958],[-86.1218,33.3914],[-86.1151,33.3913],[-86.1149,33.3989],[-86.0885,33.3965],[-86.0884,33.4014],[-86.0835,33.4014],[-86.0834,33.3963],[-86.0758,33.3963],[-86.0758,33.4006],[-86.0715,33.4002],[-86.0738,33.3963],[-86.0642,33.3964],[-86.062,33.4049],[-86.0534,33.4048],[-86.0529,33.4586],[-86.0377,33.4913],[-86.0433,33.5121],[-86.0422,33.5316],[-86.031,33.5162],[-86.0198,33.5162],[-86.0217,33.5125],[-86.016,33.5095],[-86.007,33.524],[-86.0108,33.5379],[-86.0052,33.5518],[-85.9984,33.5489],[-85.9969,33.5413],[-85.9942,33.5446],[-85.9896,33.5416],[-85.9899,33.5526],[-85.9769,33.5519],[-85.9682,33.5633],[-85.9497,33.5705],[-85.9484,33.5858],[-85.9949,33.5865],[-85.9956,33.6009],[-86.0217,33.6012],[-86.0258,33.6463],[-86.0457,33.663],[-86.0507,33.6746],[-86.1456,33.6791],[-86.1551,33.6716],[-86.1668,33.6745],[-86.1761,33.6961],[-86.1738,33.7005],[-86.1815,33.7079],[-86.1677,33.713],[-86.1707,33.722],[-86.1566,33.7387],[-86.175,33.7283],[-86.1791,33.7331],[-86.1866,33.7235],[-86.2315,33.7097],[-86.2426,33.6901],[-86.254,33.6902],[-86.2548,33.6983],[-86.2601,33.6985],[-86.28,33.6842],[-86.2893,33.7223],[-86.2756,33.7526],[-86.277,33.7578],[-86.2871,33.749],[-86.3211,33.7342],[-86.3509,33.6969],[-86.3593,33.7004],[-86.3589,33.7044],[-86.3697,33.7014],[-86.3699,33.7144],[-86.3571,33.7266],[-86.3802,33.7368],[-86.374,33.7397],[-86.3732,33.7495],[-86.3669,33.7496],[-86.3712,33.7596],[-86.3786,33.7608],[-86.3678,33.7748],[-86.372,33.7792],[-86.388,33.7741],[-86.3969,33.7833],[-86.3714,33.8007],[-86.3858,33.8242],[-86.3792,33.8363],[-86.384,33.8508],[-86.3772,33.8619],[-86.4302,33.8195],[-86.4453,33.826],[-86.505,33.8086],[-86.5119,33.811],[-86.5218,33.8019],[-86.5775,33.802],[-86.5778,33.7653],[-86.5428,33.7652],[-86.5426,33.7356],[-86.5338,33.7355],[-86.5339,33.7212],[-86.5251,33.7212],[-86.5254,33.6703],[-86.5168,33.6738],[-86.5122,33.6637],[-86.5164,33.6594],[-86.5104,33.6595],[-86.516,33.6484],[-86.5133,33.6434],[-86.5214,33.6374],[-86.5074,33.6373],[-86.5224,33.6271],[-86.5338,33.627],[-86.5337,33.6344],[-86.5428,33.6344],[-86.5428,33.6198],[-86.5513,33.62],[-86.552,33.5609],[-86.5431,33.5612],[-86.543,33.554],[-86.5167,33.5534],[-86.5168,33.546],[-86.4815,33.5461],[-86.4819,33.5025],[-86.3782,33.5024],[-86.3788,33.3881],[-86.3529,33.3725],[-86.3409,33.3531],[-86.3681,33.3417],[-86.3642,33.3288],[-86.3675,33.3184],[-86.3576,33.2956],[-86.4045,33.2727],[-86.4335,33.2826],[-86.4341,33.2755],[-86.4245,33.2592],[-86.4326,33.2443],[-86.4392,33.2409],[-86.4574,33.2467],[-86.4475,33.2543],[-86.4557,33.267],[-86.4643,33.2663],[-86.4624,33.2745],[-86.4532,33.2812],[-86.4595,33.2825],[-86.475,33.2994],[-86.478,33.3128],[-86.485,33.3072],[-86.4943,33.3083],[-86.4975,33.3044],[-86.4923,33.2942],[-86.5168,33.2796],[-86.5286,33.2914],[-86.5368,33.2858],[-86.5534,33.2918],[-86.5528,33.2866],[-86.5715,33.2945],[-86.5853,33.2865],[-86.5841,33.2737],[-86.5975,33.2784],[-86.6064,33.269],[-86.6204,33.2707],[-86.6212,33.2674],[-86.6572,33.2851],[-86.6643,33.2808],[-86.687,33.2837],[-86.7022,33.2721],[-86.7021,33.266],[-86.7115,33.2591],[-86.7078,33.255],[-86.7149,33.2509],[-86.7082,33.2362],[-86.7138,33.2241],[-86.7012,33.2257],[-86.6942,33.2067],[-86.6973,33.199],[-86.6869,33.1936],[-86.6913,33.1861],[-86.6887,33.1782],[-86.6809,33.174],[-86.7062,33.1648],[-86.6937,33.1504],[-86.7106,33.1427],[-86.7368,33.1481],[-86.7418,33.1555],[-86.7386,33.1567],[-86.7518,33.1562],[-86.7489,33.146],[-86.7542,33.1262],[-86.7593,33.1283],[-86.7593,33.1247],[-86.7823,33.1174],[-86.7825,33.1135],[-86.7996,33.1229],[-86.8087,33.1172],[-86.8131,33.1033],[-86.8067,33.0931],[-86.8147,33.0926],[-86.8173,33.0786]]]},"properties":{"geoid":"01011","state":"01","district":"11","name":"State Senate District 11","chamber":"Senate"}},{"type":"Feature","geometry":{"type":"Polygon","coordinates":[[[-86.4908,33.1033],[-86.1744,33.1044],[-86.1728,33.1957],[-86.1206,33.1945],[-86.1182,33.2963],[-85.9803,33.2942],[-85.9765,33.3819],[-85.9413,33.3817],[-85.9409,33.3961],[-85.9238,33.3962],[-85.9228,33.4546],[-85.9053,33.4547],[-85.9049,33.4987],[-85.8509,33.4987],[-85.7969,33.5418],[-85.7961,33.5562],[-85.7441,33.5561],[-85.7423,33.6],[-85.7245,33.5994],[-85.725,33.6135],[-85.69,33.6129],[-85.6907,33.6278],[-85.6558,33.6272],[-85.6555,33.6381],[-85.6472,33.6415],[-85.647,33.6488],[-85.6386,33.6484],[-85.638,33.7733],[-85.6212,33.7735],[-85.6209,33.7879],[-85.6035,33.7878],[-85.6034,33.8023],[-85.586,33.8021],[-85.5852,33.8459],[-85.6371,33.8465],[-85.637,33.8759],[-85.6019,33.8749],[-85.6019,33.8898],[-85.5325,33.8892],[-85.5294,33.956],[-85.739,33.9685],[-85.741,33.9353],[-85.8462,33.9573],[-85.8464,33.95],[-85.8818,33.9503],[-85.8819,33.9431],[-85.8997,33.943],[-85.8996,33.9064],[-85.9343,33.9064],[-85.9345,33.921],[-85.9518,33.9209],[-85.9518,33.9136],[-85.9692,33.9146],[-85.9692,33.8929],[-85.9865,33.8937],[-85.9864,33.8792],[-85.995,33.8796],[-85.9952,33.8649],[-86.0215,33.8661],[-86.0213,33.8515],[-86.0488,33.8527],[-86.0491,33.8416],[-86.0658,33.8419],[-86.0514,33.8252],[-86.0648,33.8096],[-86.0644,33.7978],[-86.0487,33.7787],[-86.0441,33.7634],[-86.0604,33.761],[-86.0816,33.743],[-86.0992,33.7364],[-86.1166,33.7238],[-86.1211,33.7112],[-86.1374,33.7154],[-86.1458,33.7043],[-86.1456,33.6791],[-86.0507,33.6746],[-86.0457,33.663],[-86.0258,33.6463],[-86.0217,33.6012],[-85.9956,33.6009],[-85.9949,33.5865],[-85.9484,33.5858],[-85.9484,33.5724],[-85.9582,33.564],[-85.9682,33.5633],[-85.9769,33.5519],[-85.99,33.5525],[-85.9897,33.5415],[-85.9942,33.5446],[-85.9969,33.5413],[-85.9984,33.5489],[-86.0052,33.5518],[-86.0108,33.5379],[-86.007,33.524],[-86.016,33.5095],[-86.0217,33.5125],[-86.0198,33.5162],[-86.031,33.5162],[-86.0422,33.5316],[-86.0433,33.5121],[-86.0377,33.4913],[-86.0529,33.4586],[-86.0534,33.4048],[-86.062,33.4049],[-86.0642,33.3964],[-86.0738,33.3963],[-86.0715,33.4002],[-86.0758,33.4006],[-86.0758,33.3963],[-86.0834,33.3963],[-86.0835,33.4014],[-86.0884,33.4014],[-86.0885,33.3965],[-86.1149,33.3989],[-86.1151,33.3913],[-86.1218,33.3914],[-86.1306,33.3958],[-86.1261,33.4001],[-86.1307,33.4053],[-86.141,33.4034],[-86.1519,33.4139],[-86.1605,33.4151],[-86.1658,33.4005],[-86.1714,33.3997],[-86.1676,33.3893],[-86.1885,33.3812],[-86.2076,33.354],[-86.2144,33.3527],[-86.2216,33.3608],[-86.2287,33.3612],[-86.2632,33.3457],[-86.2862,33.347],[-86.2997,33.3375],[-86.2923,33.3181],[-86.2921,33.2997],[-86.2565,33.2701],[-86.2749,33.2702],[-86.2676,33.2673],[-86.266,33.2581],[-86.2597,33.2553],[-86.2643,33.253],[-86.2693,33.2275],[-86.2816,33.2062],[-86.2715,33.1982],[-86.2851,33.1854],[-86.2762,33.1748],[-86.2604,33.1674],[-86.2903,33.1638],[-86.3075,33.1677],[-86.3061,33.1621],[-86.3117,33.1592],[-86.3532,33.1646],[-86.3691,33.1583],[-86.404,33.1552],[-86.4144,33.16],[-86.4177,33.1716],[-86.4535,33.1712],[-86.4843,33.1612],[-86.4818,33.1455],[-86.4638,33.1338],[-86.4599,33.1251],[-86.4841,33.1132],[-86.4908,33.1033]]]},"properties":{"geoid":"01012","state":"01","district":"12","name":"State Senate District 12","chamber":"Senate"}},{"type":"Feature","geometry":{"type":"Polygon","coordinates":[[[-86.1744,33.105],[-86.0093,33.1046],[-86.0092,33.0903],[-85.9746,33.0905],[-85.9747,33.1053],[-85.5932,33.1073],[-85.5932,32.7285],[-85.5768,32.7288],[-85.5768,32.7364],[-85.5681,32.7365],[-85.5681,32.729],[-85.4907,32.7306],[-85.4907,32.7377],[-85.4818,32.7378],[-85.482,32.7305],[-85.4341,32.7303],[-85.4232,32.7206],[-85.4223,32.7072],[-85.4196,32.7121],[-85.4049,32.7121],[-85.4024,32.6785],[-85.3701,32.6798],[-85.3664,32.6652],[-85.3835,32.6484],[-85.3712,32.6411],[-85.3711,32.6355],[-85.3879,32.6239],[-85.3917,32.611],[-85.3878,32.6108],[-85.3878,32.5997],[-85.3734,32.6037],[-85.3708,32.5682],[-85.3063,32.553],[-85.2987,32.5551],[-85.3008,32.5601],[-85.2729,32.5644],[-85.2662,32.5717],[-85.2552,32.5609],[-85.2468,32.5676],[-85.238,32.5621],[-85.2263,32.5452],[-85.2302,32.5504],[-85.2318,32.532],[-85.2269,32.5279],[-85.2172,32.5317],[-85.2227,32.5245],[-85.22,32.4997],[-85.2265,32.4995],[-85.2225,32.4921],[-85.2296,32.4834],[-85.2247,32.4703],[-85.0593,32.4729],[-85.0608,32.5092],[-85.001,32.5102],[-85.0071,32.5239],[-85.0202,32.5347],[-85.0208,32.5428],[-85.0314,32.5442],[-85.0357,32.554],[-85.0675,32.5795],[-85.0822,32.6163],[-85.0909,32.6251],[-85.0831,32.6362],[-85.1001,32.6346],[-85.1045,32.641],[-85.1043,32.6464],[-85.0885,32.6578],[-85.0935,32.6697],[-85.1126,32.6834],[-85.117,32.692],[-85.1227,32.716],[-85.1133,32.7358],[-85.1331,32.7446],[-85.143,32.7599],[-85.1367,32.7712],[-85.1223,32.7744],[-85.1397,32.7852],[-85.1422,32.7921],[-85.152,32.7942],[-85.168,32.8118],[-85.1648,32.8198],[-85.1683,32.8285],[-85.154,32.8407],[-85.1563,32.8505],[-85.1623,32.8565],[-85.1771,32.8539],[-85.1844,32.8613],[-85.3988,33.9641],[-85.4254,33.9606],[-85.4256,33.9571],[-85.4953,33.9569],[-85.4958,33.9424],[-85.5301,33.9414],[-85.5325,33.8892],[-85.6019,33.8898],[-85.6019,33.8749],[-85.637,33.8759],[-85.6371,33.8465],[-85.5852,33.8459],[-85.586,33.8021],[-85.6034,33.8023],[-85.6035,33.7878],[-85.6209,33.7879],[-85.6212,33.7735],[-85.638,33.7733],[-85.6386,33.6484],[-85.647,33.6488],[-85.6472,33.6415],[-85.6555,33.6381],[-85.6558,33.6272],[-85.6907,33.6278],[-85.69,33.6129],[-85.725,33.6135],[-85.7245,33.5994],[-85.7423,33.6],[-85.7441,33.5561],[-85.7961,33.5562],[-85.7969,33.5418],[-85.8509,33.4987],[-85.9049,33.4987],[-85.9053,33.4547],[-85.9228,33.4546],[-85.9238,33.3962],[-85.9409,33.3961],[-85.9413,33.3817],[-85.9765,33.3819],[-85.9803,33.2942],[-86.1182,33.2963],[-86.1206,33.1945],[-86.1728,33.1957],[-86.1744,33.105]]]},"properties":{"geoid":"01013","state":"01","district":"13","name":"State Senate District 13","chamber":"Senate"}},{"type":"Feature","geometry":{"type":"Polygon","coordinates":[[[-87.4219,33.0034],[-87.4212,32.8745],[-87.3195,32.8751],[-87.3192,32.8315],[-86.8761,32.8363],[-86.8762,32.8478],[-86.8634,32.8506],[-86.8511,32.8458],[-86.8472,32.8493],[-86.8372,32.8473],[-86.836,32.8389],[-86.815,32.8367],[-86.8169,32.8068],[-86.8311,32.789],[-86.8172,32.7863],[-86.7896,32.8014],[-86.7726,32.8011],[-86.7551,32.8117],[-86.7518,32.8205],[-86.7141,32.8312],[-86.6827,32.8319],[-86.6308,32.8431],[-86.6238,32.8398],[-86.5812,32.8467],[-86.5663,32.845],[-86.5622,32.8514],[-86.5717,32.8636],[-86.5664,32.8823],[-86.5709,32.8901],[-86.5597,32.8971],[-86.5563,32.8907],[-86.5575,32.8974],[-86.5494,32.8947],[-86.5486,32.9011],[-86.5415,32.8975],[-86.5382,32.8864],[-86.5309,32.8841],[-86.5258,32.8898],[-86.5199,32.8778],[-86.5181,32.8836],[-86.515,32.8789],[-86.4899,32.8754],[-86.4757,32.8651],[-86.4657,32.8691],[-86.4802,32.8743],[-86.4905,32.9056],[-86.5058,32.9133],[-86.5161,32.9297],[-86.5182,32.9705],[-86.5105,32.9836],[-86.5221,33.0033],[-86.5173,33.0206],[-86.5369,33.0244],[-86.5505,33.0188],[-86.564,33.0199],[-86.5675,33.0274],[-86.5983,33.0462],[-86.6017,33.0543],[-86.6164,33.0539],[-86.6187,33.0603],[-86.6091,33.0664],[-86.61,33.07],[-86.8023,33.0688],[-86.8055,33.0742],[-86.8165,33.0767],[-86.8161,33.0904],[-86.8067,33.0931],[-86.8132,33.1035],[-86.8077,33.1181],[-86.7996,33.1229],[-86.7825,33.1135],[-86.7823,33.1174],[-86.7593,33.1247],[-86.7593,33.1283],[-86.7542,33.1262],[-86.7497,33.1571],[-86.7386,33.1567],[-86.7407,33.1511],[-86.7337,33.1469],[-86.7011,33.1442],[-86.6935,33.1521],[-86.7062,33.1648],[-86.6809,33.174],[-86.6887,33.1782],[-86.6913,33.1861],[-86.6869,33.1936],[-86.6973,33.199],[-86.6942,33.2067],[-86.7012,33.2257],[-86.7138,33.2242],[-86.7082,33.2362],[-86.7149,33.251],[-86.7078,33.255],[-86.7115,33.259],[-86.7075,33.263],[-86.7264,33.2542],[-86.727,33.2591],[-86.7393,33.2605],[-86.7617,33.2503],[-86.7724,33.2538],[-86.7725,33.2502],[-86.7789,33.2504],[-86.7792,33.2429],[-86.7878,33.2433],[-86.783,33.2625],[-86.7953,33.2612],[-86.7817,33.2763],[-86.7928,33.2769],[-86.8005,33.2837],[-86.7891,33.3069],[-86.7956,33.303],[-86.8051,33.3072],[-86.8006,33.3145],[-86.8095,33.3246],[-86.807,33.3291],[-86.8126,33.3312],[-86.8307,33.3247],[-86.8307,33.332],[-86.8825,33.333],[-86.8826,33.3256],[-86.8913,33.3258],[-86.8914,33.3187],[-86.8998,33.3151],[-86.8997,33.3078],[-86.9086,33.3077],[-86.9085,33.304],[-86.9173,33.3038],[-86.9261,33.2965],[-86.9262,33.2782],[-86.9478,33.2744],[-86.9478,33.2671],[-86.9696,33.2675],[-86.9696,33.2602],[-86.9827,33.253],[-86.9829,33.246],[-87.0766,33.2468],[-87.1041,33.2215],[-87.1215,33.2215],[-87.1219,33.2358],[-87.1521,33.2325],[-87.1992,33.1966],[-87.1993,33.1307],[-87.2819,33.1331],[-87.3116,33.0939],[-87.3185,33.0062],[-87.4219,33.0034]]]},"properties":{"geoid":"01014","state":"01","district":"14","name":"State Senate District 14","chamber":"Senate"}},{"type":"Feature","geometry":{"type":"Polygon","coordinates":[[[-86.8126,33.3312],[-86.807,33.3291],[-86.8095,33.3246],[-86.8006,33.3145],[-86.8051,33.3072],[-86.7956,33.303],[-86.7891,33.3069],[-86.8005,33.2837],[-86.7928,33.2769],[-86.7817,33.2763],[-86.7953,33.2612],[-86.783,33.2625],[-86.7875,33.2432],[-86.7792,33.2429],[-86.7789,33.2504],[-86.7725,33.2502],[-86.7724,33.2538],[-86.7617,33.2503],[-86.7414,33.2604],[-86.727,33.2591],[-86.727,33.2542],[-86.7165,33.2572],[-86.7188,33.2607],[-86.7022,33.2659],[-86.7022,33.2721],[-86.6842,33.2846],[-86.6646,33.2808],[-86.6572,33.2851],[-86.6212,33.2674],[-86.6204,33.2707],[-86.6064,33.269],[-86.5975,33.2784],[-86.5841,33.2737],[-86.5853,33.2865],[-86.5715,33.2945],[-86.5528,33.2866],[-86.5534,33.2918],[-86.5368,33.2858],[-86.5286,33.2914],[-86.5168,33.2796],[-86.4923,33.2942],[-86.4975,33.3044],[-86.4943,33.3083],[-86.4849,33.3072],[-86.4782,33.3128],[-86.475,33.2994],[-86.4595,33.2825],[-86.4532,33.2812],[-86.4624,33.2745],[-86.4643,33.2663],[-86.4557,33.267],[-86.4475,33.2543],[-86.4574,33.2467],[-86.4392,33.2409],[-86.4326,33.2443],[-86.4245,33.2592],[-86.4341,33.2755],[-86.4335,33.2826],[-86.4045,33.2727],[-86.3583,33.2945],[-86.3675,33.3184],[-86.3642,33.3288],[-86.3681,33.3417],[-86.3409,33.3531],[-86.3529,33.3725],[-86.3788,33.3881],[-86.3782,33.5024],[-86.4819,33.5025],[-86.4815,33.5461],[-86.5168,33.546],[-86.5167,33.5534],[-86.543,33.554],[-86.5431,33.5612],[-86.552,33.5609],[-86.5515,33.6055],[-86.5626,33.6012],[-86.5723,33.6105],[-86.5941,33.6004],[-86.5975,33.6049],[-86.6116,33.6018],[-86.6126,33.6183],[-86.6493,33.5934],[-86.6384,33.5689],[-86.6234,33.5699],[-86.6172,33.5637],[-86.607,33.5707],[-86.6087,33.5653],[-86.6043,33.5653],[-86.6087,33.5546],[-86.6217,33.5556],[-86.6235,33.5434],[-86.6316,33.5424],[-86.6277,33.5389],[-86.6293,33.5308],[-86.6462,33.5179],[-86.6463,33.5095],[-86.6537,33.5105],[-86.6541,33.5175],[-86.6705,33.5283],[-86.6735,33.5353],[-86.7007,33.5154],[-86.726,33.5149],[-86.7047,33.5307],[-86.7095,33.5307],[-86.7369,33.5214],[-86.77,33.5026],[-86.7763,33.4962],[-86.7742,33.4835],[-86.7869,33.4842],[-86.787,33.4741],[-86.7777,33.4684],[-86.7702,33.472],[-86.7698,33.4661],[-86.7581,33.4684],[-86.7569,33.4623],[-86.7661,33.4536],[-86.7545,33.4503],[-86.743,33.4384],[-86.7395,33.4406],[-86.7396,33.4339],[-86.7592,33.4122],[-86.7523,33.4172],[-86.7179,33.4162],[-86.7177,33.4308],[-86.7004,33.4303],[-86.7006,33.4411],[-86.6888,33.4325],[-86.6945,33.4202],[-86.6816,33.4186],[-86.682,33.4118],[-86.6913,33.3963],[-86.6999,33.401],[-86.7067,33.3937],[-86.6929,33.3901],[-86.7,33.3791],[-86.6873,33.3899],[-86.6742,33.3866],[-86.6787,33.3754],[-86.683,33.3753],[-86.6829,33.368],[-86.6916,33.3643],[-86.6916,33.3426],[-86.7003,33.3428],[-86.7048,33.332],[-86.7179,33.3287],[-86.7314,33.3144],[-86.7485,33.3116],[-86.7529,33.2968],[-86.7744,33.2975],[-86.77,33.3047],[-86.7787,33.3049],[-86.7785,33.3156],[-86.7829,33.3147],[-86.7797,33.3541],[-86.8036,33.3423],[-86.8126,33.3312]]]},"properties":{"geoid":"01015","state":"01","district":"15","name":"State Senate District 15","chamber":"Senate"}},{"type":"Feature","geometry":{"type":"Polygon","coordinates":[[[-86.9121,33.33],[-86.8956,33.3161],[-86.8913,33.3258],[-86.8826,33.3256],[-86.8825,33.333],[-86.8307,33.332],[-86.8307,33.3247],[-86.8263,33.3246],[-86.8148,33.3279],[-86.8038,33.3421],[-86.7797,33.3541],[-86.7829,33.3147],[-86.7785,33.3156],[-86.7787,33.3049],[-86.77,33.3047],[-86.7744,33.2975],[-86.7529,33.2968],[-86.7485,33.3116],[-86.7314,33.3144],[-86.7179,33.3287],[-86.7048,33.332],[-86.7003,33.3428],[-86.6916,33.3426],[-86.6916,33.3643],[-86.6829,33.368],[-86.683,33.3753],[-86.6787,33.3754],[-86.6742,33.3866],[-86.6873,33.3899],[-86.7,33.3791],[-86.6929,33.3901],[-86.7037,33.3908],[-86.7065,33.3953],[-86.6999,33.401],[-86.6913,33.3963],[-86.6803,33.4165],[-86.6945,33.4202],[-86.6886,33.4322],[-86.7006,33.4411],[-86.7004,33.4303],[-86.7177,33.4308],[-86.7179,33.4162],[-86.7523,33.4172],[-86.7592,33.4122],[-86.7396,33.4339],[-86.7395,33.4406],[-86.743,33.4384],[-86.7545,33.4503],[-86.7661,33.4536],[-86.7569,33.4623],[-86.7581,33.4684],[-86.7698,33.4661],[-86.7702,33.472],[-86.7777,33.4684],[-86.7917,33.4774],[-86.8056,33.4743],[-86.8055,33.4673],[-86.8119,33.4609],[-86.8022,33.4577],[-86.8413,33.4336],[-86.8417,33.4256],[-86.8561,33.4124],[-86.8564,33.4211],[-86.8664,33.411],[-86.8656,33.3907],[-86.8614,33.3921],[-86.8569,33.3761],[-86.8655,33.3757],[-86.8758,33.3539],[-86.886,33.3548],[-86.8921,33.3445],[-86.8988,33.3466],[-86.9121,33.33]]]},"properties":{"geoid":"01016","state":"01","district":"16","name":"State Senate District 16","chamber":"Senate"}},{"type":"Feature","geometry":{"type":"Polygon","coordinates":[[[-86.9636,33.7206],[-86.9472,33.7091],[-86.9522,33.7079],[-86.9519,33.6914],[-86.9431,33.6911],[-86.943,33.6859],[-86.9504,33.6874],[-86.951,33.6706],[-86.9328,33.6614],[-86.9318,33.6524],[-86.9061,33.6494],[-86.9125,33.6703],[-86.9075,33.6713],[-86.8993,33.6558],[-86.8724,33.656],[-86.8658,33.6385],[-86.8788,33.6358],[-86.8787,33.6315],[-86.8477,33.6287],[-86.844,33.6321],[-86.8352,33.6306],[-86.8309,33.6232],[-86.8149,33.6226],[-86.8133,33.6326],[-86.7959,33.6283],[-86.7959,33.636],[-86.783,33.6336],[-86.7743,33.6416],[-86.7683,33.6536],[-86.759,33.6583],[-86.7655,33.6693],[-86.7438,33.6623],[-86.7394,33.6721],[-86.7438,33.6684],[-86.7483,33.679],[-86.7347,33.691],[-86.733,33.7013],[-86.7132,33.7084],[-86.6983,33.7022],[-86.6937,33.7047],[-86.6859,33.6899],[-86.6742,33.6935],[-86.6598,33.7139],[-86.6446,33.7113],[-86.6427,33.704],[-86.6314,33.697],[-86.6307,33.6893],[-86.6432,33.6912],[-86.6391,33.6855],[-86.6414,33.6802],[-86.6355,33.6776],[-86.6217,33.6819],[-86.6154,33.6675],[-86.6209,33.6673],[-86.6209,33.6563],[-86.6261,33.657],[-86.6303,33.6491],[-86.6298,33.6436],[-86.6193,33.6384],[-86.6515,33.6006],[-86.6485,33.594],[-86.6126,33.6183],[-86.6116,33.6018],[-86.5975,33.6049],[-86.5941,33.6004],[-86.5723,33.6105],[-86.5626,33.6012],[-86.5515,33.6055],[-86.5513,33.62],[-86.5428,33.6198],[-86.5428,33.6344],[-86.5337,33.6344],[-86.5338,33.627],[-86.5074,33.6339],[-86.5074,33.6373],[-86.5214,33.6374],[-86.5133,33.6434],[-86.516,33.6484],[-86.5104,33.6595],[-86.5164,33.6594],[-86.5122,33.6637],[-86.5168,33.6738],[-86.5254,33.6703],[-86.5251,33.7212],[-86.5339,33.7212],[-86.5338,33.7355],[-86.5426,33.7356],[-86.5428,33.7652],[-86.5778,33.7653],[-86.5775,33.802],[-86.5218,33.8019],[-86.5119,33.811],[-86.505,33.8086],[-86.4453,33.826],[-86.4302,33.8195],[-86.3772,33.8619],[-86.384,33.8508],[-86.3792,33.8363],[-86.3858,33.8242],[-86.3714,33.8007],[-86.3969,33.7833],[-86.388,33.7741],[-86.372,33.7792],[-86.3678,33.7748],[-86.3786,33.7608],[-86.3712,33.7596],[-86.3669,33.7496],[-86.3732,33.7495],[-86.374,33.7397],[-86.3802,33.7368],[-86.3571,33.7266],[-86.3699,33.7144],[-86.3697,33.7014],[-86.3589,33.7044],[-86.3593,33.7004],[-86.3509,33.6969],[-86.3211,33.7342],[-86.2871,33.749],[-86.277,33.7578],[-86.2756,33.7526],[-86.2893,33.7223],[-86.28,33.6842],[-86.2601,33.6985],[-86.2548,33.6983],[-86.254,33.6902],[-86.2426,33.6901],[-86.2315,33.7097],[-86.1866,33.7235],[-86.1791,33.7331],[-86.175,33.7283],[-86.1566,33.7387],[-86.1707,33.722],[-86.1677,33.713],[-86.1815,33.7079],[-86.1738,33.7005],[-86.1761,33.6961],[-86.1692,33.6763],[-86.1551,33.6716],[-86.1454,33.6794],[-86.1462,33.7022],[-86.1389,33.7141],[-86.1211,33.7112],[-86.1181,33.722],[-86.1079,33.7305],[-86.0816,33.743],[-86.0626,33.7599],[-86.0445,33.7629],[-86.0439,33.7672],[-86.0644,33.7978],[-86.0648,33.8096],[-86.0514,33.8241],[-86.056,33.8333],[-86.067,33.8392],[-86.0547,33.8458],[-86.057,33.8578],[-86.0699,33.8662],[-86.1003,33.8632],[-86.1004,33.874],[-86.1118,33.8864],[-86.1103,33.9034],[-86.1294,33.9027],[-86.1347,33.8965],[-86.1427,33.8994],[-86.1476,33.9191],[-86.167,33.9285],[-86.168,33.9651],[-86.1924,33.9733],[-86.1898,33.9835],[-86.1989,33.9889],[-86.2211,33.986],[-86.2516,33.9656],[-86.2678,33.9753],[-86.2705,33.9846],[-86.2778,33.9893],[-86.2822,33.9837],[-86.2901,33.9837],[-86.3124,33.9576],[-86.3188,33.9557],[-86.3256,33.9401],[-86.3702,33.9398],[-86.35,33.9564],[-86.3514,33.9603],[-86.3393,33.9715],[-86.3416,33.9773],[-86.3337,33.9821],[-86.3324,34.0378],[-86.3425,34.0524],[-86.3626,34.0531],[-86.3752,34.0411],[-86.3879,34.0386],[-86.3894,34.0424],[-86.4068,34.0354],[-86.4257,34.055],[-86.4499,34.0378],[-86.4634,34.0386],[-86.4623,34.049],[-86.4672,34.0544],[-86.4837,34.0494],[-86.4823,34.0724],[-86.4931,34.0677],[-86.4944,34.0733],[-86.4814,34.0826],[-86.4654,34.0828],[-86.4561,34.0994],[-86.4683,34.0991],[-86.4983,34.1094],[-86.5161,34.1078],[-86.5681,34.0595],[-86.5749,34.0676],[-86.5834,34.0679],[-86.5908,34.0575],[-86.5907,34.0644],[-86.5999,34.0645],[-86.5997,34.0719],[-86.6081,34.0721],[-86.608,34.0776],[-86.6341,34.0554],[-86.6465,34.0519],[-86.6687,34.0603],[-86.6695,34.0765],[-86.6911,34.0758],[-86.6963,34.0863],[-86.7044,34.0805],[-86.6846,34.0536],[-86.6894,34.0526],[-86.6962,34.0613],[-86.7043,34.058],[-86.7095,34.0474],[-86.7017,34.0356],[-86.7097,34.029],[-86.7203,34.0324],[-86.7236,34.0177],[-86.744,34.0079],[-86.7415,33.9989],[-86.7613,33.9955],[-86.7573,33.9904],[-86.7625,33.985],[-86.7627,33.9755],[-86.7764,33.9713],[-86.7718,33.966],[-86.7828,33.9692],[-86.7917,33.9635],[-86.7877,33.9575],[-86.793,33.9522],[-86.8209,33.9575],[-86.8241,33.9527],[-86.8204,33.9414],[-86.8352,33.9505],[-86.8426,33.9489],[-86.86,33.9351],[-86.8597,33.9291],[-86.877,33.9363],[-86.8853,33.9341],[-86.8865,33.917],[-86.9085,33.9127],[-86.9159,33.9159],[-86.9244,33.9092],[-86.9274,33.8977],[-86.9211,33.8947],[-86.9199,33.884],[-86.9243,33.877],[-86.9201,33.8728],[-86.9421,33.8666],[-86.9518,33.8715],[-86.9489,33.8614],[-86.9629,33.8676],[-86.9593,33.8587],[-86.9634,33.8582],[-86.9631,33.8481],[-86.9543,33.8449],[-86.9557,33.799],[-86.949,33.7795],[-86.9342,33.7716],[-86.9359,33.7625],[-86.9177,33.7398],[-86.924,33.736],[-86.9421,33.7381],[-86.9428,33.7269],[-86.952,33.7337],[-86.9636,33.7206]]]},"properties":{"geoid":"01017","state":"01","district":"17","name":"State Senate District 17","chamber":"Senate"}},{"type":"Feature","geometry":{"type":"Polygon","coordinates":[[[-86.9308,33.4063],[-86.9307,33.3953],[-86.9174,33.3917],[-86.9172,33.3843],[-86.8569,33.3829],[-86.8618,33.3925],[-86.8656,33.3907],[-86.8664,33.411],[-86.8564,33.4211],[-86.8561,33.4124],[-86.8417,33.4256],[-86.8413,33.4336],[-86.8022,33.4577],[-86.8119,33.4609],[-86.8055,33.4673],[-86.8056,33.4743],[-86.7872,33.4747],[-86.7869,33.4842],[-86.7742,33.4835],[-86.7763,33.4962],[-86.77,33.5026],[-86.7369,33.5214],[-86.7005,33.532],[-86.6797,33.5492],[-86.6891,33.5545],[-86.7004,33.5442],[-86.7005,33.5508],[-86.6931,33.5544],[-86.7008,33.5546],[-86.6944,33.565],[-86.7147,33.5716],[-86.7161,33.5774],[-86.7446,33.5502],[-86.7878,33.5546],[-86.7902,33.5427],[-86.8098,33.5452],[-86.8155,33.5332],[-86.8221,33.5375],[-86.8456,33.5254],[-86.8504,33.5271],[-86.8494,33.5211],[-86.886,33.5063],[-86.8809,33.4998],[-86.8874,33.4994],[-86.8871,33.489],[-86.9007,33.479],[-86.9014,33.4737],[-86.9009,33.4505],[-86.887,33.4495],[-86.8869,33.4424],[-86.9084,33.4293],[-86.9232,33.416],[-86.9265,33.4063],[-86.9308,33.4063]]]},"properties":{"geoid":"01018","state":"01","district":"18","name":"State Senate District 18","chamber":"Senate"}},{"type":"Feature","geometry":{"type":"Polygon","coordinates":[[[-87.1798,33.328],[-87.1796,33.3211],[-87.1622,33.321],[-87.162,33.3066],[-87.1271,33.306],[-87.1268,33.2908],[-87.0875,33.2907],[-87.0875,33.2797],[-87.0658,33.2759],[-87.0657,33.2469],[-86.9829,33.246],[-86.9827,33.253],[-86.9696,33.2602],[-86.9696,33.2675],[-86.9478,33.2671],[-86.9478,33.2744],[-86.9262,33.2782],[-86.9261,33.2965],[-86.9173,33.3038],[-86.9085,33.304],[-86.9086,33.3077],[-86.8997,33.3078],[-86.8998,33.3151],[-86.8957,33.315],[-86.9122,33.33],[-86.9086,33.3361],[-86.8988,33.3466],[-86.8866,33.3481],[-86.886,33.3548],[-86.8758,33.3539],[-86.8655,33.3757],[-86.8569,33.3761],[-86.8569,33.3829],[-86.9172,33.3843],[-86.9174,33.3917],[-86.9307,33.3953],[-86.9308,33.4063],[-86.9265,33.4063],[-86.9232,33.416],[-86.8869,33.4424],[-86.887,33.4495],[-86.9009,33.4505],[-86.9014,33.4737],[-86.9007,33.479],[-86.8871,33.489],[-86.8874,33.4994],[-86.8809,33.4998],[-86.886,33.5063],[-86.8957,33.5053],[-86.8904,33.5096],[-86.9022,33.5154],[-86.8942,33.5269],[-86.8969,33.5309],[-86.9151,33.5362],[-86.919,33.5439],[-86.9248,33.5443],[-86.9258,33.5629],[-86.9189,33.5663],[-86.9212,33.5762],[-86.9144,33.578],[-86.9208,33.5854],[-86.904,33.5897],[-86.9039,33.5976],[-86.8954,33.5939],[-86.8955,33.6014],[-86.8995,33.6019],[-86.8977,33.612],[-86.8774,33.6275],[-86.8651,33.6299],[-86.8794,33.6323],[-86.8658,33.6385],[-86.8724,33.656],[-86.8993,33.6558],[-86.9063,33.6704],[-86.9119,33.6718],[-86.9061,33.6494],[-86.9318,33.6524],[-86.9328,33.6614],[-86.951,33.6706],[-86.9504,33.6874],[-86.943,33.6859],[-86.9431,33.6911],[-86.9519,33.6914],[-86.9522,33.7079],[-86.9472,33.7091],[-86.9649,33.7112],[-86.9653,33.7044],[-86.975,33.7074],[-86.9851,33.7035],[-86.9895,33.6986],[-86.9753,33.6858],[-86.9708,33.6635],[-86.9732,33.6557],[-87.0074,33.656],[-87.0141,33.6471],[-87.0052,33.6415],[-87.005,33.626],[-87.0227,33.6234],[-87.0193,33.6123],[-87.0224,33.6087],[-87.0178,33.6086],[-87.018,33.6151],[-87.0069,33.6147],[-87.0051,33.6065],[-87.0149,33.6016],[-87.0248,33.6051],[-87.0226,33.5969],[-87.0297,33.5892],[-87.0198,33.5918],[-87.0236,33.5854],[-87.018,33.5868],[-87.0203,33.5816],[-87.0164,33.5798],[-87.0204,33.5782],[-87.0112,33.5739],[-87.0347,33.555],[-87.022,33.5529],[-87.022,33.5434],[-87.0328,33.5402],[-87.0382,33.5326],[-87.0383,33.5401],[-87.0486,33.5372],[-87.0508,33.547],[-87.0608,33.5406],[-87.0614,33.5231],[-87.0745,33.5325],[-87.0962,33.5207],[-87.0979,33.5119],[-87.0943,33.5097],[-87.1118,33.4978],[-87.1102,33.4913],[-87.1014,33.4867],[-87.1065,33.471],[-87.1017,33.4689],[-87.112,33.4568],[-87.1229,33.4521],[-87.1214,33.4428],[-87.1369,33.4271],[-87.1566,33.4248],[-87.1528,33.413],[-87.1666,33.4036],[-87.1525,33.3947],[-87.1525,33.3746],[-87.1426,33.3612],[-87.1464,33.3602],[-87.1445,33.3468],[-87.1518,33.3379],[-87.1565,33.3402],[-87.1798,33.328]]]},"properties":{"geoid":"01019","state":"01","district":"19","name":"State Senate District 19","chamber":"Senate"}},{"type":"Feature","geometry":{"type":"Polygon","coordinates":[[[-86.9258,33.5518],[-86.9248,33.5443],[-86.919,33.5439],[-86.9165,33.5371],[-86.8969,33.5309],[-86.8942,33.5269],[-86.9022,33.5154],[-86.8904,33.5096],[-86.8957,33.5053],[-86.8921,33.503],[-86.8668,33.5171],[-86.8494,33.5211],[-86.8504,33.5271],[-86.8456,33.5254],[-86.8221,33.5375],[-86.8155,33.5332],[-86.8098,33.5452],[-86.7902,33.5427],[-86.7878,33.5546],[-86.7446,33.5502],[-86.7161,33.5774],[-86.7147,33.5716],[-86.6944,33.565],[-86.7008,33.5546],[-86.6931,33.5544],[-86.7005,33.5508],[-86.7004,33.5442],[-86.6891,33.5545],[-86.6799,33.5474],[-86.726,33.5149],[-86.7007,33.5154],[-86.6735,33.5353],[-86.6705,33.5283],[-86.6541,33.5175],[-86.6537,33.5105],[-86.6476,33.5086],[-86.6462,33.5179],[-86.6293,33.5308],[-86.6277,33.5389],[-86.6316,33.5424],[-86.6235,33.5434],[-86.6217,33.5556],[-86.6087,33.5546],[-86.6087,33.5616],[-86.6043,33.5617],[-86.6087,33.5653],[-86.607,33.5707],[-86.6172,33.5637],[-86.6234,33.5699],[-86.6384,33.5689],[-86.6521,33.5984],[-86.6193,33.6384],[-86.6298,33.6436],[-86.6303,33.6491],[-86.6261,33.657],[-86.6209,33.6563],[-86.6159,33.6756],[-86.6218,33.6757],[-86.6217,33.6819],[-86.6355,33.6776],[-86.6414,33.6802],[-86.6391,33.6855],[-86.6432,33.6912],[-86.6307,33.6893],[-86.6314,33.6975],[-86.6513,33.7135],[-86.6598,33.7139],[-86.6742,33.6935],[-86.6859,33.6899],[-86.6937,33.7047],[-86.6983,33.7022],[-86.7132,33.7084],[-86.733,33.7013],[-86.7347,33.691],[-86.7483,33.679],[-86.7438,33.6684],[-86.7394,33.6721],[-86.7438,33.6623],[-86.7655,33.6693],[-86.7591,33.658],[-86.7683,33.6536],[-86.783,33.6336],[-86.7959,33.636],[-86.7959,33.6283],[-86.8133,33.6326],[-86.8135,33.6226],[-86.8309,33.6232],[-86.8352,33.6306],[-86.844,33.6321],[-86.8477,33.6287],[-86.8653,33.6309],[-86.8839,33.6236],[-86.8858,33.6174],[-86.8983,33.6112],[-86.8954,33.5939],[-86.9039,33.5976],[-86.904,33.5897],[-86.9208,33.5854],[-86.9144,33.578],[-86.9212,33.5762],[-86.9186,33.567],[-86.9258,33.5629],[-86.9258,33.5518]]]},"properties":{"geoid":"01020","state":"01","district":"20","name":"State Senate District 20","chamber":"Senate"}},{"type":"Feature","geometry":{"type":"Polygon","coordinates":[[[-88.3398,32.998],[-88.3404,32.9912],[-88.1719,32.9959],[-88.1718,33.0087],[-88.1635,33.0191],[-88.1426,33.0258],[-88.1502,33.0353],[-88.1477,33.0384],[-88.1432,33.0359],[-88.1409,33.0412],[-88.1305,33.0365],[-88.1169,33.0423],[-88.1078,33.0336],[-88.0905,33.0391],[-88.085,33.0361],[-88.0798,33.0386],[-88.0851,33.0415],[-88.084,33.0456],[-88.0738,33.0442],[-88.0743,33.0493],[-88.0802,33.0487],[-88.0749,33.0528],[-88.065,33.0513],[-88.0571,33.0397],[-88.0494,33.0391],[-88.0434,33.0326],[-88.0466,33.0367],[-88.0414,33.0414],[-88.0314,33.0425],[-88.0393,33.059],[-88.0323,33.0529],[-88.0273,33.0559],[-88.0313,33.0616],[-88.0114,33.0713],[-87.99,33.0729],[-87.9807,33.081],[-87.9684,33.0778],[-87.967,33.0841],[-87.9545,33.0912],[-87.9469,33.1081],[-87.9383,33.1147],[-87.9334,33.1132],[-87.9267,33.1214],[-87.9234,33.117],[-87.9131,33.1235],[-87.9061,33.1214],[-87.9024,33.1281],[-87.8851,33.1318],[-87.8648,33.1434],[-87.8564,33.1402],[-87.8378,33.1537],[-87.838,33.1369],[-87.8078,33.1364],[-87.7922,33.1288],[-87.7767,33.1307],[-87.7534,33.1458],[-87.7469,33.1579],[-87.7324,33.168],[-87.7126,33.1512],[-87.705,33.1546],[-87.6915,33.1688],[-87.695,33.1855],[-87.6803,33.1719],[-87.6721,33.1724],[-87.6819,33.1934],[-87.661,33.1878],[-87.6584,33.2044],[-87.6316,33.1972],[-87.5736,33.2144],[-87.5668,33.1998],[-87.5507,33.1991],[-87.5431,33.1965],[-87.5423,33.1913],[-87.526,33.1872],[-87.5248,33.1714],[-87.5028,33.1759],[-87.5133,33.1857],[-87.4882,33.1935],[-87.4846,33.1965],[-87.487,33.2071],[-87.4757,33.2065],[-87.4739,33.1994],[-87.4791,33.1972],[-87.4551,33.1894],[-87.4656,33.182],[-87.4647,33.1737],[-87.4542,33.1727],[-87.4561,33.1597],[-87.4519,33.1591],[-87.4493,33.1445],[-87.4559,33.1391],[-87.4539,33.1362],[-87.4696,33.1413],[-87.4884,33.1299],[-87.5111,33.1402],[-87.5046,33.1191],[-87.5171,33.1151],[-87.5206,33.1012],[-87.508,33.0618],[-87.4915,33.0662],[-87.4876,33.061],[-87.4851,33.0463],[-87.4899,33.0386],[-87.477,33.0283],[-87.4607,33.0315],[-87.475,33.0162],[-87.4836,33.0153],[-87.4888,33.0041],[-87.3185,33.0062],[-87.3116,33.0939],[-87.2819,33.1331],[-87.1993,33.1307],[-87.1992,33.1966],[-87.1521,33.2325],[-87.1435,33.2325],[-87.1435,33.2362],[-87.1219,33.2358],[-87.1215,33.2215],[-87.1041,33.2215],[-87.0766,33.2468],[-87.0657,33.2469],[-87.0658,33.2759],[-87.0875,33.2797],[-87.0875,33.2907],[-87.1268,33.2908],[-87.1271,33.306],[-87.162,33.3066],[-87.1622,33.321],[-87.1796,33.3211],[-87.18,33.343],[-87.2001,33.3404],[-87.2063,33.3479],[-87.2949,33.3051],[-87.3152,33.3135],[-87.3514,33.3108],[-87.3636,33.317],[-87.3851,33.3188],[-87.3949,33.3068],[-87.3932,33.2879],[-87.4222,33.2787],[-87.4219,33.2622],[-87.4317,33.2535],[-87.4606,33.2578],[-87.4623,33.2647],[-87.4679,33.2616],[-87.4822,33.2748],[-87.4807,33.2875],[-87.4969,33.2981],[-87.5001,33.3225],[-87.5211,33.3127],[-87.5209,33.2995],[-87.5152,33.2911],[-87.5308,33.2814],[-87.5422,33.2637],[-87.5522,33.2809],[-87.5702,33.2896],[-87.5687,33.301],[-87.601,33.305],[-87.598,33.2877],[-87.5869,33.2837],[-87.5884,33.2627],[-87.6059,33.2587],[-87.6028,33.2655],[-87.6133,33.2693],[-87.6188,33.2644],[-87.6269,33.2721],[-87.629,33.2606],[-87.6391,33.2696],[-87.6445,33.2575],[-87.6386,33.2342],[-87.652,33.2363],[-87.7171,33.2666],[-87.7785,33.2788],[-87.838,33.2841],[-87.8407,33.5248],[-87.9465,33.524],[-88.2745,33.534],[-88.3398,32.998]]]},"properties":{"geoid":"01021","state":"01","district":"21","name":"State Senate District 21","chamber":"Senate"}},{"type":"Feature","geometry":{"type":"Polygon","coordinates":[[[-88.4644,31.698],[-88.432,31.1143],[-88.3299,31.1144],[-88.3298,31.1438],[-88.01,31.1441],[-88.0097,31.1083],[-88.0019,31.1008],[-88.0019,31.0857],[-88.0097,31.0857],[-88.0054,31.0785],[-88.0232,31.0763],[-88.0256,31.0646],[-88.0123,31.0631],[-88.0121,31.056],[-88.0026,31.064],[-87.9978,31.0551],[-87.9846,31.0564],[-87.975,31.0651],[-87.9664,31.0623],[-87.9638,31.0683],[-87.9434,31.0649],[-87.9412,31.0482],[-87.9578,31.0328],[-87.9502,31.0196],[-87.9539,31.0125],[-87.9648,31.0082],[-87.9584,31.0031],[-87.9566,30.9898],[-87.9652,30.9678],[-87.9459,30.9641],[-87.9405,30.9519],[-87.9283,30.9463],[-87.9239,30.9363],[-87.9517,30.9254],[-87.9584,30.9045],[-87.9828,30.8846],[-87.985,30.8665],[-87.9731,30.8591],[-88.0327,30.8587],[-88.0272,30.8709],[-88.0394,30.8818],[-88.0585,30.8732],[-88.0571,30.8778],[-88.0686,30.8779],[-88.0691,30.8966],[-88.0781,30.891],[-88.0846,30.8776],[-88.0895,30.8775],[-88.09,30.8479],[-88.0761,30.8479],[-88.0805,30.8402],[-88.0682,30.8323],[-88.0596,30.8324],[-88.0554,30.8383],[-88.0397,30.8356],[-88.0395,30.8442],[-88.0352,30.8442],[-88.0353,30.836],[-88.0419,30.8246],[-88.0544,30.8221],[-88.0591,30.8135],[-88.0719,30.8168],[-88.0842,30.8136],[-88.0964,30.8204],[-88.1045,30.8044],[-88.0954,30.7728],[-88.1012,30.7674],[-88.0736,30.7602],[-88.0653,30.7456],[-88.0629,30.7607],[-88.0528,30.7582],[-88.0526,30.7542],[-88.0477,30.7541],[-88.048,30.7419],[-88.0419,30.7372],[-88.0167,30.7811],[-87.9924,30.7913],[-87.9894,30.8097],[-87.9511,30.8215],[-87.9342,30.8087],[-87.9207,30.805],[-87.9118,30.7917],[-87.8783,30.7829],[-87.8564,30.7715],[-87.8574,30.7602],[-87.8344,30.7401],[-87.8184,30.7438],[-87.8181,30.7131],[-87.8224,30.7104],[-87.8067,30.7033],[-87.7939,30.7057],[-87.7897,30.6854],[-87.7938,30.6721],[-87.7913,30.6491],[-87.7873,30.646],[-87.7809,30.6506],[-87.7764,30.6412],[-87.7656,30.6368],[-87.7763,30.633],[-87.7763,30.6257],[-87.7592,30.6257],[-87.7592,30.608],[-87.7646,30.6081],[-87.7663,30.5991],[-87.7792,30.6061],[-87.7918,30.5938],[-87.8031,30.5916],[-87.804,30.587],[-87.7846,30.5696],[-87.7845,30.5744],[-87.7762,30.5744],[-87.7762,30.5673],[-87.7707,30.5667],[-87.7741,30.5545],[-87.7883,30.5455],[-87.7636,30.5455],[-87.7635,30.5275],[-87.7509,30.5274],[-87.7509,30.4726],[-87.7424,30.4726],[-87.7424,30.436],[-87.6833,30.4361],[-87.6833,30.458],[-87.6664,30.4581],[-87.6664,30.4727],[-87.6369,30.4728],[-87.6368,30.4507],[-87.6529,30.4496],[-87.6474,30.3935],[-87.6534,30.3703],[-87.6025,30.3703],[-87.6022,30.3631],[-87.5729,30.363],[-87.573,30.3998],[-87.5646,30.3998],[-87.5646,30.4144],[-87.5099,30.4145],[-87.51,30.3953],[-87.4957,30.3761],[-87.5004,30.371],[-87.4964,30.3696],[-87.4982,30.3528],[-87.4921,30.3486],[-87.4952,30.347],[-87.492,30.3309],[-87.4649,30.3333],[-87.4511,30.3456],[-87.4514,30.3672],[-87.4387,30.3808],[-87.4407,30.3915],[-87.4296,30.4065],[-87.403,30.4104],[-87.3666,30.4366],[-87.3708,30.4469],[-87.3999,30.451],[-87.4251,30.4656],[-87.4356,30.4805],[-87.4339,30.4877],[-87.4284,30.4885],[-87.431,30.4983],[-87.4504,30.5145],[-87.4445,30.5142],[-87.4473,30.522],[-87.4438,30.5239],[-87.448,30.5266],[-87.439,30.5303],[-87.4416,30.5375],[-87.4349,30.5494],[-87.4179,30.5623],[-87.4185,30.5701],[-87.408,30.5837],[-87.4076,30.6009],[-87.3988,30.6054],[-87.3949,30.6143],[-87.3943,30.6456],[-87.3968,30.6548],[-87.4031,30.6575],[-87.4065,30.6751],[-87.419,30.6785],[-87.4496,30.699],[-87.458,30.6964],[-87.4681,30.7002],[-87.4793,30.7096],[-87.4813,30.717],[-87.5019,30.7213],[-87.5106,30.7329],[-87.53,30.741],[-87.536,30.7612],[-87.546,30.7721],[-87.5454,30.7794],[-87.5796,30.8109],[-87.6001,30.8205],[-87.6043,30.8314],[-87.6152,30.8342],[-87.627,30.8478],[-87.626,30.8574],[-87.6347,30.8656],[-87.6291,30.8804],[-87.6203,30.8874],[-87.6218,30.8977],[-87.6157,30.9016],[-87.5909,30.9535],[-87.5889,30.9658],[-87.5988,30.9975],[-87.0402,30.9995],[-86.6883,30.9945],[-86.6881,31.0002],[-86.7002,31.0004],[-86.7003,31.1922],[-86.7208,31.1912],[-86.7164,31.1854],[-86.7208,31.1834],[-86.736,31.1857],[-86.7334,31.1916],[-86.7414,31.1953],[-86.7572,31.193],[-86.7635,31.1811],[-86.767,31.1828],[-86.7629,31.1969],[-86.7725,31.2022],[-86.7652,31.2073],[-86.7726,31.2107],[-86.7636,31.2218],[-86.7728,31.2432],[-86.764,31.2613],[-87.4892,31.2601],[-87.5073,31.2488],[-87.5259,31.247],[-87.536,31.2373],[-87.559,31.2273],[-87.5865,31.239],[-87.6412,31.2444],[-87.6606,31.2519],[-87.6764,31.262],[-87.6906,31.2829],[-87.7022,31.2856],[-87.7143,31.3021],[-87.7382,31.3027],[-87.75,31.2969],[-87.7601,31.2996],[-87.7716,31.2937],[-87.7933,31.3005],[-87.7989,31.3162],[-87.804,31.319],[-87.8089,31.3153],[-87.809,31.3066],[-87.7839,31.2778],[-87.7996,31.2695],[-87.8241,31.2793],[-87.8346,31.2584],[-87.8525,31.2585],[-87.8523,31.2537],[-87.8434,31.256],[-87.8375,31.2484],[-87.8446,31.2379],[-87.8356,31.2297],[-87.8413,31.2254],[-87.8546,31.2372],[-87.8638,31.2311],[-87.8495,31.2061],[-87.8599,31.2046],[-87.8698,31.2158],[-87.8757,31.214],[-87.8767,31.1984],[-87.8858,31.2014],[-87.8859,31.2054],[-87.8992,31.1974],[-87.9062,31.1992],[-87.9154,31.1907],[-87.9142,31.1867],[-87.9405,31.1898],[-87.9466,31.1929],[-87.9503,31.2042],[-87.931,31.2271],[-87.9475,31.2466],[-87.9634,31.2502],[-87.9718,31.2596],[-87.9829,31.2552],[-87.987,31.2583],[-87.973,31.2709],[-87.9529,31.2701],[-87.9574,31.2818],[-87.9472,31.295],[-87.9608,31.3044],[-87.9638,31.314],[-87.9561,31.3164],[-87.9263,31.3107],[-87.9218,31.3395],[-87.9114,31.3371],[-87.9167,31.3254],[-87.9081,31.323],[-87.8893,31.3607],[-87.8928,31.3723],[-87.8874,31.3885],[-87.8899,31.3957],[-87.8936,31.3946],[-87.8898,31.386],[-87.8956,31.3814],[-87.9121,31.3909],[-87.9212,31.3873],[-87.9178,31.3757],[-87.9261,31.3799],[-87.9404,31.3749],[-87.946,31.3772],[-87.9349,31.3844],[-87.9302,31.3956],[-87.905,31.3983],[-87.9104,31.4072],[-87.9274,31.4057],[-87.9111,31.4244],[-87.9198,31.4354],[-87.9354,31.4412],[-87.9155,31.4498],[-87.9191,31.4671],[-87.9063,31.4929],[-87.9255,31.5038],[-87.9425,31.5267],[-87.9734,31.5314],[-87.9796,31.5381],[-88.0313,31.5605],[-88.04,31.5739],[-88.0185,31.572],[-88.0235,31.583],[-88.0514,31.5835],[-88.0789,31.6012],[-88.0743,31.6164],[-88.084,31.6303],[-88.0912,31.6571],[-88.0789,31.6626],[-88.0883,31.6993],[-88.4644,31.698]]]},"properties":{"geoid":"01022","state":"01","district":"22","name":"State Senate District 22","chamber":"Senate"}},{"type":"Feature","geometry":{"type":"Polygon","coordinates":[[[-88.1808,31.8183],[-88.1653,31.789],[-88.1631,31.7736],[-88.1543,31.7619],[-88.1383,31.7512],[-88.122,31.7608],[-88.1073,31.7619],[-88.0934,31.7375],[-88.0869,31.6862],[-88.0787,31.6707],[-88.0795,31.6615],[-88.0912,31.6571],[-88.084,31.6303],[-88.0743,31.6164],[-88.0789,31.6012],[-88.0514,31.5835],[-88.0235,31.583],[-88.0185,31.572],[-88.04,31.5739],[-88.0313,31.5605],[-87.9796,31.5381],[-87.9734,31.5314],[-87.9425,31.5267],[-87.9255,31.5038],[-87.9063,31.4929],[-87.9191,31.4671],[-87.9155,31.4498],[-87.9354,31.4412],[-87.9198,31.4354],[-87.9111,31.4244],[-87.9274,31.4057],[-87.9104,31.4072],[-87.905,31.3983],[-87.9302,31.3956],[-87.9349,31.3844],[-87.946,31.3772],[-87.9404,31.3749],[-87.9261,31.3799],[-87.9178,31.3757],[-87.9212,31.3873],[-87.9121,31.3909],[-87.8956,31.3814],[-87.8898,31.386],[-87.8936,31.3946],[-87.8899,31.3957],[-87.8874,31.3885],[-87.8928,31.3723],[-87.8893,31.3607],[-87.9081,31.323],[-87.9167,31.3254],[-87.9114,31.3371],[-87.9218,31.3395],[-87.9263,31.3107],[-87.9561,31.3164],[-87.9638,31.314],[-87.9608,31.3044],[-87.9472,31.295],[-87.9574,31.2818],[-87.9529,31.2701],[-87.973,31.2709],[-87.987,31.2583],[-87.9829,31.2552],[-87.9718,31.2596],[-87.9634,31.2502],[-87.9475,31.2466],[-87.931,31.2271],[-87.9503,31.2042],[-87.9466,31.1929],[-87.9405,31.1898],[-87.9142,31.1867],[-87.9154,31.1907],[-87.9062,31.1992],[-87.8992,31.1974],[-87.8859,31.2054],[-87.8858,31.2014],[-87.8767,31.1984],[-87.8757,31.214],[-87.8698,31.2158],[-87.8599,31.2046],[-87.8495,31.2061],[-87.8638,31.2311],[-87.8546,31.2372],[-87.8413,31.2254],[-87.8356,31.2297],[-87.8446,31.2379],[-87.8375,31.2484],[-87.8434,31.256],[-87.8523,31.2537],[-87.8525,31.2585],[-87.8346,31.2584],[-87.8241,31.2793],[-87.7996,31.2695],[-87.7839,31.2778],[-87.809,31.3066],[-87.8089,31.3153],[-87.804,31.319],[-87.7989,31.3162],[-87.7933,31.3005],[-87.7716,31.2937],[-87.7601,31.2996],[-87.75,31.2969],[-87.7382,31.3027],[-87.7143,31.3021],[-87.7022,31.2856],[-87.6906,31.2829],[-87.6764,31.262],[-87.6606,31.2519],[-87.6412,31.2444],[-87.5865,31.239],[-87.559,31.2273],[-87.536,31.2373],[-87.5259,31.247],[-87.5073,31.2488],[-87.4892,31.2601],[-86.764,31.2613],[-86.7728,31.2432],[-86.7636,31.2218],[-86.7726,31.2107],[-86.7652,31.2073],[-86.7725,31.2022],[-86.7629,31.1969],[-86.7658,31.1924],[-86.7627,31.187],[-86.7672,31.183],[-86.7635,31.1811],[-86.7572,31.193],[-86.7414,31.1953],[-86.7334,31.1916],[-86.736,31.1857],[-86.7207,31.1834],[-86.7164,31.1854],[-86.7208,31.1912],[-86.7003,31.1922],[-86.6991,31.3406],[-86.7028,31.3454],[-86.6835,31.3528],[-86.6786,31.3578],[-86.6811,31.3623],[-86.6675,31.369],[-86.6754,31.3895],[-86.6658,31.3921],[-86.6621,31.4023],[-86.6694,31.4152],[-86.6654,31.4188],[-86.6745,31.4294],[-86.6712,31.434],[-86.7012,31.4366],[-86.7016,31.5239],[-86.4992,31.5253],[-86.5039,31.5687],[-86.4992,31.5685],[-86.4995,31.6552],[-86.4486,31.6556],[-86.4463,31.7594],[-86.4419,31.7594],[-86.4419,31.7742],[-86.4463,31.7742],[-86.4464,31.8317],[-86.4383,31.8355],[-86.4384,31.8428],[-86.4466,31.8464],[-86.4482,31.9646],[-86.405,31.9638],[-86.406,32.0368],[-86.3964,32.037],[-86.3965,32.044],[-86.4062,32.0438],[-86.4088,32.2443],[-86.4132,32.2446],[-86.4119,32.2483],[-86.4187,32.2446],[-86.4222,32.2537],[-86.4486,32.2635],[-86.4485,32.2687],[-86.4554,32.2734],[-86.4718,32.2697],[-86.4724,32.2736],[-86.4799,32.2711],[-86.4782,32.2753],[-86.4849,32.276],[-86.4805,32.2806],[-86.4893,32.2873],[-86.4848,32.29],[-86.4897,32.2938],[-86.484,32.2991],[-86.4911,32.3016],[-86.4827,32.3131],[-86.4878,32.3192],[-86.4802,32.3151],[-86.4817,32.324],[-86.4734,32.3241],[-86.4785,32.3283],[-86.475,32.332],[-86.4864,32.3295],[-86.4786,32.3398],[-86.4886,32.3387],[-86.4882,32.3426],[-86.4932,32.3372],[-86.4948,32.3412],[-86.4985,32.3394],[-86.4968,32.3444],[-86.5325,32.3388],[-86.5393,32.3452],[-86.544,32.3664],[-86.5738,32.3758],[-86.5819,32.375],[-86.5953,32.3613],[-86.6148,32.3743],[-86.6135,32.3986],[-86.6198,32.4065],[-86.6515,32.3993],[-86.6556,32.3761],[-86.6835,32.3534],[-86.7141,32.3629],[-86.7197,32.3751],[-86.7172,32.4013],[-86.721,32.4048],[-86.7485,32.3894],[-86.7784,32.3946],[-86.7821,32.3905],[-86.7822,32.3703],[-86.7732,32.3407],[-86.7983,32.3086],[-86.8161,32.31],[-86.8203,32.315],[-86.8209,32.3332],[-86.8093,32.3455],[-86.8074,32.3544],[-86.8154,32.3708],[-86.8424,32.3983],[-86.8461,32.4097],[-86.8438,32.4171],[-86.8244,32.4247],[-86.8499,32.4383],[-86.8667,32.4378],[-86.8599,32.4506],[-86.8644,32.4584],[-86.8697,32.4585],[-86.8691,32.4683],[-86.8852,32.4822],[-86.8791,32.4864],[-86.8841,32.4909],[-86.8819,32.4955],[-86.8904,32.5025],[-86.8905,32.5135],[-86.9038,32.5305],[-86.9019,32.5359],[-86.9067,32.537],[-86.9031,32.5406],[-86.9067,32.5435],[-86.9047,32.5541],[-86.8996,32.557],[-86.8987,32.5774],[-86.9054,32.5889],[-86.9059,32.6081],[-86.9123,32.6115],[-86.9109,32.6291],[-86.9189,32.6438],[-86.9132,32.648],[-86.9212,32.6565],[-86.9176,32.6642],[-87.0177,32.6633],[-87.0192,32.837],[-87.3192,32.8315],[-87.3195,32.8751],[-87.4212,32.8745],[-87.4214,32.8308],[-87.4722,32.8306],[-87.4739,32.6559],[-87.5252,32.6557],[-87.5243,32.3073],[-87.4731,32.3076],[-87.4722,32.2649],[-87.5042,32.2689],[-87.5141,32.266],[-87.5234,32.2548],[-87.5219,32.1328],[-87.624,32.1323],[-87.6228,32.0055],[-87.6679,32.0022],[-87.6678,31.9914],[-88.0735,31.9902],[-88.0664,31.9831],[-88.0759,31.9755],[-88.0708,31.9586],[-88.0793,31.9533],[-88.0874,31.9625],[-88.0967,31.965],[-88.1226,31.9477],[-88.1166,31.9388],[-88.1041,31.9416],[-88.0892,31.9218],[-88.0677,31.9369],[-88.0552,31.9235],[-88.0595,31.9203],[-88.0738,31.9232],[-88.0886,31.9108],[-88.1294,31.9049],[-88.1427,31.8626],[-88.1584,31.8535],[-88.1701,31.8278],[-88.1808,31.8183]]]},"properties":{"geoid":"01023","state":"01","district":"23","name":"State Senate District 23","chamber":"Senate"}},{"type":"Feature","geometry":{"type":"Polygon","coordinates":[[[-88.4732,31.8939],[-88.4644,31.698],[-88.0883,31.6993],[-88.0934,31.7375],[-88.1049,31.7608],[-88.1182,31.7619],[-88.1383,31.7512],[-88.1449,31.7541],[-88.1612,31.77],[-88.1653,31.789],[-88.1808,31.8183],[-88.1701,31.8278],[-88.1584,31.8535],[-88.1427,31.8626],[-88.1294,31.9049],[-88.0886,31.9108],[-88.0738,31.9232],[-88.0595,31.9203],[-88.0552,31.9235],[-88.0677,31.9369],[-88.0892,31.9218],[-88.1041,31.9416],[-88.1166,31.9388],[-88.1226,31.9477],[-88.0967,31.965],[-88.0874,31.9625],[-88.0793,31.9533],[-88.0708,31.9586],[-88.0759,31.9755],[-88.0664,31.9831],[-88.0735,31.9902],[-87.6678,31.9914],[-87.6679,32.0022],[-87.6228,32.0055],[-87.624,32.1323],[-87.5219,32.1328],[-87.5234,32.2548],[-87.5141,32.266],[-87.5042,32.2689],[-87.4722,32.2649],[-87.4731,32.3076],[-87.5243,32.3073],[-87.5252,32.6557],[-87.4739,32.6559],[-87.4722,32.8306],[-87.4214,32.8308],[-87.4219,33.0034],[-87.4888,33.0041],[-87.4836,33.0153],[-87.475,33.0162],[-87.4607,33.0315],[-87.477,33.0283],[-87.4897,33.0384],[-87.4851,33.0465],[-87.4876,33.0611],[-87.4915,33.0662],[-87.508,33.0618],[-87.5206,33.0976],[-87.5173,33.1149],[-87.5046,33.1191],[-87.5111,33.1402],[-87.4853,33.1299],[-87.4696,33.1413],[-87.4555,33.1354],[-87.4493,33.1445],[-87.4519,33.1591],[-87.4561,33.1597],[-87.4542,33.1727],[-87.4647,33.1737],[-87.4656,33.182],[-87.4551,33.1894],[-87.4791,33.1972],[-87.4739,33.1994],[-87.4756,33.2064],[-87.487,33.2071],[-87.4846,33.1965],[-87.4882,33.1935],[-87.5133,33.1857],[-87.5028,33.1759],[-87.5248,33.1714],[-87.526,33.1872],[-87.5423,33.1913],[-87.5431,33.1965],[-87.5507,33.1991],[-87.5668,33.1998],[-87.5736,33.2144],[-87.6316,33.1972],[-87.6573,33.2047],[-87.661,33.1878],[-87.6819,33.1934],[-87.6721,33.1724],[-87.6803,33.1719],[-87.695,33.1855],[-87.6915,33.1688],[-87.705,33.1546],[-87.7126,33.1512],[-87.7324,33.168],[-87.7469,33.1579],[-87.7534,33.1458],[-87.7764,33.1308],[-87.7922,33.1288],[-87.8078,33.1364],[-87.838,33.1369],[-87.8378,33.1537],[-87.8564,33.1402],[-87.8648,33.1434],[-87.8851,33.1318],[-87.9024,33.1281],[-87.9061,33.1214],[-87.9131,33.1235],[-87.9234,33.117],[-87.9267,33.1214],[-87.9334,33.1132],[-87.9383,33.1147],[-87.9469,33.1081],[-87.9545,33.0912],[-87.967,33.0841],[-87.9684,33.0778],[-87.9807,33.081],[-87.99,33.0729],[-88.0114,33.0713],[-88.0313,33.0616],[-88.0273,33.0559],[-88.0323,33.0529],[-88.0393,33.059],[-88.0314,33.0425],[-88.0414,33.0414],[-88.0466,33.0367],[-88.0434,33.0326],[-88.0494,33.0391],[-88.0571,33.0397],[-88.065,33.0513],[-88.0778,33.0527],[-88.0799,33.0478],[-88.0743,33.0493],[-88.0736,33.0445],[-88.0805,33.0422],[-88.084,33.0456],[-88.0851,33.0415],[-88.0798,33.0386],[-88.085,33.0361],[-88.0905,33.0391],[-88.1078,33.0336],[-88.1169,33.0423],[-88.1305,33.0365],[-88.1409,33.0412],[-88.1432,33.0359],[-88.1488,33.0378],[-88.1426,33.0258],[-88.1635,33.0191],[-88.1718,33.0087],[-88.1719,32.9959],[-88.3404,32.9912],[-88.4732,31.8939]]]},"properties":{"geoid":"01024","state":"01","district":"24","name":"State Senate District 24","chamber":"Senate"}},{"type":"Feature","geometry":{"type":"Polygon","coordinates":[[[-86.5039,31.5687],[-86.4992,31.5253],[-86.3999,31.5271],[-86.3983,31.4512],[-86.3752,31.4679],[-86.3773,31.4723],[-86.3703,31.4737],[-86.3647,31.4871],[-86.3385,31.4876],[-86.3306,31.5018],[-86.3236,31.5014],[-86.32,31.5117],[-86.3014,31.5212],[-86.2989,31.5285],[-86.2802,31.5285],[-86.277,31.4556],[-86.2602,31.4557],[-86.2619,31.4412],[-86.194,31.4401],[-86.1948,31.5299],[-86.1566,31.5302],[-86.1568,31.5375],[-86.1439,31.5377],[-86.1459,31.6177],[-86.1797,31.6164],[-86.1805,31.6214],[-86.1796,31.6276],[-86.1691,31.6333],[-86.1691,31.6393],[-86.1616,31.6415],[-86.1601,31.6602],[-86.1471,31.663],[-86.1483,31.791],[-86.1994,31.7904],[-86.1994,31.8079],[-86.1929,31.8121],[-86.1936,31.8189],[-86.1829,31.8324],[-86.1862,31.8387],[-86.1824,31.8701],[-86.1731,31.8924],[-86.1778,31.9251],[-86.175,31.931],[-86.1857,31.9623],[-86.1914,31.9665],[-85.9956,31.9676],[-85.9993,32.2502],[-85.9865,32.2506],[-85.9866,32.2723],[-85.9186,32.2766],[-85.9487,32.2955],[-85.9543,32.3022],[-85.9585,32.3235],[-85.9664,32.3251],[-85.9669,32.332],[-85.9914,32.3361],[-85.9942,32.3606],[-86.0003,32.3627],[-85.999,32.3672],[-86.0054,32.3691],[-86.0148,32.3851],[-86.011,32.4051],[-86.0203,32.41],[-86.0232,32.4193],[-86.0084,32.4283],[-85.9926,32.4301],[-85.9905,32.4353],[-85.9965,32.4458],[-85.9921,32.4525],[-85.9837,32.4394],[-85.9744,32.4457],[-85.9806,32.4505],[-85.9768,32.454],[-85.964,32.4496],[-85.9572,32.4408],[-85.93,32.4543],[-85.8896,32.4475],[-85.8786,32.4506],[-85.8823,32.4544],[-85.8745,32.4729],[-85.8526,32.4757],[-85.8554,32.4804],[-85.8739,32.4836],[-85.8904,32.5001],[-85.8853,32.5454],[-85.8946,32.6147],[-85.8877,32.6476],[-85.9117,32.6778],[-85.9075,32.6993],[-85.8913,32.715],[-85.8934,32.7277],[-85.8803,32.74],[-85.8799,32.7545],[-85.9549,32.7548],[-85.9556,32.7691],[-85.9728,32.7692],[-85.9722,32.7549],[-86.3195,32.7537],[-86.3192,32.7678],[-86.3356,32.7681],[-86.3368,32.7538],[-86.4133,32.7506],[-86.4128,32.6359],[-86.3961,32.6329],[-86.3738,32.6194],[-86.3678,32.6092],[-86.3566,32.6107],[-86.3567,32.5973],[-86.3391,32.5772],[-86.3228,32.576],[-86.3061,32.5839],[-86.2825,32.5833],[-86.2722,32.5716],[-86.268,32.5507],[-86.2713,32.5348],[-86.2814,32.5219],[-86.2771,32.5194],[-86.2776,32.5113],[-86.2629,32.5012],[-86.2371,32.495],[-86.2387,32.4871],[-86.2305,32.4901],[-86.2215,32.4805],[-86.2279,32.4766],[-86.2268,32.4687],[-86.2127,32.4742],[-86.2009,32.4513],[-86.1897,32.4567],[-86.1807,32.448],[-86.1949,32.4392],[-86.19,32.4321],[-86.1802,32.433],[-86.1798,32.4142],[-86.1707,32.4114],[-86.1709,32.4052],[-86.176,32.4007],[-86.1842,32.4043],[-86.2037,32.3887],[-86.2107,32.3915],[-86.2457,32.3871],[-86.2467,32.3803],[-86.2635,32.3784],[-86.2815,32.3579],[-86.2732,32.3611],[-86.2635,32.3529],[-86.2698,32.366],[-86.2563,32.3592],[-86.244,32.3591],[-86.2438,32.3541],[-86.2287,32.3585],[-86.2104,32.3519],[-86.1913,32.3621],[-86.1929,32.351],[-86.1822,32.3443],[-86.1852,32.3385],[-86.1959,32.3395],[-86.2002,32.3285],[-86.2058,32.3289],[-86.2027,32.3052],[-86.1954,32.3009],[-86.1749,32.3037],[-86.1755,32.2949],[-86.1906,32.2919],[-86.119,32.2279],[-86.1172,32.1681],[-86.1118,32.1542],[-86.1384,32.1533],[-86.1388,32.1751],[-86.1445,32.1794],[-86.1583,32.1606],[-86.1748,32.1587],[-86.1771,32.1725],[-86.211,32.1851],[-86.2182,32.194],[-86.2229,32.1926],[-86.2232,32.1831],[-86.2146,32.163],[-86.2301,32.1517],[-86.2423,32.1508],[-86.268,32.1615],[-86.3081,32.1612],[-86.3093,32.1956],[-86.3008,32.2195],[-86.3228,32.22],[-86.3446,32.2405],[-86.3489,32.2108],[-86.3661,32.2144],[-86.3736,32.226],[-86.3898,32.2272],[-86.4083,32.21],[-86.4062,32.0438],[-86.3965,32.044],[-86.3964,32.037],[-86.406,32.0368],[-86.405,31.9638],[-86.4482,31.9646],[-86.4466,31.8464],[-86.4384,31.8428],[-86.4383,31.8355],[-86.4464,31.8317],[-86.4463,31.7742],[-86.4419,31.7742],[-86.4419,31.7594],[-86.4463,31.7594],[-86.4486,31.6556],[-86.4995,31.6552],[-86.4992,31.5685],[-86.5039,31.5687]]]},"properties":{"geoid":"01025","state":"01","district":"25","name":"State Senate District 25","chamber":"Senate"}},{"type":"Feature","geometry":{"type":"Polygon","coordinates":[[[-86.4985,32.3397],[-86.4786,32.3398],[-86.4864,32.3295],[-86.4744,32.3313],[-86.4785,32.3283],[-86.4738,32.3236],[-86.4819,32.3237],[-86.4794,32.3155],[-86.4883,32.3184],[-86.4827,32.3131],[-86.4911,32.3016],[-86.484,32.2991],[-86.4897,32.2938],[-86.4848,32.29],[-86.4893,32.2873],[-86.4805,32.2806],[-86.4849,32.276],[-86.4782,32.2753],[-86.4799,32.2711],[-86.4724,32.2736],[-86.4718,32.2697],[-86.4557,32.2735],[-86.4485,32.2687],[-86.4486,32.2635],[-86.4222,32.2537],[-86.4187,32.2446],[-86.4117,32.2482],[-86.4083,32.21],[-86.3898,32.2272],[-86.3736,32.226],[-86.3661,32.2144],[-86.3489,32.2108],[-86.3446,32.2405],[-86.3228,32.22],[-86.3008,32.2195],[-86.3093,32.1956],[-86.3081,32.1612],[-86.268,32.1615],[-86.2423,32.1508],[-86.2301,32.1517],[-86.2146,32.163],[-86.2232,32.1831],[-86.2229,32.1926],[-86.2182,32.194],[-86.211,32.1851],[-86.1771,32.1725],[-86.1748,32.1587],[-86.1583,32.1606],[-86.1445,32.1794],[-86.1388,32.1751],[-86.1384,32.1533],[-86.1118,32.1542],[-86.1172,32.1681],[-86.119,32.2279],[-86.1906,32.2919],[-86.1755,32.2949],[-86.1749,32.3037],[-86.1954,32.3009],[-86.2027,32.3052],[-86.2058,32.3289],[-86.2002,32.3285],[-86.1959,32.3395],[-86.1852,32.3385],[-86.1822,32.3443],[-86.1929,32.351],[-86.1913,32.3621],[-86.2104,32.3519],[-86.2287,32.3585],[-86.2438,32.3541],[-86.244,32.3591],[-86.2563,32.3592],[-86.2698,32.366],[-86.2635,32.3529],[-86.2732,32.3611],[-86.2815,32.3579],[-86.2635,32.3784],[-86.2467,32.3803],[-86.2457,32.3871],[-86.2107,32.3915],[-86.2037,32.3887],[-86.1842,32.4043],[-86.176,32.4007],[-86.1709,32.4052],[-86.1707,32.4114],[-86.1798,32.4142],[-86.1802,32.433],[-86.19,32.4321],[-86.1949,32.4392],[-86.1807,32.448],[-86.1897,32.4567],[-86.2009,32.4513],[-86.2127,32.4742],[-86.2268,32.4687],[-86.2279,32.4766],[-86.2215,32.4805],[-86.2305,32.4901],[-86.2387,32.4871],[-86.2371,32.495],[-86.262,32.5017],[-86.2662,32.4938],[-86.2609,32.4872],[-86.2789,32.4856],[-86.2886,32.4726],[-86.2981,32.4768],[-86.3054,32.4888],[-86.3132,32.489],[-86.3079,32.4671],[-86.316,32.4496],[-86.3253,32.4424],[-86.3151,32.4351],[-86.3067,32.4193],[-86.3117,32.4112],[-86.3198,32.4198],[-86.3503,32.4334],[-86.3984,32.4269],[-86.3969,32.4137],[-86.4251,32.4024],[-86.4447,32.3998],[-86.4596,32.4054],[-86.4625,32.3781],[-86.4764,32.3646],[-86.4919,32.3643],[-86.4903,32.3482],[-86.4985,32.3397]]]},"properties":{"geoid":"01026","state":"01","district":"26","name":"State Senate District 26","chamber":"Senate"}},{"type":"Feature","geometry":{"type":"Polygon","coordinates":[[[-86.0092,33.0903],[-86.0083,32.9978],[-85.947,33.0024],[-85.9493,32.996],[-85.9435,32.984],[-85.928,32.9835],[-85.9314,32.9779],[-85.8995,32.9556],[-85.8963,32.9554],[-85.8963,32.9713],[-85.8782,32.9785],[-85.8543,32.978],[-85.8448,32.9657],[-85.8583,32.9632],[-85.8641,32.9572],[-85.866,32.9532],[-85.8573,32.9449],[-85.8644,32.9409],[-85.8715,32.9244],[-85.8668,32.9166],[-85.8807,32.9127],[-85.9028,32.8765],[-85.9056,32.8637],[-85.8953,32.8606],[-85.9,32.8542],[-85.8951,32.8435],[-85.8787,32.8285],[-85.8916,32.8134],[-85.8979,32.7744],[-85.8914,32.7676],[-85.8954,32.7546],[-85.8799,32.7545],[-85.8803,32.74],[-85.8934,32.7277],[-85.8913,32.715],[-85.9075,32.6993],[-85.9116,32.6844],[-85.9059,32.6676],[-85.8877,32.6476],[-85.8946,32.6031],[-85.8853,32.5454],[-85.8911,32.5169],[-85.8872,32.4939],[-85.7972,32.4942],[-85.7986,32.5811],[-85.7127,32.5818],[-85.7128,32.5957],[-85.6959,32.5959],[-85.6957,32.582],[-85.6613,32.5823],[-85.6611,32.5679],[-85.4893,32.4969],[-85.4386,32.4971],[-85.434,32.4098],[-85.3568,32.4105],[-85.3802,32.3806],[-85.3811,32.3737],[-85.3682,32.352],[-85.3444,32.349],[-85.3167,32.3567],[-85.2411,32.3392],[-85.2082,32.3365],[-85.1848,32.3276],[-85.1584,32.3305],[-85.1281,32.3459],[-85.1088,32.3464],[-85.0961,32.3527],[-85.0809,32.3784],[-85.1009,32.3843],[-85.103,32.4089],[-85.1068,32.4107],[-85.0954,32.4093],[-85.0897,32.4238],[-85.0401,32.4437],[-85.0426,32.4837],[-85.0471,32.4823],[-85.0424,32.4844],[-85.0429,32.4914],[-85.0608,32.5036],[-85.0593,32.4729],[-85.2247,32.4703],[-85.2296,32.4834],[-85.2225,32.4921],[-85.2265,32.4995],[-85.22,32.4997],[-85.2227,32.5245],[-85.2172,32.5317],[-85.2269,32.5279],[-85.2318,32.532],[-85.2302,32.5504],[-85.2263,32.5452],[-85.238,32.5621],[-85.2468,32.5676],[-85.2552,32.5609],[-85.2662,32.5717],[-85.2729,32.5644],[-85.3008,32.5601],[-85.2987,32.5551],[-85.3063,32.553],[-85.3708,32.5682],[-85.3734,32.6037],[-85.3878,32.5997],[-85.3878,32.6108],[-85.3917,32.611],[-85.3879,32.6239],[-85.3711,32.6355],[-85.3712,32.6411],[-85.3835,32.6484],[-85.3664,32.6652],[-85.3701,32.6798],[-85.4024,32.6785],[-85.4049,32.7121],[-85.4196,32.7121],[-85.4223,32.7072],[-85.4232,32.7206],[-85.4341,32.7303],[-85.482,32.7305],[-85.4818,32.7378],[-85.4907,32.7377],[-85.4907,32.7306],[-85.5681,32.729],[-85.5681,32.7365],[-85.5768,32.7364],[-85.5768,32.7288],[-85.5932,32.7285],[-85.5932,33.1073],[-85.9747,33.1053],[-85.9746,33.0905],[-86.0092,33.0903]]]},"properties":{"geoid":"01027","state":"01","district":"27","name":"State Senate District 27","chamber":"Senate"}},{"type":"Feature","geometry":{"type":"Polygon","coordinates":[[[-86.0232,32.4193],[-86.0203,32.41],[-86.011,32.4051],[-86.0148,32.3851],[-86.0054,32.3691],[-85.999,32.3672],[-86.0003,32.3627],[-85.9942,32.3606],[-85.9914,32.3361],[-85.9669,32.332],[-85.9664,32.3251],[-85.9585,32.3235],[-85.9543,32.3022],[-85.9487,32.2955],[-85.9186,32.2766],[-85.9866,32.2723],[-85.9865,32.2506],[-85.9992,32.2505],[-85.9969,32.051],[-85.9841,32.0475],[-85.9759,32.0544],[-85.9503,32.0545],[-85.9546,32.0618],[-85.9463,32.0619],[-85.9463,32.0546],[-85.9118,32.0548],[-85.9115,32.0474],[-85.8937,32.0474],[-85.8927,31.9891],[-85.889,31.9889],[-85.889,31.9818],[-85.8843,31.9819],[-85.8843,31.9673],[-85.79,31.9673],[-85.791,31.8804],[-85.6577,31.8803],[-85.6781,31.856],[-85.6683,31.8348],[-85.6746,31.8197],[-85.6712,31.7959],[-85.6625,31.7851],[-85.6662,31.7725],[-85.6712,31.7609],[-85.6895,31.7526],[-85.7042,31.737],[-85.7033,31.7242],[-85.709,31.7117],[-85.7061,31.7072],[-85.7206,31.6931],[-85.716,31.688],[-85.717,31.6551],[-85.7357,31.6245],[-85.7483,31.618],[-85.4164,31.6195],[-85.4177,31.3008],[-85.4105,31.2717],[-85.4178,31.2684],[-85.4122,31.2646],[-85.4118,31.253],[-85.4279,31.2459],[-85.4321,31.2285],[-85.3972,31.2246],[-85.3976,31.21],[-85.3932,31.2092],[-85.4016,31.1907],[-85.3757,31.1949],[-85.3796,31.2018],[-85.3682,31.2012],[-85.3613,31.216],[-85.333,31.1967],[-85.333,31.2049],[-85.3368,31.2061],[-85.3327,31.2108],[-85.3241,31.2106],[-85.3238,31.2232],[-85.2914,31.2232],[-85.2775,31.2342],[-85.2587,31.2372],[-85.2356,31.2342],[-85.2251,31.2589],[-85.2284,31.2841],[-85.2252,31.3045],[-85.2292,31.3043],[-85.2294,31.3094],[-85.0877,31.3087],[-85.0838,31.3182],[-85.0894,31.336],[-85.0859,31.3531],[-85.0918,31.3552],[-85.0923,31.364],[-85.0776,31.3989],[-85.08,31.4105],[-85.0759,31.4249],[-85.066,31.4305],[-85.0716,31.4684],[-85.045,31.5182],[-85.0483,31.526],[-85.0414,31.5425],[-85.058,31.5708],[-85.0582,31.6202],[-85.0862,31.6386],[-85.0791,31.6548],[-85.0924,31.66],[-85.1259,31.6963],[-85.1265,31.7168],[-85.1189,31.7327],[-85.1292,31.7587],[-85.1252,31.7671],[-85.1419,31.782],[-85.1322,31.7952],[-85.1319,31.8271],[-85.1418,31.8393],[-85.1377,31.8459],[-85.1407,31.8575],[-85.1284,31.8776],[-85.1343,31.8915],[-85.112,31.8948],[-85.1122,31.9028],[-85.108,31.9052],[-85.1131,31.9119],[-85.0789,31.9402],[-85.0867,31.9592],[-85.0678,31.9674],[-85.0709,31.9817],[-85.0673,31.9956],[-85.0551,32.0107],[-85.0537,32.0207],[-85.0488,32.0217],[-85.0571,32.0299],[-85.0535,32.0378],[-85.0588,32.047],[-85.0558,32.0744],[-85.0448,32.0858],[-85.0616,32.1334],[-85.0456,32.1438],[-85.0113,32.1805],[-84.9637,32.1959],[-84.9646,32.2036],[-84.9802,32.2078],[-84.9733,32.2177],[-84.9282,32.2199],[-84.9127,32.2434],[-84.9232,32.2446],[-84.9244,32.2501],[-84.9072,32.249],[-84.9012,32.2584],[-84.8882,32.2597],[-84.9346,32.2989],[-85.0064,32.3268],[-85.0046,32.3452],[-84.9839,32.3624],[-84.9853,32.3725],[-84.9722,32.3769],[-84.9863,32.3803],[-84.9884,32.3852],[-84.983,32.392],[-84.9687,32.3915],[-84.9799,32.4001],[-84.981,32.4061],[-84.9794,32.4122],[-84.963,32.4242],[-84.9718,32.4428],[-84.9953,32.4532],[-84.9985,32.4687],[-84.9948,32.4861],[-85.001,32.5102],[-85.0608,32.5092],[-85.058,32.5008],[-85.0429,32.4914],[-85.0424,32.4844],[-85.0471,32.4823],[-85.0426,32.4837],[-85.0401,32.4437],[-85.0897,32.4238],[-85.0954,32.4093],[-85.1068,32.4107],[-85.103,32.4089],[-85.1009,32.3843],[-85.0809,32.3784],[-85.0965,32.3523],[-85.1093,32.3463],[-85.1281,32.3459],[-85.167,32.3283],[-85.1887,32.3276],[-85.2082,32.3365],[-85.2411,32.3392],[-85.3167,32.3567],[-85.3444,32.349],[-85.3686,32.3521],[-85.3811,32.3737],[-85.3802,32.3806],[-85.3568,32.4105],[-85.434,32.4098],[-85.4386,32.4971],[-85.4893,32.4969],[-85.6611,32.5679],[-85.6613,32.5823],[-85.6957,32.582],[-85.6959,32.5959],[-85.7128,32.5957],[-85.7127,32.5818],[-85.7986,32.5811],[-85.7972,32.4942],[-85.8861,32.4931],[-85.8703,32.4815],[-85.8527,32.477],[-85.8745,32.4729],[-85.8822,32.455],[-85.8793,32.4498],[-85.8931,32.4473],[-85.93,32.4543],[-85.9572,32.4408],[-85.964,32.4496],[-85.9768,32.454],[-85.9806,32.4505],[-85.9744,32.4457],[-85.9837,32.4394],[-85.9921,32.4525],[-85.9965,32.4458],[-85.9905,32.4353],[-85.9926,32.4301],[-86.0084,32.4283],[-86.0232,32.4193]]]},"properties":{"geoid":"01028","state":"01","district":"28","name":"State Senate District 28","chamber":"Senate"}},{"type":"Feature","geometry":{"type":"Polygon","coordinates":[[[-86.1935,31.1922],[-86.1872,30.994],[-85.0025,31.0007],[-85,31.0086],[-85.0094,31.0324],[-85.0114,31.0535],[-85.0286,31.0746],[-85.0261,31.0842],[-85.0356,31.1082],[-85.0547,31.1208],[-85.064,31.1425],[-85.0766,31.1569],[-85.1002,31.1655],[-85.0985,31.1802],[-85.1075,31.1865],[-85.107,31.2027],[-85.0987,31.2113],[-85.0968,31.2257],[-85.1124,31.2596],[-85.1146,31.2773],[-85.0932,31.2897],[-85.0877,31.3087],[-85.2294,31.3094],[-85.2292,31.3043],[-85.2252,31.3045],[-85.2284,31.2841],[-85.2251,31.2589],[-85.2356,31.2342],[-85.2587,31.2372],[-85.2775,31.2342],[-85.2914,31.2232],[-85.3238,31.2232],[-85.3241,31.2106],[-85.3327,31.2108],[-85.3368,31.2061],[-85.333,31.2049],[-85.333,31.1967],[-85.3613,31.216],[-85.3682,31.2012],[-85.3796,31.2018],[-85.3757,31.1949],[-85.4016,31.1907],[-85.3932,31.2092],[-85.3976,31.21],[-85.3972,31.2246],[-85.4321,31.2285],[-85.4279,31.2459],[-85.4118,31.253],[-85.4122,31.2646],[-85.4178,31.2684],[-85.4105,31.2717],[-85.4171,31.2872],[-85.4167,31.3634],[-85.4341,31.3443],[-85.4395,31.3441],[-85.4651,31.3539],[-85.4845,31.3499],[-85.4858,31.3583],[-85.5098,31.3569],[-85.5221,31.3742],[-85.5395,31.361],[-85.546,31.3613],[-85.543,31.3798],[-85.5287,31.3869],[-85.5323,31.3968],[-85.5292,31.4036],[-85.5417,31.4206],[-85.5461,31.441],[-85.5389,31.4629],[-85.5284,31.475],[-85.558,31.4714],[-85.572,31.4634],[-85.5762,31.4853],[-85.5722,31.4926],[-85.5825,31.4975],[-85.5977,31.481],[-85.6071,31.49],[-85.6145,31.4902],[-85.6289,31.4679],[-85.6588,31.4722],[-85.6673,31.4622],[-85.6578,31.4481],[-85.6744,31.4306],[-85.6798,31.4144],[-85.7029,31.3812],[-85.7084,31.3381],[-85.72,31.3406],[-85.7406,31.3351],[-85.7559,31.339],[-85.7556,31.3564],[-85.7898,31.3566],[-85.7914,31.1963],[-86.1167,31.193],[-86.1167,31.1821],[-86.1254,31.1821],[-86.1255,31.1928],[-86.1935,31.1922]]]},"properties":{"geoid":"01029","state":"01","district":"29","name":"State Senate District 29","chamber":"Senate"}},{"type":"Feature","geometry":{"type":"Polygon","coordinates":[[[-87.0192,32.837],[-87.0177,32.6633],[-86.9176,32.6642],[-86.9212,32.6565],[-86.9132,32.648],[-86.9189,32.6438],[-86.9109,32.6291],[-86.9123,32.6115],[-86.9059,32.6081],[-86.9054,32.5889],[-86.8987,32.5774],[-86.8996,32.557],[-86.9047,32.5541],[-86.9067,32.5435],[-86.9031,32.5406],[-86.9067,32.537],[-86.9019,32.5359],[-86.9038,32.5305],[-86.8905,32.5135],[-86.8904,32.5025],[-86.8819,32.4955],[-86.8841,32.4909],[-86.8791,32.4864],[-86.8852,32.4822],[-86.8691,32.4683],[-86.8697,32.4585],[-86.8644,32.4584],[-86.8599,32.4506],[-86.8667,32.4378],[-86.8499,32.4383],[-86.8244,32.4247],[-86.8438,32.4171],[-86.8461,32.4097],[-86.8424,32.3983],[-86.8154,32.3708],[-86.8074,32.3544],[-86.8093,32.3455],[-86.8209,32.3332],[-86.8203,32.315],[-86.8108,32.3076],[-86.7983,32.3086],[-86.7732,32.3407],[-86.7822,32.3703],[-86.7821,32.3905],[-86.7784,32.3946],[-86.7485,32.3894],[-86.721,32.4048],[-86.7172,32.4013],[-86.7197,32.3751],[-86.7141,32.3629],[-86.6835,32.3534],[-86.6556,32.3761],[-86.6515,32.3993],[-86.6198,32.4065],[-86.6135,32.3986],[-86.6148,32.3743],[-86.5953,32.3613],[-86.5792,32.3759],[-86.5479,32.3692],[-86.5425,32.3635],[-86.5393,32.3452],[-86.5325,32.3388],[-86.4921,32.3456],[-86.4919,32.3643],[-86.4764,32.3646],[-86.4625,32.3781],[-86.4606,32.4047],[-86.4447,32.3998],[-86.4251,32.4024],[-86.3969,32.4137],[-86.3984,32.4269],[-86.3465,32.433],[-86.3107,32.4117],[-86.3067,32.419],[-86.3118,32.4302],[-86.3253,32.4424],[-86.316,32.4496],[-86.3079,32.4671],[-86.3132,32.489],[-86.3054,32.4888],[-86.2903,32.4726],[-86.2789,32.4856],[-86.2697,32.4838],[-86.2601,32.4881],[-86.2662,32.4938],[-86.2633,32.5023],[-86.277,32.5105],[-86.2771,32.5194],[-86.2815,32.5214],[-86.2687,32.5421],[-86.2702,32.5665],[-86.2825,32.5833],[-86.3061,32.5839],[-86.3228,32.576],[-86.3391,32.5772],[-86.3567,32.5973],[-86.3566,32.6107],[-86.3678,32.6092],[-86.3738,32.6194],[-86.3961,32.6329],[-86.4128,32.6359],[-86.4133,32.7506],[-86.3368,32.7538],[-86.3356,32.7681],[-86.3192,32.7678],[-86.3195,32.7537],[-85.9722,32.7549],[-85.9728,32.7692],[-85.9556,32.7691],[-85.9549,32.7548],[-85.8954,32.7546],[-85.8914,32.7676],[-85.8979,32.7744],[-85.8968,32.7934],[-85.8916,32.8134],[-85.8787,32.8285],[-85.8951,32.8435],[-85.9,32.8542],[-85.8953,32.8606],[-85.9056,32.8637],[-85.9041,32.8726],[-85.8807,32.9127],[-85.8668,32.9166],[-85.8715,32.9244],[-85.8644,32.9409],[-85.8573,32.9449],[-85.866,32.9532],[-85.8641,32.9572],[-85.8583,32.9632],[-85.8448,32.9657],[-85.8543,32.978],[-85.8782,32.9785],[-85.8963,32.9713],[-85.8963,32.9554],[-85.8995,32.9556],[-85.9314,32.9779],[-85.928,32.9835],[-85.9435,32.984],[-85.9493,32.996],[-85.947,33.0024],[-86.0083,32.9978],[-86.0093,33.1046],[-86.491,33.1029],[-86.5111,33.0884],[-86.5065,33.0661],[-86.5207,33.0546],[-86.5166,33.0232],[-86.5223,33.0044],[-86.5105,32.9836],[-86.5182,32.9705],[-86.5163,32.9302],[-86.5058,32.9133],[-86.4905,32.9056],[-86.4802,32.8743],[-86.4657,32.8691],[-86.4686,32.8653],[-86.4855,32.8693],[-86.4903,32.8756],[-86.515,32.8789],[-86.5181,32.8836],[-86.5199,32.8778],[-86.5258,32.8898],[-86.5309,32.8841],[-86.5382,32.8864],[-86.5415,32.8975],[-86.5486,32.9011],[-86.5494,32.8947],[-86.5575,32.8974],[-86.5563,32.8907],[-86.5597,32.8971],[-86.5709,32.8901],[-86.5664,32.8823],[-86.5717,32.8636],[-86.5622,32.8514],[-86.5663,32.845],[-86.5812,32.8467],[-86.6238,32.8398],[-86.6308,32.8431],[-86.6827,32.8319],[-86.7141,32.8312],[-86.7518,32.8205],[-86.7551,32.8117],[-86.7726,32.8011],[-86.7896,32.8014],[-86.8172,32.7863],[-86.8311,32.789],[-86.8169,32.8068],[-86.815,32.8367],[-86.836,32.8389],[-86.8371,32.8472],[-86.842,32.8488],[-86.8511,32.8458],[-86.8689,32.8507],[-86.8762,32.8478],[-86.8761,32.8363],[-87.0192,32.837]]]},"properties":{"geoid":"01030","state":"01","district":"30","name":"State Senate District 30","chamber":"Senate"}},{"type":"Feature","geometry":{"type":"Polygon","coordinates":[[[-86.7024,31.3454],[-86.6991,31.3406],[-86.7002,31.0004],[-86.6881,31.0002],[-86.6883,30.9945],[-86.1872,30.994],[-86.1935,31.1922],[-86.1255,31.1928],[-86.1254,31.1821],[-86.1167,31.1821],[-86.1167,31.193],[-85.7914,31.1963],[-85.7898,31.3566],[-85.7556,31.3564],[-85.7559,31.339],[-85.7406,31.3351],[-85.72,31.3406],[-85.7084,31.3381],[-85.7029,31.3812],[-85.6798,31.4144],[-85.6744,31.4306],[-85.6578,31.4481],[-85.6678,31.4588],[-85.6588,31.4722],[-85.6289,31.4679],[-85.6145,31.4902],[-85.6071,31.49],[-85.5977,31.481],[-85.5825,31.4975],[-85.5722,31.4926],[-85.5762,31.4853],[-85.572,31.4634],[-85.558,31.4714],[-85.5285,31.4753],[-85.5391,31.4625],[-85.5461,31.441],[-85.5417,31.4206],[-85.5292,31.4036],[-85.5323,31.3968],[-85.5287,31.3869],[-85.5429,31.3799],[-85.5465,31.362],[-85.5395,31.361],[-85.5221,31.3742],[-85.5098,31.3569],[-85.4858,31.3583],[-85.4845,31.3499],[-85.4651,31.3539],[-85.4462,31.3448],[-85.4341,31.3443],[-85.4167,31.3634],[-85.4164,31.6195],[-85.7483,31.618],[-85.7357,31.6245],[-85.717,31.6551],[-85.716,31.688],[-85.7206,31.6931],[-85.7061,31.7072],[-85.709,31.7117],[-85.7033,31.7242],[-85.7042,31.737],[-85.6895,31.7526],[-85.6712,31.7609],[-85.6662,31.7725],[-85.6625,31.7851],[-85.6712,31.7959],[-85.6746,31.8197],[-85.6683,31.8348],[-85.6781,31.856],[-85.6577,31.8803],[-85.791,31.8804],[-85.79,31.9673],[-85.8843,31.9673],[-85.8843,31.9819],[-85.889,31.9818],[-85.889,31.9889],[-85.8927,31.9891],[-85.8937,32.0474],[-85.9115,32.0474],[-85.9118,32.0548],[-85.9463,32.0546],[-85.9463,32.0619],[-85.9546,32.0618],[-85.9503,32.0545],[-85.9759,32.0544],[-85.9841,32.0475],[-85.9969,32.051],[-85.9956,31.9676],[-86.1914,31.9665],[-86.1857,31.9623],[-86.175,31.931],[-86.1778,31.9251],[-86.1731,31.8924],[-86.1824,31.8701],[-86.1862,31.8387],[-86.1829,31.8324],[-86.1936,31.8189],[-86.1929,31.8121],[-86.1994,31.8079],[-86.1994,31.7904],[-86.1483,31.791],[-86.1471,31.663],[-86.1601,31.6602],[-86.1616,31.6415],[-86.1691,31.6393],[-86.1691,31.6333],[-86.1796,31.6276],[-86.1805,31.6214],[-86.1797,31.6164],[-86.1459,31.6177],[-86.1439,31.5377],[-86.1568,31.5375],[-86.1566,31.5302],[-86.1948,31.5299],[-86.194,31.4401],[-86.2619,31.4412],[-86.2602,31.4557],[-86.277,31.4556],[-86.2802,31.5285],[-86.2989,31.5285],[-86.3014,31.5212],[-86.32,31.5117],[-86.3236,31.5014],[-86.3306,31.5018],[-86.3385,31.4876],[-86.3647,31.4871],[-86.3703,31.4737],[-86.3773,31.4723],[-86.3752,31.4679],[-86.3957,31.4507],[-86.3999,31.5271],[-86.7016,31.5239],[-86.7012,31.4366],[-86.6712,31.434],[-86.6745,31.4294],[-86.6654,31.4188],[-86.6694,31.4152],[-86.6621,31.4023],[-86.6658,31.3921],[-86.6754,31.3895],[-86.6675,31.369],[-86.6811,31.3623],[-86.6786,31.3578],[-86.6835,31.3528],[-86.7024,31.3454]]]},"properties":{"geoid":"01031","state":"01","district":"31","name":"State Senate District 31","chamber":"Senate"}},{"type":"Feature","geometry":{"type":"Polygon","coordinates":[[[-88.0369,30.1994],[-88.0373,30.1466],[-88.0142,30.1601],[-88.0036,30.1734],[-87.9874,30.1779],[-87.8072,30.1774],[-87.6478,30.1992],[-87.5183,30.2295],[-87.5184,30.2839],[-87.4524,30.3002],[-87.4501,30.3111],[-87.4837,30.3048],[-87.5047,30.3089],[-87.5047,30.324],[-87.492,30.3309],[-87.4952,30.347],[-87.4921,30.3486],[-87.4982,30.3528],[-87.4964,30.3696],[-87.5003,30.3716],[-87.4957,30.3761],[-87.51,30.3953],[-87.5099,30.4145],[-87.5646,30.4144],[-87.5646,30.3998],[-87.573,30.3998],[-87.5729,30.363],[-87.6022,30.3631],[-87.6025,30.3703],[-87.6534,30.3703],[-87.6474,30.3935],[-87.6529,30.4496],[-87.6368,30.4507],[-87.6369,30.4728],[-87.6664,30.4727],[-87.6664,30.4581],[-87.6833,30.458],[-87.6833,30.4361],[-87.7424,30.436],[-87.7424,30.4726],[-87.7509,30.4726],[-87.7509,30.5274],[-87.7635,30.5275],[-87.7636,30.5455],[-87.7883,30.5455],[-87.7741,30.5545],[-87.7707,30.5667],[-87.7762,30.5673],[-87.7762,30.5744],[-87.7845,30.5744],[-87.7846,30.5696],[-87.804,30.587],[-87.8031,30.5916],[-87.7918,30.5938],[-87.7792,30.6061],[-87.7663,30.5991],[-87.7646,30.6081],[-87.7592,30.608],[-87.7592,30.6257],[-87.7763,30.6257],[-87.7763,30.633],[-87.7656,30.6368],[-87.7764,30.6412],[-87.7809,30.6506],[-87.789,30.6459],[-87.7943,30.6582],[-87.7913,30.662],[-87.8054,30.6765],[-87.8687,30.6766],[-87.9171,30.6667],[-87.9865,30.6779],[-87.9996,30.6849],[-88.0058,30.6799],[-87.992,30.6704],[-87.9878,30.6371],[-87.9908,30.5447],[-88.0008,30.5311],[-88.0369,30.1994]]]},"properties":{"geoid":"01032","state":"01","district":"32","name":"State Senate District 32","chamber":"Senate"}},{"type":"Feature","geometry":{"type":"Polygon","coordinates":[[[-88.2211,30.7251],[-88.2209,30.7198],[-88.2124,30.7198],[-88.2124,30.7271],[-88.2081,30.7271],[-88.2078,30.719],[-88.1833,30.7197],[-88.1569,30.7094],[-88.1381,30.7118],[-88.1226,30.7066],[-88.1264,30.6615],[-88.1678,30.6639],[-88.1614,30.6596],[-88.1574,30.6396],[-88.14,30.6382],[-88.1226,30.6521],[-88.119,30.6414],[-88.1273,30.634],[-88.1296,30.6225],[-88.111,30.6083],[-88.1149,30.5995],[-88.1092,30.5825],[-88.0862,30.5648],[-88.0665,30.5771],[-88.0604,30.5866],[-88.0524,30.6123],[-88.0569,30.6252],[-88.0546,30.6441],[-88.0207,30.6441],[-87.9881,30.6299],[-87.992,30.6704],[-88.0058,30.6799],[-87.9996,30.6849],[-87.9865,30.6779],[-87.9171,30.6667],[-87.8687,30.6766],[-87.8054,30.6765],[-87.7925,30.664],[-87.7898,30.6846],[-87.7939,30.7057],[-87.8067,30.7033],[-87.8224,30.7104],[-87.8181,30.7131],[-87.8184,30.7438],[-87.8344,30.7401],[-87.8574,30.7602],[-87.8564,30.7715],[-87.8783,30.7829],[-87.9118,30.7917],[-87.9207,30.805],[-87.9342,30.8087],[-87.9511,30.8215],[-87.9894,30.8097],[-87.9924,30.7913],[-88.0167,30.7811],[-88.043,30.737],[-88.0525,30.7581],[-88.0629,30.7607],[-88.0653,30.7456],[-88.0736,30.7602],[-88.1012,30.7674],[-88.0954,30.7728],[-88.1,30.7877],[-88.1111,30.7846],[-88.1128,30.7792],[-88.1208,30.7853],[-88.1352,30.7852],[-88.1436,30.7911],[-88.1527,30.8107],[-88.1663,30.8191],[-88.1666,30.8152],[-88.1742,30.8143],[-88.1747,30.7489],[-88.2085,30.7491],[-88.2085,30.7416],[-88.221,30.7369],[-88.2211,30.7251]]]},"properties":{"geoid":"01033","state":"01","district":"33","name":"State Senate District 33","chamber":"Senate"}},{"type":"Feature","geometry":{"type":"Polygon","coordinates":[[[-88.432,31.1143],[-88.4062,30.5897],[-88.3991,30.6058],[-88.3853,30.6077],[-88.3854,30.6155],[-88.3523,30.6055],[-88.3522,30.5978],[-88.3436,30.5891],[-88.3379,30.5905],[-88.3348,30.6004],[-88.3147,30.5858],[-88.2924,30.5897],[-88.2924,30.6035],[-88.3009,30.6037],[-88.3008,30.6207],[-88.2923,30.628],[-88.2923,30.6389],[-88.3012,30.6518],[-88.3015,30.6603],[-88.283,30.6701],[-88.2592,30.6724],[-88.2588,30.683],[-88.2509,30.6829],[-88.2509,30.6735],[-88.2295,30.6815],[-88.2377,30.6556],[-88.22,30.65],[-88.214,30.636],[-88.2078,30.64],[-88.2073,30.6611],[-88.1712,30.6623],[-88.1699,30.676],[-88.1633,30.676],[-88.1652,30.668],[-88.1578,30.6661],[-88.156,30.6705],[-88.1561,30.6647],[-88.1501,30.6614],[-88.1264,30.6615],[-88.1226,30.7066],[-88.1381,30.7118],[-88.1569,30.7094],[-88.1833,30.7197],[-88.2078,30.719],[-88.2081,30.7271],[-88.2124,30.7271],[-88.2124,30.7198],[-88.2209,30.7198],[-88.221,30.7369],[-88.2085,30.7416],[-88.2085,30.7491],[-88.1747,30.7489],[-88.1742,30.8143],[-88.1666,30.8152],[-88.1663,30.8191],[-88.153,30.8111],[-88.1508,30.8029],[-88.1461,30.803],[-88.1434,30.7909],[-88.1128,30.7792],[-88.1111,30.7846],[-88.1,30.7877],[-88.1045,30.8044],[-88.0964,30.8204],[-88.0842,30.8136],[-88.0719,30.8168],[-88.0591,30.8135],[-88.0544,30.8221],[-88.0418,30.8247],[-88.0352,30.8442],[-88.0395,30.8442],[-88.0397,30.8356],[-88.0554,30.8383],[-88.0596,30.8324],[-88.0682,30.8323],[-88.0805,30.8402],[-88.0761,30.8479],[-88.0901,30.848],[-88.0895,30.8775],[-88.0846,30.8776],[-88.0793,30.8896],[-88.0695,30.8965],[-88.0678,30.877],[-88.0571,30.8778],[-88.0585,30.8732],[-88.0521,30.8734],[-88.0416,30.8829],[-88.0287,30.8738],[-88.033,30.8588],[-87.9731,30.8591],[-87.985,30.8665],[-87.9828,30.8846],[-87.9584,30.9045],[-87.9517,30.9254],[-87.9239,30.9363],[-87.9283,30.9463],[-87.9405,30.9519],[-87.9459,30.9641],[-87.9652,30.9678],[-87.9566,30.9898],[-87.9584,31.0031],[-87.9648,31.0082],[-87.9539,31.0125],[-87.9502,31.0196],[-87.9578,31.0328],[-87.9412,31.0482],[-87.9434,31.0649],[-87.9638,31.0683],[-87.9664,31.0623],[-87.975,31.0651],[-87.9846,31.0564],[-87.9978,31.0551],[-88.0026,31.064],[-88.0121,31.056],[-88.0123,31.0631],[-88.0256,31.0646],[-88.0232,31.0763],[-88.0054,31.0785],[-88.0097,31.0857],[-88.0019,31.0857],[-88.0019,31.1008],[-88.0097,31.1083],[-88.01,31.1441],[-88.3298,31.1438],[-88.3299,31.1144],[-88.432,31.1143]]]},"properties":{"geoid":"01034","state":"01","district":"34","name":"State Senate District 34","chamber":"Senate"}},{"type":"Feature","geometry":{"type":"Polygon","coordinates":[[[-88.4062,30.5897],[-88.3844,30.1585],[-88.3598,30.1745],[-88.3477,30.1901],[-88.3249,30.1802],[-88.303,30.178],[-88.162,30.2001],[-88.1316,30.1736],[-88.1034,30.1664],[-88.0749,30.1471],[-88.0373,30.1466],[-88.0371,30.2224],[-88.0008,30.5311],[-87.9908,30.5447],[-87.9881,30.6299],[-88.0207,30.6441],[-88.0546,30.6441],[-88.0569,30.6252],[-88.0524,30.6123],[-88.0604,30.5866],[-88.0665,30.5771],[-88.0876,30.5651],[-88.1092,30.5825],[-88.1149,30.5995],[-88.111,30.6083],[-88.1296,30.6225],[-88.1273,30.634],[-88.119,30.6414],[-88.1226,30.6521],[-88.14,30.6382],[-88.1574,30.6396],[-88.1614,30.6596],[-88.1678,30.6639],[-88.156,30.665],[-88.156,30.6705],[-88.1578,30.6661],[-88.1652,30.668],[-88.1633,30.676],[-88.1699,30.676],[-88.1712,30.6623],[-88.2073,30.6611],[-88.2078,30.64],[-88.214,30.636],[-88.22,30.65],[-88.2377,30.6556],[-88.2295,30.6815],[-88.2509,30.6735],[-88.2509,30.6829],[-88.2588,30.683],[-88.2592,30.6724],[-88.283,30.6701],[-88.3015,30.6603],[-88.3012,30.6518],[-88.2923,30.6389],[-88.2923,30.628],[-88.3008,30.6207],[-88.3009,30.6037],[-88.2924,30.6035],[-88.2924,30.5897],[-88.3147,30.5858],[-88.3348,30.6004],[-88.3379,30.5905],[-88.3436,30.5891],[-88.3522,30.5978],[-88.3523,30.6055],[-88.3854,30.6155],[-88.3853,30.6077],[-88.3991,30.6058],[-88.4062,30.5897]]]},"properties":{"geoid":"01035","state":"01","district":"35","name":"State Senate District 35","chamber":"Senate"}}]}