{"type":"FeatureCollection","features":[{"type":"Feature","geometry":{"type":"Polygon","coordinates":[[[-92.4756,33.9735],[-92.4561,33.9725],[-92.4521,33.9612],[-92.4337,33.95],[-92.4364,33.9465],[-92.4218,33.9409],[-92.4101,33.9256],[-92.4105,33.9169],[-92.4005,33.9134],[-92.3947,33.8849],[-92.3835,33.8763],[-92.3801,33.8674],[-92.3533,33.8531],[-92.35,33.8417],[-92.3418,33.8402],[-92.3355,33.8108],[-92.3412,33.8044],[-92.3271,33.7779],[-92.342,33.7432],[-92.3329,33.7321],[-92.3365,33.7277],[-92.3304,33.7223],[-92.331,33.7021],[-92.3201,33.6823],[-92.3271,33.6615],[-92.3206,33.6476],[-92.3208,33.6325],[-92.3305,33.6031],[-92.3208,33.585],[-92.3259,33.5711],[-92.314,33.5514],[-92.323,33.5244],[-92.3171,33.5208],[-92.311,33.4999],[-92.3224,33.4859],[-92.3194,33.4722],[-92.3297,33.4564],[-92.3281,33.4435],[-92.3406,33.4302],[-92.3372,33.4229],[-92.3414,33.4146],[-92.356,33.4009],[-92.3599,33.3797],[-92.3762,33.377],[-92.3719,33.3672],[-92.3817,33.3464],[-92.3823,33.3387],[-92.3768,33.3372],[-92.3789,33.3151],[-92.3657,33.3058],[-92.352,33.3031],[-92.3503,33.2963],[-92.3582,33.2885],[-92.3586,33.2814],[-92.3456,33.2815],[-92.337,33.2756],[-92.3276,33.2796],[-92.3254,33.2622],[-92.3107,33.2637],[-92.3126,33.2728],[-92.3029,33.2728],[-92.2975,33.281],[-92.2911,33.2744],[-92.2931,33.2646],[-92.2709,33.2666],[-92.2678,33.2548],[-92.256,33.2571],[-92.2439,33.2502],[-92.2368,33.2586],[-92.225,33.2537],[-92.2256,33.2424],[-92.2341,33.2332],[-92.2108,33.2253],[-92.2229,33.2214],[-92.2241,33.2112],[-92.2158,33.2098],[-92.2097,33.2018],[-92.202,33.2051],[-92.1963,33.2016],[-92.1795,33.2137],[-92.1794,33.1985],[-92.1741,33.1946],[-92.1818,33.1881],[-92.1729,33.1896],[-92.1745,33.1824],[-92.1678,33.185],[-92.1687,33.1791],[-92.1627,33.1727],[-92.1712,33.1632],[-92.1605,33.1616],[-92.1615,33.1684],[-92.1502,33.1704],[-92.1451,33.1683],[-92.1471,33.1614],[-92.1388,33.1638],[-92.1355,33.16],[-92.1117,33.1587],[-92.1083,33.1458],[-92.1194,33.1446],[-92.1131,33.1341],[-92.1187,33.1208],[-92.128,33.1199],[-92.1371,33.1017],[-92.1437,33.0983],[-92.1327,33.097],[-92.1351,33.089],[-92.1291,33.0701],[-92.1141,33.0698],[-92.1087,33.0521],[-92.1153,33.0472],[-92.1069,33.0309],[-92.0827,33.0312],[-92.0783,33.0169],[-92.0689,33.008],[-91.1667,33.0043],[-91.1608,33.0208],[-91.127,33.0358],[-91.1203,33.0549],[-91.1246,33.0642],[-91.1502,33.0821],[-91.1729,33.0886],[-91.1816,33.0988],[-91.1995,33.1064],[-91.202,33.1231],[-91.1924,33.1373],[-91.1832,33.1418],[-91.1631,33.1422],[-91.1505,33.1309],[-91.1339,33.1291],[-91.1027,33.1304],[-91.086,33.1363],[-91.0804,33.1801],[-91.1003,33.2194],[-91.0708,33.2274],[-91.0505,33.2512],[-91.0439,33.2758],[-91.0552,33.2863],[-91.078,33.2836],[-91.0856,33.275],[-91.0985,33.2387],[-91.1058,33.2415],[-91.1177,33.2612],[-91.1281,33.2686],[-91.1255,33.2801],[-91.1414,33.2988],[-91.1422,33.349],[-91.1208,33.3633],[-91.1032,33.3856],[-91.0644,33.4185],[-91.0578,33.4308],[-91.0596,33.45],[-91.0719,33.4559],[-91.089,33.4494],[-91.0976,33.4334],[-91.0966,33.4122],[-91.1168,33.3911],[-91.1436,33.3795],[-91.1697,33.3804],[-91.2065,33.4001],[-91.2068,33.4123],[-91.1996,33.4182],[-91.1753,33.4171],[-91.1327,33.4296],[-91.118,33.4479],[-91.1191,33.4624],[-91.133,33.4822],[-91.1689,33.4982],[-91.1772,33.4859],[-91.1695,33.4529],[-91.1772,33.4439],[-91.2065,33.4339],[-91.2355,33.4392],[-91.2317,33.4569],[-91.2075,33.4695],[-91.1825,33.4998],[-91.1854,33.5075],[-91.2188,33.5294],[-91.2341,33.5614],[-91.2424,33.5615],[-91.2448,33.5536],[-91.2458,33.5172],[-91.3246,33.5187],[-91.3241,33.5259],[-91.3334,33.5262],[-91.3331,33.5335],[-91.346,33.5336],[-91.3463,33.5193],[-91.3508,33.5193],[-91.3495,33.5636],[-91.4535,33.5637],[-91.4524,33.6663],[-91.5227,33.6669],[-91.5229,33.7093],[-91.5598,33.7113],[-91.5559,33.8619],[-91.5604,33.8564],[-91.5731,33.8578],[-91.5753,33.8703],[-91.6021,33.8746],[-91.6032,33.8791],[-91.6107,33.8754],[-91.6366,33.8786],[-91.65,33.8858],[-91.6607,33.8957],[-91.6648,33.9076],[-91.665,33.915],[-91.6572,33.9148],[-91.6565,33.932],[-91.6751,33.9405],[-91.683,33.9354],[-91.6898,33.9404],[-91.6985,33.9324],[-91.7254,33.9232],[-91.7462,33.9228],[-91.7596,33.9317],[-91.7533,33.9387],[-91.7547,33.9452],[-91.7631,33.9477],[-91.771,33.9405],[-91.7854,33.9612],[-91.8115,33.961],[-91.8214,33.9552],[-91.8272,33.9593],[-91.8343,33.9575],[-91.8343,33.963],[-91.8407,33.9639],[-91.8282,33.9775],[-91.8488,33.9774],[-91.8493,34.0063],[-91.8665,34.006],[-91.8667,34.0141],[-91.875,34.0147],[-91.89,34.0302],[-91.8888,34.0369],[-91.9241,34.0326],[-91.9537,34.0562],[-91.9537,34.0642],[-92.0593,34.0634],[-92.0614,34.1506],[-92.0737,34.1502],[-92.0844,34.1362],[-92.1147,34.1363],[-92.1279,34.1259],[-92.1304,34.1362],[-92.1192,34.1363],[-92.1202,34.1499],[-92.1128,34.1498],[-92.1128,34.1804],[-92.1299,34.1833],[-92.129,34.2082],[-92.1425,34.2086],[-92.1251,34.2284],[-92.1052,34.2305],[-92.1063,34.2623],[-92.0925,34.2565],[-92.0819,34.2714],[-92.0736,34.2744],[-92.0845,34.2765],[-92.0843,34.2856],[-92.0894,34.2866],[-92.1027,34.3076],[-92.1124,34.3105],[-92.1213,34.307],[-92.1214,34.3166],[-92.2105,34.3182],[-92.2097,34.3863],[-92.2267,34.3864],[-92.2542,34.3719],[-92.2748,34.37],[-92.2925,34.3543],[-92.3002,34.3562],[-92.3149,34.3458],[-92.3282,34.3478],[-92.3355,34.3434],[-92.3334,34.3281],[-92.3429,34.3218],[-92.3374,34.3082],[-92.3521,34.2909],[-92.352,34.276],[-92.3629,34.2656],[-92.3632,34.25],[-92.3735,34.231],[-92.3687,34.2027],[-92.377,34.1841],[-92.3734,34.1717],[-92.378,34.1691],[-92.3767,34.1621],[-92.3855,34.1513],[-92.384,34.1427],[-92.3922,34.1307],[-92.3924,34.1203],[-92.3878,34.1162],[-92.3921,34.1147],[-92.3941,34.1043],[-92.3749,34.0864],[-92.3704,34.0769],[-92.3743,34.075],[-92.3555,34.0672],[-92.3541,34.0717],[-92.3476,34.0707],[-92.3367,34.0595],[-92.4716,34.0571],[-92.4756,33.9735]]]},"properties":{"geoid":"05001","state":"05","district":"1","name":"State Senate District 1","chamber":"Senate"}},{"type":"Feature","geometry":{"type":"Polygon","coordinates":[[[-93.1189,33.3804],[-92.9785,33.3771],[-92.9888,33.0176],[-92.0689,33.008],[-92.0783,33.0169],[-92.0827,33.0312],[-92.1088,33.0325],[-92.1098,33.0423],[-92.1153,33.0472],[-92.1087,33.0521],[-92.1141,33.0698],[-92.1291,33.0701],[-92.1351,33.089],[-92.1327,33.097],[-92.1437,33.0983],[-92.1371,33.1017],[-92.128,33.1199],[-92.1187,33.1208],[-92.1131,33.1341],[-92.1194,33.1446],[-92.1083,33.1458],[-92.1117,33.1587],[-92.1355,33.16],[-92.1388,33.1638],[-92.1471,33.1614],[-92.1451,33.1683],[-92.1502,33.1704],[-92.1615,33.1684],[-92.1605,33.1616],[-92.1712,33.1632],[-92.1627,33.1727],[-92.1687,33.1791],[-92.1678,33.185],[-92.1745,33.1824],[-92.1729,33.1896],[-92.1818,33.1881],[-92.1741,33.1946],[-92.1794,33.1985],[-92.1795,33.2137],[-92.1963,33.2016],[-92.202,33.2051],[-92.2097,33.2018],[-92.2158,33.2098],[-92.2241,33.2112],[-92.2229,33.2214],[-92.2108,33.2253],[-92.2341,33.2332],[-92.2256,33.2424],[-92.225,33.2537],[-92.2368,33.2586],[-92.2439,33.2502],[-92.256,33.2571],[-92.2678,33.2548],[-92.2709,33.2666],[-92.2931,33.2646],[-92.2911,33.2744],[-92.2975,33.281],[-92.3029,33.2728],[-92.3126,33.2728],[-92.3107,33.2637],[-92.3254,33.2622],[-92.3276,33.2796],[-92.337,33.2756],[-92.3456,33.2815],[-92.3586,33.2814],[-92.3582,33.2885],[-92.3503,33.2963],[-92.352,33.3031],[-92.3657,33.3058],[-92.3789,33.3151],[-92.3768,33.3372],[-92.3823,33.3387],[-92.3817,33.3464],[-92.3719,33.3672],[-92.3762,33.377],[-92.3599,33.3797],[-92.356,33.4009],[-92.3414,33.4146],[-92.3372,33.4229],[-92.3406,33.4302],[-92.3281,33.4435],[-92.3297,33.4564],[-92.3194,33.4722],[-92.3224,33.4859],[-92.311,33.4999],[-92.3171,33.5208],[-92.323,33.5244],[-92.314,33.5514],[-92.3259,33.5711],[-92.3208,33.585],[-92.3305,33.6031],[-92.3208,33.6325],[-92.3206,33.6476],[-92.3271,33.6615],[-92.3201,33.6823],[-92.331,33.7021],[-92.3304,33.7223],[-92.3365,33.7277],[-92.3329,33.7321],[-92.342,33.7432],[-92.3271,33.7779],[-92.3412,33.8044],[-92.3355,33.8108],[-92.3418,33.8402],[-92.35,33.8417],[-92.3533,33.8531],[-92.3801,33.8674],[-92.3835,33.8763],[-92.3947,33.8849],[-92.4005,33.9134],[-92.4105,33.9169],[-92.4101,33.9256],[-92.4218,33.9409],[-92.4364,33.9465],[-92.4337,33.95],[-92.4521,33.9612],[-92.4561,33.9725],[-92.4756,33.9727],[-92.4716,34.0571],[-92.3367,34.0595],[-92.3476,34.0707],[-92.3541,34.0717],[-92.3555,34.0672],[-92.3743,34.075],[-92.3704,34.0769],[-92.3749,34.0864],[-92.3941,34.1043],[-92.3921,34.1147],[-92.3878,34.1162],[-92.3924,34.1203],[-92.3922,34.1307],[-92.384,34.1427],[-92.3855,34.1513],[-92.3767,34.1621],[-92.378,34.1691],[-92.3734,34.1717],[-92.377,34.1841],[-92.3687,34.2027],[-92.3725,34.2351],[-92.3632,34.25],[-92.3629,34.2656],[-92.352,34.276],[-92.3521,34.2909],[-92.3374,34.3082],[-92.3429,34.3219],[-92.3334,34.3281],[-92.3334,34.3457],[-92.3403,34.3517],[-92.3394,34.3648],[-92.343,34.3678],[-92.3407,34.379],[-92.454,34.3803],[-92.4603,34.3576],[-92.4565,34.3471],[-92.4603,34.3287],[-92.4711,34.3374],[-92.5121,34.3381],[-92.5107,34.3812],[-92.6148,34.384],[-92.6142,34.3984],[-92.6229,34.3986],[-92.6225,34.4138],[-92.6687,34.4145],[-92.6784,34.1496],[-92.8861,34.1557],[-92.8931,33.9833],[-92.9491,33.9863],[-92.9535,33.9772],[-92.9612,33.974],[-92.9483,33.9623],[-92.9385,33.9681],[-92.9386,33.9498],[-92.9282,33.9469],[-92.9349,33.9385],[-92.9337,33.9324],[-92.9255,33.929],[-92.9193,33.936],[-92.914,33.9338],[-92.9201,33.9261],[-92.9084,33.9178],[-92.9094,33.9095],[-92.8931,33.9038],[-92.9126,33.8935],[-92.9028,33.8823],[-92.9065,33.8747],[-92.9,33.8671],[-92.9059,33.8626],[-92.8998,33.8569],[-92.8843,33.8563],[-92.8764,33.8453],[-92.8785,33.8373],[-92.8933,33.8344],[-92.8878,33.8242],[-92.8997,33.8162],[-92.8936,33.8087],[-92.8964,33.8061],[-92.9179,33.8216],[-92.9271,33.8144],[-92.9288,33.8225],[-92.9321,33.8127],[-92.9398,33.8109],[-92.9362,33.8075],[-92.9427,33.797],[-92.9447,33.8012],[-92.9697,33.7879],[-92.9817,33.7883],[-92.9814,33.7837],[-92.993,33.7823],[-92.9924,33.7775],[-93.009,33.7786],[-93.036,33.7701],[-93.0437,33.7791],[-93.0511,33.7765],[-93.057,33.7797],[-93.0545,33.7826],[-93.0703,33.7887],[-93.0824,33.7852],[-93.0787,33.7821],[-93.0866,33.7763],[-93.1044,33.7771],[-93.1189,33.3804]]]},"properties":{"geoid":"05002","state":"05","district":"2","name":"State Senate District 2","chamber":"Senate"}},{"type":"Feature","geometry":{"type":"Polygon","coordinates":[[[-93.8642,33.0974],[-93.837,33.0774],[-93.8405,33.0571],[-93.8187,33.0491],[-93.8187,33.0418],[-93.8278,33.0332],[-93.8082,33.0271],[-93.8072,33.0193],[-92.9888,33.0176],[-92.9785,33.3771],[-93.119,33.3803],[-93.1044,33.7771],[-93.0866,33.7763],[-93.0787,33.7821],[-93.0824,33.7852],[-93.0703,33.7887],[-93.0545,33.7826],[-93.057,33.7797],[-93.0511,33.7765],[-93.0437,33.7791],[-93.036,33.7701],[-93.009,33.7786],[-92.9924,33.7775],[-92.993,33.7823],[-92.9814,33.7837],[-92.9817,33.7883],[-92.9697,33.7879],[-92.9447,33.8012],[-92.9427,33.797],[-92.9362,33.8075],[-92.9398,33.8109],[-92.9321,33.8127],[-92.9288,33.8225],[-92.9271,33.8144],[-92.9179,33.8216],[-92.8964,33.8061],[-92.8936,33.8087],[-92.8997,33.8162],[-92.8878,33.8242],[-92.8933,33.8344],[-92.8785,33.8373],[-92.8764,33.8453],[-92.8843,33.8563],[-92.8998,33.8569],[-92.9059,33.8626],[-92.9,33.8671],[-92.9065,33.8747],[-92.9028,33.8823],[-92.9126,33.8935],[-92.8931,33.9038],[-92.9094,33.9095],[-92.9084,33.9178],[-92.9201,33.9261],[-92.914,33.9338],[-92.9193,33.936],[-92.9255,33.929],[-92.9337,33.9324],[-92.9349,33.9385],[-92.9282,33.9469],[-92.9386,33.9498],[-92.9385,33.9681],[-92.9483,33.9623],[-92.9612,33.974],[-92.9535,33.9772],[-92.9491,33.9863],[-92.8931,33.9833],[-92.8861,34.1557],[-93.0278,34.1618],[-93.0383,34.1551],[-93.0431,34.1803],[-93.0366,34.1949],[-93.0258,34.2022],[-93.0267,34.2103],[-93.0342,34.2161],[-93.0301,34.2208],[-93.0395,34.2228],[-93.0338,34.2294],[-93.0347,34.2365],[-93.0805,34.2351],[-93.0824,34.2401],[-93.0853,34.2357],[-93.0908,34.2373],[-93.09,34.2457],[-93.1995,34.2481],[-93.1983,34.2773],[-93.1454,34.2757],[-93.1419,34.3634],[-93.1235,34.3629],[-93.123,34.3771],[-93.1054,34.3768],[-93.1047,34.3915],[-93.4072,34.3974],[-93.4082,34.3395],[-93.4785,34.3408],[-93.4804,34.2533],[-93.5015,34.2537],[-93.5022,34.2141],[-93.4894,34.2119],[-93.4898,34.2077],[-93.4635,34.2051],[-93.4582,34.2123],[-93.4502,34.2052],[-93.443,34.2084],[-93.4604,34.1905],[-93.4485,34.1802],[-93.4548,34.177],[-93.448,34.1748],[-93.8207,34.1838],[-93.8231,34.0089],[-93.7498,34.0069],[-93.7178,33.9966],[-93.7199,33.8956],[-93.7101,33.8913],[-93.7074,33.8848],[-93.6921,33.8828],[-93.685,33.8769],[-93.6677,33.8812],[-93.6518,33.8769],[-93.6533,33.83],[-93.6638,33.8303],[-93.6642,33.8164],[-93.7679,33.8185],[-93.7689,33.7684],[-93.7622,33.7529],[-93.7535,33.7455],[-93.7707,33.7461],[-93.7723,33.702],[-93.7538,33.7014],[-93.7593,33.6998],[-93.7611,33.6902],[-93.7526,33.6891],[-93.7418,33.6744],[-93.7386,33.6622],[-93.7421,33.5697],[-93.7248,33.5694],[-93.7267,33.4877],[-93.7198,33.4804],[-93.7313,33.4712],[-93.737,33.4589],[-93.7264,33.4447],[-93.7424,33.4454],[-93.7463,33.4407],[-93.7363,33.4271],[-93.7211,33.4407],[-93.7143,33.4385],[-93.7156,33.4308],[-93.7302,33.425],[-93.732,33.4198],[-93.7197,33.4102],[-93.715,33.3976],[-93.6991,33.3877],[-93.721,33.3858],[-93.7235,33.3822],[-93.7184,33.3751],[-93.7038,33.373],[-93.6953,33.3857],[-93.6872,33.3886],[-93.6718,33.3778],[-93.6979,33.3705],[-93.7006,33.3591],[-93.7082,33.3533],[-93.7078,33.3406],[-93.6815,33.3392],[-93.6649,33.3297],[-93.6714,33.3219],[-93.6927,33.3173],[-93.6867,33.3044],[-93.6899,33.277],[-93.7063,33.2783],[-93.7208,33.2883],[-93.7287,33.2808],[-93.7269,33.2707],[-93.7096,33.2593],[-93.7083,33.2537],[-93.7288,33.2271],[-93.7229,33.2221],[-93.6998,33.2276],[-93.7262,33.2151],[-93.7397,33.2014],[-93.726,33.1885],[-93.728,33.1843],[-93.7582,33.178],[-93.7561,33.1677],[-93.7371,33.1663],[-93.7346,33.1569],[-93.7418,33.1546],[-93.7597,33.1659],[-93.7717,33.1666],[-93.777,33.1583],[-93.7753,33.1395],[-93.786,33.1467],[-93.7882,33.1595],[-93.7998,33.1625],[-93.8107,33.1546],[-93.8146,33.1358],[-93.8231,33.1381],[-93.8314,33.1481],[-93.8395,33.1483],[-93.8485,33.1406],[-93.8478,33.1254],[-93.8562,33.1139],[-93.8541,33.1042],[-93.8642,33.0974]]]},"properties":{"geoid":"05003","state":"05","district":"3","name":"State Senate District 3","chamber":"Senate"}},{"type":"Feature","geometry":{"type":"Polygon","coordinates":[[[-94.4859,33.6379],[-94.466,33.6362],[-94.4592,33.645],[-94.4483,33.6424],[-94.4485,33.6344],[-94.4627,33.6308],[-94.4606,33.6247],[-94.4527,33.6225],[-94.453,33.6172],[-94.4717,33.6026],[-94.4575,33.6004],[-94.4511,33.5912],[-94.4307,33.5916],[-94.4125,33.569],[-94.4035,33.5685],[-94.3806,33.5819],[-94.3801,33.5688],[-94.3956,33.5665],[-94.4015,33.5605],[-94.3817,33.544],[-94.3527,33.5442],[-94.3473,33.5516],[-94.3526,33.5619],[-94.3437,33.568],[-94.3355,33.5647],[-94.3315,33.5531],[-94.3202,33.549],[-94.3095,33.5516],[-94.2998,33.5747],[-94.2879,33.5825],[-94.2807,33.5751],[-94.2903,33.5677],[-94.2908,33.559],[-94.2773,33.5573],[-94.26,33.5804],[-94.2429,33.5897],[-94.2367,33.5871],[-94.2369,33.58],[-94.2521,33.56],[-94.2367,33.5523],[-94.2238,33.5535],[-94.2073,33.567],[-94.1994,33.556],[-94.1919,33.557],[-94.1951,33.5743],[-94.2017,33.5775],[-94.2117,33.5738],[-94.2173,33.5802],[-94.2129,33.5834],[-94.1967,33.5812],[-94.184,33.5946],[-94.1618,33.5887],[-94.157,33.5758],[-94.142,33.5811],[-94.1514,33.5685],[-94.1449,33.5652],[-94.1351,33.571],[-94.1275,33.5506],[-94.1225,33.5535],[-94.1207,33.567],[-94.0919,33.5751],[-94.0726,33.5722],[-94.0751,33.5832],[-94.0714,33.5835],[-94.0682,33.5707],[-94.0563,33.5675],[-94.0556,33.5616],[-94.0719,33.5598],[-94.0734,33.5549],[-94.0618,33.5495],[-94.0433,33.5516],[-94.043,33.0193],[-93.8072,33.0193],[-93.8082,33.0271],[-93.8278,33.0332],[-93.8187,33.0418],[-93.8187,33.0491],[-93.8405,33.0571],[-93.837,33.0774],[-93.8641,33.0961],[-93.8541,33.1042],[-93.8562,33.1139],[-93.8478,33.1254],[-93.8481,33.1415],[-93.8323,33.1484],[-93.8226,33.1377],[-93.8132,33.1362],[-93.8104,33.1551],[-93.7968,33.1628],[-93.7874,33.1585],[-93.7834,33.1435],[-93.7742,33.1396],[-93.777,33.1583],[-93.7693,33.1671],[-93.7569,33.1648],[-93.7418,33.1546],[-93.7346,33.1569],[-93.7371,33.1663],[-93.7561,33.1677],[-93.7582,33.178],[-93.728,33.1843],[-93.726,33.1885],[-93.7397,33.2014],[-93.7262,33.2151],[-93.6998,33.2276],[-93.7229,33.2221],[-93.7288,33.2271],[-93.7083,33.2537],[-93.7096,33.2593],[-93.7269,33.2707],[-93.7287,33.2808],[-93.7208,33.2883],[-93.7063,33.2783],[-93.6899,33.277],[-93.6867,33.3044],[-93.6927,33.3173],[-93.6714,33.3219],[-93.6649,33.3297],[-93.6815,33.3392],[-93.7078,33.3406],[-93.7082,33.3533],[-93.7006,33.3591],[-93.6979,33.3705],[-93.6718,33.3778],[-93.6872,33.3886],[-93.6953,33.3857],[-93.7038,33.373],[-93.7184,33.3751],[-93.7235,33.3822],[-93.721,33.3858],[-93.6991,33.3877],[-93.715,33.3976],[-93.7197,33.4102],[-93.732,33.4198],[-93.7302,33.425],[-93.7156,33.4308],[-93.7143,33.4385],[-93.7211,33.4407],[-93.7363,33.4271],[-93.7464,33.441],[-93.7424,33.4454],[-93.7264,33.4447],[-93.737,33.4589],[-93.7197,33.4814],[-93.7267,33.4877],[-93.7248,33.5694],[-93.7421,33.5697],[-93.7386,33.6622],[-93.7438,33.6784],[-93.753,33.6894],[-93.7611,33.6902],[-93.7593,33.6998],[-93.7538,33.7014],[-93.7723,33.702],[-93.7707,33.7461],[-93.7535,33.7455],[-93.7622,33.7529],[-93.7689,33.7684],[-93.7679,33.8185],[-93.6642,33.8164],[-93.6638,33.8303],[-93.6533,33.83],[-93.6515,33.8753],[-93.6529,33.8793],[-93.6677,33.8812],[-93.685,33.8769],[-93.6921,33.8828],[-93.7074,33.8848],[-93.7101,33.8913],[-93.7199,33.8956],[-93.7178,33.9966],[-93.7498,34.0069],[-93.8231,34.0089],[-93.8207,34.1838],[-93.9259,34.1865],[-93.9244,34.263],[-93.937,34.263],[-93.9354,34.3502],[-94.2547,34.3558],[-94.2563,34.2692],[-94.2439,34.2691],[-94.2438,34.1925],[-94.4703,34.1902],[-94.4859,33.6379]]]},"properties":{"geoid":"05004","state":"05","district":"4","name":"State Senate District 4","chamber":"Senate"}},{"type":"Feature","geometry":{"type":"Polygon","coordinates":[[[-94.4702,34.1941],[-94.4701,34.1902],[-94.2438,34.1925],[-94.2439,34.2691],[-94.2563,34.2692],[-94.2547,34.3558],[-94.0002,34.3515],[-93.9354,34.3502],[-93.937,34.263],[-93.9244,34.263],[-93.9258,34.1865],[-93.448,34.1748],[-93.4548,34.177],[-93.4485,34.1802],[-93.4604,34.1905],[-93.443,34.2084],[-93.4502,34.2052],[-93.4582,34.2123],[-93.4635,34.2051],[-93.4898,34.2077],[-93.4894,34.2119],[-93.5022,34.2141],[-93.5015,34.2537],[-93.4804,34.2533],[-93.4785,34.3408],[-93.4082,34.3395],[-93.4022,34.6852],[-93.3939,34.6852],[-93.3945,34.7724],[-93.0752,34.7719],[-93.074,34.8582],[-92.8298,34.8553],[-92.818,34.8479],[-92.7996,34.8512],[-92.7834,34.8398],[-92.7563,34.8426],[-92.7403,34.8278],[-92.7397,34.8536],[-92.7554,34.8537],[-92.7539,34.9116],[-92.6496,34.9102],[-92.6481,34.9392],[-92.5446,34.9364],[-92.5442,34.9529],[-92.5632,34.9579],[-92.5827,34.97],[-92.5993,34.9996],[-92.5919,35.0149],[-92.5598,35.0358],[-92.5453,35.0554],[-92.5407,35.0869],[-92.5483,35.1068],[-92.5566,35.1143],[-92.5691,35.1141],[-92.5999,35.0842],[-92.633,35.0756],[-92.6483,35.0782],[-92.6452,35.0843],[-92.621,35.0981],[-92.6214,35.1088],[-92.6311,35.1151],[-92.6491,35.1074],[-92.6784,35.0773],[-92.7062,35.072],[-92.804,35.0728],[-92.8035,35.0874],[-92.8215,35.0983],[-92.8214,35.1192],[-92.83,35.1322],[-92.8343,35.1542],[-92.8453,35.1703],[-92.8636,35.1744],[-92.8978,35.1696],[-92.9192,35.1761],[-92.9418,35.1765],[-92.9606,35.1698],[-92.9802,35.1718],[-93.053,35.1567],[-93.0715,35.1592],[-93.092,35.1715],[-93.1198,35.1716],[-93.1366,35.1871],[-93.1399,35.2038],[-93.1602,35.2019],[-93.1564,35.2087],[-93.1628,35.2171],[-93.1707,35.2171],[-93.1726,35.2254],[-93.1813,35.2262],[-93.1813,35.2319],[-93.1901,35.2321],[-93.1901,35.2394],[-93.1812,35.2368],[-93.1811,35.2537],[-93.1766,35.2499],[-93.1744,35.2532],[-93.1829,35.2617],[-93.1998,35.2717],[-93.2393,35.2757],[-93.2782,35.3124],[-93.2799,35.2126],[-93.457,35.2159],[-93.4571,35.2086],[-93.4745,35.2098],[-93.4748,35.2016],[-93.4839,35.2019],[-93.4841,35.1806],[-93.4939,35.1808],[-93.4939,35.1739],[-93.511,35.1742],[-93.5113,35.1597],[-93.5291,35.16],[-93.5297,35.1455],[-93.6629,35.1482],[-93.6633,35.1338],[-93.7068,35.1349],[-93.7076,35.1015],[-93.7248,35.1022],[-93.7352,35.092],[-93.744,35.0911],[-93.7434,35.1237],[-93.7617,35.1239],[-93.7619,35.1286],[-93.7789,35.1287],[-93.779,35.1329],[-93.7969,35.1329],[-93.7972,35.1363],[-93.8336,35.1371],[-93.8573,35.1371],[-93.8689,35.1309],[-93.8851,35.1325],[-93.8883,35.1191],[-93.8928,35.1191],[-93.8934,35.0884],[-93.9246,35.0888],[-93.9243,35.107],[-93.9367,35.114],[-93.9397,35.1207],[-93.959,35.1134],[-93.9675,35.1178],[-93.9818,35.1149],[-93.9914,35.1213],[-94.0317,35.1229],[-94.0321,35.1121],[-94.0678,35.1125],[-94.0683,35.0987],[-94.1405,35.1],[-94.1397,35.129],[-94.1758,35.1296],[-94.1755,35.1443],[-94.2106,35.1452],[-94.2099,35.1704],[-94.2269,35.1806],[-94.2433,35.1851],[-94.2875,35.1825],[-94.2981,35.2189],[-94.3622,35.26],[-94.373,35.2743],[-94.4357,35.2752],[-94.4702,34.1941]]]},"properties":{"geoid":"05005","state":"05","district":"5","name":"State Senate District 5","chamber":"Senate"}},{"type":"Feature","geometry":{"type":"Polygon","coordinates":[[[-93.4072,34.3986],[-93.1225,34.3917],[-93.122,34.4062],[-93.1399,34.4066],[-93.1367,34.4149],[-93.1081,34.4167],[-93.1055,34.4265],[-93.085,34.4283],[-93.0863,34.4418],[-93.067,34.4446],[-93.0657,34.4381],[-93.0591,34.4376],[-93.0532,34.4481],[-93.0456,34.4515],[-93.0377,34.4868],[-93.0264,34.4855],[-93.0254,34.4941],[-93.0201,34.4941],[-93.0197,34.506],[-93.037,34.523],[-93.0359,34.5304],[-93.0258,34.5313],[-93.0136,34.5401],[-93.0005,34.5406],[-92.996,34.5515],[-92.8782,34.5481],[-92.8757,34.6205],[-92.8645,34.6236],[-92.8402,34.6169],[-92.8389,34.6199],[-92.8435,34.6334],[-92.8381,34.6434],[-92.856,34.6677],[-92.8556,34.6821],[-92.8131,34.6808],[-92.8127,34.6957],[-92.7434,34.6939],[-92.7423,34.7379],[-92.6555,34.7355],[-92.6512,34.8517],[-92.7397,34.8536],[-92.7403,34.8278],[-92.7563,34.8426],[-92.7834,34.8398],[-92.7996,34.8512],[-92.818,34.8479],[-92.8298,34.8553],[-93.074,34.8582],[-93.0752,34.7719],[-93.3945,34.7724],[-93.3939,34.6852],[-93.4022,34.6852],[-93.4072,34.3986]]]},"properties":{"geoid":"05006","state":"05","district":"6","name":"State Senate District 6","chamber":"Senate"}},{"type":"Feature","geometry":{"type":"Polygon","coordinates":[[[-93.1995,34.2491],[-93.09,34.2457],[-93.0908,34.2373],[-93.0853,34.2357],[-93.0824,34.2401],[-93.0805,34.2351],[-93.0347,34.2365],[-93.0338,34.2294],[-93.0395,34.2228],[-93.0301,34.2208],[-93.0342,34.2161],[-93.0267,34.2103],[-93.0258,34.2022],[-93.0366,34.1949],[-93.0431,34.1803],[-93.0419,34.159],[-93.0351,34.1544],[-93.0278,34.1618],[-92.6784,34.1496],[-92.6687,34.4145],[-92.6225,34.4138],[-92.6229,34.3986],[-92.6142,34.3984],[-92.6148,34.384],[-92.5107,34.3812],[-92.5121,34.3381],[-92.4711,34.3374],[-92.4587,34.3295],[-92.4565,34.3471],[-92.4603,34.3576],[-92.4513,34.3806],[-92.3407,34.379],[-92.3402,34.3515],[-92.3358,34.3462],[-92.3169,34.3454],[-92.3002,34.3562],[-92.2924,34.3543],[-92.2782,34.3687],[-92.2542,34.3719],[-92.2267,34.3864],[-92.2097,34.3863],[-92.208,34.4928],[-92.2458,34.4936],[-92.2442,34.5809],[-92.3487,34.5823],[-92.3465,34.6256],[-92.3845,34.6263],[-92.3892,34.6175],[-92.3999,34.6144],[-92.3944,34.6117],[-92.3984,34.5691],[-92.5323,34.5703],[-92.5326,34.5557],[-92.5523,34.5561],[-92.596,34.5307],[-92.6066,34.5425],[-92.6164,34.5424],[-92.6216,34.5518],[-92.6211,34.5594],[-92.6105,34.5686],[-92.6136,34.577],[-92.6042,34.5917],[-92.6193,34.6005],[-92.6193,34.6369],[-92.6311,34.6462],[-92.6394,34.6663],[-92.6372,34.6798],[-92.6456,34.6976],[-92.6394,34.7038],[-92.6436,34.71],[-92.6565,34.7064],[-92.6555,34.7355],[-92.7423,34.7379],[-92.7434,34.6939],[-92.8127,34.6957],[-92.8131,34.6808],[-92.8556,34.6821],[-92.856,34.6677],[-92.8381,34.6434],[-92.8435,34.6334],[-92.8389,34.6199],[-92.8402,34.6169],[-92.8645,34.6236],[-92.8757,34.6205],[-92.8782,34.5481],[-92.996,34.5515],[-93.0005,34.5406],[-93.0136,34.5401],[-93.0258,34.5313],[-93.0359,34.5304],[-93.037,34.523],[-93.0197,34.506],[-93.0201,34.4941],[-93.0254,34.4941],[-93.0264,34.4855],[-93.0377,34.4868],[-93.0392,34.469],[-93.0527,34.4429],[-93.0613,34.4372],[-93.067,34.4446],[-93.0863,34.4418],[-93.0829,34.4381],[-93.0881,34.434],[-93.0852,34.4282],[-93.1055,34.4265],[-93.1086,34.4166],[-93.1398,34.412],[-93.1399,34.4066],[-93.122,34.4062],[-93.1225,34.3917],[-93.1047,34.3915],[-93.1051,34.3782],[-93.123,34.3771],[-93.1235,34.3629],[-93.1419,34.3634],[-93.1454,34.2757],[-93.1983,34.2773],[-93.1995,34.2491]]]},"properties":{"geoid":"05007","state":"05","district":"7","name":"State Senate District 7","chamber":"Senate"}},{"type":"Feature","geometry":{"type":"Polygon","coordinates":[[[-92.2636,34.5829],[-92.2442,34.5809],[-92.2458,34.4936],[-92.208,34.4928],[-92.2105,34.3182],[-92.1214,34.3166],[-92.1213,34.307],[-92.1124,34.3105],[-92.1027,34.3076],[-92.0894,34.2866],[-92.0843,34.2856],[-92.0845,34.2765],[-92.0736,34.2744],[-92.0819,34.2714],[-92.0925,34.2565],[-92.1063,34.2623],[-92.1052,34.2305],[-92.1251,34.2284],[-92.1425,34.2086],[-92.129,34.2082],[-92.1299,34.1833],[-92.1128,34.1804],[-92.1128,34.1498],[-92.1202,34.1499],[-92.1192,34.1363],[-92.1304,34.1362],[-92.1282,34.1261],[-92.1147,34.1363],[-92.0844,34.1362],[-92.0737,34.1502],[-92.0614,34.1506],[-92.0593,34.0634],[-91.9537,34.0642],[-91.9537,34.0562],[-91.9241,34.0326],[-91.8888,34.0369],[-91.89,34.0302],[-91.875,34.0147],[-91.8667,34.0141],[-91.8665,34.006],[-91.8493,34.0063],[-91.8488,33.9774],[-91.8282,33.9775],[-91.8407,33.9639],[-91.8343,33.963],[-91.8343,33.9575],[-91.8272,33.9593],[-91.8214,33.9552],[-91.8115,33.961],[-91.7854,33.9612],[-91.771,33.9405],[-91.7631,33.9477],[-91.7547,33.9452],[-91.7533,33.9387],[-91.7596,33.9317],[-91.7462,33.9228],[-91.7254,33.9232],[-91.6985,33.9324],[-91.6898,33.9404],[-91.683,33.9354],[-91.6751,33.9405],[-91.6565,33.932],[-91.6572,33.9148],[-91.665,33.915],[-91.6648,33.9076],[-91.6607,33.8957],[-91.65,33.8858],[-91.6366,33.8786],[-91.6107,33.8754],[-91.6032,33.8791],[-91.6021,33.8746],[-91.5753,33.8703],[-91.5731,33.8578],[-91.5604,33.8564],[-91.5559,33.8619],[-91.5598,33.7113],[-91.5229,33.7093],[-91.5227,33.6669],[-91.4524,33.6663],[-91.4535,33.5637],[-91.3495,33.5636],[-91.3508,33.5193],[-91.3463,33.5193],[-91.346,33.5336],[-91.3331,33.5335],[-91.3334,33.5262],[-91.3241,33.5259],[-91.3246,33.5187],[-91.2458,33.5172],[-91.2424,33.5615],[-91.2185,33.569],[-91.1652,33.57],[-91.1385,33.5886],[-91.1289,33.604],[-91.1365,33.6258],[-91.16,33.6429],[-91.1786,33.6523],[-91.2109,33.6566],[-91.2229,33.6636],[-91.2307,33.6795],[-91.2213,33.6959],[-91.1604,33.7066],[-91.1309,33.6749],[-91.0907,33.6576],[-91.0339,33.6736],[-91.0302,33.6876],[-91.0592,33.7145],[-91.0688,33.7161],[-91.0964,33.7058],[-91.1176,33.7053],[-91.1488,33.7314],[-91.141,33.7581],[-91.1449,33.7683],[-91.1331,33.7833],[-91.1087,33.7717],[-91.0534,33.7783],[-91.0194,33.7641],[-90.9998,33.7693],[-90.9888,33.7831],[-90.9916,33.7923],[-91.0005,33.7995],[-91.0491,33.816],[-91.0692,33.8428],[-91.0713,33.8708],[-91.033,33.8998],[-91.0102,33.9322],[-91.0191,33.9421],[-91.0863,33.9577],[-91.0901,33.9689],[-91.089,34.0001],[-91.0842,34.0086],[-91.0747,34.009],[-91.0464,33.9924],[-91.0189,34.0032],[-91,33.9664],[-90.9857,33.9604],[-90.9698,33.9624],[-90.9613,33.979],[-90.9799,33.9979],[-90.9882,34.0192],[-90.9646,34.0268],[-90.9186,34.0213],[-90.8919,34.0274],[-90.8863,34.0392],[-90.888,34.0549],[-90.8711,34.0802],[-90.8766,34.0929],[-90.8911,34.098],[-90.9207,34.0933],[-90.9558,34.1187],[-91.1631,34.1183],[-91.1623,34.1563],[-91.1762,34.1564],[-91.176,34.1711],[-91.1943,34.1768],[-91.1942,34.1913],[-91.2032,34.1915],[-91.2021,34.2294],[-91.2109,34.2295],[-91.2104,34.251],[-91.2639,34.2529],[-91.2639,34.2456],[-91.2805,34.2458],[-91.2799,34.269],[-91.4033,34.2668],[-91.3998,34.4094],[-91.4088,34.4094],[-91.4102,34.4196],[-91.511,34.464],[-91.5957,34.4655],[-91.5955,34.4805],[-91.6782,34.4819],[-91.6748,34.4838],[-91.6835,34.4928],[-91.6793,34.4924],[-91.6811,34.4994],[-91.6757,34.5043],[-91.679,34.5073],[-91.6678,34.5218],[-91.6453,34.5378],[-91.7392,34.5406],[-91.738,34.5998],[-91.7739,34.6004],[-91.7731,34.6584],[-91.9358,34.6607],[-91.9359,34.6899],[-92.0261,34.6915],[-92.0345,34.6911],[-92.0352,34.6839],[-92.0971,34.6847],[-92.0988,34.6624],[-92.1101,34.6743],[-92.1505,34.6776],[-92.1715,34.6405],[-92.1673,34.6269],[-92.1542,34.6144],[-92.1695,34.6113],[-92.1903,34.5941],[-92.2266,34.5947],[-92.2636,34.5829]]]},"properties":{"geoid":"05008","state":"05","district":"8","name":"State Senate District 8","chamber":"Senate"}},{"type":"Feature","geometry":{"type":"Polygon","coordinates":[[[-91.1179,34.1191],[-90.9558,34.1187],[-90.9608,34.1286],[-90.9586,34.1355],[-90.91,34.1655],[-90.8944,34.1611],[-90.8604,34.1392],[-90.8453,34.1369],[-90.8276,34.1409],[-90.8076,34.1618],[-90.8126,34.181],[-90.8544,34.1868],[-90.8894,34.1831],[-90.9144,34.1957],[-90.9276,34.2093],[-90.9365,34.2248],[-90.9355,34.2378],[-90.9229,34.2465],[-90.9063,34.2444],[-90.8923,34.2229],[-90.8471,34.2061],[-90.8381,34.22],[-90.8405,34.238],[-90.8318,34.2769],[-90.8167,34.2806],[-90.7656,34.2695],[-90.7529,34.2746],[-90.738,34.2893],[-90.7364,34.3121],[-90.7687,34.3478],[-90.7698,34.3569],[-90.7644,34.3637],[-90.7496,34.3681],[-90.7158,34.3603],[-90.6763,34.3713],[-90.6815,34.3526],[-90.6915,34.3386],[-90.6931,34.3226],[-90.686,34.3158],[-90.6693,34.3131],[-90.6615,34.3152],[-90.6575,34.3222],[-90.6669,34.3558],[-90.6554,34.3718],[-90.6571,34.3774],[-90.6409,34.3889],[-90.6096,34.3916],[-90.5862,34.4092],[-90.5777,34.4324],[-90.5874,34.4548],[-90.5927,34.4906],[-90.5793,34.518],[-90.5441,34.5377],[-90.5396,34.5539],[-90.5738,34.5921],[-90.5916,34.621],[-90.5832,34.652],[-90.5684,34.6689],[-90.5701,34.6934],[-90.5562,34.6936],[-90.5419,34.6839],[-90.5401,34.6764],[-90.5526,34.6593],[-90.5549,34.6452],[-90.5465,34.631],[-90.5342,34.6275],[-90.506,34.6382],[-90.4709,34.6677],[-90.4629,34.6838],[-90.4662,34.6991],[-90.4742,34.7053],[-90.5296,34.6958],[-90.5719,34.7128],[-90.5667,34.735],[-90.5456,34.7389],[-90.5398,34.7543],[-90.5478,34.7833],[-90.5442,34.7917],[-90.5333,34.8],[-90.5139,34.8],[-90.5114,34.79],[-90.4928,34.7725],[-90.4941,34.7576],[-90.5242,34.7314],[-90.5167,34.7272],[-90.5,34.7217],[-90.4833,34.7222],[-90.4602,34.7295],[-90.4482,34.7401],[-90.4518,34.7542],[-90.4766,34.794],[-90.4704,34.8116],[-90.4554,34.8208],[-90.4835,34.8605],[-90.4809,34.8816],[-90.4623,34.8917],[-90.4366,34.8827],[-90.4294,34.8664],[-90.4497,34.8399],[-90.4387,34.8252],[-90.3894,34.8307],[-90.3384,34.8585],[-90.3224,34.8461],[-90.3085,34.8455],[-90.3029,34.8575],[-90.3151,34.8641],[-90.3177,34.8711],[-90.2579,34.8934],[-90.2465,34.9034],[-90.2413,34.919],[-90.2452,34.9479],[-90.2952,34.9756],[-90.3078,34.9929],[-90.3102,35.007],[-90.2966,35.0387],[-90.2655,35.0406],[-90.2518,35.0316],[-90.207,35.0258],[-90.1812,35.0539],[-90.1793,35.0678],[-90.1878,35.0732],[-90.174,35.1143],[-90.1679,35.1211],[-90.1387,35.1315],[-90.1053,35.1196],[-90.0919,35.1195],[-90.0662,35.1392],[-90.0682,35.1557],[-90.1007,35.1706],[-90.1172,35.1883],[-90.1159,35.1987],[-90.0968,35.1948],[-90.0888,35.2122],[-90.0803,35.2085],[-90.0758,35.2131],[-90.0755,35.2202],[-90.0911,35.245],[-90.1084,35.2553],[-90.1489,35.2543],[-90.1689,35.2797],[-90.1641,35.2955],[-90.1573,35.3015],[-90.1386,35.299],[-90.11,35.305],[-90.0954,35.3507],[-90.0783,35.3749],[-90.0842,35.3887],[-90.1131,35.4106],[-90.1286,35.4138],[-90.1405,35.4096],[-90.146,35.4003],[-90.1357,35.3767],[-90.1653,35.374],[-90.1785,35.3821],[-90.1689,35.4219],[-90.1401,35.4368],[-90.5024,35.4416],[-90.5065,35.1788],[-90.5022,35.1788],[-90.503,35.1433],[-90.6115,35.1452],[-90.6135,35.1036],[-90.6103,35.0956],[-90.6192,35.0862],[-90.6201,35.0373],[-90.6249,35.0156],[-90.6617,35.0149],[-90.6727,35.0222],[-90.6728,35.0184],[-90.7281,35.022],[-90.728,35.0324],[-90.7897,35.0363],[-90.7898,35.0225],[-90.7986,35.0227],[-90.7987,35.0154],[-90.8078,35.0156],[-90.8082,35.001],[-90.827,34.9953],[-90.8258,34.9866],[-90.8185,34.9865],[-90.8187,34.9778],[-90.8082,34.9777],[-90.8084,34.9643],[-90.7907,34.964],[-90.7915,34.9057],[-90.8411,34.9063],[-90.8359,34.9036],[-90.8377,34.8977],[-90.833,34.8982],[-90.8354,34.893],[-90.8244,34.8861],[-90.8274,34.8814],[-90.8201,34.8762],[-90.8123,34.8801],[-90.8075,34.876],[-90.8022,34.865],[-90.8102,34.8593],[-90.8008,34.8572],[-90.8035,34.8452],[-90.7959,34.838],[-90.797,34.8182],[-90.8372,34.8185],[-90.8382,34.7013],[-90.7675,34.7013],[-90.7681,34.6426],[-91.052,34.6457],[-91.0548,34.4708],[-91.0003,34.4694],[-91.0027,34.3364],[-91.0563,34.3367],[-91.0544,34.3224],[-91.0644,34.3188],[-91.0546,34.3178],[-91.0524,34.3122],[-91.0649,34.3109],[-91.0584,34.2892],[-91.0648,34.2879],[-91.0651,34.2961],[-91.0707,34.298],[-91.0779,34.2823],[-91.0735,34.2788],[-91.0752,34.2676],[-91.0645,34.2649],[-91.0686,34.2603],[-91.0627,34.255],[-91.0701,34.2497],[-91.0793,34.2507],[-91.0658,34.2395],[-91.0667,34.2246],[-91.0606,34.2168],[-91.0692,34.2122],[-91.0727,34.1984],[-91.0786,34.1967],[-91.0869,34.2022],[-91.0943,34.1883],[-91.087,34.1809],[-91.094,34.1752],[-91.0832,34.1612],[-91.0903,34.1541],[-91.0785,34.1442],[-91.0957,34.1408],[-91.1001,34.1294],[-91.1106,34.1314],[-91.1179,34.1191]]]},"properties":{"geoid":"05009","state":"05","district":"9","name":"State Senate District 9","chamber":"Senate"}},{"type":"Feature","geometry":{"type":"Polygon","coordinates":[[[-91.9109,34.9676],[-91.8915,34.966],[-91.8917,34.9515],[-91.8828,34.9514],[-91.883,34.9369],[-91.8742,34.9367],[-91.8741,34.9222],[-91.8037,34.9215],[-91.8065,34.7889],[-91.8185,34.7837],[-91.8321,34.7854],[-91.8336,34.7797],[-91.8514,34.7826],[-91.8515,34.7769],[-91.8426,34.7766],[-91.8454,34.6745],[-91.8487,34.6729],[-91.846,34.6593],[-91.7731,34.6584],[-91.7739,34.6004],[-91.738,34.5998],[-91.7392,34.5406],[-91.6453,34.5378],[-91.6678,34.5218],[-91.679,34.5073],[-91.6757,34.5043],[-91.6811,34.4994],[-91.6793,34.4924],[-91.6835,34.4928],[-91.6748,34.4838],[-91.6782,34.4819],[-91.5955,34.4805],[-91.5957,34.4655],[-91.511,34.464],[-91.4102,34.4196],[-91.4088,34.4094],[-91.3998,34.4094],[-91.4033,34.2668],[-91.2799,34.269],[-91.2805,34.2458],[-91.2639,34.2456],[-91.2639,34.2529],[-91.2104,34.251],[-91.2109,34.2295],[-91.2021,34.2294],[-91.2032,34.1915],[-91.1942,34.1913],[-91.1943,34.1768],[-91.176,34.1711],[-91.1762,34.1564],[-91.1623,34.1563],[-91.1631,34.1183],[-91.1179,34.119],[-91.1106,34.1314],[-91.1001,34.1294],[-91.0957,34.1408],[-91.0785,34.1442],[-91.0903,34.1541],[-91.0832,34.1612],[-91.094,34.1752],[-91.087,34.1809],[-91.0943,34.1883],[-91.0869,34.2022],[-91.0786,34.1967],[-91.0727,34.1984],[-91.0692,34.2122],[-91.0606,34.2168],[-91.0667,34.2246],[-91.0658,34.2395],[-91.0793,34.2507],[-91.0701,34.2497],[-91.0627,34.255],[-91.0686,34.2603],[-91.0645,34.2649],[-91.0752,34.2676],[-91.0735,34.2788],[-91.0779,34.2823],[-91.0707,34.298],[-91.0651,34.2961],[-91.0648,34.2879],[-91.0584,34.2892],[-91.0649,34.3109],[-91.0524,34.3122],[-91.0546,34.3178],[-91.0644,34.3188],[-91.0544,34.3224],[-91.0563,34.3367],[-91.0027,34.3364],[-91.0003,34.4694],[-91.0548,34.4708],[-91.052,34.6457],[-90.7681,34.6426],[-90.7675,34.7013],[-90.8382,34.7013],[-90.8372,34.8185],[-90.797,34.8182],[-90.7959,34.838],[-90.8035,34.8452],[-90.8008,34.8572],[-90.8102,34.8593],[-90.8022,34.865],[-90.8075,34.876],[-90.8123,34.8801],[-90.8201,34.8762],[-90.8274,34.8814],[-90.8244,34.8861],[-90.8354,34.893],[-90.833,34.8982],[-90.8377,34.8977],[-90.8359,34.9036],[-90.8411,34.9063],[-90.7915,34.9057],[-90.7907,34.964],[-90.8084,34.9643],[-90.8082,34.9777],[-90.8187,34.9778],[-90.8185,34.9865],[-90.8258,34.9866],[-90.827,34.9953],[-90.8082,35.001],[-90.8078,35.0156],[-90.7987,35.0154],[-90.7986,35.0227],[-90.7898,35.0225],[-90.7897,35.0363],[-90.728,35.0324],[-90.7281,35.022],[-90.6728,35.0184],[-90.6727,35.0222],[-90.6617,35.0149],[-90.6249,35.0156],[-90.6201,35.0373],[-90.6192,35.0862],[-90.6103,35.0956],[-90.6135,35.1036],[-90.6115,35.1452],[-90.503,35.1433],[-90.5022,35.1788],[-90.5065,35.1788],[-90.5024,35.4416],[-90.6109,35.4417],[-90.6108,35.4488],[-90.615,35.4489],[-90.8238,35.4457],[-90.822,35.5793],[-90.9301,35.5798],[-90.9301,35.6163],[-90.9384,35.6229],[-90.9302,35.6232],[-90.9294,35.7065],[-91.037,35.7084],[-91.0326,35.885],[-91.1985,35.89],[-91.2029,35.8878],[-91.198,35.8838],[-91.211,35.883],[-91.2058,35.8723],[-91.2101,35.8729],[-91.2129,35.8818],[-91.2185,35.8808],[-91.2097,35.8627],[-91.2216,35.8517],[-91.2088,35.8493],[-91.2285,35.8434],[-91.2356,35.8333],[-91.2483,35.8336],[-91.2469,35.8287],[-91.2323,35.8245],[-91.2394,35.8212],[-91.2306,35.8139],[-91.2546,35.8079],[-91.2595,35.8111],[-91.2612,35.804],[-91.2493,35.803],[-91.2478,35.799],[-91.2712,35.7882],[-91.281,35.792],[-91.2818,35.7849],[-91.2883,35.781],[-91.2801,35.7743],[-91.2909,35.7731],[-91.291,35.7656],[-91.3124,35.765],[-91.3107,35.757],[-91.3186,35.7563],[-91.3181,35.7492],[-91.3334,35.7402],[-91.3276,35.7309],[-91.3334,35.725],[-91.3323,35.7182],[-91.3404,35.7123],[-91.3426,35.7203],[-91.3468,35.7209],[-91.3485,35.712],[-91.3539,35.7095],[-91.3556,35.6954],[-91.3469,35.6876],[-91.3473,35.6799],[-91.3533,35.6784],[-91.3426,35.6721],[-91.347,35.6653],[-91.3381,35.6639],[-91.3402,35.6523],[-91.3229,35.6475],[-91.3212,35.6395],[-91.3469,35.6363],[-91.3597,35.6422],[-91.3689,35.64],[-91.3697,35.5264],[-91.5821,35.5303],[-91.5845,35.4423],[-91.3473,35.4391],[-91.3578,35.4293],[-91.3455,35.4242],[-91.3504,35.4104],[-91.3566,35.4082],[-91.3621,35.4126],[-91.3656,35.4305],[-91.3722,35.4211],[-91.3688,35.4079],[-91.4007,35.3931],[-91.3844,35.3793],[-91.3849,35.3747],[-91.3922,35.3751],[-91.4046,35.3862],[-91.4105,35.3852],[-91.4257,35.3751],[-91.4224,35.3693],[-91.411,35.3678],[-91.4104,35.3615],[-91.4358,35.3712],[-91.4362,35.3637],[-91.4232,35.3569],[-91.4448,35.3463],[-91.441,35.3393],[-91.4308,35.3379],[-91.4248,35.3318],[-91.4356,35.3138],[-91.4272,35.3109],[-91.4383,35.3054],[-91.4374,35.2961],[-91.4287,35.2931],[-91.4128,35.3033],[-91.4118,35.2648],[-91.4006,35.2646],[-91.3882,35.2513],[-91.3797,35.2556],[-91.3785,35.2671],[-91.371,35.2629],[-91.389,35.2361],[-91.3782,35.2223],[-91.3948,35.2216],[-91.3799,35.2157],[-91.3906,35.2022],[-91.3776,35.1971],[-91.379,35.1894],[-91.3937,35.1932],[-91.3967,35.2116],[-91.4041,35.2147],[-91.4131,35.1943],[-91.4304,35.1932],[-91.4264,35.1839],[-91.4359,35.1824],[-91.4213,35.1774],[-91.4377,35.1654],[-91.454,35.1699],[-91.4631,35.1611],[-91.4597,35.1552],[-91.4339,35.1529],[-91.4349,35.1438],[-91.4286,35.1367],[-91.438,35.1351],[-91.4483,35.1415],[-91.4519,35.1367],[-91.4389,35.1184],[-91.4441,35.1049],[-91.4368,35.1046],[-91.4284,35.1116],[-91.4248,35.1036],[-91.452,35.1021],[-91.4521,35.0883],[-91.4598,35.0922],[-91.4617,35.1026],[-91.4653,35.0895],[-91.584,35.0916],[-91.5852,35.0252],[-91.6034,35.0263],[-91.6082,35.0206],[-91.6402,35.0271],[-91.6441,35.0429],[-91.6573,35.0522],[-91.6694,35.0547],[-91.68,35.0505],[-91.6889,35.0567],[-91.6868,35.0599],[-91.7013,35.063],[-91.7109,35.0628],[-91.7446,35.0471],[-91.7658,35.0501],[-91.7894,35.0395],[-91.7997,35.0422],[-91.8025,35.0307],[-91.8113,35.0335],[-91.8752,35.0235],[-91.8908,35.0309],[-91.8911,35.0153],[-91.9002,35.0152],[-91.9,34.9879],[-91.9107,34.9881],[-91.9109,34.9676]]]},"properties":{"geoid":"05010","state":"05","district":"10","name":"State Senate District 10","chamber":"Senate"}},{"type":"Feature","geometry":{"type":"Polygon","coordinates":[[[-92.235,34.885],[-92.2214,34.8834],[-92.2083,34.8725],[-92.1969,34.8721],[-92.1907,34.8807],[-92.145,34.8818],[-92.1442,34.8901],[-92.1388,34.89],[-92.1388,34.8865],[-92.1249,34.8862],[-92.1284,34.8675],[-92.1123,34.8658],[-92.1094,34.878],[-92.1009,34.8799],[-92.0959,34.8759],[-92.0892,34.8804],[-92.0885,34.8669],[-92.0744,34.8666],[-92.0788,34.7218],[-92.0971,34.722],[-92.0928,34.7047],[-92.0971,34.6847],[-92.0352,34.6839],[-92.0345,34.6911],[-92.0261,34.6915],[-91.9359,34.6899],[-91.9358,34.6607],[-91.846,34.6593],[-91.8487,34.6731],[-91.8454,34.6745],[-91.8426,34.7766],[-91.8515,34.7769],[-91.8514,34.7826],[-91.8336,34.7797],[-91.8321,34.7854],[-91.8185,34.7837],[-91.8065,34.7889],[-91.8037,34.9215],[-91.8741,34.9222],[-91.8742,34.9367],[-91.883,34.9369],[-91.8828,34.9514],[-91.8917,34.9515],[-91.8915,34.966],[-91.9109,34.9663],[-91.9107,34.9881],[-91.9,34.9879],[-91.9002,35.0152],[-91.8911,35.0153],[-91.8924,35.0324],[-91.9026,35.0277],[-91.9284,35.0469],[-91.9388,35.0437],[-91.955,35.046],[-91.9619,35.0523],[-91.9702,35.0496],[-91.9847,35.0601],[-92.0016,35.0624],[-92.0129,35.0763],[-92.0502,35.0671],[-92.0683,35.0752],[-92.0761,35.0747],[-92.0891,35.0648],[-92.1033,35.0688],[-92.1061,35.0654],[-92.1194,35.0669],[-92.1215,35.0122],[-92.2272,35.0146],[-92.2299,34.9275],[-92.2164,34.9271],[-92.2303,34.9107],[-92.235,34.885]]]},"properties":{"geoid":"05011","state":"05","district":"11","name":"State Senate District 11","chamber":"Senate"}},{"type":"Feature","geometry":{"type":"Polygon","coordinates":[[[-92.4003,34.833],[-92.3918,34.8279],[-92.3922,34.8204],[-92.3801,34.8135],[-92.3762,34.7998],[-92.3562,34.791],[-92.3151,34.7866],[-92.2939,34.7589],[-92.268,34.7482],[-92.27,34.7371],[-92.2883,34.7436],[-92.31,34.7442],[-92.3117,34.7285],[-92.3197,34.7218],[-92.3067,34.7183],[-92.3263,34.6999],[-92.3252,34.6901],[-92.3186,34.6898],[-92.3192,34.661],[-92.3282,34.6509],[-92.3297,34.6366],[-92.3386,34.6312],[-92.3393,34.6223],[-92.3466,34.6227],[-92.3487,34.5823],[-92.2629,34.5812],[-92.2555,34.5878],[-92.2266,34.5947],[-92.1903,34.5941],[-92.1695,34.6113],[-92.1542,34.6144],[-92.1673,34.6269],[-92.1715,34.6405],[-92.1505,34.6776],[-92.1101,34.6743],[-92.0988,34.6624],[-92.0928,34.7047],[-92.0971,34.722],[-92.0788,34.7218],[-92.0744,34.8666],[-92.0885,34.8669],[-92.0892,34.8804],[-92.0959,34.8759],[-92.1009,34.8799],[-92.1094,34.878],[-92.1123,34.8658],[-92.1277,34.8675],[-92.1314,34.8591],[-92.1431,34.851],[-92.1921,34.8257],[-92.2369,34.7775],[-92.2658,34.7808],[-92.2605,34.7827],[-92.2551,34.8002],[-92.2777,34.7978],[-92.2804,34.8126],[-92.3037,34.813],[-92.304,34.8057],[-92.3127,34.8058],[-92.3127,34.8095],[-92.3454,34.827],[-92.3518,34.8242],[-92.3651,34.8283],[-92.3604,34.8354],[-92.369,34.843],[-92.3908,34.8431],[-92.3914,34.836],[-92.4002,34.8363],[-92.4003,34.833]]]},"properties":{"geoid":"05012","state":"05","district":"12","name":"State Senate District 12","chamber":"Senate"}},{"type":"Feature","geometry":{"type":"Polygon","coordinates":[[[-92.4499,34.9015],[-92.4423,34.8706],[-92.4472,34.857],[-92.4151,34.8215],[-92.3922,34.8204],[-92.3918,34.8279],[-92.4002,34.8363],[-92.3914,34.836],[-92.3908,34.8431],[-92.369,34.843],[-92.3604,34.8354],[-92.3651,34.8283],[-92.3518,34.8242],[-92.3454,34.827],[-92.3127,34.8095],[-92.3127,34.8058],[-92.304,34.8057],[-92.3037,34.813],[-92.2804,34.8126],[-92.2777,34.7978],[-92.2551,34.8002],[-92.2605,34.7827],[-92.2658,34.7808],[-92.2392,34.7774],[-92.1929,34.825],[-92.1318,34.8586],[-92.1249,34.8862],[-92.1442,34.8901],[-92.145,34.8818],[-92.1899,34.881],[-92.1969,34.8721],[-92.2083,34.8725],[-92.2216,34.8835],[-92.2355,34.8842],[-92.2303,34.9107],[-92.2164,34.9271],[-92.4191,34.9315],[-92.4131,34.9248],[-92.4178,34.9237],[-92.4143,34.9215],[-92.4178,34.9133],[-92.4365,34.9077],[-92.4371,34.9028],[-92.4379,34.9068],[-92.4393,34.9031],[-92.4433,34.9065],[-92.4499,34.9015]]]},"properties":{"geoid":"05013","state":"05","district":"13","name":"State Senate District 13","chamber":"Senate"}},{"type":"Feature","geometry":{"type":"Polygon","coordinates":[[[-92.4982,34.7859],[-92.4928,34.7762],[-92.4714,34.7622],[-92.4276,34.7544],[-92.4271,34.7441],[-92.391,34.743],[-92.3912,34.7485],[-92.3825,34.7483],[-92.2898,34.7438],[-92.27,34.7371],[-92.268,34.7474],[-92.2939,34.7589],[-92.3151,34.7866],[-92.3562,34.791],[-92.3745,34.8007],[-92.4068,34.8057],[-92.4164,34.81],[-92.4284,34.8242],[-92.436,34.8243],[-92.4362,34.8171],[-92.4522,34.8193],[-92.4472,34.808],[-92.4517,34.8035],[-92.4686,34.8081],[-92.4752,34.8029],[-92.4732,34.789],[-92.4982,34.7859]]]},"properties":{"geoid":"05014","state":"05","district":"14","name":"State Senate District 14","chamber":"Senate"}},{"type":"Feature","geometry":{"type":"Polygon","coordinates":[[[-92.4547,34.7045],[-92.4485,34.6891],[-92.4491,34.6722],[-92.4433,34.672],[-92.4452,34.627],[-92.3393,34.6223],[-92.3386,34.6312],[-92.3297,34.6366],[-92.3282,34.6509],[-92.3192,34.661],[-92.3186,34.6898],[-92.3252,34.6901],[-92.3263,34.6999],[-92.3067,34.7183],[-92.3197,34.7218],[-92.3117,34.7285],[-92.31,34.7442],[-92.3912,34.7485],[-92.391,34.743],[-92.4293,34.7443],[-92.4451,34.7319],[-92.4427,34.723],[-92.4314,34.7155],[-92.4324,34.7062],[-92.4547,34.7045]]]},"properties":{"geoid":"05015","state":"05","district":"15","name":"State Senate District 15","chamber":"Senate"}},{"type":"Feature","geometry":{"type":"Polygon","coordinates":[[[-92.6565,34.707],[-92.6436,34.71],[-92.6394,34.7038],[-92.6455,34.6948],[-92.6373,34.6805],[-92.6394,34.6663],[-92.6329,34.6491],[-92.6193,34.6369],[-92.6193,34.6005],[-92.6042,34.5917],[-92.6136,34.577],[-92.6105,34.5686],[-92.6211,34.5594],[-92.6216,34.5518],[-92.6164,34.5424],[-92.6066,34.5425],[-92.596,34.5307],[-92.5523,34.5561],[-92.5326,34.5557],[-92.5323,34.5703],[-92.3984,34.5691],[-92.3944,34.6117],[-92.3999,34.6144],[-92.3892,34.6175],[-92.3845,34.6263],[-92.4452,34.627],[-92.4433,34.672],[-92.4491,34.6722],[-92.4485,34.6891],[-92.4545,34.707],[-92.4324,34.7062],[-92.4314,34.7155],[-92.4427,34.723],[-92.4451,34.7319],[-92.4385,34.7408],[-92.4294,34.7405],[-92.4276,34.7544],[-92.4724,34.7614],[-92.4727,34.7471],[-92.4847,34.738],[-92.55,34.7452],[-92.5497,34.7617],[-92.6543,34.7645],[-92.6565,34.707]]]},"properties":{"geoid":"05016","state":"05","district":"16","name":"State Senate District 16","chamber":"Senate"}},{"type":"Feature","geometry":{"type":"Polygon","coordinates":[[[-92.7554,34.856],[-92.6512,34.8517],[-92.6543,34.7645],[-92.5497,34.7617],[-92.55,34.7452],[-92.5269,34.741],[-92.4847,34.738],[-92.4727,34.747],[-92.4702,34.7617],[-92.4928,34.7762],[-92.4982,34.7861],[-92.4732,34.789],[-92.4764,34.8017],[-92.4686,34.8081],[-92.4517,34.8035],[-92.4472,34.808],[-92.4522,34.8193],[-92.4362,34.8171],[-92.436,34.8243],[-92.4284,34.8242],[-92.4162,34.8098],[-92.3762,34.7998],[-92.3826,34.8165],[-92.4151,34.8215],[-92.4473,34.8578],[-92.4422,34.8691],[-92.4496,34.9033],[-92.4433,34.9065],[-92.4391,34.9031],[-92.4381,34.9069],[-92.4371,34.9028],[-92.4365,34.9077],[-92.4178,34.9133],[-92.4143,34.9215],[-92.4178,34.9237],[-92.4131,34.9248],[-92.4191,34.9315],[-92.353,34.9298],[-92.3526,34.9595],[-92.3436,34.9623],[-92.3533,34.9707],[-92.3741,34.9672],[-92.3783,34.9746],[-92.3962,34.9749],[-92.3911,34.9892],[-92.3958,34.9892],[-92.3966,34.9944],[-92.3906,35.0115],[-92.3971,35.0216],[-92.4034,35.0225],[-92.3975,35.0618],[-92.4065,35.062],[-92.4063,35.0676],[-92.3969,35.0663],[-92.3973,35.0727],[-92.3908,35.0726],[-92.3907,35.0761],[-92.3691,35.0753],[-92.3687,35.0885],[-92.3575,35.0916],[-92.3572,35.0971],[-92.3662,35.0973],[-92.3655,35.1084],[-92.3964,35.1126],[-92.3961,35.1198],[-92.4072,35.12],[-92.4005,35.1274],[-92.3996,35.1578],[-92.43,35.1538],[-92.4378,35.1554],[-92.4382,35.1597],[-92.4625,35.1607],[-92.4661,35.1565],[-92.4742,35.1647],[-92.4835,35.1628],[-92.4859,35.1671],[-92.4977,35.1648],[-92.4994,35.1695],[-92.5062,35.1688],[-92.5015,35.1631],[-92.5041,35.1475],[-92.5132,35.1437],[-92.5059,35.1384],[-92.5159,35.129],[-92.5212,35.1151],[-92.5343,35.1149],[-92.5431,35.1261],[-92.5547,35.1165],[-92.5407,35.0877],[-92.5475,35.0511],[-92.5632,35.0329],[-92.5912,35.0156],[-92.599,35.0022],[-92.5844,34.9715],[-92.5639,34.9582],[-92.5442,34.9529],[-92.5446,34.9364],[-92.6481,34.9392],[-92.6496,34.9102],[-92.7539,34.9116],[-92.7554,34.856]]]},"properties":{"geoid":"05017","state":"05","district":"17","name":"State Senate District 17","chamber":"Senate"}},{"type":"Feature","geometry":{"type":"Polygon","coordinates":[[[-92.2528,35.3637],[-92.182,35.3626],[-92.1859,35.2461],[-92.1676,35.2459],[-92.168,35.217],[-92.1638,35.2155],[-92.1641,35.2056],[-92.1685,35.2055],[-92.17,35.1441],[-92.1615,35.1438],[-92.1623,35.1146],[-92.136,35.1141],[-92.1368,35.0854],[-92.1412,35.0853],[-92.1417,35.0708],[-92.1465,35.065],[-92.1271,35.0621],[-92.1033,35.0688],[-92.0891,35.0648],[-92.0748,35.0751],[-92.0602,35.074],[-92.0502,35.0671],[-92.0129,35.0763],[-91.9958,35.059],[-91.9847,35.0601],[-91.9795,35.0533],[-91.9702,35.0496],[-91.9619,35.0523],[-91.9495,35.0445],[-91.9284,35.0469],[-91.9026,35.0277],[-91.8947,35.0329],[-91.8752,35.0235],[-91.8113,35.0335],[-91.8025,35.0307],[-91.7997,35.0422],[-91.7894,35.0395],[-91.7658,35.0501],[-91.7446,35.0471],[-91.7109,35.0628],[-91.7013,35.063],[-91.6868,35.0599],[-91.6889,35.0567],[-91.68,35.0505],[-91.6694,35.0547],[-91.6573,35.0522],[-91.6441,35.0429],[-91.6402,35.0271],[-91.6082,35.0206],[-91.6034,35.0263],[-91.5852,35.0252],[-91.584,35.0916],[-91.4653,35.0895],[-91.4617,35.1026],[-91.4598,35.0922],[-91.4521,35.0883],[-91.452,35.1021],[-91.4245,35.104],[-91.4284,35.1116],[-91.4368,35.1046],[-91.4441,35.1049],[-91.4389,35.1184],[-91.4519,35.1367],[-91.4483,35.1415],[-91.438,35.1351],[-91.4286,35.1367],[-91.4349,35.1438],[-91.4339,35.1529],[-91.4597,35.1552],[-91.4631,35.1611],[-91.454,35.1699],[-91.4377,35.1654],[-91.4213,35.1774],[-91.4359,35.1824],[-91.4264,35.1839],[-91.4304,35.1932],[-91.4131,35.1943],[-91.4041,35.2147],[-91.3967,35.2116],[-91.3937,35.1932],[-91.379,35.1894],[-91.3776,35.1971],[-91.3906,35.2022],[-91.3799,35.2157],[-91.3948,35.2216],[-91.3782,35.2223],[-91.389,35.2361],[-91.371,35.2629],[-91.3785,35.2671],[-91.3797,35.2556],[-91.3882,35.2513],[-91.4006,35.2646],[-91.4118,35.2648],[-91.4128,35.3033],[-91.4287,35.2931],[-91.4374,35.2961],[-91.4383,35.3054],[-91.4272,35.3109],[-91.4356,35.3138],[-91.4248,35.3318],[-91.4308,35.3379],[-91.441,35.3393],[-91.4448,35.3463],[-91.4232,35.3569],[-91.4362,35.3637],[-91.4358,35.3712],[-91.4104,35.3615],[-91.411,35.3678],[-91.4224,35.3693],[-91.4257,35.3751],[-91.4105,35.3852],[-91.4046,35.3862],[-91.3922,35.3751],[-91.3845,35.3751],[-91.4007,35.3931],[-91.3688,35.4079],[-91.3722,35.4211],[-91.3678,35.4297],[-91.3628,35.4289],[-91.3634,35.4149],[-91.3567,35.4083],[-91.3488,35.4121],[-91.3453,35.4236],[-91.3577,35.4289],[-91.3473,35.4391],[-91.5845,35.4423],[-91.5821,35.5303],[-91.7936,35.5341],[-91.796,35.4556],[-91.8189,35.4498],[-91.8291,35.4547],[-91.8355,35.4418],[-91.8527,35.435],[-91.8669,35.4377],[-91.8623,35.4419],[-91.869,35.4531],[-91.8834,35.4581],[-91.8929,35.4528],[-91.9302,35.4598],[-91.9578,35.4549],[-91.9929,35.4691],[-92.0008,35.4775],[-92.0194,35.4694],[-92.0288,35.4719],[-92.0377,35.4781],[-92.0375,35.4919],[-92.0536,35.4926],[-92.0595,35.4886],[-92.0677,35.4928],[-92.062,35.4984],[-92.0719,35.5007],[-92.0739,35.5243],[-92.0905,35.5295],[-92.1074,35.5262],[-92.1075,35.5229],[-92.1432,35.5225],[-92.1442,35.4649],[-92.1891,35.4647],[-92.1898,35.4355],[-92.2508,35.4363],[-92.2528,35.3637]]]},"properties":{"geoid":"05018","state":"05","district":"18","name":"State Senate District 18","chamber":"Senate"}},{"type":"Feature","geometry":{"type":"Polygon","coordinates":[[[-91.037,35.7084],[-90.9294,35.7065],[-90.9302,35.6232],[-90.9384,35.6229],[-90.9301,35.6163],[-90.9301,35.5798],[-90.822,35.5793],[-90.8238,35.4457],[-90.615,35.4489],[-90.6108,35.4488],[-90.6109,35.4417],[-90.1401,35.4368],[-90.1294,35.4421],[-90.1146,35.4722],[-90.1075,35.477],[-90.088,35.4786],[-90.079,35.4769],[-90.0672,35.4648],[-90.0741,35.4341],[-90.062,35.4152],[-90.0695,35.4081],[-90.0543,35.3893],[-90.0416,35.3966],[-90.0568,35.4039],[-90.0481,35.4117],[-90.0027,35.43],[-90.0125,35.4637],[-90.0362,35.4837],[-90.0482,35.5038],[-90.0495,35.5202],[-90.0386,35.5492],[-90.0079,35.5601],[-89.9897,35.5602],[-89.9581,35.5412],[-89.9587,35.5238],[-89.9265,35.5116],[-89.9089,35.5142],[-89.9021,35.5281],[-89.9051,35.5365],[-89.9134,35.5359],[-89.9107,35.5475],[-89.9421,35.557],[-89.9576,35.5885],[-89.9444,35.6022],[-89.9113,35.6176],[-89.8906,35.6163],[-89.8578,35.6337],[-89.8526,35.6412],[-89.8514,35.6581],[-89.8613,35.6702],[-89.8764,35.6667],[-89.8853,35.6547],[-89.8989,35.6509],[-89.9322,35.663],[-89.9558,35.6904],[-89.9576,35.7276],[-89.9113,35.7586],[-89.8928,35.7506],[-89.8673,35.7569],[-89.8524,35.7554],[-89.8503,35.7465],[-89.8387,35.7421],[-89.8007,35.7572],[-89.7996,35.7883],[-89.7817,35.8052],[-89.7654,35.8112],[-89.7282,35.8027],[-89.694,35.8252],[-89.6974,35.8367],[-89.77,35.8618],[-89.7741,35.8725],[-89.7652,35.8931],[-89.7445,35.9107],[-89.7278,35.9112],[-89.7131,35.9051],[-89.6764,35.8767],[-89.6633,35.8747],[-89.6446,35.8874],[-89.6416,35.9113],[-89.6522,35.9291],[-89.7185,35.9631],[-89.7229,35.9891],[-89.7331,36.0008],[-90.3779,35.9957],[-90.3862,35.988],[-90.3873,35.9647],[-90.6228,35.9659],[-90.6237,35.9489],[-90.6368,35.9402],[-90.6433,35.9295],[-90.6037,35.9291],[-90.6045,35.8785],[-90.6221,35.8786],[-90.6224,35.8714],[-90.6134,35.8714],[-90.6137,35.8605],[-90.6416,35.8263],[-90.642,35.8119],[-90.6365,35.807],[-90.6512,35.8071],[-90.6518,35.7922],[-90.6607,35.792],[-90.661,35.7743],[-90.6665,35.7742],[-90.661,35.7706],[-90.6613,35.7633],[-90.7033,35.7633],[-90.7177,35.7702],[-90.7233,35.7667],[-90.7371,35.7705],[-90.7392,35.7668],[-90.7414,35.7705],[-90.7549,35.7707],[-90.7547,35.7779],[-90.7859,35.778],[-90.7843,35.8357],[-90.7749,35.8358],[-90.7748,35.8429],[-90.7663,35.8431],[-90.7661,35.8481],[-90.7806,35.8609],[-90.7853,35.8797],[-91.0326,35.885],[-91.037,35.7084]]]},"properties":{"geoid":"05019","state":"05","district":"19","name":"State Senate District 19","chamber":"Senate"}},{"type":"Feature","geometry":{"type":"Polygon","coordinates":[[[-90.8728,35.8816],[-90.7853,35.8797],[-90.7806,35.8609],[-90.7661,35.8481],[-90.7663,35.8431],[-90.7748,35.8429],[-90.7749,35.8358],[-90.7843,35.8357],[-90.7859,35.778],[-90.7547,35.7779],[-90.7549,35.7707],[-90.7414,35.7705],[-90.7392,35.7668],[-90.7371,35.7705],[-90.7233,35.7667],[-90.7177,35.7702],[-90.7033,35.7633],[-90.6613,35.7633],[-90.661,35.7706],[-90.6665,35.7742],[-90.661,35.7743],[-90.6607,35.792],[-90.6518,35.7922],[-90.6512,35.8071],[-90.6365,35.807],[-90.642,35.8119],[-90.6416,35.8263],[-90.6137,35.8605],[-90.6134,35.8714],[-90.6224,35.8714],[-90.6221,35.8786],[-90.6045,35.8785],[-90.6036,35.9289],[-90.6433,35.9295],[-90.6368,35.9402],[-90.6237,35.9489],[-90.6228,35.9659],[-90.852,35.9679],[-90.8545,35.9591],[-90.8615,35.9556],[-90.8569,35.95],[-90.8648,35.9473],[-90.8602,35.9426],[-90.8659,35.9412],[-90.8602,35.9252],[-90.8722,35.9244],[-90.8728,35.8816]]]},"properties":{"geoid":"05020","state":"05","district":"20","name":"State Senate District 20","chamber":"Senate"}},{"type":"Feature","geometry":{"type":"Polygon","coordinates":[[[-91.4071,36.4896],[-91.3982,36.4871],[-91.3985,36.4799],[-91.3805,36.4796],[-91.3806,36.4724],[-91.3619,36.4722],[-91.3619,36.4649],[-91.3574,36.4651],[-91.3576,36.4504],[-91.3532,36.4504],[-91.3534,36.4356],[-91.3489,36.4356],[-91.3491,36.4209],[-91.3087,36.4204],[-91.3101,36.3898],[-91.2915,36.3892],[-91.2924,36.3747],[-91.2749,36.3746],[-91.276,36.3309],[-91.2585,36.3309],[-91.2591,36.2579],[-91.2409,36.2577],[-91.2419,36.2257],[-91.2343,36.2419],[-91.2279,36.2352],[-91.2268,36.2245],[-91.2039,36.2186],[-91.1983,36.2212],[-91.1953,36.2125],[-91.1853,36.2064],[-91.1612,36.2048],[-91.1555,36.1965],[-91.1575,36.1901],[-91.144,36.1805],[-91.1487,36.1777],[-91.1449,36.1695],[-91.1363,36.1678],[-91.1329,36.1606],[-91.126,36.1606],[-91.1197,36.1537],[-91.083,36.151],[-91.0861,36.1324],[-91.0787,36.1254],[-91.0718,36.1262],[-91.0811,36.1217],[-91.0739,36.1151],[-91.0815,36.1134],[-91.0816,36.0964],[-91.0897,36.0957],[-91.0592,36.0923],[-91.0595,36.0838],[-91.0285,36.077],[-91.0286,36.0697],[-90.9941,36.0684],[-90.9941,36.061],[-90.9674,36.0599],[-91.0186,35.9884],[-90.9415,35.9857],[-90.9405,36.0212],[-90.932,36.0268],[-90.8652,35.9804],[-90.8624,35.9833],[-90.8497,35.972],[-90.852,35.9679],[-90.3873,35.9647],[-90.386,35.9885],[-90.3518,36.0251],[-90.3543,36.0303],[-90.3483,36.0351],[-90.3482,36.0416],[-90.3369,36.0472],[-90.3333,36.0676],[-90.3206,36.0713],[-90.3196,36.0896],[-90.3002,36.0977],[-90.2931,36.1144],[-90.273,36.1168],[-90.2354,36.1394],[-90.2312,36.1536],[-90.2353,36.1595],[-90.2203,36.1845],[-90.2044,36.1869],[-90.2002,36.1965],[-90.1881,36.2055],[-90.1695,36.2141],[-90.1557,36.2138],[-90.1419,36.2277],[-90.1263,36.2292],[-90.1248,36.2353],[-90.1309,36.2414],[-90.124,36.2431],[-90.1171,36.2635],[-90.0835,36.2721],[-90.0757,36.2811],[-90.079,36.2899],[-90.0642,36.3026],[-90.0695,36.3133],[-90.0824,36.322],[-90.0755,36.3343],[-90.078,36.3493],[-90.068,36.3565],[-90.0635,36.3671],[-90.0628,36.3772],[-90.0667,36.378],[-90.0635,36.3841],[-90.0815,36.4011],[-90.1156,36.4058],[-90.1136,36.4096],[-90.1189,36.4125],[-90.1287,36.4114],[-90.1274,36.4167],[-90.1385,36.4137],[-90.1344,36.4229],[-90.1443,36.426],[-90.1343,36.4365],[-90.1373,36.4502],[-90.134,36.4538],[-90.141,36.4585],[-90.143,36.468],[-90.145,36.4629],[-90.1554,36.4638],[-90.153,36.4708],[-90.1424,36.4714],[-90.1442,36.4762],[-90.1595,36.4802],[-90.1601,36.4875],[-90.1562,36.4891],[-90.1601,36.4944],[-90.1535,36.493],[-90.1523,36.498],[-91.406,36.4971],[-91.4071,36.4896]]]},"properties":{"geoid":"05021","state":"05","district":"21","name":"State Senate District 21","chamber":"Senate"}},{"type":"Feature","geometry":{"type":"Polygon","coordinates":[[[-92.2012,35.5884],[-92.1977,35.5699],[-92.1879,35.5523],[-92.1546,35.5236],[-92.1075,35.5229],[-92.1043,35.5272],[-92.0786,35.5282],[-92.073,35.5226],[-92.0719,35.5007],[-92.0625,35.5003],[-92.0677,35.4928],[-92.0595,35.4886],[-92.0536,35.4926],[-92.0375,35.4919],[-92.0377,35.4781],[-92.0288,35.4719],[-92.0194,35.4694],[-92.0008,35.4775],[-91.9929,35.4691],[-91.9578,35.4549],[-91.9302,35.4598],[-91.8929,35.4528],[-91.8834,35.4581],[-91.869,35.4531],[-91.8623,35.4419],[-91.8669,35.4377],[-91.8527,35.435],[-91.8355,35.4418],[-91.8291,35.4547],[-91.8189,35.4498],[-91.796,35.4556],[-91.7936,35.5341],[-91.3697,35.5264],[-91.3689,35.64],[-91.3597,35.6422],[-91.3469,35.6363],[-91.3212,35.6395],[-91.3229,35.6475],[-91.3402,35.6523],[-91.3381,35.6639],[-91.347,35.6653],[-91.3426,35.6721],[-91.3533,35.6784],[-91.3473,35.6799],[-91.3469,35.6876],[-91.3556,35.6954],[-91.3539,35.7095],[-91.3485,35.712],[-91.3468,35.7209],[-91.3426,35.7203],[-91.3404,35.7123],[-91.3323,35.7182],[-91.3334,35.725],[-91.3276,35.7309],[-91.3334,35.7402],[-91.3181,35.7492],[-91.3186,35.7563],[-91.3107,35.757],[-91.3124,35.765],[-91.291,35.7656],[-91.2909,35.7731],[-91.2801,35.7743],[-91.2883,35.781],[-91.2818,35.7849],[-91.281,35.792],[-91.2712,35.7882],[-91.2478,35.799],[-91.2493,35.803],[-91.2612,35.804],[-91.2595,35.8111],[-91.2546,35.8079],[-91.2306,35.8139],[-91.2393,35.8208],[-91.2324,35.8246],[-91.2469,35.8287],[-91.2485,35.8331],[-91.2356,35.8333],[-91.2285,35.8434],[-91.2085,35.8497],[-91.2216,35.8517],[-91.2097,35.8627],[-91.2178,35.8817],[-91.2126,35.8815],[-91.2075,35.8718],[-91.2049,35.8736],[-91.211,35.883],[-91.198,35.8838],[-91.2029,35.8878],[-91.1985,35.89],[-90.8729,35.8809],[-90.8722,35.9244],[-90.8602,35.9252],[-90.8659,35.9412],[-90.8604,35.945],[-90.8648,35.9473],[-90.8569,35.95],[-90.8615,35.9556],[-90.8514,35.9635],[-90.8497,35.972],[-90.932,36.0268],[-90.9405,36.0212],[-90.9415,35.9857],[-91.0186,35.9884],[-90.9674,36.0599],[-90.9941,36.061],[-90.9941,36.0684],[-91.0286,36.0697],[-91.0285,36.077],[-91.0595,36.0838],[-91.0592,36.0923],[-91.0897,36.0957],[-91.0816,36.0964],[-91.0815,36.1134],[-91.0739,36.1151],[-91.0811,36.1217],[-91.0718,36.1262],[-91.0787,36.1254],[-91.0861,36.1324],[-91.083,36.151],[-91.1197,36.1537],[-91.126,36.1606],[-91.1329,36.1606],[-91.1363,36.1678],[-91.1449,36.1695],[-91.1487,36.1777],[-91.144,36.1805],[-91.1575,36.1901],[-91.1555,36.1965],[-91.1612,36.2048],[-91.1853,36.2064],[-91.1953,36.2125],[-91.1983,36.2212],[-91.2039,36.2186],[-91.2268,36.2245],[-91.2279,36.2352],[-91.2343,36.2419],[-91.2419,36.2257],[-91.2409,36.2577],[-91.2591,36.2579],[-91.2585,36.3309],[-91.276,36.3309],[-91.2749,36.3746],[-91.2924,36.3747],[-91.2915,36.3892],[-91.3101,36.3898],[-91.3087,36.4204],[-91.3491,36.4209],[-91.3489,36.4356],[-91.3534,36.4356],[-91.3532,36.4504],[-91.3576,36.4504],[-91.3574,36.4651],[-91.3619,36.4649],[-91.3619,36.4722],[-91.3806,36.4724],[-91.3805,36.4796],[-91.3985,36.4799],[-91.3982,36.4871],[-91.4072,36.4872],[-91.4069,36.4971],[-91.45,36.4977],[-91.4544,36.3355],[-91.7825,36.3414],[-91.7827,36.3125],[-91.8364,36.3133],[-91.8365,36.2551],[-91.7836,36.2542],[-91.783,36.2122],[-91.7924,36.2131],[-91.7923,36.2051],[-91.7833,36.205],[-91.7831,36.1963],[-91.8189,36.1966],[-91.8173,36.1156],[-91.8044,36.1153],[-91.8056,36.0642],[-91.7868,36.0641],[-91.7871,36.0368],[-91.7877,36.0233],[-91.8065,36.0235],[-91.8064,36.0016],[-91.8242,36.0014],[-91.827,35.9613],[-91.8262,35.9432],[-91.7905,35.943],[-91.7918,35.9128],[-91.8495,35.8673],[-91.8503,35.8431],[-91.871,35.8105],[-91.865,35.7705],[-91.8361,35.7489],[-91.8372,35.705],[-92.1036,35.7089],[-92.1055,35.6162],[-92.1204,35.6036],[-92.1546,35.6069],[-92.1553,35.5983],[-92.1607,35.5941],[-92.2012,35.5884]]]},"properties":{"geoid":"05022","state":"05","district":"22","name":"State Senate District 22","chamber":"Senate"}},{"type":"Feature","geometry":{"type":"Polygon","coordinates":[[[-93.0944,36.4108],[-93.088,36.3908],[-93.08,36.3875],[-93.0887,36.3759],[-93.0838,36.3623],[-93.0623,36.3481],[-93.0563,36.327],[-93.0655,36.277],[-93.0468,36.2779],[-93.0128,36.255],[-92.9931,36.2626],[-92.9862,36.2616],[-92.9794,36.2527],[-92.9827,36.2333],[-92.9965,36.2264],[-92.9974,36.2063],[-93.0063,36.207],[-93.0063,36.196],[-92.9884,36.194],[-92.9884,36.1813],[-93.0426,36.1819],[-93.0381,36.16],[-93.0556,36.1601],[-93.056,36.1406],[-93.0601,36.1401],[-93.0607,36.1315],[-93.0651,36.1314],[-93.0653,36.1167],[-92.8369,36.1138],[-92.8378,36.0701],[-92.4115,36.0628],[-92.4144,35.9758],[-92.3072,35.974],[-92.3051,36.0611],[-92.1974,36.0592],[-92.1956,36.133],[-92.1907,36.1262],[-92.1894,36.1056],[-92.1767,36.1022],[-92.1527,36.116],[-92.142,36.1149],[-92.1138,36.0653],[-92.103,36.0592],[-92.0805,36.0571],[-92.0575,36.0356],[-92.0613,36.0256],[-92.0877,36.0219],[-92.0986,36.013],[-92.0982,36.0019],[-92.0857,35.9866],[-92.0829,35.9745],[-92.0878,35.9632],[-92.1102,35.9508],[-92.1134,35.9387],[-92.1076,35.9308],[-92.0924,35.9261],[-92.0727,35.9286],[-92.0389,35.9449],[-92.0298,35.9389],[-92.0264,35.9211],[-92.0155,35.9162],[-91.9994,35.9229],[-91.9856,35.9381],[-91.968,35.9401],[-91.896,35.8825],[-91.8607,35.8812],[-91.8495,35.8673],[-91.7918,35.9128],[-91.7905,35.943],[-91.8262,35.9432],[-91.827,35.9613],[-91.8242,36.0014],[-91.8064,36.0016],[-91.8065,36.0235],[-91.7877,36.0233],[-91.7871,36.0368],[-91.7868,36.0641],[-91.8056,36.0642],[-91.8044,36.1153],[-91.8173,36.1156],[-91.8189,36.1966],[-91.7831,36.1963],[-91.7833,36.205],[-91.7923,36.2051],[-91.7924,36.2131],[-91.783,36.2122],[-91.7836,36.2542],[-91.8365,36.2551],[-91.8364,36.3133],[-91.7827,36.3125],[-91.7825,36.3414],[-91.4544,36.3355],[-91.45,36.4977],[-93.0137,36.4982],[-93.0355,36.474],[-93.0393,36.4814],[-93.0539,36.4769],[-93.0535,36.4574],[-93.0645,36.4669],[-93.0632,36.4511],[-93.0737,36.4585],[-93.0717,36.4505],[-93.0804,36.444],[-93.0741,36.4357],[-93.0889,36.4353],[-93.08,36.428],[-93.0915,36.425],[-93.0874,36.4145],[-93.0944,36.4108]]]},"properties":{"geoid":"05023","state":"05","district":"23","name":"State Senate District 23","chamber":"Senate"}},{"type":"Feature","geometry":{"type":"Polygon","coordinates":[[[-93.2663,36.0768],[-93.2515,36.0762],[-93.2502,36.0653],[-93.2061,36.0643],[-93.2019,36.0532],[-93.1795,36.053],[-93.1723,36.0458],[-93.1754,36.0406],[-93.1639,36.0384],[-93.1655,36.0207],[-93.1619,36.0162],[-93.1427,36.0077],[-93.1164,36.0054],[-93.116,35.99],[-93.0288,35.9871],[-93.0332,35.8142],[-92.9495,35.813],[-92.9514,35.7246],[-92.8097,35.7224],[-92.8135,35.5489],[-92.8493,35.5495],[-92.851,35.463],[-92.4796,35.4556],[-92.4848,35.2756],[-92.494,35.2737],[-92.499,35.267],[-92.4936,35.2665],[-92.5064,35.2581],[-92.5142,35.257],[-92.5035,35.2469],[-92.5043,35.24],[-92.511,35.2399],[-92.5116,35.2451],[-92.5152,35.2331],[-92.5222,35.2315],[-92.5217,35.2276],[-92.5277,35.2308],[-92.5313,35.2253],[-92.5296,35.2193],[-92.523,35.2219],[-92.5252,35.2179],[-92.5191,35.2168],[-92.5276,35.2096],[-92.5244,35.2049],[-92.5291,35.1899],[-92.5002,35.1754],[-92.5034,35.1719],[-92.4979,35.1648],[-92.4743,35.1647],[-92.4665,35.1565],[-92.4625,35.1607],[-92.4382,35.1597],[-92.4378,35.1554],[-92.43,35.1538],[-92.3996,35.1578],[-92.4005,35.1274],[-92.4072,35.12],[-92.3961,35.1198],[-92.3964,35.1126],[-92.3655,35.1084],[-92.3662,35.0973],[-92.3572,35.0971],[-92.3575,35.0916],[-92.3687,35.0885],[-92.3691,35.0753],[-92.3907,35.0761],[-92.3908,35.0726],[-92.3973,35.0727],[-92.3969,35.0663],[-92.4063,35.0676],[-92.4065,35.062],[-92.3975,35.0618],[-92.4034,35.0225],[-92.3971,35.0216],[-92.3906,35.0115],[-92.3966,34.9944],[-92.3958,34.9892],[-92.3911,34.9892],[-92.3962,34.9749],[-92.3783,34.9746],[-92.3741,34.9672],[-92.3535,34.9707],[-92.3434,34.9647],[-92.3458,34.959],[-92.3526,34.9595],[-92.353,34.9298],[-92.2299,34.9275],[-92.2272,35.0146],[-92.1215,35.0122],[-92.1197,35.0666],[-92.1271,35.0621],[-92.1465,35.065],[-92.1417,35.0708],[-92.1412,35.0853],[-92.1368,35.0854],[-92.136,35.1141],[-92.1623,35.1146],[-92.1615,35.1438],[-92.17,35.1441],[-92.1685,35.2055],[-92.1641,35.2056],[-92.1638,35.2155],[-92.168,35.217],[-92.1676,35.2459],[-92.1859,35.2461],[-92.182,35.3626],[-92.2528,35.3636],[-92.2508,35.4363],[-92.1898,35.4355],[-92.1891,35.4647],[-92.1442,35.4649],[-92.1432,35.5225],[-92.1574,35.5252],[-92.1863,35.5502],[-92.1977,35.5699],[-92.2012,35.5884],[-92.1607,35.5941],[-92.1553,35.5983],[-92.1546,35.6069],[-92.1204,35.6036],[-92.1055,35.6162],[-92.1036,35.7089],[-91.8372,35.705],[-91.8361,35.7489],[-91.8645,35.7697],[-91.8696,35.7935],[-91.8688,35.8172],[-91.8499,35.8443],[-91.8495,35.8677],[-91.8555,35.8784],[-91.896,35.8825],[-91.9364,35.9121],[-91.9565,35.9344],[-91.9687,35.9402],[-91.9856,35.9381],[-91.9994,35.9229],[-92.0155,35.9162],[-92.0264,35.9211],[-92.0298,35.9389],[-92.0389,35.9449],[-92.0727,35.9286],[-92.0924,35.9261],[-92.1076,35.9308],[-92.1134,35.9387],[-92.1102,35.9508],[-92.0878,35.9632],[-92.0829,35.9745],[-92.0857,35.9866],[-92.0982,36.0019],[-92.0986,36.013],[-92.0877,36.0219],[-92.0613,36.0256],[-92.0575,36.0356],[-92.0805,36.0571],[-92.103,36.0592],[-92.1138,36.0653],[-92.142,36.1149],[-92.1527,36.116],[-92.1767,36.1022],[-92.1894,36.1056],[-92.1907,36.1262],[-92.1956,36.133],[-92.1974,36.0592],[-92.3051,36.0611],[-92.3072,35.974],[-92.4144,35.9758],[-92.4115,36.0628],[-92.8378,36.0701],[-92.8369,36.1138],[-93.2652,36.1203],[-93.2663,36.0768]]]},"properties":{"geoid":"05024","state":"05","district":"24","name":"State Senate District 24","chamber":"Senate"}},{"type":"Feature","geometry":{"type":"Polygon","coordinates":[[[-93.2989,35.3276],[-93.2412,35.2767],[-93.1998,35.2717],[-93.1829,35.2617],[-93.1744,35.2532],[-93.1766,35.2499],[-93.1811,35.2537],[-93.1812,35.2368],[-93.1901,35.2394],[-93.1901,35.2321],[-93.1813,35.2319],[-93.1813,35.2262],[-93.1726,35.2254],[-93.1707,35.2171],[-93.1628,35.2171],[-93.1564,35.2087],[-93.1602,35.2019],[-93.1399,35.2038],[-93.1366,35.1871],[-93.1198,35.1716],[-93.092,35.1715],[-93.0715,35.1592],[-93.053,35.1567],[-92.9802,35.1718],[-92.9606,35.1698],[-92.943,35.1765],[-92.9199,35.1762],[-92.8964,35.1696],[-92.8551,35.1738],[-92.8431,35.1691],[-92.836,35.1577],[-92.83,35.1322],[-92.8214,35.1192],[-92.8215,35.0983],[-92.8035,35.0874],[-92.804,35.0728],[-92.7062,35.072],[-92.6784,35.0773],[-92.6491,35.1074],[-92.6311,35.1151],[-92.6214,35.1088],[-92.621,35.0981],[-92.6452,35.0843],[-92.6483,35.0773],[-92.6307,35.0759],[-92.6002,35.084],[-92.5748,35.1112],[-92.5544,35.1134],[-92.544,35.126],[-92.5343,35.1149],[-92.5218,35.1145],[-92.5159,35.129],[-92.5059,35.1384],[-92.5132,35.1437],[-92.5042,35.1473],[-92.5015,35.1633],[-92.5073,35.1669],[-92.5005,35.1687],[-92.5034,35.1723],[-92.4998,35.175],[-92.5291,35.1899],[-92.5244,35.2049],[-92.5276,35.2096],[-92.5191,35.2168],[-92.5252,35.2179],[-92.523,35.2219],[-92.5293,35.2192],[-92.5315,35.2247],[-92.5277,35.2308],[-92.5217,35.2276],[-92.5222,35.2315],[-92.5152,35.2331],[-92.5116,35.2451],[-92.511,35.2399],[-92.5043,35.24],[-92.5035,35.2469],[-92.5142,35.257],[-92.5064,35.2581],[-92.4936,35.2665],[-92.499,35.267],[-92.494,35.2737],[-92.4848,35.2756],[-92.4796,35.4556],[-92.851,35.463],[-92.8493,35.5495],[-92.8135,35.5489],[-92.8097,35.7224],[-93.1645,35.7289],[-93.1678,35.5978],[-93.2213,35.5991],[-93.2238,35.4687],[-93.2959,35.47],[-93.2989,35.3276]]]},"properties":{"geoid":"05025","state":"05","district":"25","name":"State Senate District 25","chamber":"Senate"}},{"type":"Feature","geometry":{"type":"Polygon","coordinates":[[[-94.3429,35.2741],[-94.3294,35.2735],[-94.3346,35.2415],[-94.2978,35.2185],[-94.2875,35.1825],[-94.2433,35.1851],[-94.2269,35.1806],[-94.2099,35.1704],[-94.2106,35.1452],[-94.1755,35.1443],[-94.1758,35.1296],[-94.1397,35.129],[-94.1405,35.1],[-94.1338,35.0995],[-94.0683,35.0987],[-94.0678,35.1125],[-94.0321,35.1121],[-94.0317,35.1229],[-93.9914,35.1213],[-93.9818,35.1149],[-93.9675,35.1178],[-93.959,35.1134],[-93.9397,35.1207],[-93.9367,35.114],[-93.9243,35.107],[-93.9246,35.0888],[-93.8934,35.0884],[-93.8928,35.1191],[-93.8883,35.1191],[-93.8851,35.1325],[-93.8689,35.1309],[-93.8573,35.1371],[-93.8336,35.1371],[-93.7972,35.1363],[-93.7969,35.1329],[-93.779,35.1329],[-93.7789,35.1287],[-93.7619,35.1286],[-93.7617,35.1239],[-93.7434,35.1237],[-93.744,35.0911],[-93.739,35.0913],[-93.7284,35.0947],[-93.7248,35.1022],[-93.7076,35.1015],[-93.7068,35.1349],[-93.6633,35.1338],[-93.6629,35.1482],[-93.5297,35.1455],[-93.5291,35.16],[-93.5113,35.1597],[-93.511,35.1742],[-93.4939,35.1739],[-93.4939,35.1808],[-93.4841,35.1806],[-93.4839,35.2019],[-93.4748,35.2016],[-93.4745,35.2098],[-93.4571,35.2086],[-93.457,35.2159],[-93.2799,35.2126],[-93.2782,35.3124],[-93.2989,35.3271],[-93.2959,35.47],[-93.2238,35.4687],[-93.2213,35.5991],[-93.1678,35.5978],[-93.1645,35.7289],[-93.3793,35.7307],[-93.3819,35.6158],[-93.4345,35.6164],[-93.4351,35.6019],[-93.4706,35.603],[-93.471,35.5886],[-93.4532,35.588],[-93.4552,35.5156],[-93.4912,35.5164],[-93.4916,35.502],[-93.589,35.5043],[-93.5899,35.4866],[-93.641,35.498],[-93.7186,35.5],[-93.7454,35.5037],[-93.7453,35.5088],[-93.7899,35.5078],[-93.8192,35.5153],[-93.8054,35.5357],[-93.8814,35.5518],[-93.8824,35.5263],[-93.9149,35.5267],[-93.9366,35.5338],[-93.9877,35.5258],[-94.0368,35.5281],[-94.0289,35.5077],[-94.0488,35.4932],[-94.0402,35.4825],[-94.0574,35.4742],[-94.0395,35.4648],[-94.0506,35.4561],[-94.0837,35.4428],[-94.1153,35.4509],[-94.1404,35.4505],[-94.1596,35.4385],[-94.1584,35.4272],[-94.1406,35.414],[-94.1332,35.4024],[-94.1319,35.3885],[-94.1397,35.3799],[-94.1747,35.3778],[-94.2097,35.3578],[-94.229,35.3533],[-94.2529,35.3561],[-94.2762,35.3435],[-94.2895,35.3453],[-94.3245,35.3654],[-94.3404,35.3591],[-94.3414,35.3238],[-94.3016,35.3254],[-94.2869,35.3184],[-94.2939,35.2962],[-94.32,35.2977],[-94.3429,35.2741]]]},"properties":{"geoid":"05026","state":"05","district":"26","name":"State Senate District 26","chamber":"Senate"}},{"type":"Feature","geometry":{"type":"Polygon","coordinates":[[[-94.4357,35.2756],[-94.373,35.2743],[-94.3628,35.2605],[-94.3346,35.2415],[-94.3294,35.2735],[-94.3429,35.2741],[-94.32,35.2977],[-94.2939,35.2962],[-94.2869,35.3184],[-94.3016,35.3254],[-94.3414,35.3238],[-94.3404,35.3591],[-94.3257,35.3656],[-94.3421,35.3704],[-94.3479,35.3801],[-94.3375,35.4004],[-94.3381,35.4105],[-94.3476,35.4231],[-94.3868,35.4489],[-94.412,35.4483],[-94.4259,35.4362],[-94.4236,35.4105],[-94.4349,35.3881],[-94.4315,35.3694],[-94.4357,35.2756]]]},"properties":{"geoid":"05027","state":"05","district":"27","name":"State Senate District 27","chamber":"Senate"}},{"type":"Feature","geometry":{"type":"Polygon","coordinates":[[[-94.0763,35.5778],[-94.0229,35.5743],[-94.0234,35.5567],[-94.0355,35.5523],[-94.035,35.5455],[-94.0404,35.5437],[-94.0411,35.5312],[-94.0368,35.5281],[-93.9877,35.5258],[-93.9366,35.5338],[-93.9149,35.5267],[-93.8824,35.5263],[-93.8814,35.5518],[-93.8054,35.5357],[-93.8192,35.5153],[-93.8058,35.5109],[-93.7676,35.5066],[-93.7453,35.5088],[-93.7454,35.5037],[-93.7178,35.5],[-93.641,35.498],[-93.5899,35.4866],[-93.589,35.5043],[-93.4916,35.502],[-93.4912,35.5164],[-93.4552,35.5156],[-93.4532,35.588],[-93.471,35.5886],[-93.4706,35.603],[-93.4351,35.6019],[-93.4345,35.6164],[-93.3819,35.6158],[-93.3793,35.7307],[-92.9514,35.7246],[-92.9495,35.813],[-93.0332,35.8142],[-93.0288,35.9871],[-93.116,35.99],[-93.1164,36.0054],[-93.1427,36.0077],[-93.1619,36.0162],[-93.1655,36.0207],[-93.1639,36.0384],[-93.1754,36.0406],[-93.1723,36.0458],[-93.1795,36.053],[-93.2019,36.0532],[-93.2061,36.0643],[-93.2502,36.0653],[-93.2515,36.0762],[-93.2663,36.0766],[-93.2652,36.1203],[-93.0653,36.1167],[-93.0651,36.1314],[-93.0607,36.1315],[-93.0601,36.1401],[-93.056,36.1406],[-93.0556,36.1601],[-93.0381,36.16],[-93.0426,36.1819],[-92.9884,36.1813],[-92.9884,36.194],[-93.0063,36.196],[-93.0063,36.207],[-92.9974,36.2063],[-92.9965,36.2264],[-92.9827,36.2333],[-92.9794,36.2527],[-92.9862,36.2616],[-92.9931,36.2626],[-93.0128,36.255],[-93.0468,36.2779],[-93.0655,36.277],[-93.0563,36.327],[-93.0623,36.3481],[-93.0838,36.3623],[-93.0887,36.3759],[-93.08,36.3875],[-93.0879,36.3907],[-93.0944,36.4107],[-93.0874,36.4145],[-93.0915,36.425],[-93.08,36.428],[-93.0889,36.4353],[-93.0741,36.4357],[-93.0804,36.444],[-93.0717,36.4505],[-93.0737,36.4585],[-93.0632,36.4511],[-93.0645,36.4669],[-93.0535,36.4574],[-93.0539,36.4769],[-93.0393,36.4814],[-93.0355,36.474],[-93.0137,36.4982],[-93.8667,36.4987],[-93.8667,36.3863],[-93.8727,36.3843],[-93.8724,36.3934],[-93.8822,36.3941],[-93.8788,36.3882],[-93.8835,36.3905],[-93.8812,36.3851],[-93.8904,36.3782],[-93.8851,36.3722],[-93.8756,36.3795],[-93.8815,36.3715],[-93.8777,36.3683],[-93.867,36.3766],[-93.8646,36.3449],[-93.8678,36.3433],[-93.8647,36.3419],[-93.8681,36.336],[-93.8623,36.3394],[-93.8624,36.3342],[-93.8528,36.3341],[-93.8587,36.3216],[-93.8558,36.3177],[-93.8493,36.3306],[-93.842,36.325],[-93.8436,36.322],[-93.8331,36.3232],[-93.8327,36.3129],[-93.8215,36.309],[-93.8149,36.3129],[-93.8151,36.3066],[-93.869,36.3074],[-93.8699,36.2348],[-93.8879,36.2351],[-93.9441,36.0911],[-93.9519,35.8331],[-93.9606,35.8333],[-93.9608,35.8269],[-93.9631,35.761],[-93.8923,35.7594],[-93.8929,35.7451],[-93.9112,35.7453],[-93.9117,35.7308],[-93.9642,35.732],[-93.965,35.7033],[-93.9828,35.704],[-93.9842,35.6607],[-94.074,35.6625],[-94.0763,35.5778]]]},"properties":{"geoid":"05028","state":"05","district":"28","name":"State Senate District 28","chamber":"Senate"}},{"type":"Feature","geometry":{"type":"Polygon","coordinates":[[[-94.5075,35.8445],[-94.431,35.3932],[-94.4235,35.4113],[-94.4246,35.4386],[-94.4127,35.448],[-94.3937,35.45],[-94.3823,35.4469],[-94.3404,35.4149],[-94.3373,35.4013],[-94.3483,35.3828],[-94.3433,35.3713],[-94.3176,35.3628],[-94.2851,35.3438],[-94.2694,35.3453],[-94.2518,35.3563],[-94.229,35.3533],[-94.2097,35.3578],[-94.1738,35.3781],[-94.1403,35.3796],[-94.1321,35.388],[-94.1328,35.4012],[-94.1406,35.414],[-94.1584,35.4272],[-94.1616,35.4341],[-94.1575,35.4411],[-94.1382,35.4508],[-94.1145,35.4508],[-94.0846,35.4428],[-94.0599,35.4509],[-94.0395,35.4646],[-94.0576,35.4735],[-94.0402,35.4825],[-94.0488,35.4932],[-94.0289,35.5077],[-94.0411,35.5311],[-94.0407,35.5421],[-94.035,35.5455],[-94.0355,35.5523],[-94.0234,35.5567],[-94.0229,35.5743],[-94.0762,35.5756],[-94.074,35.6625],[-93.9842,35.6607],[-93.9828,35.704],[-93.965,35.7033],[-93.9642,35.732],[-93.9117,35.7308],[-93.9112,35.7453],[-93.8929,35.7451],[-93.8923,35.7594],[-93.9631,35.761],[-93.9606,35.8333],[-93.9519,35.8331],[-93.9441,36.0911],[-93.9272,36.1344],[-94.0511,36.1367],[-94.0515,36.104],[-94.056,36.1041],[-94.0563,36.0896],[-94.0786,36.0902],[-94.0839,36.0852],[-94.0809,36.081],[-94.0855,36.0794],[-94.0778,36.0698],[-94.0681,36.0697],[-94.0605,36.0622],[-94.0645,36.0555],[-94.0741,36.0556],[-94.0734,36.0458],[-94.0834,36.0452],[-94.0836,36.0393],[-94.0881,36.0394],[-94.1004,36.0493],[-94.1052,36.0441],[-94.1177,36.0451],[-94.1224,36.0544],[-94.1359,36.0542],[-94.1404,36.0479],[-94.1644,36.0483],[-94.1679,36.0376],[-94.1577,36.0341],[-94.1556,36.0265],[-94.1878,36.0271],[-94.1964,35.9969],[-94.2156,35.9876],[-94.205,35.9623],[-94.2158,35.9624],[-94.2161,35.9562],[-94.2782,35.9565],[-94.2788,35.9276],[-94.3118,35.9282],[-94.3242,35.9002],[-94.3246,35.8848],[-94.3427,35.8886],[-94.3519,35.8706],[-94.3565,35.8704],[-94.3567,35.8635],[-94.3611,35.8635],[-94.3608,35.8564],[-94.3702,35.8566],[-94.3705,35.8495],[-94.3968,35.8499],[-94.3968,35.8423],[-94.4598,35.8432],[-94.4597,35.8379],[-94.4682,35.8379],[-94.4681,35.8436],[-94.5075,35.8445]]]},"properties":{"geoid":"05029","state":"05","district":"29","name":"State Senate District 29","chamber":"Senate"}},{"type":"Feature","geometry":{"type":"Polygon","coordinates":[[[-94.227,36.0953],[-94.2181,36.0932],[-94.224,36.0788],[-94.2007,36.0783],[-94.2027,36.0694],[-94.1915,36.0475],[-94.1878,36.0271],[-94.1556,36.0265],[-94.1577,36.0341],[-94.1679,36.0376],[-94.1644,36.0483],[-94.1403,36.0479],[-94.1359,36.0542],[-94.1224,36.0544],[-94.1177,36.0451],[-94.1106,36.044],[-94.1004,36.0493],[-94.0836,36.0393],[-94.0834,36.0452],[-94.0734,36.0458],[-94.0741,36.0556],[-94.0645,36.0555],[-94.0605,36.0622],[-94.0681,36.0697],[-94.0799,36.0715],[-94.0855,36.0784],[-94.0808,36.0811],[-94.0837,36.0858],[-94.0786,36.0902],[-94.0563,36.0896],[-94.056,36.1041],[-94.0515,36.104],[-94.0511,36.1367],[-94.0859,36.1373],[-94.086,36.145],[-94.1263,36.1489],[-94.1266,36.1409],[-94.1533,36.1386],[-94.1582,36.12],[-94.1635,36.1235],[-94.167,36.1171],[-94.2195,36.1178],[-94.2195,36.1252],[-94.2251,36.1252],[-94.2214,36.0979],[-94.227,36.0953]]]},"properties":{"geoid":"05030","state":"05","district":"30","name":"State Senate District 30","chamber":"Senate"}},{"type":"Feature","geometry":{"type":"Polygon","coordinates":[[[-94.3349,36.1761],[-94.3351,36.1707],[-94.2684,36.1698],[-94.2653,36.1261],[-94.2415,36.1255],[-94.2409,36.1211],[-94.2406,36.1255],[-94.2195,36.1252],[-94.2195,36.1178],[-94.167,36.1171],[-94.1635,36.1235],[-94.1582,36.12],[-94.1533,36.1386],[-94.1266,36.1409],[-94.1263,36.1489],[-94.086,36.145],[-94.0853,36.1712],[-94.0921,36.1736],[-94.0896,36.1805],[-94.096,36.1929],[-94.0933,36.2095],[-94.3336,36.2147],[-94.3349,36.1761]]]},"properties":{"geoid":"05031","state":"05","district":"31","name":"State Senate District 31","chamber":"Senate"}},{"type":"Feature","geometry":{"type":"Polygon","coordinates":[[[-94.1829,36.3709],[-94.1606,36.3705],[-94.1572,36.356],[-94.1431,36.3557],[-94.1446,36.2977],[-94.1268,36.2971],[-94.1364,36.2687],[-94.1379,36.2103],[-94.0933,36.2095],[-94.096,36.1929],[-94.0896,36.1805],[-94.0921,36.1736],[-94.0853,36.1712],[-94.0859,36.1373],[-93.9272,36.1344],[-93.8879,36.2351],[-93.8699,36.2348],[-93.869,36.3074],[-93.8151,36.3066],[-93.8149,36.3129],[-93.8215,36.309],[-93.8327,36.3129],[-93.8331,36.3232],[-93.8436,36.322],[-93.842,36.325],[-93.8493,36.3306],[-93.8558,36.3177],[-93.8587,36.3216],[-93.8528,36.3341],[-93.8624,36.3342],[-93.8623,36.3394],[-93.8681,36.336],[-93.8647,36.3419],[-93.8678,36.3433],[-93.8646,36.3449],[-93.867,36.3766],[-93.8777,36.3683],[-93.8815,36.3715],[-93.8756,36.3795],[-93.8851,36.3722],[-93.8904,36.3782],[-93.8812,36.3851],[-93.8835,36.3905],[-93.8788,36.3882],[-93.8822,36.3941],[-93.8724,36.3934],[-93.8727,36.3843],[-93.8667,36.3863],[-93.8667,36.4991],[-94.1814,36.4988],[-94.1607,36.4922],[-94.1629,36.4575],[-94.1583,36.4575],[-94.1587,36.4461],[-94.1506,36.439],[-94.1591,36.4218],[-94.1566,36.4053],[-94.1649,36.3944],[-94.1649,36.3858],[-94.1737,36.383],[-94.1829,36.3709]]]},"properties":{"geoid":"05032","state":"05","district":"32","name":"State Senate District 32","chamber":"Senate"}},{"type":"Feature","geometry":{"type":"Polygon","coordinates":[[[-94.4871,36.2417],[-94.4863,36.2384],[-94.468,36.2382],[-94.4733,36.2093],[-94.4778,36.2094],[-94.4778,36.1913],[-94.443,36.1739],[-94.4038,36.1678],[-94.4049,36.1441],[-94.3951,36.1314],[-94.3898,36.1427],[-94.3362,36.142],[-94.3336,36.2147],[-94.1379,36.2103],[-94.1364,36.2687],[-94.1268,36.2971],[-94.1446,36.2977],[-94.1431,36.3557],[-94.1572,36.356],[-94.1579,36.3614],[-94.1654,36.3616],[-94.1701,36.3562],[-94.2401,36.3576],[-94.245,36.3361],[-94.2693,36.3365],[-94.2852,36.3404],[-94.2852,36.3441],[-94.3159,36.3445],[-94.3168,36.3409],[-94.3449,36.3413],[-94.3531,36.3374],[-94.4069,36.336],[-94.4103,36.325],[-94.4078,36.3058],[-94.3989,36.3055],[-94.3994,36.2925],[-94.4607,36.2852],[-94.4729,36.2744],[-94.4669,36.2743],[-94.4631,36.2508],[-94.4864,36.246],[-94.4871,36.2417]]]},"properties":{"geoid":"05033","state":"05","district":"33","name":"State Senate District 33","chamber":"Senate"}},{"type":"Feature","geometry":{"type":"Polygon","coordinates":[[[-94.4004,36.4008],[-94.3699,36.3966],[-94.3756,36.3706],[-94.3625,36.3701],[-94.3624,36.3613],[-94.3534,36.3613],[-94.3623,36.3596],[-94.3624,36.3528],[-94.369,36.3502],[-94.3536,36.3374],[-94.3104,36.3445],[-94.245,36.3361],[-94.2401,36.3576],[-94.1655,36.3579],[-94.1606,36.3705],[-94.1829,36.3709],[-94.1737,36.383],[-94.1649,36.3858],[-94.1649,36.3944],[-94.1566,36.4053],[-94.1591,36.4218],[-94.1509,36.4355],[-94.1587,36.4461],[-94.1583,36.4575],[-94.1629,36.4575],[-94.1607,36.4922],[-94.1814,36.4988],[-94.3838,36.4994],[-94.3726,36.4861],[-94.3775,36.471],[-94.3738,36.4309],[-94.3922,36.4229],[-94.4004,36.4008]]]},"properties":{"geoid":"05034","state":"05","district":"34","name":"State Senate District 34","chamber":"Senate"}},{"type":"Feature","geometry":{"type":"Polygon","coordinates":[[[-94.6179,36.4995],[-94.5075,35.8445],[-94.4681,35.8436],[-94.4682,35.8379],[-94.4597,35.8379],[-94.4598,35.8432],[-94.3968,35.8423],[-94.3968,35.8499],[-94.3705,35.8495],[-94.3702,35.8566],[-94.3608,35.8564],[-94.3611,35.8635],[-94.3567,35.8635],[-94.3565,35.8704],[-94.3519,35.8706],[-94.3427,35.8886],[-94.3246,35.8848],[-94.3242,35.9002],[-94.3118,35.9282],[-94.2788,35.9276],[-94.2782,35.9565],[-94.2161,35.9562],[-94.2158,35.9624],[-94.205,35.9623],[-94.2156,35.9876],[-94.1964,35.9969],[-94.1875,36.0287],[-94.2027,36.0694],[-94.2007,36.0783],[-94.224,36.0788],[-94.2181,36.0932],[-94.2269,36.0939],[-94.2214,36.0979],[-94.2251,36.1252],[-94.2406,36.1255],[-94.2409,36.1211],[-94.2415,36.1255],[-94.2653,36.1261],[-94.2684,36.1698],[-94.3351,36.1707],[-94.3362,36.142],[-94.3898,36.1427],[-94.3951,36.1314],[-94.4049,36.1441],[-94.4038,36.1678],[-94.443,36.1739],[-94.4778,36.1913],[-94.4778,36.2094],[-94.4733,36.2093],[-94.468,36.2382],[-94.4863,36.2384],[-94.4871,36.2417],[-94.4864,36.246],[-94.4631,36.2508],[-94.4669,36.2743],[-94.4729,36.2744],[-94.4607,36.2852],[-94.3994,36.2925],[-94.3989,36.3055],[-94.4078,36.3058],[-94.4103,36.325],[-94.4069,36.336],[-94.359,36.3393],[-94.369,36.3503],[-94.3624,36.3528],[-94.3623,36.3596],[-94.3534,36.3613],[-94.3624,36.3613],[-94.3625,36.3701],[-94.3756,36.3706],[-94.3699,36.3966],[-94.4004,36.4006],[-94.3922,36.4229],[-94.3738,36.4309],[-94.3733,36.4566],[-94.3776,36.4651],[-94.3748,36.4913],[-94.3838,36.4994],[-94.6179,36.4995]]]},"properties":{"geoid":"05035","state":"05","district":"35","name":"State Senate District 35","chamber":"Senate"}}]}