{"type":"FeatureCollection","features":[{"type":"Feature","geometry":{"type":"MultiPolygon","coordinates":[[[[-104.9442,40.5446],[-104.9411,40.5419],[-104.9288,40.5479],[-104.9271,40.5382],[-104.9083,40.538],[-104.9079,40.5189],[-104.9051,40.5231],[-104.889,40.5211],[-104.8888,40.5016],[-104.8795,40.5016],[-104.8795,40.509],[-104.8702,40.509],[-104.8693,40.4801],[-104.8515,40.4796],[-104.8513,40.4902],[-104.8417,40.487],[-104.8419,40.491],[-104.8511,40.4944],[-104.8511,40.5017],[-104.8324,40.5016],[-104.8324,40.507],[-104.8324,40.4798],[-104.7924,40.4809],[-104.7924,40.452],[-104.8116,40.4516],[-104.8135,40.4584],[-104.8419,40.4615],[-104.8414,40.4434],[-104.8584,40.44],[-104.8604,40.4213],[-104.8701,40.4211],[-104.8701,40.4141],[-104.8746,40.4141],[-104.8745,40.4213],[-104.8838,40.4177],[-104.8837,40.4213],[-104.907,40.4215],[-104.9075,40.3924],[-104.8881,40.3924],[-104.8882,40.3852],[-104.879,40.3851],[-104.879,40.3924],[-104.87,40.3924],[-104.8698,40.3778],[-104.7846,40.3778],[-104.7844,40.385],[-104.7562,40.3852],[-104.7563,40.4069],[-104.7351,40.4065],[-104.735,40.4344],[-104.7447,40.4361],[-104.7447,40.441],[-104.7349,40.4411],[-104.7348,40.4544],[-104.7105,40.452],[-104.7015,40.4592],[-104.7014,40.4521],[-104.6967,40.452],[-104.6958,40.4586],[-104.6892,40.4351],[-104.6777,40.4265],[-104.6709,40.4284],[-104.6724,40.4255],[-104.6627,40.4284],[-104.6494,40.4234],[-104.6562,40.4354],[-104.6336,40.4309],[-104.6351,40.4594],[-104.6297,40.4596],[-104.6291,40.4461],[-104.6212,40.4388],[-104.6194,40.428],[-104.6258,40.421],[-104.6709,40.4229],[-104.6749,40.4101],[-104.6637,40.4065],[-104.6626,40.3993],[-104.6494,40.3993],[-104.6494,40.3956],[-104.674,40.394],[-104.6689,40.3916],[-104.6684,40.3847],[-104.6777,40.3846],[-104.6778,40.3738],[-104.6964,40.366],[-104.6963,40.3051],[-104.754,40.3023],[-104.7541,40.1165],[-104.7348,40.1165],[-104.7348,40.0998],[-104.7632,40.1019],[-104.7585,40.0874],[-104.7443,40.0874],[-104.7442,40.0805],[-104.7821,40.0803],[-104.7822,40.0657],[-104.8011,40.0621],[-104.7963,40.0585],[-104.7963,40.044],[-104.789,40.0447],[-104.7914,40.0221],[-104.7727,40.0221],[-104.7727,40.015],[-104.7539,40.0186],[-104.7537,40.0005],[-103.7057,40.0014],[-103.7071,39.5663],[-103.1544,39.5657],[-102.0498,39.5741],[-102.0517,41.0024],[-104.9434,40.9982],[-104.9435,40.7113],[-104.8869,40.7112],[-104.8864,40.696],[-104.8887,40.5887],[-104.9076,40.5887],[-104.9078,40.5525],[-104.9442,40.5517],[-104.9442,40.5446]]],[[[-104.7562,40.385],[-104.7561,40.385],[-104.7561,40.3852],[-104.7562,40.385]]]]},"properties":{"geoid":"08001","state":"08","district":"1","name":"State Senate District 1","chamber":"Senate"}},{"type":"Feature","geometry":{"type":"Polygon","coordinates":[[[-104.9216,39.3201],[-104.9167,39.3131],[-104.9195,39.3084],[-104.9082,39.3085],[-104.9161,39.3038],[-104.9168,39.297],[-104.8915,39.297],[-104.8761,39.3389],[-104.8692,39.3379],[-104.8761,39.3185],[-104.8263,39.3184],[-104.8285,39.326],[-104.8239,39.3294],[-104.8338,39.3439],[-104.8538,39.3439],[-104.8539,39.3511],[-104.8446,39.3511],[-104.8398,39.3547],[-104.8421,39.3578],[-104.8353,39.3521],[-104.808,39.3549],[-104.801,39.3477],[-104.7939,39.3477],[-104.7939,39.3622],[-104.7799,39.3623],[-104.7799,39.3696],[-104.7845,39.3696],[-104.7846,39.3841],[-104.8055,39.3822],[-104.8036,39.3916],[-104.7937,39.3911],[-104.7891,39.3964],[-104.7602,39.3912],[-104.7663,39.4057],[-104.759,39.4058],[-104.7601,39.4351],[-104.7454,39.4307],[-104.7339,39.4357],[-104.7322,39.4422],[-104.7003,39.443],[-104.6999,39.4565],[-104.7183,39.4573],[-104.7213,39.4699],[-104.7183,39.4791],[-104.6904,39.4637],[-104.6623,39.4635],[-104.6606,39.5659],[-104.7074,39.566],[-104.705,39.5509],[-104.7367,39.5512],[-104.7366,39.5659],[-104.746,39.5659],[-104.7462,39.5587],[-104.7682,39.5588],[-104.7744,39.5611],[-104.7744,39.5658],[-104.8395,39.566],[-104.8394,39.5524],[-104.8301,39.5549],[-104.83,39.5364],[-104.8118,39.5365],[-104.8133,39.512],[-104.815,39.5076],[-104.8216,39.5075],[-104.8234,39.5006],[-104.8123,39.4924],[-104.8123,39.4783],[-104.8218,39.4784],[-104.8218,39.4639],[-104.7891,39.464],[-104.8349,39.4192],[-104.8396,39.4203],[-104.8396,39.4312],[-104.849,39.4349],[-104.8488,39.4495],[-104.8758,39.4499],[-104.8778,39.4263],[-104.8882,39.4208],[-104.9053,39.4268],[-104.9054,39.4137],[-104.9146,39.4134],[-104.9207,39.4059],[-104.9192,39.3841],[-104.9051,39.3733],[-104.8882,39.3731],[-104.8954,39.3636],[-104.8967,39.3517],[-104.8883,39.3486],[-104.8826,39.3389],[-104.9145,39.3335],[-104.9204,39.3293],[-104.9147,39.3235],[-104.9216,39.3201]]]},"properties":{"geoid":"08002","state":"08","district":"2","name":"State Senate District 2","chamber":"Senate"}},{"type":"Feature","geometry":{"type":"Polygon","coordinates":[[[-105.0507,38.1138],[-105.0499,37.9155],[-105.0387,37.9044],[-105.0316,37.9041],[-105.0348,37.8946],[-105.0137,37.8813],[-104.6464,37.9005],[-104.0611,37.7347],[-104.0539,38.5224],[-104.9415,38.5196],[-104.9404,38.2583],[-105.0492,38.258],[-105.0507,38.1138]]]},"properties":{"geoid":"08003","state":"08","district":"3","name":"State Senate District 3","chamber":"Senate"}},{"type":"Feature","geometry":{"type":"Polygon","coordinates":[[[-106.599,39.0363],[-106.5917,39.0249],[-106.5992,38.998],[-106.5955,38.9913],[-106.5772,38.9904],[-106.5542,38.9987],[-106.5507,38.9917],[-106.5284,38.9807],[-106.5219,38.9687],[-106.5285,38.9599],[-106.5267,38.9554],[-106.5072,38.9461],[-106.5044,38.9368],[-106.465,38.9104],[-106.4372,38.9149],[-106.4303,38.9249],[-106.4212,38.9281],[-106.4132,38.9163],[-106.4021,38.9106],[-106.394,38.9122],[-106.3923,38.9188],[-106.3808,38.9257],[-106.3734,38.9066],[-106.3571,38.9129],[-106.3452,38.9071],[-106.3261,38.911],[-106.3213,38.8926],[-106.3275,38.8823],[-106.3341,38.8813],[-106.3358,38.872],[-106.3489,38.8651],[-106.3493,38.8549],[-106.365,38.853],[-106.3645,38.8462],[-106.3817,38.8329],[-106.3836,38.8247],[-106.3957,38.8225],[-106.4071,38.8293],[-106.4162,38.8241],[-106.415,38.8153],[-106.4227,38.8084],[-106.4129,38.7912],[-106.4193,38.7662],[-106.4151,38.7572],[-106.42,38.751],[-106.4167,38.7278],[-106.4235,38.7208],[-106.4253,38.7103],[-106.4435,38.7092],[-106.4521,38.6988],[-106.4379,38.6825],[-106.4295,38.6512],[-106.4177,38.6445],[-106.4017,38.6458],[-106.4012,38.6397],[-106.3799,38.6385],[-106.3854,38.625],[-106.3642,38.6145],[-106.361,38.5945],[-106.3446,38.5686],[-106.3554,38.5426],[-106.3542,38.5334],[-106.3426,38.5215],[-106.3481,38.5125],[-106.3442,38.5046],[-106.3304,38.4937],[-106.3272,38.4976],[-106.3115,38.4949],[-106.304,38.4778],[-106.2903,38.4733],[-106.2885,38.4614],[-106.2806,38.4543],[-106.2727,38.4552],[-106.2741,38.4469],[-106.2454,38.4392],[-106.2495,38.4332],[-106.2469,38.4228],[-106.0765,38.4237],[-106.0581,38.4442],[-106.0622,38.4503],[-106.0586,38.4569],[-106.0187,38.4542],[-105.9968,38.4203],[-105.984,38.42],[-105.9679,38.4088],[-105.9595,38.3971],[-105.9476,38.3905],[-105.9446,38.3786],[-105.9199,38.3672],[-105.8936,38.3466],[-105.8764,38.316],[-105.8583,38.2984],[-105.8466,38.2903],[-105.8408,38.2925],[-105.8194,38.2736],[-105.8,38.2699],[-105.7879,38.2421],[-105.7594,38.2286],[-105.756,38.2181],[-105.7363,38.2092],[-105.733,38.201],[-105.7083,38.1819],[-105.6992,38.168],[-105.673,38.1591],[-105.6702,38.1531],[-105.6763,38.1459],[-105.6702,38.1286],[-105.6577,38.1175],[-105.6614,38.1005],[-105.6362,38.0714],[-105.6272,38.0673],[-105.6282,38.0574],[-105.6178,38.0533],[-105.6132,38.0381],[-105.6032,38.031],[-105.597,38.0132],[-105.6046,38.005],[-105.5819,37.978],[-105.5845,37.9679],[-105.5603,37.9519],[-105.5518,37.9506],[-105.5427,37.9565],[-105.5304,37.9534],[-105.5111,37.9391],[-105.5031,37.9237],[-105.473,37.8957],[-105.4403,37.8975],[-105.4136,37.8905],[-105.3771,37.9161],[-105.3171,37.9389],[-105.3005,37.9231],[-105.3003,37.9125],[-105.2832,37.9],[-105.2618,37.9256],[-105.2639,37.9321],[-105.2497,37.9515],[-105.2381,37.9569],[-105.2386,37.9628],[-105.2154,37.9705],[-105.214,37.9808],[-105.1971,37.9924],[-105.2,38.0008],[-105.1946,38.0076],[-105.1687,38.0189],[-105.148,38.0062],[-105.1532,38.0008],[-105.1525,37.9921],[-105.1412,37.9869],[-105.1421,37.9798],[-105.1313,37.9735],[-105.1359,37.9664],[-105.1264,37.9608],[-105.126,37.9512],[-105.1085,37.9434],[-105.088,37.9486],[-105.0841,37.9556],[-105.0778,37.953],[-105.0661,37.9442],[-105.0642,37.9179],[-105.0499,37.9155],[-105.0492,38.258],[-104.9404,38.2583],[-104.9399,38.7965],[-105.0722,38.7994],[-105.0664,38.8692],[-105.0286,38.8687],[-105.0273,38.9308],[-105.0411,38.9306],[-105.0412,38.9343],[-105.0412,38.9378],[-105.0273,38.9381],[-105.0271,39.029],[-105.0335,39.1298],[-104.6629,39.1295],[-104.6623,39.4635],[-104.6904,39.4637],[-104.7183,39.4791],[-104.7213,39.4699],[-104.7183,39.4573],[-104.6999,39.4565],[-104.7003,39.443],[-104.7322,39.4422],[-104.7339,39.4357],[-104.7454,39.4307],[-104.7601,39.4351],[-104.759,39.4058],[-104.7663,39.4057],[-104.7602,39.3912],[-104.7891,39.3964],[-104.7937,39.3911],[-104.8036,39.3916],[-104.8055,39.3822],[-104.7846,39.3841],[-104.7845,39.3696],[-104.7799,39.3696],[-104.7799,39.3623],[-104.7939,39.3622],[-104.7939,39.3477],[-104.801,39.3477],[-104.808,39.3549],[-104.8353,39.3521],[-104.8422,39.3577],[-104.8398,39.3547],[-104.8446,39.3511],[-104.8539,39.3511],[-104.8538,39.3439],[-104.8338,39.3439],[-104.8239,39.3294],[-104.8285,39.326],[-104.8263,39.3184],[-104.8761,39.3185],[-104.8692,39.3379],[-104.8761,39.3389],[-104.8915,39.297],[-104.9168,39.297],[-104.9161,39.3038],[-104.9082,39.3085],[-104.9195,39.3084],[-104.9167,39.3131],[-104.9216,39.3203],[-104.9145,39.3253],[-104.9204,39.3293],[-104.9051,39.3333],[-104.905,39.3369],[-104.8826,39.3389],[-104.8883,39.3486],[-104.8967,39.3517],[-104.8954,39.3636],[-104.8882,39.3731],[-104.9051,39.3733],[-104.9192,39.3841],[-104.9207,39.4059],[-104.9146,39.4134],[-104.9054,39.4137],[-104.9049,39.4271],[-104.9705,39.4417],[-105.0042,39.4965],[-105.0137,39.4903],[-105.0189,39.4962],[-105.0267,39.4961],[-105.0266,39.4751],[-105.023,39.473],[-105.0381,39.4557],[-105.039,39.4671],[-105.0523,39.471],[-105.0548,39.4468],[-105.0426,39.4405],[-105.0466,39.4244],[-105.0644,39.4088],[-105.0727,39.4115],[-105.073,39.4201],[-105.0915,39.4201],[-105.0917,39.4599],[-105.1008,39.4636],[-105.1027,39.4842],[-105.0951,39.4839],[-105.0859,39.4943],[-105.085,39.506],[-105.0783,39.5116],[-105.0777,39.5366],[-105.073,39.5453],[-105.0887,39.5463],[-105.0935,39.5363],[-105.111,39.5362],[-105.111,39.5471],[-105.1073,39.5475],[-105.1175,39.5531],[-105.1338,39.5527],[-105.1557,39.5911],[-105.164,39.6235],[-105.1722,39.6332],[-105.2047,39.6183],[-105.2285,39.6194],[-105.2318,39.6091],[-105.2218,39.5914],[-105.2505,39.5891],[-105.2544,39.5847],[-105.2681,39.5889],[-105.2754,39.6071],[-105.2955,39.6195],[-105.2957,39.6248],[-105.3242,39.6236],[-105.3236,39.6189],[-105.3382,39.6089],[-105.3427,39.5953],[-105.3506,39.5889],[-105.351,39.5947],[-105.3622,39.5952],[-105.3766,39.6094],[-105.3949,39.6085],[-105.3989,39.6064],[-105.3989,39.5661],[-105.8297,39.5649],[-105.8258,39.5557],[-105.8158,39.552],[-105.8229,39.5299],[-105.83,39.532],[-105.8454,39.5237],[-105.8595,39.5315],[-105.8681,39.5195],[-105.8539,39.5045],[-105.8604,39.5047],[-105.8666,39.4944],[-105.8747,39.4935],[-105.8791,39.4838],[-105.8922,39.484],[-105.906,39.4597],[-105.9387,39.4585],[-105.9442,39.4409],[-105.966,39.4388],[-105.9548,39.4262],[-105.9519,39.4143],[-105.9929,39.4019],[-105.9966,39.3944],[-106.0139,39.3869],[-106.022,39.3617],[-106.0561,39.3584],[-106.0972,39.378],[-106.2256,39.3796],[-106.2269,39.3742],[-106.251,39.3576],[-106.2591,39.362],[-106.2838,39.3495],[-106.3116,39.3622],[-106.358,39.3551],[-106.3708,39.3606],[-106.3806,39.3762],[-106.4039,39.3798],[-106.4335,39.3542],[-106.4349,39.3411],[-106.4285,39.3351],[-106.4269,39.3234],[-106.4325,39.3164],[-106.4507,39.3167],[-106.4683,39.3073],[-106.4762,39.3147],[-106.4841,39.3129],[-106.5027,39.2981],[-106.504,39.2848],[-106.483,39.2724],[-106.4811,39.2599],[-106.4976,39.242],[-106.4987,39.2349],[-106.4897,39.228],[-106.4936,39.1983],[-106.4996,39.1838],[-106.51,39.1747],[-106.5111,39.1635],[-106.5209,39.1574],[-106.5351,39.1631],[-106.5381,39.158],[-106.5517,39.1615],[-106.5613,39.1557],[-106.5587,39.1438],[-106.5647,39.1329],[-106.5582,39.1202],[-106.565,39.114],[-106.5633,39.1073],[-106.5803,39.1022],[-106.5862,39.094],[-106.5849,39.0848],[-106.5771,39.0794],[-106.5776,39.0532],[-106.5972,39.0448],[-106.599,39.0363]]]},"properties":{"geoid":"08004","state":"08","district":"4","name":"State Senate District 4","chamber":"Senate"}},{"type":"Feature","geometry":{"type":"Polygon","coordinates":[[[-108.379,38.7779],[-108.3787,38.6681],[-108.0958,38.6685],[-108.0964,38.5984],[-108.1,38.5936],[-108.108,38.5946],[-108.0537,38.5219],[-108.0199,38.4877],[-108.0023,38.475],[-107.9945,38.4788],[-107.9948,38.475],[-107.9674,38.4748],[-107.9673,38.4603],[-107.9466,38.4603],[-107.948,38.439],[-107.9281,38.4325],[-107.8961,38.4406],[-107.8911,38.4289],[-107.882,38.43],[-107.882,38.4216],[-107.8566,38.4217],[-107.7831,38.3322],[-107.6336,38.3299],[-107.6353,38.3029],[-107.6292,38.2879],[-107.6171,38.2755],[-107.6116,38.2608],[-107.5907,38.252],[-107.5802,38.2308],[-107.581,38.2127],[-107.5756,38.2098],[-107.5622,38.1588],[-107.5742,38.136],[-107.5633,38.1237],[-107.5609,38.1105],[-107.5651,38.0979],[-107.5541,38.0795],[-107.5333,38.0801],[-107.5109,38.0609],[-107.5223,38.0572],[-107.5221,38.042],[-107.5375,38.0323],[-107.538,38.0089],[-107.548,37.9993],[-107.5739,38.0064],[-107.5867,37.9994],[-107.5868,37.9938],[-107.5914,37.9923],[-107.5842,37.976],[-107.5882,37.9703],[-107.569,37.966],[-107.5627,37.9555],[-107.5326,37.9439],[-107.5381,37.9328],[-107.5367,37.9211],[-107.5202,37.9013],[-107.5335,37.8891],[-107.536,37.8739],[-107.526,37.869],[-107.5179,37.857],[-107.5224,37.8421],[-107.5162,37.8345],[-107.5168,37.8267],[-107.4855,37.8224],[-107.4688,37.8097],[-107.4592,37.7943],[-107.4581,37.782],[-107.4669,37.7663],[-107.4822,37.7684],[-107.4821,37.4227],[-107.1287,37.4229],[-107.1239,37.675],[-107.1451,37.6755],[-107.1374,37.8288],[-107.1382,37.9388],[-107.1107,37.9433],[-107.1029,37.9552],[-107.0921,37.9492],[-107.0737,37.9545],[-107.0678,37.9613],[-107.0426,37.9487],[-107.0255,37.9545],[-107.009,37.9465],[-107.0063,37.9562],[-107.0006,37.956],[-107.0006,38.4256],[-106.2469,38.4228],[-106.2495,38.4332],[-106.2454,38.4392],[-106.2741,38.4469],[-106.2727,38.4552],[-106.2806,38.4543],[-106.2885,38.4614],[-106.2903,38.4733],[-106.304,38.4778],[-106.3115,38.4949],[-106.3272,38.4976],[-106.3304,38.4937],[-106.3442,38.5046],[-106.3481,38.5125],[-106.3426,38.5215],[-106.3542,38.5334],[-106.3554,38.5426],[-106.3446,38.5686],[-106.361,38.5945],[-106.3642,38.6145],[-106.3854,38.625],[-106.3799,38.6385],[-106.4012,38.6397],[-106.4017,38.6458],[-106.4177,38.6445],[-106.4295,38.6512],[-106.4379,38.6825],[-106.4521,38.6988],[-106.4435,38.7092],[-106.4253,38.7103],[-106.4235,38.7208],[-106.4167,38.7278],[-106.42,38.751],[-106.4151,38.7572],[-106.4193,38.7662],[-106.4129,38.7912],[-106.4227,38.8084],[-106.415,38.8153],[-106.4162,38.8241],[-106.4071,38.8293],[-106.3957,38.8225],[-106.3836,38.8247],[-106.3817,38.8329],[-106.3645,38.8462],[-106.365,38.853],[-106.3493,38.8549],[-106.3489,38.8651],[-106.3358,38.872],[-106.3341,38.8813],[-106.3275,38.8823],[-106.3213,38.8926],[-106.3261,38.911],[-106.3452,38.9071],[-106.3571,38.9129],[-106.3734,38.9066],[-106.3808,38.9257],[-106.3923,38.9188],[-106.394,38.9122],[-106.4021,38.9106],[-106.4132,38.9163],[-106.4212,38.9281],[-106.4303,38.9249],[-106.4372,38.9149],[-106.465,38.9104],[-106.5044,38.9368],[-106.5072,38.9461],[-106.5267,38.9554],[-106.5285,38.9599],[-106.5219,38.9687],[-106.5284,38.9807],[-106.5507,38.9917],[-106.5542,38.9987],[-106.5772,38.9904],[-106.595,38.9911],[-106.5992,38.998],[-106.5917,39.0249],[-106.5995,39.0338],[-106.5972,39.0448],[-106.5776,39.0532],[-106.5771,39.0794],[-106.5849,39.0848],[-106.5862,39.094],[-106.5803,39.1022],[-106.564,39.106],[-106.565,39.114],[-106.5582,39.1202],[-106.5647,39.1329],[-106.5587,39.1438],[-106.5613,39.1557],[-106.5517,39.1615],[-106.5381,39.158],[-106.5351,39.1631],[-106.5209,39.1574],[-106.5111,39.1635],[-106.51,39.1747],[-106.4996,39.1838],[-106.4936,39.1983],[-106.4897,39.228],[-106.4987,39.2349],[-106.4976,39.242],[-106.4811,39.2599],[-106.483,39.2724],[-106.504,39.2848],[-106.5027,39.2981],[-106.4841,39.3129],[-106.4762,39.3147],[-106.4683,39.3073],[-106.4507,39.3167],[-106.4325,39.3164],[-106.4269,39.3234],[-106.4351,39.3473],[-106.4265,39.3619],[-106.5779,39.3621],[-106.5784,39.437],[-106.5922,39.4429],[-106.8539,39.4441],[-106.8531,39.4857],[-107.0985,39.4877],[-107.0987,39.4961],[-107.1136,39.4955],[-107.1139,39.6251],[-107.1711,39.6003],[-107.2079,39.5769],[-107.2219,39.5768],[-107.2443,39.5574],[-107.2711,39.5668],[-107.2818,39.5602],[-107.3068,39.5616],[-107.3109,39.5656],[-107.3157,39.5561],[-107.3291,39.5546],[-107.3336,39.5586],[-107.3289,39.5589],[-107.3314,39.5694],[-107.3415,39.5693],[-107.3419,39.5604],[-107.3442,39.5693],[-107.3597,39.5692],[-107.3608,39.5622],[-107.3681,39.5656],[-107.3697,39.5619],[-107.3981,39.5575],[-107.4403,39.5742],[-107.4587,39.5695],[-107.4709,39.5742],[-107.5101,39.5688],[-107.5067,39.5728],[-107.5139,39.5773],[-107.5165,39.59],[-107.5267,39.5963],[-107.5262,39.5859],[-107.5355,39.5877],[-107.5448,39.5822],[-107.5481,39.5785],[-107.5415,39.575],[-107.5448,39.5689],[-107.5606,39.5581],[-107.6279,39.5462],[-107.6437,39.5512],[-107.6394,39.5524],[-107.6395,39.5597],[-107.6465,39.5544],[-107.6513,39.5596],[-107.6558,39.5524],[-107.6628,39.5522],[-107.6645,39.5604],[-107.6696,39.5471],[-107.7076,39.5473],[-107.7619,39.5311],[-107.7667,39.537],[-107.7614,39.5373],[-107.7641,39.5443],[-107.7574,39.5442],[-107.7574,39.5515],[-107.7668,39.5515],[-107.7669,39.5591],[-107.7752,39.5565],[-107.7714,39.5783],[-107.7748,39.5746],[-107.7935,39.5781],[-107.7932,39.5709],[-107.7795,39.571],[-107.7795,39.5674],[-107.7841,39.5673],[-107.7886,39.5587],[-107.7856,39.5551],[-107.7949,39.5514],[-107.795,39.5355],[-107.7996,39.535],[-107.7966,39.5308],[-107.8088,39.5295],[-107.8135,39.5332],[-107.8126,39.529],[-107.8227,39.5296],[-107.8852,39.5071],[-107.9178,39.4993],[-107.9356,39.501],[-107.9744,39.4792],[-108.019,39.4745],[-108.0491,39.4575],[-108.0682,39.4633],[-108.0634,39.445],[-108.0591,39.4446],[-108.0748,39.4291],[-108.0967,39.4104],[-108.1509,39.3835],[-108.1699,39.3663],[-107.4309,39.3662],[-107.4305,39.3482],[-107.4508,39.33],[-107.4625,39.3272],[-107.4652,39.3143],[-107.4517,39.3045],[-107.4388,39.309],[-107.4375,39.2996],[-107.4126,39.2919],[-107.397,39.2945],[-107.3941,39.2794],[-107.3777,39.2715],[-107.4003,39.2529],[-107.4296,39.2573],[-107.4295,39.2413],[-107.4511,39.2307],[-107.4747,39.229],[-107.4842,39.2354],[-107.4945,39.2184],[-107.5107,39.2162],[-107.5288,39.2029],[-107.5233,39.1978],[-107.5426,39.1955],[-107.5428,39.1822],[-107.5581,39.1783],[-107.5684,39.1813],[-107.5933,39.1649],[-107.6191,39.1549],[-107.6324,39.1409],[-107.6383,39.1419],[-107.6513,39.1309],[-107.6627,39.1162],[-107.6603,39.1118],[-107.6808,39.1003],[-107.6876,39.088],[-107.7091,39.0831],[-107.7216,39.0653],[-107.738,39.0662],[-107.7655,39.0433],[-107.7937,39.0614],[-107.8218,39.0705],[-107.817,39.0672],[-107.818,38.9033],[-107.8274,38.8958],[-107.8276,38.8767],[-107.8503,38.8766],[-107.8509,38.8802],[-107.8574,38.8728],[-107.9075,38.8707],[-107.9333,38.8743],[-107.9426,38.8711],[-108.0104,38.8738],[-108.2559,38.8696],[-108.379,38.8291],[-108.379,38.7779]]]},"properties":{"geoid":"08005","state":"08","district":"5","name":"State Senate District 5","chamber":"Senate"}},{"type":"Feature","geometry":{"type":"Polygon","coordinates":[[[-109.0602,38.2782],[-109.0426,38.157],[-109.0452,36.999],[-106.8772,37.0001],[-106.8698,36.9925],[-106.832,36.9924],[-105.155,36.9953],[-105.1542,37.2931],[-105.1655,37.2912],[-105.1669,37.3227],[-105.1631,37.3289],[-105.1679,37.337],[-105.1641,37.343],[-105.169,37.375],[-105.1668,37.3884],[-105.1573,37.3984],[-105.1386,37.4007],[-105.1297,37.4093],[-105.1394,37.4156],[-105.141,37.4286],[-105.1451,37.429],[-105.1557,37.4565],[-105.1755,37.4565],[-105.1767,37.4756],[-105.1822,37.4792],[-105.1748,37.4853],[-105.1777,37.4914],[-105.1713,37.5132],[-105.1777,37.5341],[-105.1837,37.5396],[-105.1793,37.5487],[-105.196,37.5699],[-105.2183,37.5824],[-105.2038,37.5944],[-105.1932,37.5922],[-105.1956,37.6089],[-105.1844,37.616],[-105.2145,37.6264],[-105.2212,37.6212],[-105.236,37.6208],[-105.2434,37.6292],[-105.2533,37.6312],[-105.2553,37.6403],[-105.2669,37.6384],[-105.2849,37.6459],[-105.2972,37.6583],[-105.3548,37.6361],[-105.3703,37.6394],[-105.4003,37.6134],[-105.4084,37.618],[-105.4423,37.6119],[-105.4603,37.5867],[-105.4855,37.5779],[-105.4922,37.5827],[-105.4946,37.5924],[-105.5018,37.5976],[-105.4933,37.6009],[-105.4986,37.6145],[-105.4915,37.625],[-105.487,37.6535],[-105.4772,37.6662],[-105.4805,37.6981],[-105.4775,37.7075],[-105.4542,37.724],[-105.4527,37.7413],[-105.4598,37.7533],[-105.4493,37.7793],[-105.4549,37.7957],[-105.4352,37.8048],[-105.4356,37.8285],[-105.4292,37.8524],[-105.4505,37.8781],[-105.4785,37.8799],[-105.4733,37.8966],[-105.5031,37.9237],[-105.5111,37.9391],[-105.5333,37.9552],[-105.5603,37.9519],[-105.5845,37.9679],[-105.5819,37.978],[-105.6046,38.005],[-105.597,38.0132],[-105.6032,38.031],[-105.6132,38.0381],[-105.6178,38.0533],[-105.6282,38.0574],[-105.6272,38.0673],[-105.6362,38.0714],[-105.6614,38.1005],[-105.6577,38.1175],[-105.6702,38.1286],[-105.6763,38.1459],[-105.6702,38.1531],[-105.673,38.1591],[-105.6992,38.168],[-105.7083,38.1819],[-105.733,38.201],[-105.7363,38.2092],[-105.756,38.2181],[-105.7594,38.2286],[-105.7879,38.2421],[-105.8,38.2699],[-105.8194,38.2736],[-105.8408,38.2925],[-105.8466,38.2903],[-105.8583,38.2984],[-105.8764,38.316],[-105.8936,38.3466],[-105.9199,38.3672],[-105.9446,38.3786],[-105.9476,38.3905],[-105.9595,38.3971],[-105.9679,38.4088],[-105.984,38.42],[-105.9968,38.4203],[-106.019,38.4544],[-106.0586,38.4569],[-106.0622,38.4503],[-106.0581,38.4442],[-106.0694,38.4302],[-106.0759,38.4238],[-106.0881,38.4223],[-107.0006,38.4256],[-107.0006,37.956],[-107.0063,37.9562],[-107.009,37.9465],[-107.0255,37.9545],[-107.0426,37.9487],[-107.0678,37.9613],[-107.0737,37.9545],[-107.0921,37.9492],[-107.1029,37.9552],[-107.1107,37.9433],[-107.1382,37.9388],[-107.1374,37.8288],[-107.1451,37.6755],[-107.1239,37.675],[-107.1287,37.4229],[-107.4821,37.4227],[-107.4822,37.7684],[-107.4669,37.7663],[-107.4581,37.782],[-107.4592,37.7943],[-107.4688,37.8097],[-107.4855,37.8224],[-107.5168,37.8267],[-107.5162,37.8345],[-107.5224,37.8421],[-107.5179,37.857],[-107.526,37.869],[-107.536,37.8739],[-107.5335,37.8891],[-107.5202,37.9013],[-107.5367,37.9211],[-107.5381,37.9328],[-107.5326,37.9439],[-107.5627,37.9555],[-107.569,37.966],[-107.5882,37.9703],[-107.5842,37.976],[-107.5914,37.9923],[-107.5868,37.9938],[-107.5867,37.9994],[-107.5739,38.0064],[-107.548,37.9993],[-107.538,38.0089],[-107.5375,38.0323],[-107.5221,38.042],[-107.5223,38.0572],[-107.5109,38.0609],[-107.5333,38.0801],[-107.5541,38.0795],[-107.5653,38.0984],[-107.5609,38.1105],[-107.5633,38.1237],[-107.5742,38.136],[-107.5622,38.1588],[-107.5887,38.2493],[-107.6116,38.2608],[-107.6171,38.2755],[-107.6292,38.2879],[-107.6352,38.3023],[-107.6365,38.3163],[-107.631,38.3257],[-107.6357,38.3321],[-107.7831,38.3322],[-107.8566,38.4217],[-107.882,38.4216],[-107.882,38.43],[-107.8911,38.4289],[-107.8961,38.4406],[-107.9281,38.4325],[-107.948,38.439],[-107.9466,38.4603],[-107.9673,38.4603],[-107.9674,38.4748],[-107.9948,38.475],[-107.9945,38.4788],[-108.0023,38.475],[-108.0199,38.4877],[-108.0537,38.5219],[-108.108,38.5946],[-108.1,38.5936],[-108.0964,38.5984],[-108.0958,38.6685],[-108.3787,38.6681],[-108.3791,38.5],[-109.0601,38.5],[-109.0602,38.2782]]]},"properties":{"geoid":"08006","state":"08","district":"6","name":"State Senate District 6","chamber":"Senate"}},{"type":"Feature","geometry":{"type":"Polygon","coordinates":[[[-109.0601,38.507],[-109.0601,38.5],[-108.3791,38.5],[-108.379,38.8291],[-108.2559,38.8696],[-108.0104,38.8738],[-107.9426,38.8711],[-107.9333,38.8743],[-107.9075,38.8707],[-107.8574,38.8728],[-107.8509,38.8802],[-107.8503,38.8766],[-107.8276,38.8767],[-107.8274,38.8958],[-107.818,38.9033],[-107.817,39.0672],[-107.8218,39.0705],[-107.7937,39.0614],[-107.7655,39.0433],[-107.738,39.0662],[-107.7216,39.0653],[-107.7091,39.0831],[-107.6876,39.088],[-107.6808,39.1003],[-107.6603,39.1118],[-107.6627,39.1162],[-107.6513,39.1309],[-107.6383,39.1419],[-107.6324,39.1409],[-107.6191,39.1549],[-107.5933,39.1649],[-107.5684,39.1813],[-107.5581,39.1783],[-107.5428,39.1822],[-107.5426,39.1955],[-107.5233,39.1978],[-107.5288,39.2029],[-107.5107,39.2162],[-107.4945,39.2184],[-107.4842,39.2354],[-107.4747,39.229],[-107.4511,39.2307],[-107.4295,39.2413],[-107.4296,39.2573],[-107.3987,39.2535],[-107.3915,39.2639],[-107.3792,39.2691],[-107.3784,39.2748],[-107.3941,39.2794],[-107.3981,39.295],[-107.4126,39.2919],[-107.4375,39.2996],[-107.4388,39.309],[-107.4517,39.3045],[-107.4652,39.3143],[-107.4625,39.3272],[-107.4508,39.33],[-107.4305,39.3482],[-107.4309,39.3662],[-109.0508,39.3667],[-109.0601,38.507]]]},"properties":{"geoid":"08007","state":"08","district":"7","name":"State Senate District 7","chamber":"Senate"}},{"type":"Feature","geometry":{"type":"Polygon","coordinates":[[[-109.0515,39.5494],[-109.0508,39.3667],[-108.1699,39.3663],[-108.1509,39.3835],[-108.0967,39.4104],[-108.0748,39.4291],[-108.0591,39.4446],[-108.0634,39.445],[-108.0682,39.4633],[-108.0491,39.4575],[-108.019,39.4745],[-107.9744,39.4792],[-107.9356,39.501],[-107.9178,39.4993],[-107.8852,39.5071],[-107.8227,39.5296],[-107.8126,39.529],[-107.8135,39.5332],[-107.8088,39.5295],[-107.7966,39.5308],[-107.7996,39.535],[-107.795,39.5355],[-107.7949,39.5514],[-107.7856,39.5551],[-107.7886,39.5587],[-107.7841,39.5673],[-107.7795,39.5674],[-107.7795,39.571],[-107.7932,39.5709],[-107.7935,39.5781],[-107.7748,39.5746],[-107.7714,39.5783],[-107.7752,39.5565],[-107.7669,39.5591],[-107.7668,39.5515],[-107.7574,39.5515],[-107.7574,39.5442],[-107.7641,39.5443],[-107.7614,39.5373],[-107.7667,39.537],[-107.7619,39.5311],[-107.7076,39.5473],[-107.6696,39.5471],[-107.6645,39.5604],[-107.6628,39.5522],[-107.6558,39.5524],[-107.6513,39.5596],[-107.6465,39.5544],[-107.6395,39.5597],[-107.6394,39.5524],[-107.6437,39.5512],[-107.6279,39.5462],[-107.5606,39.5581],[-107.5448,39.5689],[-107.5415,39.575],[-107.5481,39.5785],[-107.5448,39.5822],[-107.5355,39.5877],[-107.5262,39.5859],[-107.5267,39.5963],[-107.5165,39.59],[-107.5139,39.5773],[-107.5067,39.5728],[-107.5101,39.5688],[-107.4709,39.5742],[-107.4587,39.5695],[-107.4403,39.5742],[-107.3981,39.5575],[-107.3697,39.5619],[-107.3681,39.5656],[-107.3608,39.5622],[-107.3597,39.5692],[-107.3442,39.5693],[-107.3419,39.5604],[-107.3415,39.5693],[-107.3314,39.5694],[-107.3289,39.5589],[-107.3336,39.5586],[-107.3291,39.5546],[-107.3157,39.5561],[-107.3109,39.5656],[-107.3068,39.5616],[-107.2818,39.5602],[-107.2711,39.5668],[-107.2443,39.5574],[-107.2219,39.5768],[-107.2079,39.5769],[-107.1711,39.6003],[-107.1139,39.6251],[-107.1136,39.4955],[-107.0987,39.4961],[-107.0985,39.4877],[-106.8531,39.4857],[-106.8539,39.4441],[-106.5922,39.4429],[-106.5784,39.437],[-106.5779,39.3621],[-106.4265,39.3619],[-106.4001,39.381],[-106.3806,39.3762],[-106.3708,39.3606],[-106.358,39.3551],[-106.3116,39.3622],[-106.2838,39.3495],[-106.2591,39.362],[-106.251,39.3576],[-106.2269,39.3742],[-106.2256,39.3796],[-106.1364,39.3797],[-106.0968,39.3779],[-106.0856,39.3697],[-106.0439,39.3574],[-106.0198,39.3635],[-106.0164,39.3844],[-105.9966,39.3944],[-105.9929,39.4019],[-105.9519,39.4143],[-105.9548,39.4262],[-105.966,39.4388],[-105.9442,39.4409],[-105.9387,39.4585],[-105.906,39.4597],[-105.8922,39.484],[-105.8791,39.4838],[-105.8747,39.4935],[-105.8666,39.4944],[-105.8604,39.5047],[-105.8539,39.5045],[-105.8681,39.5195],[-105.8595,39.5315],[-105.8454,39.5237],[-105.83,39.532],[-105.8229,39.5299],[-105.8158,39.552],[-105.8258,39.5557],[-105.8297,39.5649],[-105.3989,39.5661],[-105.398,39.9349],[-105.4137,39.9345],[-105.4188,39.9287],[-105.44,39.9384],[-105.4574,39.9322],[-105.6758,39.9324],[-105.6935,39.9415],[-105.6944,39.9502],[-105.6851,39.9587],[-105.6903,39.9699],[-105.6832,39.9929],[-105.6912,39.9973],[-105.6897,40.0155],[-105.6619,40.0164],[-105.6519,40.0209],[-105.6374,40.0452],[-105.6511,40.0584],[-105.6467,40.0652],[-105.6389,40.067],[-105.6411,40.073],[-105.6326,40.0814],[-105.636,40.0846],[-105.632,40.0972],[-105.6367,40.107],[-105.6266,40.1187],[-105.6261,40.1273],[-105.6357,40.146],[-105.6677,40.1583],[-105.6715,40.1654],[-105.6669,40.1699],[-105.6704,40.1846],[-105.6777,40.1907],[-105.6703,40.2194],[-105.6632,40.22],[-105.669,40.2242],[-105.66,40.2488],[-105.644,40.2499],[-105.6542,40.2613],[-105.6824,40.2728],[-105.6806,40.2845],[-105.6865,40.2883],[-105.6812,40.2919],[-105.6874,40.2937],[-105.6858,40.3029],[-105.6901,40.3086],[-105.7021,40.3121],[-105.6976,40.3183],[-105.7017,40.3243],[-105.7274,40.334],[-105.7363,40.3466],[-105.7583,40.3524],[-105.7872,40.3809],[-105.791,40.3986],[-105.8173,40.4243],[-105.816,40.4372],[-105.8058,40.4473],[-105.8045,40.4642],[-105.811,40.4709],[-105.8073,40.4745],[-105.8549,40.4863],[-105.8523,40.5066],[-105.8691,40.5207],[-105.8801,40.5233],[-105.9083,40.5161],[-105.9112,40.5222],[-105.9051,40.5353],[-105.9118,40.5527],[-105.9109,40.5664],[-105.9223,40.5742],[-105.9299,40.6058],[-105.9421,40.6091],[-105.947,40.6167],[-105.9485,40.6423],[-105.9714,40.6808],[-105.9726,40.6956],[-105.9887,40.7096],[-105.9906,40.7272],[-106.0105,40.7408],[-106.0153,40.7528],[-106.0223,40.7547],[-106.0297,40.7816],[-106.0454,40.7919],[-106.0467,40.803],[-106.0577,40.8171],[-106.0997,40.8421],[-106.0985,40.8497],[-106.1081,40.8522],[-106.1047,40.8603],[-106.1307,40.8739],[-106.1276,40.8849],[-106.1313,40.8966],[-106.1586,40.9106],[-106.1853,40.934],[-106.1893,40.9459],[-106.1848,40.9638],[-106.1911,40.986],[-106.1954,40.9882],[-106.1906,40.9976],[-107.0006,41.0034],[-109.05,41.0007],[-109.0515,39.5494]]]},"properties":{"geoid":"08008","state":"08","district":"8","name":"State Senate District 8","chamber":"Senate"}},{"type":"Feature","geometry":{"type":"Polygon","coordinates":[[[-105.0335,39.1298],[-105.0275,39.0196],[-105.0137,39.0206],[-105.0123,39.0254],[-105.0122,39.0136],[-105.0107,39.021],[-104.9917,39.021],[-104.9917,39.0136],[-104.9358,39.0123],[-104.9354,38.911],[-104.8868,38.9111],[-104.8871,38.8968],[-104.9148,38.8932],[-104.917,38.8844],[-104.9094,38.8639],[-104.9005,38.8641],[-104.898,38.8595],[-104.896,38.8642],[-104.8869,38.8643],[-104.8869,38.8558],[-104.8726,38.8512],[-104.8542,38.874],[-104.8352,38.8763],[-104.8352,38.8866],[-104.8252,38.9088],[-104.8156,38.9178],[-104.8129,38.933],[-104.7711,38.9331],[-104.7482,38.9402],[-104.6733,38.9408],[-104.6732,38.9519],[-104.6918,38.9482],[-104.6884,38.9549],[-104.7007,38.9549],[-104.7004,38.9839],[-104.7566,38.9837],[-104.7567,38.9983],[-104.766,38.9982],[-104.7659,39.0055],[-104.7567,39.0055],[-104.7567,39.0127],[-104.7798,39.0111],[-104.7754,39.0379],[-104.7639,39.0484],[-104.7614,39.0642],[-104.7709,39.0918],[-104.7666,39.1297],[-105.0335,39.1298]]]},"properties":{"geoid":"08009","state":"08","district":"9","name":"State Senate District 9","chamber":"Senate"}},{"type":"Feature","geometry":{"type":"Polygon","coordinates":[[[-104.8361,38.8824],[-104.8352,38.8763],[-104.7949,38.8736],[-104.7942,38.8618],[-104.787,38.8592],[-104.7571,38.8592],[-104.7207,38.8721],[-104.6757,38.868],[-104.6801,38.8767],[-104.6735,38.8768],[-104.6734,38.868],[-104.6633,38.8639],[-104.6177,38.9263],[-104.6077,38.9262],[-104.6082,38.9305],[-104.6275,38.9264],[-104.6275,38.9389],[-104.659,38.9363],[-104.686,38.9414],[-104.8129,38.933],[-104.8156,38.9178],[-104.8256,38.9081],[-104.8361,38.8824]]]},"properties":{"geoid":"08010","state":"08","district":"10","name":"State Senate District 10","chamber":"Senate"}},{"type":"Feature","geometry":{"type":"Polygon","coordinates":[[[-104.8363,38.823],[-104.8224,38.8149],[-104.8219,38.7867],[-104.8124,38.7666],[-104.7764,38.7648],[-104.7868,38.7676],[-104.7839,38.7763],[-104.7606,38.7533],[-104.7592,38.7597],[-104.7667,38.7648],[-104.758,38.7702],[-104.7558,38.7796],[-104.7206,38.7809],[-104.7172,38.7669],[-104.6837,38.7636],[-104.6827,38.7375],[-104.6443,38.7374],[-104.6461,38.7306],[-104.6385,38.7303],[-104.6415,38.723],[-104.6283,38.7231],[-104.6274,38.7121],[-104.6089,38.7121],[-104.6083,38.81],[-104.6175,38.8101],[-104.6174,38.8353],[-104.6266,38.8318],[-104.6313,38.8389],[-104.6174,38.839],[-104.6188,38.8461],[-104.6127,38.8461],[-104.6127,38.8497],[-104.5988,38.8489],[-104.6034,38.857],[-104.5987,38.8569],[-104.5987,38.8642],[-104.636,38.8682],[-104.6266,38.8699],[-104.6264,38.8862],[-104.6172,38.8826],[-104.6171,38.8899],[-104.6265,38.8935],[-104.6265,38.9116],[-104.6633,38.8639],[-104.6734,38.868],[-104.6735,38.8768],[-104.6801,38.8767],[-104.6757,38.868],[-104.7207,38.8721],[-104.7571,38.8592],[-104.7942,38.8618],[-104.7945,38.8372],[-104.8304,38.8369],[-104.8363,38.823]]]},"properties":{"geoid":"08011","state":"08","district":"11","name":"State Senate District 11","chamber":"Senate"}},{"type":"Feature","geometry":{"type":"Polygon","coordinates":[[[-105.0725,38.8084],[-105.0722,38.7994],[-104.9399,38.7965],[-104.9416,38.5196],[-104.6307,38.5199],[-104.6516,38.5632],[-104.6473,38.5633],[-104.6693,38.5865],[-104.6876,38.6163],[-104.7029,38.6649],[-104.6987,38.658],[-104.6949,38.6632],[-104.6825,38.6635],[-104.6819,38.6572],[-104.664,38.6574],[-104.664,38.6646],[-104.6364,38.6648],[-104.6334,38.6826],[-104.6092,38.6793],[-104.609,38.6866],[-104.5992,38.694],[-104.6736,38.695],[-104.6736,38.7084],[-104.6595,38.7163],[-104.6585,38.7121],[-104.6274,38.7121],[-104.6283,38.7231],[-104.6415,38.723],[-104.6385,38.7303],[-104.6461,38.7306],[-104.6443,38.7374],[-104.6827,38.7375],[-104.6837,38.7636],[-104.7172,38.7669],[-104.7206,38.7809],[-104.7558,38.7796],[-104.758,38.7702],[-104.7667,38.7648],[-104.7592,38.7597],[-104.7606,38.7533],[-104.7839,38.7763],[-104.7868,38.7676],[-104.7764,38.7648],[-104.8124,38.7666],[-104.8219,38.7867],[-104.8224,38.8149],[-104.8363,38.823],[-104.8304,38.8369],[-104.7945,38.8372],[-104.7949,38.8736],[-104.8503,38.8759],[-104.8633,38.8671],[-104.8649,38.8572],[-104.8726,38.8512],[-104.8869,38.8558],[-104.8869,38.8643],[-104.896,38.8642],[-104.898,38.8595],[-104.9005,38.8641],[-104.9094,38.8639],[-104.917,38.8844],[-104.9148,38.8932],[-104.8871,38.8968],[-104.8868,38.9111],[-104.9354,38.911],[-104.9358,39.0123],[-104.9917,39.0136],[-104.9917,39.021],[-105.0107,39.021],[-105.0122,39.0136],[-105.0123,39.0254],[-105.0137,39.0206],[-105.0275,39.0196],[-105.0273,38.9381],[-105.0412,38.9378],[-105.0411,38.9306],[-105.0273,38.9308],[-105.0286,38.8687],[-105.0664,38.8692],[-105.0725,38.8084]]]},"properties":{"geoid":"08012","state":"08","district":"12","name":"State Senate District 12","chamber":"Senate"}},{"type":"Feature","geometry":{"type":"Polygon","coordinates":[[[-104.9222,40.0003],[-104.9219,39.9865],[-104.8448,39.9872],[-104.8659,39.9513],[-104.8521,39.9413],[-104.8708,39.9143],[-104.8468,39.9145],[-104.8464,39.8977],[-104.8189,39.9144],[-104.8089,39.9144],[-104.8067,39.9211],[-104.7932,39.928],[-104.7841,39.9433],[-104.7538,39.9695],[-104.6974,39.9725],[-104.6971,40.0005],[-104.7537,40.0005],[-104.7539,40.0186],[-104.7727,40.015],[-104.7727,40.0221],[-104.7914,40.0221],[-104.789,40.0447],[-104.7963,40.044],[-104.7963,40.0585],[-104.8011,40.0621],[-104.7822,40.0657],[-104.7821,40.0803],[-104.7442,40.0805],[-104.7443,40.0874],[-104.7585,40.0874],[-104.7632,40.1019],[-104.7348,40.0998],[-104.7348,40.1165],[-104.7541,40.1165],[-104.754,40.3023],[-104.6963,40.3051],[-104.6964,40.366],[-104.6778,40.3738],[-104.6777,40.3846],[-104.6684,40.3847],[-104.6689,40.3916],[-104.674,40.394],[-104.6494,40.3956],[-104.6494,40.3993],[-104.6626,40.3993],[-104.6637,40.4065],[-104.6749,40.4101],[-104.6709,40.4229],[-104.6258,40.421],[-104.6207,40.4247],[-104.6297,40.4596],[-104.6351,40.4594],[-104.6336,40.4309],[-104.6562,40.4354],[-104.6494,40.4234],[-104.6827,40.4286],[-104.6892,40.4351],[-104.6958,40.4586],[-104.6967,40.452],[-104.7014,40.4521],[-104.7015,40.4592],[-104.7105,40.452],[-104.7348,40.4544],[-104.7349,40.4411],[-104.7447,40.441],[-104.7447,40.4361],[-104.735,40.4344],[-104.7351,40.4065],[-104.7563,40.4069],[-104.7561,40.385],[-104.7844,40.385],[-104.7846,40.3778],[-104.8034,40.3777],[-104.8035,40.3705],[-104.7845,40.3705],[-104.7847,40.3334],[-104.7999,40.3304],[-104.8112,40.3197],[-104.811,40.2899],[-104.8205,40.2899],[-104.8205,40.2754],[-104.8298,40.2753],[-104.83,40.2827],[-104.8487,40.2808],[-104.849,40.2468],[-104.8298,40.2462],[-104.83,40.2245],[-104.849,40.225],[-104.8525,40.2324],[-104.8675,40.2327],[-104.8674,40.2038],[-104.9065,40.2046],[-104.8859,40.2038],[-104.8856,40.1748],[-104.8578,40.1744],[-104.8576,40.1671],[-104.8483,40.1667],[-104.8484,40.1598],[-104.8858,40.16],[-104.8485,40.1596],[-104.8487,40.1203],[-104.8449,40.1152],[-104.8487,40.1137],[-104.8488,40.0948],[-104.8675,40.0947],[-104.8644,40.0973],[-104.8678,40.0981],[-104.869,40.0876],[-104.8789,40.0876],[-104.8771,40.0948],[-104.8865,40.0948],[-104.8863,40.08],[-104.8676,40.0797],[-104.8683,40.0659],[-104.8863,40.0619],[-104.8863,40.0583],[-104.8673,40.0583],[-104.8671,40.0004],[-104.9222,40.0003]]]},"properties":{"geoid":"08013","state":"08","district":"13","name":"State Senate District 13","chamber":"Senate"}},{"type":"Feature","geometry":{"type":"Polygon","coordinates":[[[-105.1621,40.587],[-105.1513,40.5595],[-105.1401,40.5532],[-105.1376,40.5432],[-105.1419,40.5513],[-105.1479,40.5496],[-105.1412,40.53],[-105.1247,40.5345],[-105.1246,40.5381],[-105.1056,40.5382],[-105.1056,40.5309],[-105.1158,40.5309],[-105.1151,40.5236],[-105.1248,40.5236],[-105.1219,40.5307],[-105.1292,40.5272],[-105.1248,40.5236],[-105.1248,40.509],[-105.1155,40.5098],[-105.1162,40.4944],[-105.1252,40.4944],[-105.1252,40.4882],[-105.1301,40.4882],[-105.132,40.4943],[-105.1307,40.4891],[-105.1393,40.4867],[-105.1394,40.4943],[-105.1438,40.4943],[-105.1346,40.48],[-105.1349,40.4728],[-105.1246,40.4728],[-105.1246,40.4801],[-105.1013,40.48],[-105.1012,40.4872],[-105.0963,40.4872],[-105.0964,40.48],[-105.0774,40.4802],[-105.0772,40.4855],[-105.0572,40.48],[-105.0512,40.4946],[-105.0393,40.4904],[-105.0393,40.538],[-105.0202,40.5378],[-105.0199,40.5591],[-105.035,40.5781],[-105.0011,40.581],[-105.0007,40.6679],[-105.07,40.6668],[-105.068,40.6828],[-105.0938,40.6833],[-105.1131,40.6907],[-105.1141,40.6332],[-105.1064,40.6269],[-105.1142,40.6255],[-105.1142,40.6122],[-105.1396,40.621],[-105.1399,40.6138],[-105.1335,40.6111],[-105.1337,40.5897],[-105.1457,40.5893],[-105.1575,40.595],[-105.1621,40.587]]]},"properties":{"geoid":"08014","state":"08","district":"14","name":"State Senate District 14","chamber":"Senate"}},{"type":"Feature","geometry":{"type":"Polygon","coordinates":[[[-106.1954,40.989],[-106.1848,40.9638],[-106.1893,40.9459],[-106.1853,40.934],[-106.1586,40.9106],[-106.1313,40.8966],[-106.1276,40.8849],[-106.1307,40.8739],[-106.1047,40.8603],[-106.1081,40.8522],[-106.0985,40.8497],[-106.0997,40.8421],[-106.0577,40.8171],[-106.0467,40.803],[-106.0454,40.7919],[-106.0297,40.7816],[-106.0223,40.7547],[-106.0153,40.7528],[-106.0105,40.7408],[-105.9906,40.7272],[-105.9887,40.7096],[-105.9726,40.6956],[-105.9714,40.6808],[-105.9485,40.6423],[-105.947,40.6167],[-105.9421,40.6091],[-105.9299,40.6058],[-105.9223,40.5742],[-105.9109,40.5664],[-105.9118,40.5527],[-105.9051,40.5353],[-105.9112,40.5222],[-105.9083,40.5161],[-105.8801,40.5233],[-105.8691,40.5207],[-105.8523,40.5066],[-105.8549,40.4863],[-105.8073,40.4745],[-105.811,40.4709],[-105.8045,40.4642],[-105.8058,40.4473],[-105.816,40.4372],[-105.8173,40.4243],[-105.791,40.3986],[-105.7872,40.3809],[-105.7583,40.3524],[-105.7363,40.3466],[-105.7274,40.334],[-105.7017,40.3243],[-105.6976,40.3183],[-105.7021,40.3121],[-105.6901,40.3086],[-105.6858,40.3029],[-105.6874,40.2937],[-105.6812,40.2919],[-105.6865,40.2883],[-105.6806,40.2845],[-105.6824,40.2728],[-105.6542,40.2613],[-105.644,40.2499],[-105.66,40.2488],[-105.669,40.2242],[-105.6632,40.22],[-105.6703,40.2194],[-105.6777,40.1907],[-105.6704,40.1846],[-105.6669,40.1699],[-105.6715,40.1654],[-105.6677,40.1583],[-105.6357,40.146],[-105.6261,40.1273],[-105.6266,40.1187],[-105.6367,40.107],[-105.632,40.0972],[-105.636,40.0846],[-105.6326,40.0814],[-105.6411,40.073],[-105.6389,40.067],[-105.6467,40.0652],[-105.6511,40.0584],[-105.6374,40.0452],[-105.6519,40.0209],[-105.6619,40.0164],[-105.6897,40.0155],[-105.6912,39.9973],[-105.6832,39.9929],[-105.6903,39.9699],[-105.6851,39.9587],[-105.6944,39.9502],[-105.6932,39.9412],[-105.6758,39.9324],[-105.4574,39.9322],[-105.44,39.9384],[-105.4188,39.9287],[-105.414,39.9344],[-105.4064,39.9317],[-105.4002,39.9351],[-105.3978,39.9129],[-105.2063,39.9141],[-105.1957,39.9202],[-105.1953,39.9287],[-105.166,39.9287],[-105.1658,39.9401],[-105.1693,39.9413],[-105.1657,39.9486],[-105.1777,39.9505],[-105.1753,39.9607],[-105.1893,39.9615],[-105.1823,39.9644],[-105.2318,39.9852],[-105.2357,39.9858],[-105.2373,39.9706],[-105.2601,39.9644],[-105.2601,39.9573],[-105.2741,39.9569],[-105.2769,39.9677],[-105.2861,39.9689],[-105.2862,39.9853],[-105.2771,39.9857],[-105.2775,39.9929],[-105.2826,39.9927],[-105.2832,40],[-105.2906,40.0001],[-105.2927,40.0128],[-105.3015,40.0128],[-105.3009,40.0225],[-105.2936,40.0254],[-105.2916,40.0363],[-105.2944,40.0472],[-105.3011,40.0473],[-105.2965,40.0629],[-105.2984,40.0799],[-105.2822,40.08],[-105.2784,40.0758],[-105.2774,40.08],[-105.2334,40.079],[-105.2299,40.0801],[-105.235,40.0802],[-105.2334,40.0873],[-105.2069,40.0889],[-105.2069,40.0944],[-105.1852,40.0944],[-105.1615,40.116],[-105.1592,40.104],[-105.1317,40.1152],[-105.131,40.1341],[-105.1387,40.1341],[-105.1456,40.126],[-105.1786,40.1308],[-105.1783,40.1669],[-105.1736,40.1669],[-105.1735,40.1709],[-105.1546,40.1671],[-105.1585,40.1875],[-105.1388,40.1923],[-105.15,40.1978],[-105.15,40.2033],[-105.1311,40.2033],[-105.1311,40.2069],[-105.1216,40.2032],[-105.1214,40.2104],[-105.1155,40.2104],[-105.1156,40.2032],[-105.1019,40.2033],[-105.1024,40.2104],[-105.0978,40.2104],[-105.0931,40.2032],[-105.0605,40.2036],[-105.0599,40.1915],[-105.0552,40.1911],[-105.0551,40.2618],[-105.1025,40.2614],[-105.1025,40.2906],[-105.1075,40.2941],[-105.1076,40.3051],[-105.1497,40.3049],[-105.1502,40.3495],[-104.9817,40.3492],[-104.9916,40.3736],[-105.0025,40.3798],[-105.0025,40.3853],[-104.9939,40.3854],[-104.9924,40.4049],[-104.9642,40.4072],[-104.9639,40.4217],[-104.9549,40.4215],[-104.955,40.4143],[-104.9444,40.4142],[-104.9442,40.4359],[-104.9717,40.436],[-104.9717,40.4401],[-104.9825,40.4359],[-104.9822,40.4648],[-104.9921,40.4647],[-104.9924,40.4758],[-105.0012,40.4758],[-105.0011,40.4794],[-105.029,40.4836],[-105.0678,40.4801],[-105.0678,40.4842],[-105.0772,40.4855],[-105.0774,40.4802],[-105.0964,40.48],[-105.0963,40.4872],[-105.1012,40.4872],[-105.1013,40.48],[-105.1246,40.4801],[-105.1246,40.4728],[-105.1349,40.4728],[-105.1346,40.48],[-105.1438,40.4943],[-105.1394,40.4943],[-105.1393,40.4867],[-105.1307,40.4891],[-105.132,40.4943],[-105.1301,40.4882],[-105.1252,40.4882],[-105.1252,40.4944],[-105.1162,40.4944],[-105.1155,40.5098],[-105.1248,40.509],[-105.1248,40.5236],[-105.1292,40.5272],[-105.1219,40.5307],[-105.1248,40.5236],[-105.1151,40.5236],[-105.1158,40.5309],[-105.1056,40.5309],[-105.1056,40.5382],[-105.1246,40.5381],[-105.1247,40.5345],[-105.1412,40.53],[-105.1479,40.5496],[-105.1419,40.5513],[-105.1376,40.5432],[-105.1401,40.5532],[-105.1513,40.5595],[-105.1621,40.5869],[-105.1575,40.595],[-105.1457,40.5893],[-105.1337,40.5897],[-105.1335,40.6111],[-105.1399,40.6138],[-105.1396,40.621],[-105.1142,40.6122],[-105.1142,40.6255],[-105.1064,40.6269],[-105.1141,40.6332],[-105.1131,40.6907],[-105.0938,40.6833],[-105.068,40.6828],[-105.07,40.6668],[-105.0007,40.6679],[-105.0003,40.6858],[-105.0003,40.6825],[-104.9432,40.6823],[-104.9434,40.9982],[-106.1906,40.9976],[-106.1954,40.989]]]},"properties":{"geoid":"08015","state":"08","district":"15","name":"State Senate District 15","chamber":"Senate"}},{"type":"Feature","geometry":{"type":"Polygon","coordinates":[[[-105.1573,39.598],[-105.1338,39.5527],[-105.1175,39.5531],[-105.1069,39.5472],[-105.111,39.5471],[-105.111,39.5362],[-105.0935,39.5363],[-105.0887,39.5463],[-105.0716,39.5459],[-105.0601,39.5601],[-105.0486,39.5661],[-104.9044,39.566],[-104.9041,39.6096],[-104.9562,39.6097],[-104.9624,39.6061],[-104.9647,39.6097],[-104.9799,39.6096],[-104.9787,39.6168],[-104.988,39.6168],[-104.995,39.624],[-105.0068,39.6205],[-105.0067,39.6291],[-105.035,39.6242],[-105.0348,39.6278],[-105.0534,39.6315],[-105.0533,39.6388],[-105.059,39.6388],[-105.0535,39.6295],[-105.0581,39.6144],[-105.11,39.6097],[-105.1102,39.593],[-105.1443,39.5894],[-105.1525,39.6016],[-105.1573,39.598]]]},"properties":{"geoid":"08016","state":"08","district":"16","name":"State Senate District 16","chamber":"Senate"}},{"type":"Feature","geometry":{"type":"Polygon","coordinates":[[[-105.1786,40.1308],[-105.1456,40.126],[-105.1387,40.1341],[-105.131,40.1341],[-105.1311,40.0183],[-105.1358,40.0183],[-105.1312,40.0074],[-105.1405,40.0074],[-105.1406,40.0002],[-105.1568,40.0001],[-105.1573,39.9962],[-105.1468,39.994],[-105.1405,39.9981],[-105.1374,39.9942],[-105.1185,39.9924],[-105.1174,39.9833],[-105.1278,39.9867],[-105.1236,39.9826],[-105.1277,39.9781],[-105.12,39.9782],[-105.1275,39.975],[-105.1092,39.9761],[-105.1079,39.9585],[-105.1281,39.9578],[-105.128,39.9518],[-105.1093,39.9506],[-105.1094,39.9433],[-105.1186,39.9433],[-105.1187,39.933],[-105.1109,39.9265],[-105.1134,39.9319],[-105.1092,39.9361],[-105.0909,39.9361],[-105.0911,39.9433],[-105.0766,39.9433],[-105.0719,39.9579],[-105.0529,39.9578],[-105.0586,39.9753],[-105.0528,39.9777],[-105.0528,40.0003],[-105.0079,40.0005],[-105.008,40.0076],[-104.9896,40.0077],[-104.9896,40.0149],[-104.9991,40.0149],[-104.9958,40.0204],[-104.999,40.0258],[-104.9801,40.0293],[-104.9785,40.044],[-104.9991,40.044],[-104.9991,40.0583],[-104.9808,40.0583],[-104.9808,40.0803],[-104.9942,40.0803],[-104.9942,40.0731],[-104.9988,40.0731],[-104.9947,40.0877],[-105.0177,40.0877],[-105.0214,40.0838],[-105.045,40.0878],[-105.0416,40.1023],[-105.048,40.1021],[-105.0509,40.0949],[-105.0463,40.095],[-105.0464,40.0878],[-105.0554,40.0878],[-105.0554,40.1383],[-105.0295,40.1387],[-105.0365,40.1454],[-105.0176,40.1459],[-105.0176,40.1534],[-104.9987,40.1543],[-105.008,40.1603],[-105.0367,40.1603],[-105.0365,40.1706],[-105.0179,40.1754],[-105.0175,40.1967],[-105.0269,40.1967],[-105.0279,40.1893],[-105.0362,40.1894],[-105.0366,40.1966],[-105.0516,40.1964],[-105.0481,40.1892],[-105.0552,40.1891],[-105.0599,40.1915],[-105.0605,40.2036],[-105.0931,40.2032],[-105.0978,40.2104],[-105.1024,40.2104],[-105.1019,40.2033],[-105.1156,40.2032],[-105.1155,40.2104],[-105.1214,40.2104],[-105.1216,40.2032],[-105.1311,40.2069],[-105.1311,40.2033],[-105.15,40.2033],[-105.15,40.1978],[-105.1388,40.1923],[-105.1585,40.1875],[-105.1546,40.1671],[-105.1735,40.1709],[-105.1736,40.1669],[-105.1783,40.1669],[-105.1786,40.1308]]]},"properties":{"geoid":"08017","state":"08","district":"17","name":"State Senate District 17","chamber":"Senate"}},{"type":"Feature","geometry":{"type":"Polygon","coordinates":[[[-105.3014,40.0129],[-105.2927,40.0128],[-105.2906,40.0001],[-105.2832,40],[-105.2826,39.9927],[-105.2775,39.9929],[-105.2771,39.9857],[-105.2862,39.9853],[-105.2861,39.9689],[-105.2769,39.9677],[-105.2741,39.9569],[-105.2601,39.9573],[-105.2601,39.9644],[-105.2373,39.9706],[-105.2357,39.9858],[-105.1823,39.9644],[-105.1893,39.9615],[-105.1753,39.9607],[-105.1777,39.9505],[-105.1657,39.9486],[-105.1693,39.9413],[-105.1658,39.9401],[-105.166,39.9287],[-105.1953,39.9287],[-105.1957,39.9202],[-105.2063,39.9141],[-105.1471,39.9139],[-105.147,39.9289],[-105.1376,39.9289],[-105.1376,39.9397],[-105.1282,39.9396],[-105.1281,39.9578],[-105.1079,39.9585],[-105.1092,39.9761],[-105.1275,39.975],[-105.12,39.9782],[-105.1277,39.9781],[-105.1236,39.9826],[-105.1278,39.9867],[-105.1174,39.9833],[-105.1185,39.9924],[-105.1374,39.9942],[-105.1405,39.9981],[-105.1468,39.994],[-105.1573,39.9962],[-105.1568,40.0001],[-105.1406,40.0002],[-105.1405,40.0074],[-105.1312,40.0074],[-105.1358,40.0183],[-105.1311,40.0183],[-105.131,40.1164],[-105.1592,40.104],[-105.1615,40.116],[-105.1852,40.0944],[-105.2069,40.0944],[-105.2069,40.0889],[-105.2334,40.0873],[-105.235,40.0802],[-105.2299,40.0801],[-105.2334,40.079],[-105.2774,40.08],[-105.2784,40.0758],[-105.2822,40.08],[-105.2984,40.0799],[-105.2965,40.0629],[-105.3011,40.0473],[-105.2944,40.0472],[-105.2916,40.0363],[-105.2936,40.0254],[-105.3009,40.0225],[-105.3014,40.0129]]]},"properties":{"geoid":"08018","state":"08","district":"18","name":"State Senate District 18","chamber":"Senate"}},{"type":"Feature","geometry":{"type":"Polygon","coordinates":[[[-105.2217,39.8092],[-105.1871,39.8055],[-105.1747,39.8095],[-105.1699,39.8056],[-105.1582,39.808],[-105.1615,39.811],[-105.158,39.8125],[-105.1556,39.8017],[-105.1404,39.8057],[-105.1433,39.8018],[-105.138,39.7973],[-105.1426,39.7909],[-105.1285,39.7938],[-105.1285,39.7874],[-105.1238,39.7874],[-105.1238,39.7946],[-105.1199,39.791],[-105.1143,39.7947],[-105.1143,39.7864],[-105.1097,39.7902],[-105.0861,39.7891],[-105.0939,39.784],[-105.0721,39.7846],[-105.0644,39.7911],[-105.0532,39.7911],[-105.0529,39.8009],[-105.0405,39.8029],[-105.044,39.8043],[-105.044,39.8175],[-105.0533,39.82],[-105.0529,39.9142],[-105.0624,39.914],[-105.0624,39.907],[-105.0718,39.907],[-105.0717,39.8998],[-105.0906,39.8989],[-105.1001,39.9022],[-105.1006,39.9086],[-105.1086,39.9141],[-105.1471,39.914],[-105.1474,39.9001],[-105.1289,39.9003],[-105.1289,39.8904],[-105.1656,39.8925],[-105.1654,39.8461],[-105.1877,39.8453],[-105.185,39.8343],[-105.1935,39.8339],[-105.1934,39.827],[-105.1893,39.827],[-105.1978,39.8238],[-105.1982,39.8127],[-105.2214,39.8181],[-105.2217,39.8092]]]},"properties":{"geoid":"08019","state":"08","district":"19","name":"State Senate District 19","chamber":"Senate"}},{"type":"Feature","geometry":{"type":"Polygon","coordinates":[[[-105.3988,39.6136],[-105.3989,39.6064],[-105.3766,39.6094],[-105.3622,39.5952],[-105.351,39.5947],[-105.3506,39.5889],[-105.3427,39.5953],[-105.3382,39.6089],[-105.3236,39.6189],[-105.3242,39.6236],[-105.2957,39.6248],[-105.2955,39.6195],[-105.2754,39.6071],[-105.2681,39.5889],[-105.2544,39.5847],[-105.2505,39.5891],[-105.2218,39.5914],[-105.2318,39.6091],[-105.2285,39.6194],[-105.2047,39.6183],[-105.1722,39.6332],[-105.1609,39.6169],[-105.1589,39.6026],[-105.1515,39.6009],[-105.1443,39.5894],[-105.1102,39.593],[-105.11,39.6097],[-105.0914,39.6097],[-105.097,39.6184],[-105.0651,39.6186],[-105.081,39.6313],[-105.0913,39.6242],[-105.1099,39.6271],[-105.1099,39.6351],[-105.0733,39.6366],[-105.0768,39.6394],[-105.072,39.646],[-105.0536,39.6512],[-105.0708,39.6496],[-105.0673,39.6569],[-105.0815,39.6621],[-105.0815,39.6966],[-105.112,39.6966],[-105.1095,39.711],[-105.1544,39.7103],[-105.154,39.7247],[-105.1784,39.7247],[-105.1748,39.7183],[-105.186,39.7202],[-105.1927,39.7038],[-105.2049,39.6999],[-105.2066,39.7036],[-105.221,39.7015],[-105.2211,39.711],[-105.2389,39.7109],[-105.2385,39.7182],[-105.2312,39.7151],[-105.2298,39.7255],[-105.2208,39.7286],[-105.2219,39.74],[-105.233,39.74],[-105.2363,39.7445],[-105.231,39.7499],[-105.2405,39.7536],[-105.2404,39.7688],[-105.2359,39.7688],[-105.2404,39.7832],[-105.2317,39.7832],[-105.2245,39.7783],[-105.2217,39.769],[-105.2117,39.7657],[-105.1891,39.7724],[-105.186,39.7871],[-105.1749,39.7866],[-105.1748,39.7715],[-105.1553,39.7725],[-105.1654,39.7744],[-105.1402,39.7793],[-105.1404,39.8057],[-105.1556,39.8017],[-105.158,39.8125],[-105.1615,39.811],[-105.1582,39.808],[-105.1699,39.8056],[-105.1747,39.8095],[-105.1871,39.8055],[-105.2217,39.8091],[-105.2214,39.8181],[-105.1982,39.8127],[-105.1978,39.8238],[-105.1893,39.827],[-105.1934,39.827],[-105.1935,39.8339],[-105.185,39.8343],[-105.1877,39.8453],[-105.1654,39.8461],[-105.1657,39.9105],[-105.1471,39.9139],[-105.3978,39.9129],[-105.3988,39.6136]]]},"properties":{"geoid":"08020","state":"08","district":"20","name":"State Senate District 20","chamber":"Senate"}},{"type":"Feature","geometry":{"type":"Polygon","coordinates":[[[-105.0533,39.8212],[-105.044,39.8175],[-105.044,39.8043],[-105.0405,39.8029],[-105.0529,39.8009],[-105.0532,39.7911],[-105.0218,39.7945],[-105.0205,39.7911],[-104.9759,39.791],[-104.9687,39.7984],[-104.9689,39.791],[-104.9405,39.7946],[-104.9405,39.791],[-104.927,39.7911],[-104.927,39.7838],[-104.9034,39.7838],[-104.9036,39.7984],[-104.8845,39.7983],[-104.8844,39.8128],[-104.8661,39.8128],[-104.866,39.7984],[-104.7909,39.7983],[-104.7909,39.8418],[-104.731,39.8452],[-104.7304,39.8961],[-104.7033,39.8959],[-104.7032,39.9069],[-104.6921,39.9069],[-104.6921,39.9142],[-104.6796,39.914],[-104.6797,39.907],[-104.6309,39.9066],[-104.6309,39.8993],[-104.5834,39.8989],[-104.5834,39.9133],[-104.4893,39.9124],[-104.4891,39.7572],[-104.5081,39.7575],[-104.508,39.7385],[-104.4522,39.7382],[-104.4525,39.7234],[-104.4432,39.7233],[-104.4339,39.7233],[-104.4324,39.7381],[-104.4153,39.7381],[-104.418,39.5638],[-103.7071,39.5663],[-103.7057,40.0014],[-104.6971,40.0005],[-104.6974,39.9725],[-104.7538,39.9695],[-104.7841,39.9433],[-104.7932,39.928],[-104.8067,39.9211],[-104.8089,39.9144],[-104.8189,39.9144],[-104.8464,39.8977],[-104.8468,39.9145],[-104.8705,39.9144],[-104.8765,39.9065],[-104.8936,39.9069],[-104.8983,39.8925],[-104.8856,39.8925],[-104.8921,39.8815],[-104.9017,39.8708],[-104.9123,39.8705],[-104.9197,39.8581],[-104.9352,39.8574],[-104.9221,39.8548],[-104.9426,39.8309],[-104.95,39.8421],[-104.9467,39.8446],[-104.9496,39.848],[-104.9418,39.8524],[-104.9496,39.8525],[-104.9496,39.856],[-104.9744,39.8562],[-104.9779,39.8465],[-104.9873,39.8454],[-104.9897,39.8489],[-105.0122,39.849],[-105.0156,39.8561],[-105.0344,39.8563],[-105.0343,39.8509],[-105.0449,39.8473],[-105.0422,39.8426],[-105.0532,39.8418],[-105.0533,39.8212]]]},"properties":{"geoid":"08021","state":"08","district":"21","name":"State Senate District 21","chamber":"Senate"}},{"type":"Feature","geometry":{"type":"Polygon","coordinates":[[[-105.2405,39.7544],[-105.231,39.7499],[-105.2363,39.7445],[-105.233,39.74],[-105.2219,39.74],[-105.2208,39.7286],[-105.2298,39.7255],[-105.2312,39.7151],[-105.2385,39.7182],[-105.2389,39.7109],[-105.2211,39.711],[-105.221,39.7015],[-105.1927,39.7038],[-105.1873,39.7193],[-105.1748,39.7183],[-105.1784,39.7247],[-105.154,39.7247],[-105.1544,39.7103],[-105.1095,39.711],[-105.112,39.6966],[-105.0815,39.6966],[-105.0813,39.6701],[-105.0533,39.6678],[-105.0533,39.675],[-105.0626,39.675],[-105.0626,39.6793],[-105.0532,39.6824],[-105.0532,39.7838],[-105.0627,39.7838],[-105.0627,39.7883],[-105.0939,39.784],[-105.0861,39.7891],[-105.1097,39.7902],[-105.1143,39.7864],[-105.1143,39.7947],[-105.1199,39.791],[-105.1238,39.7946],[-105.1238,39.7874],[-105.1285,39.7874],[-105.1285,39.7938],[-105.1355,39.7938],[-105.1414,39.7784],[-105.1742,39.7715],[-105.1749,39.7866],[-105.186,39.7871],[-105.1891,39.7724],[-105.2117,39.7657],[-105.2217,39.769],[-105.2245,39.7783],[-105.2317,39.7832],[-105.2404,39.7832],[-105.2359,39.7688],[-105.2404,39.7688],[-105.2405,39.7544]]]},"properties":{"geoid":"08022","state":"08","district":"22","name":"State Senate District 22","chamber":"Senate"}},{"type":"Feature","geometry":{"type":"Polygon","coordinates":[[[-105.1504,40.3349],[-105.1497,40.3049],[-105.1076,40.3051],[-105.1075,40.2941],[-105.1025,40.2906],[-105.1025,40.2614],[-105.0551,40.2618],[-105.0552,40.1891],[-105.0481,40.1892],[-105.0516,40.1964],[-105.0366,40.1966],[-105.0362,40.1894],[-105.0279,40.1893],[-105.0269,40.1967],[-105.0175,40.1967],[-105.0179,40.1754],[-105.0365,40.1706],[-105.0367,40.1603],[-104.9987,40.1571],[-105.0003,40.1535],[-105.0176,40.1534],[-105.0176,40.1459],[-105.0365,40.1454],[-105.0295,40.1387],[-105.0554,40.1383],[-105.0554,40.0877],[-105.0464,40.0878],[-105.0463,40.095],[-105.0509,40.0949],[-105.048,40.1021],[-105.0416,40.1023],[-105.045,40.0878],[-105.0214,40.0838],[-105.0177,40.0877],[-104.9947,40.0877],[-104.9988,40.0731],[-104.9942,40.0731],[-104.9942,40.0803],[-104.9808,40.0803],[-104.9808,40.0583],[-104.9991,40.0583],[-104.9991,40.044],[-104.9611,40.0441],[-104.9614,40.0003],[-104.8671,40.0004],[-104.8673,40.0583],[-104.8863,40.0583],[-104.8863,40.0619],[-104.8683,40.0659],[-104.8676,40.0797],[-104.8863,40.08],[-104.8865,40.0948],[-104.8771,40.0948],[-104.8789,40.0876],[-104.869,40.0876],[-104.8678,40.0981],[-104.8644,40.0973],[-104.8675,40.0947],[-104.8488,40.0948],[-104.8487,40.1137],[-104.8449,40.1152],[-104.8487,40.1203],[-104.8485,40.1596],[-104.8858,40.16],[-104.8484,40.1598],[-104.8483,40.1667],[-104.8576,40.1671],[-104.8578,40.1744],[-104.8856,40.1748],[-104.8859,40.2038],[-104.9065,40.2046],[-104.8674,40.2038],[-104.8675,40.2327],[-104.8525,40.2324],[-104.849,40.225],[-104.83,40.2245],[-104.8298,40.2462],[-104.849,40.2468],[-104.8487,40.2809],[-104.83,40.2827],[-104.8298,40.2753],[-104.8205,40.2754],[-104.8205,40.2899],[-104.811,40.2899],[-104.8112,40.3197],[-104.7999,40.3304],[-104.7861,40.3306],[-104.7836,40.34],[-104.7845,40.3705],[-104.8035,40.3705],[-104.8034,40.3777],[-104.8698,40.3778],[-104.87,40.3924],[-104.879,40.3924],[-104.879,40.3851],[-104.8882,40.3852],[-104.8881,40.3924],[-104.9075,40.3924],[-104.907,40.4215],[-104.8837,40.4213],[-104.8838,40.4177],[-104.8745,40.4213],[-104.8746,40.4141],[-104.8701,40.4141],[-104.8701,40.4211],[-104.8604,40.4213],[-104.8584,40.44],[-104.8414,40.4434],[-104.8419,40.4615],[-104.8135,40.4584],[-104.8116,40.4516],[-104.7924,40.452],[-104.7924,40.4809],[-104.8324,40.4798],[-104.8323,40.507],[-104.8324,40.5016],[-104.8511,40.5017],[-104.8511,40.4944],[-104.8419,40.491],[-104.8417,40.487],[-104.8513,40.4902],[-104.8515,40.4796],[-104.8693,40.4801],[-104.8702,40.509],[-104.8795,40.509],[-104.8795,40.5016],[-104.8888,40.5016],[-104.889,40.5211],[-104.9051,40.5231],[-104.9079,40.5189],[-104.9083,40.538],[-104.9271,40.5382],[-104.9288,40.5479],[-104.9442,40.5428],[-104.9442,40.5517],[-104.9078,40.5525],[-104.9076,40.5887],[-104.8887,40.5887],[-104.8869,40.7112],[-104.9435,40.7113],[-104.9432,40.6823],[-105.0003,40.6825],[-105.0005,40.6858],[-105.0011,40.581],[-105.035,40.5781],[-105.0199,40.5591],[-105.0202,40.5378],[-105.0393,40.538],[-105.0393,40.4904],[-105.0512,40.4946],[-105.0572,40.48],[-105.029,40.4836],[-105.0011,40.4794],[-105.0012,40.4758],[-104.9924,40.4758],[-104.9921,40.4647],[-104.9822,40.4648],[-104.9825,40.4359],[-104.9717,40.4401],[-104.9717,40.436],[-104.9442,40.4359],[-104.9444,40.4142],[-104.955,40.4143],[-104.9549,40.4215],[-104.9639,40.4217],[-104.9642,40.4072],[-104.9909,40.4063],[-104.9939,40.3854],[-105.0025,40.3853],[-105.0012,40.3781],[-104.995,40.3779],[-104.9904,40.3716],[-104.9817,40.3492],[-105.1502,40.3495],[-105.1504,40.3349]]]},"properties":{"geoid":"08023","state":"08","district":"23","name":"State Senate District 23","chamber":"Senate"}},{"type":"Feature","geometry":{"type":"Polygon","coordinates":[[[-105.0251,39.8728],[-105.0249,39.8563],[-105.0156,39.8561],[-105.0122,39.849],[-104.9826,39.8454],[-104.9779,39.8465],[-104.9744,39.8562],[-104.9418,39.8524],[-104.9496,39.848],[-104.9467,39.8446],[-104.95,39.8421],[-104.9426,39.8309],[-104.9221,39.8548],[-104.9352,39.8574],[-104.9197,39.8581],[-104.9123,39.8705],[-104.9017,39.8708],[-104.8921,39.8815],[-104.8856,39.8925],[-104.8983,39.8925],[-104.8974,39.9034],[-104.8765,39.9065],[-104.8575,39.9317],[-104.8521,39.9413],[-104.8654,39.9533],[-104.8448,39.9872],[-104.9219,39.9865],[-104.9222,40.0003],[-104.9809,40.0003],[-104.9877,39.9865],[-104.9899,39.9141],[-104.9685,39.914],[-104.9685,39.9214],[-104.9615,39.9212],[-104.9588,39.8995],[-104.9496,39.8994],[-104.9448,39.8853],[-104.9565,39.8918],[-104.9589,39.8851],[-104.9863,39.8852],[-104.9914,39.872],[-104.9887,39.8694],[-104.9933,39.8681],[-105.0022,39.873],[-105.0061,39.8851],[-105.025,39.8852],[-105.0251,39.8728]]]},"properties":{"geoid":"08024","state":"08","district":"24","name":"State Senate District 24","chamber":"Senate"}},{"type":"Feature","geometry":{"type":"Polygon","coordinates":[[[-105.1661,39.9018],[-105.1652,39.8915],[-105.1349,39.8893],[-105.1363,39.892],[-105.1289,39.8904],[-105.1287,39.9],[-105.1474,39.9001],[-105.1471,39.914],[-105.1086,39.9141],[-105.1006,39.9086],[-105.1001,39.9022],[-105.0906,39.8989],[-105.0717,39.8998],[-105.0718,39.907],[-105.0624,39.907],[-105.0624,39.914],[-105.0529,39.9142],[-105.0532,39.8418],[-105.0422,39.8426],[-105.0449,39.8473],[-105.0343,39.8509],[-105.0344,39.8563],[-105.0249,39.8563],[-105.025,39.8852],[-105.0061,39.8851],[-105.0022,39.873],[-104.9933,39.8681],[-104.9887,39.8694],[-104.9914,39.872],[-104.9863,39.8852],[-104.9589,39.8851],[-104.9565,39.8918],[-104.9448,39.8852],[-104.9496,39.8994],[-104.9588,39.8995],[-104.9615,39.9212],[-104.9685,39.9214],[-104.9685,39.914],[-104.9899,39.9141],[-104.9877,39.9866],[-104.9809,40.0003],[-104.9614,40.0003],[-104.9611,40.0441],[-104.9792,40.0438],[-104.9801,40.0293],[-104.999,40.0258],[-104.9958,40.0204],[-104.9991,40.0149],[-104.9896,40.0149],[-104.9896,40.0077],[-105.008,40.0076],[-105.0079,40.0005],[-105.0528,40.0003],[-105.0528,39.9777],[-105.0586,39.9753],[-105.0529,39.9578],[-105.0719,39.9579],[-105.0766,39.9433],[-105.0911,39.9433],[-105.0909,39.9361],[-105.1092,39.9361],[-105.1134,39.9315],[-105.1094,39.9255],[-105.1188,39.9338],[-105.1186,39.9433],[-105.1094,39.9433],[-105.1093,39.9506],[-105.128,39.9542],[-105.1282,39.9396],[-105.1376,39.9397],[-105.1376,39.9289],[-105.147,39.9289],[-105.1471,39.9138],[-105.1657,39.9105],[-105.1661,39.9018]]]},"properties":{"geoid":"08025","state":"08","district":"25","name":"State Senate District 25","chamber":"Senate"}},{"type":"Feature","geometry":{"type":"Polygon","coordinates":[[[-105.1099,39.6272],[-105.0913,39.6242],[-105.081,39.6313],[-105.0651,39.6186],[-105.097,39.6184],[-105.097,39.6143],[-105.0581,39.6144],[-105.0535,39.6295],[-105.059,39.6388],[-105.0533,39.6388],[-105.0534,39.6315],[-105.0348,39.6278],[-105.035,39.6242],[-105.0067,39.6291],[-105.0068,39.6205],[-104.995,39.624],[-104.988,39.6168],[-104.9787,39.6168],[-104.9799,39.6096],[-104.9647,39.6097],[-104.9624,39.6061],[-104.9562,39.6097],[-104.9041,39.6096],[-104.9041,39.6023],[-104.895,39.6023],[-104.8999,39.5964],[-104.8856,39.5946],[-104.8786,39.5878],[-104.8786,39.5914],[-104.8715,39.5914],[-104.8762,39.5987],[-104.848,39.6023],[-104.8477,39.6241],[-104.8758,39.6269],[-104.8801,39.6531],[-104.8755,39.6515],[-104.8756,39.645],[-104.8473,39.6571],[-104.8663,39.6603],[-104.8661,39.6708],[-104.8754,39.6785],[-104.8754,39.6965],[-104.9035,39.6985],[-104.9001,39.693],[-104.9035,39.6894],[-104.8942,39.693],[-104.8893,39.6821],[-104.9034,39.6786],[-104.9035,39.6676],[-104.913,39.6675],[-104.9129,39.6531],[-104.955,39.653],[-104.9594,39.6615],[-104.9688,39.6604],[-104.9735,39.6677],[-105.0004,39.6677],[-105.0044,39.6605],[-105.0109,39.6605],[-105.0064,39.6768],[-105.0157,39.6787],[-105.0158,39.6605],[-105.0331,39.657],[-105.0346,39.6496],[-105.0632,39.6496],[-105.0632,39.646],[-105.0745,39.6441],[-105.0768,39.6387],[-105.0733,39.6366],[-105.1099,39.6351],[-105.1099,39.6272]]]},"properties":{"geoid":"08026","state":"08","district":"26","name":"State Senate District 26","chamber":"Senate"}},{"type":"Feature","geometry":{"type":"Polygon","coordinates":[[[-104.9044,39.566],[-104.7744,39.5658],[-104.7744,39.5611],[-104.7682,39.5588],[-104.7462,39.5587],[-104.746,39.5659],[-104.7366,39.5659],[-104.7367,39.5512],[-104.705,39.5509],[-104.7074,39.566],[-104.418,39.5638],[-104.4147,39.7367],[-104.4324,39.7381],[-104.4339,39.7233],[-104.4525,39.7234],[-104.4522,39.7382],[-104.527,39.7387],[-104.5275,39.7098],[-104.5532,39.7101],[-104.5448,39.6751],[-104.5523,39.6376],[-104.8292,39.6386],[-104.8303,39.6511],[-104.8379,39.6574],[-104.8487,39.6592],[-104.8756,39.645],[-104.8755,39.6515],[-104.8801,39.6531],[-104.8758,39.6269],[-104.8477,39.6241],[-104.848,39.6023],[-104.8762,39.5987],[-104.8715,39.5914],[-104.8786,39.5914],[-104.8786,39.5878],[-104.8856,39.5946],[-104.8999,39.5964],[-104.895,39.6023],[-104.9041,39.6023],[-104.9044,39.566]]]},"properties":{"geoid":"08027","state":"08","district":"27","name":"State Senate District 27","chamber":"Senate"}},{"type":"Feature","geometry":{"type":"Polygon","coordinates":[[[-104.8865,39.7293],[-104.8753,39.7256],[-104.8706,39.7102],[-104.8182,39.7111],[-104.7768,39.7039],[-104.7724,39.6977],[-104.7725,39.6531],[-104.7537,39.653],[-104.7542,39.6386],[-104.5523,39.6376],[-104.5448,39.6751],[-104.5532,39.7101],[-104.5275,39.7098],[-104.527,39.7387],[-104.5072,39.7384],[-104.5081,39.7575],[-104.4891,39.7572],[-104.4893,39.9124],[-104.5834,39.9133],[-104.5834,39.8989],[-104.5996,39.899],[-104.5998,39.8813],[-104.6052,39.8813],[-104.6053,39.8731],[-104.6192,39.8732],[-104.6198,39.8224],[-104.6554,39.8226],[-104.6554,39.813],[-104.6662,39.8131],[-104.6661,39.8228],[-104.7625,39.8234],[-104.7626,39.7984],[-104.7344,39.7984],[-104.7346,39.7692],[-104.7646,39.7692],[-104.7722,39.7715],[-104.7722,39.7764],[-104.7816,39.7765],[-104.7816,39.7728],[-104.8282,39.7728],[-104.833,39.7664],[-104.8564,39.7686],[-104.8563,39.7581],[-104.8469,39.7547],[-104.8799,39.7547],[-104.8865,39.7293]]]},"properties":{"geoid":"08028","state":"08","district":"28","name":"State Senate District 28","chamber":"Senate"}},{"type":"Feature","geometry":{"type":"Polygon","coordinates":[[[-104.8777,39.6984],[-104.8754,39.6785],[-104.8661,39.6708],[-104.8663,39.6603],[-104.8357,39.6565],[-104.8294,39.6491],[-104.8292,39.6386],[-104.7542,39.6385],[-104.7537,39.653],[-104.7725,39.6531],[-104.7724,39.6977],[-104.7777,39.7044],[-104.8182,39.7111],[-104.866,39.7111],[-104.8707,39.6984],[-104.866,39.6966],[-104.8777,39.6984]]]},"properties":{"geoid":"08029","state":"08","district":"29","name":"State Senate District 29","chamber":"Senate"}},{"type":"Feature","geometry":{"type":"Polygon","coordinates":[[[-105.1027,39.4784],[-105.1008,39.4636],[-105.0917,39.4599],[-105.0915,39.4201],[-105.073,39.4201],[-105.0727,39.4115],[-105.0645,39.4088],[-105.0435,39.4287],[-105.0429,39.4414],[-105.0548,39.4468],[-105.0523,39.471],[-105.039,39.4671],[-105.0381,39.4557],[-105.023,39.473],[-105.0266,39.4751],[-105.0267,39.4961],[-105.0189,39.4962],[-105.0137,39.4903],[-105.0042,39.4965],[-104.9705,39.4417],[-104.8896,39.4208],[-104.8778,39.4263],[-104.8758,39.4499],[-104.8488,39.4495],[-104.849,39.4349],[-104.8396,39.4312],[-104.8396,39.4203],[-104.8349,39.4192],[-104.7891,39.464],[-104.8218,39.4639],[-104.8218,39.4784],[-104.8123,39.4783],[-104.8123,39.4924],[-104.8234,39.5006],[-104.8216,39.5075],[-104.815,39.5076],[-104.8133,39.512],[-104.8118,39.5365],[-104.83,39.5364],[-104.8301,39.5549],[-104.8394,39.5524],[-104.8395,39.566],[-105.0486,39.5661],[-105.0601,39.5601],[-105.0767,39.5399],[-105.0783,39.5116],[-105.085,39.506],[-105.0864,39.4935],[-105.0951,39.4839],[-105.1027,39.4842],[-105.1027,39.4784]]]},"properties":{"geoid":"08030","state":"08","district":"30","name":"State Senate District 30","chamber":"Senate"}},{"type":"Feature","geometry":{"type":"Polygon","coordinates":[[[-105.0004,39.7455],[-104.9874,39.7269],[-104.9874,39.6966],[-104.9642,39.6853],[-104.9404,39.6829],[-104.9407,39.7111],[-104.8929,39.7112],[-104.8844,39.7069],[-104.8707,39.71],[-104.8753,39.7256],[-104.8866,39.7292],[-104.8847,39.7475],[-104.9034,39.751],[-104.9035,39.7401],[-104.9407,39.7401],[-104.9408,39.7438],[-104.9587,39.7439],[-104.9598,39.7507],[-104.9734,39.7507],[-104.9736,39.7546],[-104.978,39.7548],[-104.9782,39.7475],[-104.9874,39.757],[-105.0004,39.7455]]]},"properties":{"geoid":"08031","state":"08","district":"31","name":"State Senate District 31","chamber":"Senate"}},{"type":"Feature","geometry":{"type":"Polygon","coordinates":[[[-105.0815,39.6686],[-105.0815,39.6621],[-105.0673,39.6569],[-105.0708,39.6496],[-105.058,39.653],[-105.0346,39.6496],[-105.0331,39.657],[-105.0158,39.6605],[-105.0157,39.6787],[-105.0064,39.6768],[-105.0109,39.6605],[-105.0044,39.6605],[-105.0004,39.6677],[-104.9735,39.6677],[-104.9688,39.6604],[-104.9594,39.6615],[-104.955,39.653],[-104.9129,39.6531],[-104.913,39.6675],[-104.9035,39.6676],[-104.9034,39.6786],[-104.8893,39.6821],[-104.8942,39.693],[-104.9035,39.6894],[-104.9001,39.693],[-104.9035,39.6985],[-104.866,39.6966],[-104.8707,39.6984],[-104.866,39.7111],[-104.8841,39.7069],[-104.8929,39.7112],[-104.9407,39.7111],[-104.9404,39.6829],[-104.9642,39.6853],[-104.9828,39.6972],[-105.0532,39.6968],[-105.0532,39.6823],[-105.0626,39.6793],[-105.0626,39.675],[-105.0533,39.675],[-105.0533,39.6678],[-105.0815,39.6686]]]},"properties":{"geoid":"08032","state":"08","district":"32","name":"State Senate District 32","chamber":"Senate"}},{"type":"Feature","geometry":{"type":"Polygon","coordinates":[[[-104.9874,39.7558],[-104.9782,39.7475],[-104.978,39.7548],[-104.9736,39.7546],[-104.9734,39.7507],[-104.9598,39.7507],[-104.9587,39.7439],[-104.9408,39.7438],[-104.9407,39.7401],[-104.9035,39.7401],[-104.9034,39.751],[-104.88,39.7474],[-104.8799,39.7547],[-104.8469,39.7547],[-104.8563,39.7581],[-104.8564,39.7686],[-104.833,39.7664],[-104.8282,39.7728],[-104.7816,39.7728],[-104.7816,39.7765],[-104.7722,39.7764],[-104.7722,39.7715],[-104.7646,39.7692],[-104.7346,39.7692],[-104.7344,39.7984],[-104.7626,39.7984],[-104.7625,39.8234],[-104.6661,39.8228],[-104.6662,39.8131],[-104.6554,39.813],[-104.6554,39.8226],[-104.6198,39.8224],[-104.6192,39.8732],[-104.6053,39.8731],[-104.6052,39.8813],[-104.5998,39.8813],[-104.5996,39.899],[-104.6309,39.8993],[-104.6309,39.9066],[-104.6797,39.907],[-104.6796,39.914],[-104.6921,39.9142],[-104.6921,39.9069],[-104.7032,39.9069],[-104.7033,39.8959],[-104.7304,39.8961],[-104.731,39.8452],[-104.7909,39.8418],[-104.7909,39.7983],[-104.866,39.7984],[-104.8661,39.8128],[-104.8844,39.8128],[-104.8845,39.7983],[-104.9036,39.7984],[-104.9034,39.7838],[-104.927,39.7838],[-104.927,39.7911],[-104.9399,39.791],[-104.9405,39.7729],[-104.9685,39.7729],[-104.9874,39.7558]]]},"properties":{"geoid":"08033","state":"08","district":"33","name":"State Senate District 33","chamber":"Senate"}},{"type":"Feature","geometry":{"type":"Polygon","coordinates":[[[-105.065,39.7903],[-105.0627,39.7838],[-105.0532,39.7838],[-105.0532,39.6968],[-104.9874,39.6966],[-104.9874,39.7269],[-105.0004,39.7455],[-104.9685,39.7729],[-104.9405,39.7729],[-104.9405,39.7946],[-104.9689,39.791],[-104.9687,39.7984],[-104.9759,39.791],[-105.0205,39.7911],[-105.0218,39.7945],[-105.0253,39.7911],[-105.065,39.7903]]]},"properties":{"geoid":"08034","state":"08","district":"34","name":"State Senate District 34","chamber":"Senate"}},{"type":"Feature","geometry":{"type":"Polygon","coordinates":[[[-105.5017,37.5981],[-105.4855,37.5779],[-105.4714,37.5813],[-105.4545,37.5905],[-105.4423,37.6119],[-105.4084,37.618],[-105.4003,37.6134],[-105.3703,37.6394],[-105.3548,37.6361],[-105.2972,37.6583],[-105.2849,37.6459],[-105.2669,37.6384],[-105.2553,37.6403],[-105.2533,37.6312],[-105.2434,37.6292],[-105.236,37.6208],[-105.2212,37.6212],[-105.2145,37.6264],[-105.1844,37.616],[-105.1956,37.6089],[-105.1932,37.5922],[-105.2038,37.5944],[-105.2183,37.5824],[-105.196,37.5699],[-105.1793,37.5487],[-105.1837,37.5396],[-105.1777,37.5341],[-105.1713,37.5132],[-105.1777,37.4914],[-105.1748,37.4853],[-105.1822,37.4792],[-105.1767,37.4756],[-105.1755,37.4565],[-105.1557,37.4565],[-105.1451,37.429],[-105.141,37.4286],[-105.1394,37.4156],[-105.1297,37.4093],[-105.1386,37.4007],[-105.1573,37.3984],[-105.1668,37.3884],[-105.169,37.375],[-105.1641,37.343],[-105.1679,37.337],[-105.1631,37.3289],[-105.1669,37.3227],[-105.1655,37.2912],[-105.1542,37.2931],[-105.155,36.9953],[-104.3689,36.9934],[-103.0023,37.0001],[-102.0421,36.993],[-102.0498,39.5741],[-103.1544,39.5657],[-104.6606,39.5659],[-104.6629,39.1295],[-104.7666,39.1297],[-104.7709,39.0918],[-104.7614,39.0642],[-104.7639,39.0484],[-104.7753,39.0381],[-104.7808,39.0165],[-104.7784,39.0092],[-104.7567,39.0127],[-104.7567,39.0055],[-104.7659,39.0055],[-104.766,38.9982],[-104.7567,38.9983],[-104.7566,38.9837],[-104.7004,38.9839],[-104.7007,38.9549],[-104.6884,38.9549],[-104.6918,38.9482],[-104.6732,38.9519],[-104.6733,38.9406],[-104.659,38.9363],[-104.6275,38.9389],[-104.6275,38.9264],[-104.6082,38.9305],[-104.6077,38.9262],[-104.6177,38.9263],[-104.6266,38.9133],[-104.6265,38.8935],[-104.6171,38.8899],[-104.6172,38.8826],[-104.6264,38.8862],[-104.6266,38.8699],[-104.636,38.8682],[-104.5987,38.8642],[-104.5987,38.8569],[-104.6034,38.857],[-104.5988,38.8489],[-104.6127,38.8497],[-104.6127,38.8461],[-104.6188,38.8461],[-104.6174,38.839],[-104.6313,38.8389],[-104.6266,38.8318],[-104.6174,38.8353],[-104.6175,38.8101],[-104.6083,38.81],[-104.6089,38.7121],[-104.6585,38.7121],[-104.6595,38.7163],[-104.6736,38.7084],[-104.6736,38.695],[-104.5992,38.694],[-104.5992,38.6903],[-104.609,38.6866],[-104.6092,38.6793],[-104.6334,38.6826],[-104.6364,38.6648],[-104.664,38.6646],[-104.664,38.6574],[-104.6824,38.6572],[-104.6825,38.6635],[-104.6949,38.6632],[-104.6987,38.658],[-104.702,38.6665],[-104.6884,38.6181],[-104.6693,38.5865],[-104.6473,38.5633],[-104.6516,38.5632],[-104.6307,38.5199],[-104.0539,38.5224],[-104.0611,37.7347],[-104.6464,37.9005],[-105.0137,37.8813],[-105.0348,37.8946],[-105.033,37.9053],[-105.0387,37.9044],[-105.0543,37.9175],[-105.0642,37.9179],[-105.0661,37.9442],[-105.0778,37.953],[-105.0841,37.9556],[-105.088,37.9486],[-105.1085,37.9434],[-105.126,37.9512],[-105.1264,37.9608],[-105.1359,37.9664],[-105.1313,37.9735],[-105.1421,37.9798],[-105.1412,37.9869],[-105.1525,37.9921],[-105.1532,38.0008],[-105.148,38.0062],[-105.1687,38.0189],[-105.1946,38.0076],[-105.2,38.0008],[-105.1971,37.9924],[-105.214,37.9808],[-105.2154,37.9705],[-105.2386,37.9628],[-105.2381,37.9569],[-105.2497,37.9515],[-105.2639,37.9321],[-105.2618,37.9256],[-105.2832,37.9],[-105.3003,37.9125],[-105.3005,37.9231],[-105.3171,37.9389],[-105.3771,37.9161],[-105.4136,37.8905],[-105.4403,37.8975],[-105.4732,37.896],[-105.4785,37.8799],[-105.4505,37.8781],[-105.4292,37.8524],[-105.4287,37.8437],[-105.4356,37.8285],[-105.4352,37.8048],[-105.4549,37.7957],[-105.4493,37.7793],[-105.4598,37.7533],[-105.4527,37.7413],[-105.4542,37.724],[-105.4775,37.7075],[-105.4814,37.6938],[-105.4772,37.6662],[-105.487,37.6535],[-105.4915,37.625],[-105.4986,37.6145],[-105.4933,37.6009],[-105.5017,37.5981]]]},"properties":{"geoid":"08035","state":"08","district":"35","name":"State Senate District 35","chamber":"Senate"}}]}