{"type":"FeatureCollection","features":[{"type":"Feature","geometry":{"type":"Polygon","coordinates":[[[-72.7165,41.7708],[-72.7154,41.7605],[-72.7067,41.7618],[-72.7062,41.7668],[-72.7006,41.7619],[-72.6983,41.7701],[-72.6839,41.7681],[-72.6871,41.7735],[-72.6839,41.783],[-72.6992,41.7876],[-72.707,41.7849],[-72.7091,41.7938],[-72.7163,41.7938],[-72.7165,41.7708]]]},"properties":{"geoid":"09001","state":"09","district":"1","name":"State House District 1","chamber":"House"}},{"type":"Feature","geometry":{"type":"Polygon","coordinates":[[[-73.5435,41.3763],[-73.5064,41.3774],[-73.5016,41.362],[-73.4854,41.3566],[-73.4701,41.3264],[-73.3471,41.3504],[-73.3682,41.3971],[-73.3957,41.3926],[-73.4033,41.3962],[-73.4012,41.4029],[-73.4379,41.3732],[-73.4453,41.3817],[-73.4595,41.3777],[-73.4652,41.3826],[-73.4747,41.3805],[-73.5289,41.3927],[-73.5426,41.389],[-73.5435,41.3763]]]},"properties":{"geoid":"09002","state":"09","district":"2","name":"State House District 2","chamber":"House"}},{"type":"Feature","geometry":{"type":"Polygon","coordinates":[[[-72.7155,41.7442],[-72.715,41.7314],[-72.7015,41.7342],[-72.6931,41.7521],[-72.6871,41.7523],[-72.6866,41.7637],[-72.7042,41.7623],[-72.7073,41.7667],[-72.7067,41.7618],[-72.7154,41.7605],[-72.7155,41.7442]]]},"properties":{"geoid":"09003","state":"09","district":"3","name":"State House District 3","chamber":"House"}},{"type":"Feature","geometry":{"type":"Polygon","coordinates":[[[-72.6942,41.7431],[-72.6833,41.7473],[-72.6825,41.7385],[-72.6664,41.7383],[-72.6642,41.751],[-72.6542,41.7532],[-72.6649,41.7695],[-72.6744,41.7722],[-72.6812,41.7628],[-72.6866,41.7637],[-72.6871,41.7523],[-72.6931,41.7521],[-72.6942,41.7431]]]},"properties":{"geoid":"09004","state":"09","district":"4","name":"State House District 4","chamber":"House"}},{"type":"Feature","geometry":{"type":"Polygon","coordinates":[[[-72.6953,41.7992],[-72.69,41.7995],[-72.6769,41.7887],[-72.678,41.785],[-72.6704,41.7833],[-72.6727,41.7722],[-72.6649,41.7695],[-72.6459,41.7859],[-72.646,41.7976],[-72.5836,41.8006],[-72.5553,41.8087],[-72.576,41.8079],[-72.6095,41.8194],[-72.6148,41.8054],[-72.6443,41.813],[-72.6382,41.8294],[-72.644,41.8335],[-72.6455,41.843],[-72.6654,41.838],[-72.663,41.8603],[-72.67,41.8619],[-72.679,41.8561],[-72.6895,41.8601],[-72.686,41.8002],[-72.6936,41.8054],[-72.6953,41.7992]]]},"properties":{"geoid":"09005","state":"09","district":"5","name":"State House District 5","chamber":"House"}},{"type":"Feature","geometry":{"type":"Polygon","coordinates":[[[-72.7261,41.7225],[-72.6478,41.7279],[-72.6425,41.7399],[-72.649,41.7502],[-72.6612,41.7529],[-72.6664,41.7383],[-72.6825,41.7385],[-72.6833,41.7473],[-72.6981,41.7423],[-72.7018,41.734],[-72.715,41.7314],[-72.7151,41.7461],[-72.7212,41.7457],[-72.7168,41.7423],[-72.7261,41.7225]]]},"properties":{"geoid":"09006","state":"09","district":"6","name":"State House District 6","chamber":"House"}},{"type":"Feature","geometry":{"type":"Polygon","coordinates":[[[-72.7182,41.8066],[-72.7163,41.7938],[-72.7091,41.7938],[-72.707,41.7849],[-72.6992,41.7876],[-72.6839,41.783],[-72.6871,41.7735],[-72.6838,41.7682],[-72.6983,41.7701],[-72.6987,41.7634],[-72.681,41.7629],[-72.6727,41.7722],[-72.6704,41.7833],[-72.678,41.785],[-72.6769,41.7887],[-72.69,41.7995],[-72.6953,41.7992],[-72.6914,41.8076],[-72.7182,41.8066]]]},"properties":{"geoid":"09007","state":"09","district":"7","name":"State House District 7","chamber":"House"}},{"type":"Feature","geometry":{"type":"Polygon","coordinates":[[[-72.4735,41.7983],[-72.4687,41.7705],[-72.4513,41.7618],[-72.4412,41.76],[-72.4437,41.7709],[-72.4384,41.7715],[-72.3809,41.7639],[-72.3546,41.7672],[-72.338,41.7491],[-72.3289,41.7388],[-72.3565,41.7015],[-72.3342,41.6436],[-72.3036,41.654],[-72.2863,41.6664],[-72.2632,41.6539],[-72.2461,41.6545],[-72.2234,41.6461],[-72.1998,41.6282],[-72.1964,41.6182],[-72.1817,41.6128],[-72.1575,41.6576],[-72.2442,41.7169],[-72.2537,41.7294],[-72.2598,41.7297],[-72.2696,41.746],[-72.2657,41.751],[-72.272,41.7712],[-72.2807,41.7844],[-72.2916,41.7953],[-72.3128,41.7983],[-72.3095,41.8021],[-72.3159,41.8054],[-72.3168,41.8164],[-72.3097,41.8378],[-72.3547,41.8325],[-72.3596,41.8406],[-72.383,41.8465],[-72.3929,41.8423],[-72.4052,41.827],[-72.4215,41.8255],[-72.4189,41.8066],[-72.4735,41.7983]]]},"properties":{"geoid":"09008","state":"09","district":"8","name":"State House District 8","chamber":"House"}},{"type":"Feature","geometry":{"type":"Polygon","coordinates":[[[-72.6074,41.7797],[-72.5996,41.7603],[-72.6058,41.7518],[-72.6051,41.74],[-72.5731,41.7439],[-72.5712,41.7338],[-72.5287,41.7415],[-72.5304,41.7649],[-72.539,41.7644],[-72.5399,41.7733],[-72.549,41.7753],[-72.5497,41.781],[-72.5862,41.7839],[-72.6074,41.7797]]]},"properties":{"geoid":"09009","state":"09","district":"9","name":"State House District 9","chamber":"House"}},{"type":"Feature","geometry":{"type":"Polygon","coordinates":[[[-72.6651,41.7665],[-72.6446,41.7457],[-72.6426,41.7352],[-72.6478,41.7279],[-72.6363,41.7249],[-72.5712,41.7338],[-72.5731,41.7439],[-72.6051,41.74],[-72.6002,41.7657],[-72.6183,41.7665],[-72.6202,41.7781],[-72.641,41.7737],[-72.6579,41.7769],[-72.6651,41.7665]]]},"properties":{"geoid":"09010","state":"09","district":"10","name":"State House District 10","chamber":"House"}},{"type":"Feature","geometry":{"type":"Polygon","coordinates":[[[-72.6579,41.7769],[-72.641,41.7737],[-72.6202,41.7781],[-72.6183,41.7665],[-72.6091,41.7645],[-72.6002,41.7657],[-72.6074,41.7797],[-72.5862,41.7839],[-72.572,41.7801],[-72.5367,41.7813],[-72.5361,41.791],[-72.5254,41.7941],[-72.5399,41.7936],[-72.5343,41.8001],[-72.5356,41.813],[-72.5836,41.8006],[-72.646,41.7976],[-72.6459,41.7859],[-72.6579,41.7769]]]},"properties":{"geoid":"09011","state":"09","district":"11","name":"State House District 11","chamber":"House"}},{"type":"Feature","geometry":{"type":"Polygon","coordinates":[[[-72.5497,41.781],[-72.549,41.7753],[-72.5361,41.7686],[-72.4977,41.785],[-72.4711,41.7844],[-72.476,41.813],[-72.5075,41.8097],[-72.5054,41.8203],[-72.5356,41.813],[-72.5343,41.8001],[-72.5399,41.7936],[-72.5254,41.7941],[-72.5364,41.7906],[-72.535,41.7816],[-72.5497,41.781]]]},"properties":{"geoid":"09012","state":"09","district":"12","name":"State House District 12","chamber":"House"}},{"type":"Feature","geometry":{"type":"Polygon","coordinates":[[[-72.604,41.7295],[-72.6026,41.7237],[-72.5815,41.7268],[-72.5756,41.7169],[-72.5365,41.7171],[-72.5239,41.7112],[-72.4745,41.7069],[-72.4636,41.7234],[-72.4624,41.7384],[-72.4711,41.7844],[-72.4977,41.785],[-72.5304,41.7728],[-72.5293,41.7693],[-72.5401,41.7689],[-72.539,41.7644],[-72.5304,41.7649],[-72.5312,41.7386],[-72.604,41.7295]]]},"properties":{"geoid":"09013","state":"09","district":"13","name":"State House District 13","chamber":"House"}},{"type":"Feature","geometry":{"type":"Polygon","coordinates":[[[-72.6443,41.8131],[-72.6148,41.8054],[-72.6095,41.8194],[-72.576,41.8079],[-72.5553,41.8081],[-72.5054,41.8203],[-72.4968,41.8606],[-72.5185,41.8572],[-72.5173,41.8699],[-72.6193,41.8683],[-72.6256,41.8457],[-72.6389,41.8288],[-72.6443,41.8131]]]},"properties":{"geoid":"09014","state":"09","district":"14","name":"State House District 14","chamber":"House"}},{"type":"Feature","geometry":{"type":"Polygon","coordinates":[[[-72.7986,41.8249],[-72.7972,41.8047],[-72.7506,41.8059],[-72.7503,41.8019],[-72.7409,41.8029],[-72.7162,41.7932],[-72.7182,41.8066],[-72.6914,41.8076],[-72.686,41.8002],[-72.6897,41.8662],[-72.743,41.8774],[-72.7378,41.8924],[-72.7606,41.9057],[-72.7844,41.8557],[-72.7833,41.8269],[-72.7986,41.8249]]]},"properties":{"geoid":"09015","state":"09","district":"15","name":"State House District 15","chamber":"House"}},{"type":"Feature","geometry":{"type":"Polygon","coordinates":[[[-72.8766,41.9208],[-72.8702,41.8161],[-72.7833,41.8269],[-72.7844,41.8557],[-72.7704,41.8808],[-72.7651,41.9026],[-72.7586,41.9072],[-72.765,41.9154],[-72.8766,41.9208]]]},"properties":{"geoid":"09016","state":"09","district":"16","name":"State House District 16","chamber":"House"}},{"type":"Feature","geometry":{"type":"Polygon","coordinates":[[[-72.9538,41.8486],[-72.9518,41.8429],[-72.9363,41.8398],[-72.949,41.8064],[-72.9212,41.8071],[-72.9282,41.8022],[-72.919,41.7783],[-72.903,41.7757],[-72.8959,41.7649],[-72.8755,41.7645],[-72.8723,41.7685],[-72.8774,41.7801],[-72.867,41.7822],[-72.8627,41.7757],[-72.8443,41.778],[-72.829,41.8214],[-72.8702,41.8161],[-72.8766,41.9208],[-72.9059,41.9217],[-72.9153,41.8968],[-72.9406,41.8952],[-72.9538,41.8486]]]},"properties":{"geoid":"09017","state":"09","district":"17","name":"State House District 17","chamber":"House"}},{"type":"Feature","geometry":{"type":"Polygon","coordinates":[[[-72.7503,41.8019],[-72.7438,41.7562],[-72.7151,41.7501],[-72.7164,41.7936],[-72.7409,41.8029],[-72.7503,41.8019]]]},"properties":{"geoid":"09018","state":"09","district":"18","name":"State House District 18","chamber":"House"}},{"type":"Feature","geometry":{"type":"Polygon","coordinates":[[[-72.8774,41.7801],[-72.8723,41.7685],[-72.8755,41.7645],[-72.7967,41.7588],[-72.795,41.7475],[-72.7822,41.7482],[-72.7791,41.7302],[-72.7602,41.7467],[-72.7544,41.7372],[-72.7443,41.7396],[-72.7458,41.749],[-72.7379,41.7542],[-72.7438,41.7562],[-72.7506,41.8059],[-72.7972,41.8047],[-72.7986,41.8249],[-72.829,41.8214],[-72.8443,41.778],[-72.8627,41.7757],[-72.867,41.7822],[-72.8774,41.7801]]]},"properties":{"geoid":"09019","state":"09","district":"19","name":"State House District 19","chamber":"House"}},{"type":"Feature","geometry":{"type":"Polygon","coordinates":[[[-72.7689,41.7396],[-72.7623,41.7369],[-72.7519,41.6592],[-72.747,41.6566],[-72.7482,41.6595],[-72.7265,41.6618],[-72.7308,41.6838],[-72.7426,41.6804],[-72.7452,41.6953],[-72.749,41.6947],[-72.7316,41.7218],[-72.7261,41.7224],[-72.7168,41.7423],[-72.7212,41.7457],[-72.7151,41.7461],[-72.7151,41.7501],[-72.7292,41.7516],[-72.7294,41.7558],[-72.7412,41.7535],[-72.746,41.7487],[-72.7443,41.7396],[-72.7544,41.7372],[-72.7602,41.7467],[-72.7689,41.7396]]]},"properties":{"geoid":"09020","state":"09","district":"20","name":"State House District 20","chamber":"House"}},{"type":"Feature","geometry":{"type":"Polygon","coordinates":[[[-72.9085,41.776],[-72.8929,41.6967],[-72.8693,41.6965],[-72.8738,41.7051],[-72.8799,41.7065],[-72.8874,41.7242],[-72.8775,41.7355],[-72.8399,41.7165],[-72.8515,41.7077],[-72.8433,41.7038],[-72.8447,41.6923],[-72.8154,41.6878],[-72.783,41.7128],[-72.762,41.7158],[-72.7625,41.7377],[-72.7689,41.7396],[-72.7791,41.7302],[-72.7822,41.7482],[-72.795,41.7475],[-72.7967,41.7588],[-72.8952,41.7647],[-72.9022,41.7751],[-72.9085,41.776]]]},"properties":{"geoid":"09021","state":"09","district":"21","name":"State House District 21","chamber":"House"}},{"type":"Feature","geometry":{"type":"Polygon","coordinates":[[[-72.903,41.6475],[-72.8995,41.6198],[-72.8732,41.6218],[-72.8736,41.6274],[-72.8457,41.6301],[-72.8468,41.6534],[-72.8226,41.6557],[-72.8256,41.6685],[-72.8154,41.6878],[-72.8447,41.6923],[-72.8433,41.7038],[-72.8515,41.7077],[-72.8399,41.7165],[-72.8815,41.7345],[-72.8874,41.7242],[-72.8799,41.7065],[-72.8738,41.7051],[-72.8693,41.6965],[-72.8929,41.6967],[-72.8834,41.6495],[-72.903,41.6475]]]},"properties":{"geoid":"09022","state":"09","district":"22","name":"State House District 22","chamber":"House"}},{"type":"Feature","geometry":{"type":"Polygon","coordinates":[[[-72.4942,41.292],[-72.4834,41.2623],[-72.487,41.2501],[-72.4568,41.2501],[-72.4216,41.258],[-72.385,41.2539],[-72.3393,41.262],[-72.3329,41.2656],[-72.3335,41.2722],[-72.2495,41.2748],[-72.2483,41.2973],[-72.2564,41.3259],[-72.2767,41.3663],[-72.2822,41.4059],[-72.2766,41.4404],[-72.3049,41.4327],[-72.3055,41.4363],[-72.4337,41.424],[-72.4255,41.4117],[-72.4235,41.3919],[-72.3861,41.3857],[-72.376,41.3763],[-72.3794,41.3497],[-72.3691,41.3423],[-72.3839,41.332],[-72.4027,41.3316],[-72.4255,41.3242],[-72.4319,41.3171],[-72.4215,41.2836],[-72.4244,41.2804],[-72.4442,41.2839],[-72.447,41.2888],[-72.4942,41.292]]]},"properties":{"geoid":"09023","state":"09","district":"23","name":"State House District 23","chamber":"House"}},{"type":"Feature","geometry":{"type":"Polygon","coordinates":[[[-72.8256,41.6685],[-72.8192,41.645],[-72.7582,41.6497],[-72.7615,41.659],[-72.7867,41.6568],[-72.7855,41.6699],[-72.808,41.6737],[-72.8076,41.6821],[-72.7914,41.6981],[-72.7959,41.7034],[-72.8198,41.6831],[-72.8256,41.6685]]]},"properties":{"geoid":"09024","state":"09","district":"24","name":"State House District 24","chamber":"House"}},{"type":"Feature","geometry":{"type":"Polygon","coordinates":[[[-72.7889,41.6801],[-72.7867,41.6568],[-72.7644,41.6587],[-72.7627,41.6669],[-72.7536,41.6678],[-72.7576,41.6893],[-72.7889,41.6801]]]},"properties":{"geoid":"09025","state":"09","district":"25","name":"State House District 25","chamber":"House"}},{"type":"Feature","geometry":{"type":"Polygon","coordinates":[[[-72.8086,41.6777],[-72.808,41.6737],[-72.7986,41.6739],[-72.7986,41.6698],[-72.7855,41.6699],[-72.7879,41.6818],[-72.7676,41.6836],[-72.7654,41.6887],[-72.7576,41.6893],[-72.762,41.7158],[-72.783,41.7128],[-72.7959,41.7034],[-72.7914,41.6981],[-72.8086,41.6777]]]},"properties":{"geoid":"09026","state":"09","district":"26","name":"State House District 26","chamber":"House"}},{"type":"Feature","geometry":{"type":"Polygon","coordinates":[[[-72.7652,41.6637],[-72.7582,41.6497],[-72.7499,41.647],[-72.703,41.6543],[-72.7069,41.6737],[-72.7004,41.6746],[-72.708,41.7104],[-72.7059,41.7243],[-72.7316,41.7218],[-72.7482,41.6984],[-72.7426,41.6804],[-72.7308,41.6838],[-72.7265,41.6618],[-72.749,41.6565],[-72.7536,41.6678],[-72.7652,41.6637]]]},"properties":{"geoid":"09027","state":"09","district":"27","name":"State House District 27","chamber":"House"}},{"type":"Feature","geometry":{"type":"Polygon","coordinates":[[[-72.708,41.7104],[-72.7004,41.6746],[-72.7069,41.6737],[-72.706,41.6688],[-72.6699,41.6699],[-72.6653,41.6801],[-72.6591,41.6822],[-72.6583,41.6981],[-72.6636,41.7125],[-72.6441,41.7109],[-72.6406,41.7145],[-72.6489,41.7231],[-72.6363,41.7249],[-72.6556,41.7299],[-72.7059,41.7243],[-72.708,41.7104]]]},"properties":{"geoid":"09028","state":"09","district":"28","name":"State House District 28","chamber":"House"}},{"type":"Feature","geometry":{"type":"Polygon","coordinates":[[[-72.7153,41.6527],[-72.7139,41.6277],[-72.6278,41.6402],[-72.6235,41.6503],[-72.628,41.666],[-72.612,41.6725],[-72.6086,41.6813],[-72.6157,41.6881],[-72.6367,41.6932],[-72.6353,41.6987],[-72.6159,41.7071],[-72.622,41.7122],[-72.6406,41.7145],[-72.6463,41.7103],[-72.6636,41.7125],[-72.6583,41.6981],[-72.6591,41.6822],[-72.6653,41.6801],[-72.6677,41.6715],[-72.706,41.6688],[-72.703,41.6543],[-72.7153,41.6527]]]},"properties":{"geoid":"09029","state":"09","district":"29","name":"State House District 29","chamber":"House"}},{"type":"Feature","geometry":{"type":"Polygon","coordinates":[[[-72.899,41.6124],[-72.8744,41.6133],[-72.8781,41.6061],[-72.8578,41.6057],[-72.8569,41.5972],[-72.8428,41.5966],[-72.8429,41.5842],[-72.8339,41.5832],[-72.8265,41.5869],[-72.8241,41.597],[-72.818,41.6013],[-72.7972,41.603],[-72.7938,41.6113],[-72.7547,41.6169],[-72.7464,41.6178],[-72.7469,41.6108],[-72.7364,41.6108],[-72.7372,41.6011],[-72.7298,41.6022],[-72.7317,41.5958],[-72.7299,41.6015],[-72.7145,41.6043],[-72.7111,41.618],[-72.7158,41.6237],[-72.7123,41.6306],[-72.7153,41.6527],[-72.7499,41.647],[-72.7504,41.6502],[-72.8192,41.645],[-72.8207,41.6557],[-72.8468,41.6534],[-72.8457,41.6301],[-72.8736,41.6274],[-72.8732,41.6218],[-72.8939,41.6188],[-72.899,41.6124]]]},"properties":{"geoid":"09030","state":"09","district":"30","name":"State House District 30","chamber":"House"}},{"type":"Feature","geometry":{"type":"Polygon","coordinates":[[[-72.6483,41.7232],[-72.6406,41.7145],[-72.622,41.7122],[-72.6159,41.7071],[-72.6353,41.6987],[-72.6362,41.692],[-72.6157,41.6881],[-72.6086,41.6813],[-72.612,41.6725],[-72.628,41.666],[-72.6235,41.6503],[-72.6305,41.6333],[-72.5054,41.647],[-72.5035,41.656],[-72.5292,41.664],[-72.5408,41.6771],[-72.5377,41.6865],[-72.5206,41.6926],[-72.5161,41.7024],[-72.5225,41.7111],[-72.5365,41.7171],[-72.5756,41.7169],[-72.5815,41.7268],[-72.6026,41.7237],[-72.604,41.7295],[-72.6483,41.7232]]]},"properties":{"geoid":"09031","state":"09","district":"31","name":"State House District 31","chamber":"House"}},{"type":"Feature","geometry":{"type":"Polygon","coordinates":[[[-72.7159,41.6064],[-72.7127,41.6025],[-72.6728,41.5989],[-72.6654,41.5871],[-72.6681,41.5835],[-72.6553,41.5776],[-72.654,41.5723],[-72.6488,41.5752],[-72.6477,41.5665],[-72.6387,41.5604],[-72.6089,41.5628],[-72.5608,41.554],[-72.5577,41.578],[-72.543,41.5964],[-72.5445,41.6158],[-72.5293,41.6174],[-72.5442,41.6427],[-72.6305,41.6333],[-72.6278,41.6402],[-72.7139,41.6277],[-72.7111,41.618],[-72.7159,41.6064]]]},"properties":{"geoid":"09032","state":"09","district":"32","name":"State House District 32","chamber":"House"}},{"type":"Feature","geometry":{"type":"Polygon","coordinates":[[[-72.7529,41.5925],[-72.7489,41.5443],[-72.6946,41.5495],[-72.6874,41.5362],[-72.6787,41.5395],[-72.6784,41.5311],[-72.6664,41.5308],[-72.6593,41.5461],[-72.6472,41.5567],[-72.651,41.5623],[-72.6682,41.5624],[-72.6733,41.5834],[-72.6927,41.5819],[-72.6913,41.5911],[-72.6976,41.5939],[-72.6943,41.6014],[-72.7237,41.603],[-72.7299,41.6015],[-72.7317,41.5958],[-72.7529,41.5925]]]},"properties":{"geoid":"09033","state":"09","district":"33","name":"State House District 33","chamber":"House"}},{"type":"Feature","geometry":{"type":"Polygon","coordinates":[[[-72.5627,41.5586],[-72.5511,41.543],[-72.5549,41.511],[-72.4804,41.5195],[-72.4878,41.5022],[-72.4857,41.4914],[-72.4773,41.4886],[-72.4777,41.4753],[-72.4696,41.4687],[-72.4564,41.4373],[-72.4337,41.424],[-72.3055,41.4363],[-72.3049,41.4327],[-72.2728,41.4407],[-72.2833,41.4542],[-72.2805,41.4641],[-72.2646,41.4767],[-72.2735,41.485],[-72.2691,41.4846],[-72.2703,41.4945],[-72.252,41.4973],[-72.2559,41.5098],[-72.2453,41.5168],[-72.2522,41.532],[-72.3229,41.5181],[-72.3234,41.5342],[-72.4308,41.5246],[-72.5054,41.647],[-72.5442,41.6427],[-72.5293,41.6174],[-72.5445,41.6158],[-72.543,41.5964],[-72.5575,41.5784],[-72.5627,41.5586]]]},"properties":{"geoid":"09034","state":"09","district":"34","name":"State House District 34","chamber":"House"}},{"type":"Feature","geometry":{"type":"Polygon","coordinates":[[[-72.6546,41.4364],[-72.6423,41.4292],[-72.6494,41.4175],[-72.632,41.4121],[-72.6303,41.4027],[-72.6123,41.3862],[-72.6081,41.3674],[-72.6126,41.3605],[-72.6143,41.3296],[-72.5859,41.324],[-72.5896,41.3155],[-72.5849,41.314],[-72.5886,41.3117],[-72.5856,41.3073],[-72.5572,41.282],[-72.546,41.2803],[-72.5458,41.2603],[-72.5279,41.2501],[-72.5263,41.2556],[-72.5165,41.2482],[-72.5017,41.2478],[-72.4834,41.2623],[-72.4942,41.292],[-72.4885,41.2939],[-72.4619,41.2873],[-72.447,41.2888],[-72.4482,41.2855],[-72.4339,41.2804],[-72.4215,41.2836],[-72.4331,41.3152],[-72.4255,41.3242],[-72.4358,41.331],[-72.4766,41.3344],[-72.4982,41.3476],[-72.5139,41.3464],[-72.5388,41.4215],[-72.57,41.4148],[-72.609,41.4431],[-72.6546,41.4364]]]},"properties":{"geoid":"09035","state":"09","district":"35","name":"State House District 35","chamber":"House"}},{"type":"Feature","geometry":{"type":"Polygon","coordinates":[[[-72.637,41.4639],[-72.57,41.4148],[-72.5388,41.4215],[-72.5139,41.3464],[-72.4982,41.3476],[-72.4766,41.3344],[-72.4358,41.331],[-72.4255,41.3242],[-72.4027,41.3316],[-72.3839,41.332],[-72.3691,41.3423],[-72.3794,41.3497],[-72.376,41.3763],[-72.3861,41.3857],[-72.4235,41.3919],[-72.4255,41.4117],[-72.4308,41.4202],[-72.4564,41.4373],[-72.4696,41.4687],[-72.4777,41.4753],[-72.4773,41.4886],[-72.4863,41.4931],[-72.4878,41.5022],[-72.4804,41.5195],[-72.6337,41.5002],[-72.6279,41.4854],[-72.637,41.4639]]]},"properties":{"geoid":"09036","state":"09","district":"36","name":"State House District 36","chamber":"House"}},{"type":"Feature","geometry":{"type":"Polygon","coordinates":[[[-72.2833,41.4544],[-72.2724,41.4414],[-72.2766,41.4404],[-72.2822,41.4059],[-72.2767,41.3663],[-72.2564,41.3259],[-72.2487,41.2996],[-72.2485,41.2759],[-72.1845,41.276],[-72.1826,41.3206],[-72.1762,41.324],[-72.1805,41.3281],[-72.1811,41.3427],[-72.1888,41.3464],[-72.1928,41.3755],[-72.2239,41.4234],[-72.2032,41.443],[-72.2037,41.452],[-72.1816,41.4514],[-72.1642,41.4595],[-72.17,41.4671],[-72.1615,41.4829],[-72.2014,41.5021],[-72.2184,41.5005],[-72.2276,41.5187],[-72.2191,41.5388],[-72.2503,41.5324],[-72.2453,41.5168],[-72.2559,41.5098],[-72.2516,41.4979],[-72.2702,41.4947],[-72.2691,41.4846],[-72.2735,41.485],[-72.2646,41.4767],[-72.2805,41.4641],[-72.2833,41.4544]]]},"properties":{"geoid":"09037","state":"09","district":"37","name":"State House District 37","chamber":"House"}},{"type":"Feature","geometry":{"type":"Polygon","coordinates":[[[-72.2239,41.4234],[-72.1928,41.3755],[-72.1888,41.3464],[-72.1811,41.3427],[-72.1805,41.3281],[-72.1762,41.324],[-72.1826,41.3206],[-72.1845,41.276],[-72.0891,41.2765],[-72.1039,41.3052],[-72.1006,41.3132],[-72.1135,41.3436],[-72.1285,41.3576],[-72.1283,41.3653],[-72.1098,41.3829],[-72.0929,41.387],[-72.0972,41.3962],[-72.093,41.4158],[-72.0956,41.4253],[-72.1102,41.4267],[-72.1098,41.4361],[-72.1185,41.4379],[-72.1152,41.4608],[-72.1617,41.4832],[-72.17,41.4671],[-72.1642,41.4595],[-72.1816,41.4514],[-72.2037,41.452],[-72.2032,41.443],[-72.2239,41.4234]]]},"properties":{"geoid":"09038","state":"09","district":"38","name":"State House District 38","chamber":"House"}},{"type":"Feature","geometry":{"type":"Polygon","coordinates":[[[-72.1285,41.3585],[-72.1135,41.3436],[-72.1054,41.3221],[-72.1004,41.3227],[-72.104,41.3311],[-72.0993,41.3322],[-72.1025,41.3358],[-72.093,41.3538],[-72.0963,41.3579],[-72.0939,41.3635],[-72.0881,41.3638],[-72.0929,41.387],[-72.1098,41.3829],[-72.1283,41.3653],[-72.1285,41.3585]]]},"properties":{"geoid":"09039","state":"09","district":"39","name":"State House District 39","chamber":"House"}},{"type":"Feature","geometry":{"type":"Polygon","coordinates":[[[-72.1053,41.3206],[-72.1006,41.3132],[-72.1039,41.3052],[-72.0891,41.2765],[-72.0551,41.2766],[-72.0796,41.2989],[-72.0853,41.3392],[-72.0678,41.3391],[-72.0696,41.3548],[-72.0545,41.3489],[-72.0431,41.3596],[-72.0163,41.3629],[-71.9936,41.372],[-71.966,41.373],[-71.9587,41.3979],[-72.0958,41.4004],[-72.0881,41.3638],[-72.0939,41.3635],[-72.0963,41.3579],[-72.093,41.3538],[-72.1025,41.3358],[-72.0993,41.3322],[-72.104,41.3311],[-72.1004,41.3227],[-72.1053,41.3206]]]},"properties":{"geoid":"09040","state":"09","district":"40","name":"State House District 40","chamber":"House"}},{"type":"Feature","geometry":{"type":"Polygon","coordinates":[[[-72.0853,41.3392],[-72.0796,41.2989],[-72.0551,41.2766],[-72.0501,41.2766],[-72.0192,41.2906],[-71.9295,41.3104],[-71.9073,41.3045],[-71.8921,41.3301],[-71.8821,41.3257],[-71.8829,41.3456],[-71.8701,41.3541],[-71.881,41.3679],[-71.9032,41.3668],[-71.9051,41.373],[-71.9168,41.3743],[-71.9588,41.375],[-71.9939,41.372],[-72.0163,41.3629],[-72.0431,41.3596],[-72.0545,41.3489],[-72.0696,41.3548],[-72.0678,41.3391],[-72.0853,41.3392]]]},"properties":{"geoid":"09041","state":"09","district":"41","name":"State House District 41","chamber":"House"}},{"type":"Feature","geometry":{"type":"Polygon","coordinates":[[[-73.5263,41.2661],[-73.4827,41.2128],[-73.504,41.2033],[-73.491,41.1521],[-73.4786,41.1608],[-73.4529,41.1597],[-73.448,41.1538],[-73.3948,41.1718],[-73.3871,41.1705],[-73.3796,41.1858],[-73.4382,41.2652],[-73.4849,41.2451],[-73.4975,41.253],[-73.5022,41.2763],[-73.5199,41.2737],[-73.5263,41.2661]]]},"properties":{"geoid":"09042","state":"09","district":"42","name":"State House District 42","chamber":"House"}},{"type":"Feature","geometry":{"type":"Polygon","coordinates":[[[-72.0562,41.4246],[-72.0466,41.4164],[-72.0456,41.3995],[-71.9587,41.3979],[-71.966,41.373],[-71.9168,41.3743],[-71.9051,41.373],[-71.9032,41.3668],[-71.8789,41.3668],[-71.8701,41.3541],[-71.8829,41.3456],[-71.8821,41.3257],[-71.8665,41.3192],[-71.8575,41.3208],[-71.8294,41.3424],[-71.8379,41.3601],[-71.8306,41.3788],[-71.8331,41.3878],[-71.8422,41.3954],[-71.8424,41.4103],[-71.8181,41.4199],[-71.7977,41.4167],[-71.7932,41.5057],[-71.9672,41.5287],[-71.9566,41.4874],[-72.0081,41.4846],[-72.0035,41.4693],[-72.017,41.4533],[-72.0182,41.4456],[-72.0388,41.4449],[-72.0487,41.4374],[-72.0486,41.4281],[-72.0562,41.4246]]]},"properties":{"geoid":"09043","state":"09","district":"43","name":"State House District 43","chamber":"House"}},{"type":"Feature","geometry":{"type":"Polygon","coordinates":[[[-71.9457,41.7225],[-71.9366,41.7107],[-71.9247,41.7142],[-71.9153,41.7109],[-71.9096,41.7017],[-71.8982,41.7088],[-71.9107,41.6693],[-71.8837,41.6671],[-71.8851,41.6521],[-71.8893,41.6515],[-71.8843,41.6412],[-71.8579,41.6442],[-71.7877,41.6399],[-71.7932,41.8172],[-71.8131,41.8142],[-71.8287,41.8174],[-71.8363,41.8258],[-71.8451,41.8204],[-71.8646,41.8366],[-71.885,41.8294],[-71.8894,41.8467],[-71.9031,41.848],[-71.9121,41.8419],[-71.9209,41.8493],[-71.9043,41.8313],[-71.9081,41.8177],[-71.9143,41.8156],[-71.8996,41.8165],[-71.8948,41.8113],[-71.899,41.8075],[-71.8872,41.8018],[-71.8857,41.7966],[-71.8901,41.7932],[-71.889,41.7849],[-71.9037,41.7802],[-71.9172,41.7597],[-71.9129,41.7518],[-71.9164,41.7387],[-71.9315,41.7346],[-71.9457,41.7225]]]},"properties":{"geoid":"09044","state":"09","district":"44","name":"State House District 44","chamber":"House"}},{"type":"Feature","geometry":{"type":"Polygon","coordinates":[[[-72.0819,41.4436],[-72.0778,41.4312],[-72.0682,41.4319],[-72.0558,41.423],[-72.0476,41.4298],[-72.0476,41.4389],[-72.0388,41.4449],[-72.0182,41.4456],[-72.017,41.4533],[-72.0035,41.4693],[-72.0081,41.4846],[-71.9566,41.4874],[-71.9672,41.5287],[-71.7932,41.5057],[-71.7877,41.6399],[-71.8579,41.6442],[-71.9519,41.6343],[-71.9918,41.6408],[-72.0047,41.6295],[-71.9892,41.6201],[-72.0186,41.5972],[-72.0333,41.5711],[-72.0446,41.5663],[-72.0503,41.5418],[-72.0403,41.5311],[-72.0586,41.5121],[-72.0677,41.5175],[-72.0725,41.4919],[-72.081,41.4921],[-72.07,41.4636],[-72.0663,41.4653],[-72.0695,41.4552],[-72.0819,41.4436]]]},"properties":{"geoid":"09045","state":"09","district":"45","name":"State House District 45","chamber":"House"}},{"type":"Feature","geometry":{"type":"Polygon","coordinates":[[[-72.1195,41.5176],[-72.1154,41.5009],[-72.108,41.5028],[-72.0992,41.4946],[-72.0937,41.4972],[-72.0776,41.4907],[-72.0725,41.4919],[-72.0677,41.5175],[-72.0586,41.5121],[-72.0403,41.5311],[-72.0503,41.5418],[-72.0522,41.5349],[-72.0701,41.5399],[-72.0782,41.535],[-72.0798,41.5425],[-72.0864,41.5461],[-72.1131,41.5365],[-72.1195,41.5176]]]},"properties":{"geoid":"09046","state":"09","district":"46","name":"State House District 46","chamber":"House"}},{"type":"Feature","geometry":{"type":"Polygon","coordinates":[[[-72.1645,41.8349],[-72.1567,41.7537],[-72.112,41.7459],[-72.1225,41.7128],[-72.12,41.6633],[-72.1041,41.6008],[-72.1187,41.5744],[-72.1124,41.5729],[-72.1057,41.5534],[-72.0928,41.5693],[-72.0656,41.5828],[-72.0631,41.5708],[-72.053,41.5784],[-72.054,41.5739],[-72.0453,41.573],[-72.0446,41.5663],[-72.0335,41.571],[-72.0186,41.5972],[-71.9892,41.6201],[-72.0047,41.6295],[-71.9918,41.6408],[-71.9519,41.6343],[-71.8843,41.6412],[-71.8893,41.6515],[-71.8851,41.6521],[-71.8837,41.6671],[-71.9107,41.6693],[-71.8982,41.7088],[-71.9096,41.7017],[-71.9153,41.7109],[-71.9247,41.7142],[-71.9366,41.7107],[-71.9457,41.7225],[-71.9315,41.7346],[-71.919,41.7361],[-71.9129,41.7518],[-71.919,41.7589],[-71.9207,41.7527],[-71.9369,41.7655],[-71.9386,41.7741],[-71.9455,41.7793],[-71.9612,41.7823],[-71.9838,41.7787],[-72.0047,41.7598],[-72.0229,41.7596],[-72.0458,41.7305],[-72.081,41.7351],[-72.1026,41.7444],[-72.0966,41.7683],[-72.0924,41.8317],[-72.1645,41.8349]]]},"properties":{"geoid":"09047","state":"09","district":"47","name":"State House District 47","chamber":"House"}},{"type":"Feature","geometry":{"type":"Polygon","coordinates":[[[-72.4667,41.5839],[-72.4308,41.5246],[-72.3234,41.5342],[-72.3229,41.5181],[-72.2191,41.5388],[-72.2276,41.5187],[-72.1935,41.512],[-72.1785,41.516],[-72.1354,41.504],[-72.1329,41.5089],[-72.1407,41.5363],[-72.1327,41.5485],[-72.1321,41.5648],[-72.1358,41.5692],[-72.1252,41.5633],[-72.1041,41.6008],[-72.12,41.6633],[-72.1517,41.6675],[-72.1817,41.6128],[-72.1964,41.6182],[-72.1998,41.6282],[-72.2234,41.6461],[-72.2461,41.6545],[-72.2632,41.6539],[-72.2863,41.6664],[-72.3036,41.654],[-72.3342,41.6436],[-72.3245,41.6186],[-72.3281,41.6055],[-72.3562,41.5976],[-72.3752,41.6014],[-72.3841,41.5887],[-72.4104,41.6026],[-72.4172,41.5906],[-72.4667,41.5839]]]},"properties":{"geoid":"09048","state":"09","district":"48","name":"State House District 48","chamber":"House"}},{"type":"Feature","geometry":{"type":"Polygon","coordinates":[[[-72.2532,41.7258],[-72.1575,41.6576],[-72.1517,41.6675],[-72.12,41.6633],[-72.1225,41.7128],[-72.112,41.7459],[-72.1563,41.7535],[-72.1716,41.7485],[-72.1832,41.7561],[-72.188,41.7548],[-72.1857,41.7519],[-72.1956,41.7396],[-72.1921,41.7304],[-72.2532,41.7258]]]},"properties":{"geoid":"09049","state":"09","district":"49","name":"State House District 49","chamber":"House"}},{"type":"Feature","geometry":{"type":"Polygon","coordinates":[[[-72.2263,41.8246],[-72.2105,41.7997],[-72.2037,41.7712],[-72.1955,41.7592],[-72.1579,41.7656],[-72.1645,41.8349],[-72.0924,41.8317],[-72.0966,41.7683],[-72.1026,41.7444],[-72.081,41.7351],[-72.0458,41.7305],[-72.0229,41.7596],[-72.0047,41.7598],[-71.9838,41.7787],[-71.9496,41.7815],[-71.9207,41.7527],[-71.9037,41.7802],[-71.889,41.7849],[-71.8901,41.7932],[-71.8857,41.7966],[-71.8872,41.8018],[-71.899,41.8075],[-71.8948,41.8113],[-71.8996,41.8165],[-71.9143,41.8156],[-71.9081,41.8177],[-71.9043,41.8313],[-71.921,41.8495],[-71.9273,41.8508],[-71.9174,41.8692],[-71.9249,41.8736],[-71.9212,41.887],[-71.9338,41.9169],[-71.9274,41.917],[-71.9514,41.9936],[-71.9672,41.9939],[-71.9673,41.9977],[-71.9807,42.0009],[-71.9978,41.9921],[-72.0155,41.9925],[-72.0235,41.9817],[-72.0403,41.9756],[-72.0452,41.9693],[-72.0461,41.9547],[-72.06,41.9486],[-72.0632,41.9193],[-72.0679,41.9147],[-72.097,41.915],[-72.0986,41.9589],[-72.217,41.9582],[-72.2177,41.8352],[-72.2248,41.8346],[-72.2263,41.8246]]]},"properties":{"geoid":"09050","state":"09","district":"50","name":"State House District 50","chamber":"House"}},{"type":"Feature","geometry":{"type":"Polygon","coordinates":[[[-71.963,42.0262],[-71.9274,41.917],[-71.9338,41.9169],[-71.9212,41.887],[-71.9249,41.8736],[-71.9174,41.8692],[-71.927,41.8502],[-71.9121,41.8419],[-71.9031,41.848],[-71.8896,41.8468],[-71.885,41.8294],[-71.8646,41.8366],[-71.8451,41.8204],[-71.8363,41.8258],[-71.8287,41.8174],[-71.8131,41.8142],[-71.7932,41.8172],[-71.8007,42.0235],[-71.963,42.0262]]]},"properties":{"geoid":"09051","state":"09","district":"51","name":"State House District 51","chamber":"House"}},{"type":"Feature","geometry":{"type":"Polygon","coordinates":[[[-72.5092,42.0344],[-72.4927,41.9475],[-72.4071,41.9571],[-72.4075,41.9418],[-72.2367,41.9399],[-72.2368,41.9583],[-72.0986,41.9589],[-72.097,41.915],[-72.0679,41.9147],[-72.0639,41.9183],[-72.06,41.9486],[-72.0461,41.9547],[-72.0452,41.9693],[-72.0403,41.9756],[-72.0235,41.9817],[-72.0155,41.9925],[-71.9978,41.9921],[-71.9807,42.0009],[-71.9673,41.9977],[-71.9672,41.9939],[-71.9514,41.9936],[-71.963,42.0262],[-72.5092,42.0344]]]},"properties":{"geoid":"09052","state":"09","district":"52","name":"State House District 52","chamber":"House"}},{"type":"Feature","geometry":{"type":"Polygon","coordinates":[[[-72.4875,41.8151],[-72.476,41.813],[-72.4735,41.7983],[-72.4189,41.8066],[-72.4215,41.8255],[-72.4052,41.827],[-72.3929,41.8423],[-72.383,41.8465],[-72.3596,41.8406],[-72.3547,41.8325],[-72.3097,41.8378],[-72.2177,41.8352],[-72.217,41.9582],[-72.2368,41.9583],[-72.2367,41.9399],[-72.3063,41.9407],[-72.3077,41.9294],[-72.4316,41.9151],[-72.4252,41.8553],[-72.4667,41.8325],[-72.464,41.827],[-72.4802,41.8267],[-72.4789,41.8189],[-72.485,41.8226],[-72.4875,41.8151]]]},"properties":{"geoid":"09053","state":"09","district":"53","name":"State House District 53","chamber":"House"}},{"type":"Feature","geometry":{"type":"Polygon","coordinates":[[[-72.3168,41.8164],[-72.3159,41.8054],[-72.3095,41.8021],[-72.3128,41.7983],[-72.2916,41.7953],[-72.272,41.7712],[-72.2657,41.751],[-72.2696,41.746],[-72.2597,41.7296],[-72.1981,41.7282],[-72.1985,41.7317],[-72.191,41.7314],[-72.1956,41.7396],[-72.1857,41.7519],[-72.1877,41.7552],[-72.1779,41.7554],[-72.1716,41.7485],[-72.1563,41.7535],[-72.1579,41.7656],[-72.1955,41.7592],[-72.2037,41.7712],[-72.2105,41.7997],[-72.2266,41.8244],[-72.2237,41.8353],[-72.3101,41.8361],[-72.3168,41.8164]]]},"properties":{"geoid":"09054","state":"09","district":"54","name":"State House District 54","chamber":"House"}},{"type":"Feature","geometry":{"type":"Polygon","coordinates":[[[-72.5407,41.6773],[-72.5302,41.6646],[-72.5019,41.6542],[-72.5049,41.6455],[-72.4667,41.5839],[-72.4172,41.5906],[-72.4104,41.6026],[-72.3841,41.5887],[-72.3752,41.6014],[-72.3562,41.5976],[-72.3281,41.6055],[-72.3245,41.6186],[-72.3565,41.7015],[-72.3289,41.7388],[-72.3546,41.7672],[-72.3809,41.7639],[-72.4384,41.7715],[-72.4437,41.7709],[-72.4412,41.76],[-72.4687,41.7705],[-72.4636,41.7236],[-72.4745,41.7069],[-72.5225,41.7111],[-72.5161,41.7024],[-72.5206,41.6926],[-72.5377,41.6865],[-72.5407,41.6773]]]},"properties":{"geoid":"09055","state":"09","district":"55","name":"State House District 55","chamber":"House"}},{"type":"Feature","geometry":{"type":"Polygon","coordinates":[[[-72.5072,41.8115],[-72.4854,41.8122],[-72.4865,41.8214],[-72.479,41.8187],[-72.4802,41.8267],[-72.464,41.827],[-72.4667,41.8325],[-72.4252,41.8553],[-72.428,41.8748],[-72.485,41.8675],[-72.4901,41.8591],[-72.4873,41.8507],[-72.4969,41.8397],[-72.4966,41.8325],[-72.5023,41.8347],[-72.5072,41.8115]]]},"properties":{"geoid":"09056","state":"09","district":"56","name":"State House District 56","chamber":"House"}},{"type":"Feature","geometry":{"type":"Polygon","coordinates":[[[-72.6095,41.8769],[-72.6054,41.868],[-72.5173,41.8699],[-72.5185,41.8572],[-72.4968,41.8606],[-72.5023,41.8347],[-72.4966,41.8325],[-72.4969,41.8397],[-72.4873,41.8507],[-72.4901,41.8591],[-72.485,41.8675],[-72.4276,41.8748],[-72.4316,41.9151],[-72.3077,41.9294],[-72.3063,41.9407],[-72.4075,41.9418],[-72.4071,41.9571],[-72.5136,41.9453],[-72.5144,41.9323],[-72.5251,41.9341],[-72.5353,41.9285],[-72.5592,41.8974],[-72.6074,41.8847],[-72.6095,41.8769]]]},"properties":{"geoid":"09057","state":"09","district":"57","name":"State House District 57","chamber":"House"}},{"type":"Feature","geometry":{"type":"Polygon","coordinates":[[[-72.6234,41.9343],[-72.5774,41.9387],[-72.5746,41.96],[-72.5906,41.9636],[-72.5874,41.9762],[-72.5675,41.9772],[-72.5667,41.9855],[-72.5395,41.9913],[-72.5426,42.0082],[-72.5394,42.0204],[-72.5531,42.0322],[-72.5822,42.0247],[-72.607,42.0251],[-72.6075,41.9993],[-72.6036,41.9898],[-72.6139,41.9435],[-72.6234,41.9343]]]},"properties":{"geoid":"09058","state":"09","district":"58","name":"State House District 58","chamber":"House"}},{"type":"Feature","geometry":{"type":"Polygon","coordinates":[[[-72.624,41.9302],[-72.6193,41.8683],[-72.6054,41.868],[-72.6095,41.8762],[-72.6074,41.8847],[-72.5592,41.8974],[-72.5353,41.9285],[-72.5251,41.9341],[-72.5144,41.9323],[-72.5136,41.9453],[-72.4927,41.9475],[-72.5092,42.0344],[-72.5531,42.0322],[-72.5394,42.0204],[-72.5426,42.0082],[-72.5395,41.9913],[-72.5667,41.9855],[-72.5675,41.9772],[-72.5874,41.9762],[-72.5906,41.9636],[-72.5746,41.96],[-72.5774,41.9387],[-72.6234,41.9343],[-72.624,41.9302]]]},"properties":{"geoid":"09059","state":"09","district":"59","name":"State House District 59","chamber":"House"}},{"type":"Feature","geometry":{"type":"Polygon","coordinates":[[[-72.7428,41.878],[-72.6897,41.8662],[-72.6895,41.8601],[-72.679,41.8561],[-72.6767,41.8604],[-72.6645,41.8612],[-72.6654,41.838],[-72.6455,41.843],[-72.644,41.8335],[-72.6382,41.8294],[-72.6256,41.8457],[-72.6193,41.8683],[-72.6241,41.9292],[-72.6139,41.9435],[-72.6377,41.9447],[-72.6313,41.9367],[-72.6332,41.9259],[-72.6554,41.9265],[-72.67,41.9221],[-72.6743,41.916],[-72.7222,41.9279],[-72.7428,41.878]]]},"properties":{"geoid":"09060","state":"09","district":"60","name":"State House District 60","chamber":"House"}},{"type":"Feature","geometry":{"type":"Polygon","coordinates":[[[-72.7854,41.9181],[-72.7682,41.9177],[-72.7589,41.9081],[-72.7605,41.9029],[-72.7378,41.8924],[-72.7222,41.9279],[-72.6743,41.916],[-72.67,41.9221],[-72.6554,41.9265],[-72.6332,41.9259],[-72.6313,41.9367],[-72.6377,41.9447],[-72.6139,41.9435],[-72.6131,41.947],[-72.6036,41.9898],[-72.608,42.0311],[-72.7559,42.0363],[-72.7519,42.0298],[-72.7567,42.0216],[-72.7653,42.0221],[-72.759,42.0155],[-72.7615,42.0093],[-72.7747,42.0024],[-72.7784,41.9894],[-72.7629,41.9859],[-72.7854,41.9181]]]},"properties":{"geoid":"09061","state":"09","district":"61","name":"State House District 61","chamber":"House"}},{"type":"Feature","geometry":{"type":"Polygon","coordinates":[[[-73.0766,41.7985],[-73.0167,41.7982],[-72.949,41.8064],[-72.9363,41.8398],[-72.9518,41.8429],[-72.9538,41.8485],[-72.9406,41.8952],[-72.9153,41.8968],[-72.9059,41.9217],[-72.7854,41.918],[-72.7629,41.9859],[-72.7784,41.9894],[-72.7747,42.0024],[-72.8171,41.9977],[-72.8138,42.0367],[-73.0088,42.0388],[-73.0295,41.9666],[-73.034,41.9663],[-73.0766,41.7985]]]},"properties":{"geoid":"09062","state":"09","district":"62","name":"State House District 62","chamber":"House"}},{"type":"Feature","geometry":{"type":"Polygon","coordinates":[[[-73.2018,41.79],[-73.1632,41.794],[-73.1586,41.7848],[-73.1451,41.7864],[-73.1402,41.7892],[-73.1435,41.8033],[-73.1575,41.8094],[-73.1551,41.8211],[-73.1267,41.815],[-73.1266,41.821],[-73.1221,41.8194],[-73.1049,41.8308],[-73.0948,41.8451],[-73.0904,41.8259],[-73.0948,41.8097],[-73.0871,41.8068],[-73.0833,41.8114],[-73.0822,41.8038],[-73.0743,41.8058],[-73.034,41.9663],[-73.0295,41.9666],[-73.0088,42.0388],[-73.1272,42.0421],[-73.2018,41.79]]]},"properties":{"geoid":"09063","state":"09","district":"63","name":"State House District 63","chamber":"House"}},{"type":"Feature","geometry":{"type":"Polygon","coordinates":[[[-73.5181,41.6668],[-73.3821,41.6833],[-73.3779,41.659],[-73.3591,41.6465],[-73.3486,41.5952],[-73.2535,41.6044],[-73.2606,41.6838],[-73.2943,41.7087],[-73.3433,41.6969],[-73.3788,41.6994],[-73.3985,41.7362],[-73.4016,41.7544],[-73.3932,41.7609],[-73.3869,41.781],[-73.2986,41.779],[-73.2018,41.79],[-73.1272,42.0421],[-73.4873,42.0495],[-73.5181,41.6668]]]},"properties":{"geoid":"09064","state":"09","district":"64","name":"State House District 64","chamber":"House"}},{"type":"Feature","geometry":{"type":"Polygon","coordinates":[[[-73.1575,41.8098],[-73.1435,41.8033],[-73.1402,41.7892],[-73.1541,41.7837],[-73.1198,41.7756],[-73.1041,41.7984],[-73.0767,41.7985],[-73.0743,41.8058],[-73.0822,41.8038],[-73.0833,41.8114],[-73.0871,41.8068],[-73.0948,41.8097],[-73.0904,41.8259],[-73.0948,41.8451],[-73.1049,41.8308],[-73.1221,41.8194],[-73.1266,41.821],[-73.1267,41.815],[-73.1551,41.8211],[-73.1575,41.8098]]]},"properties":{"geoid":"09065","state":"09","district":"65","name":"State House District 65","chamber":"House"}},{"type":"Feature","geometry":{"type":"Polygon","coordinates":[[[-73.4016,41.7544],[-73.3985,41.7362],[-73.3788,41.6994],[-73.3433,41.6969],[-73.2943,41.7087],[-73.2606,41.6838],[-73.2535,41.6044],[-73.2673,41.6032],[-73.2523,41.5121],[-73.2042,41.5085],[-73.1555,41.5143],[-73.1647,41.5571],[-73.145,41.5578],[-73.1708,41.6692],[-73.1414,41.6727],[-73.1433,41.6807],[-73.1373,41.6818],[-73.1345,41.7048],[-73.123,41.7043],[-73.1271,41.717],[-73.1109,41.7279],[-73.1124,41.7327],[-73.1087,41.7337],[-73.1156,41.7419],[-73.1121,41.7507],[-73.1172,41.7567],[-73.1198,41.7756],[-73.1586,41.7848],[-73.1632,41.794],[-73.2986,41.779],[-73.3869,41.781],[-73.3932,41.7609],[-73.4016,41.7544]]]},"properties":{"geoid":"09066","state":"09","district":"66","name":"State House District 66","chamber":"House"}},{"type":"Feature","geometry":{"type":"Polygon","coordinates":[[[-73.5069,41.6647],[-73.4983,41.6589],[-73.4936,41.6609],[-73.4599,41.6191],[-73.4492,41.6139],[-73.4566,41.6006],[-73.4345,41.5833],[-73.4433,41.5704],[-73.4453,41.5095],[-73.4415,41.4913],[-73.387,41.5148],[-73.3998,41.5201],[-73.4045,41.5312],[-73.4035,41.5406],[-73.391,41.5482],[-73.3954,41.5658],[-73.4033,41.5722],[-73.3783,41.5836],[-73.3682,41.5788],[-73.3665,41.5841],[-73.3721,41.5926],[-73.3489,41.5965],[-73.3591,41.6465],[-73.3779,41.659],[-73.3821,41.6833],[-73.5019,41.6695],[-73.5069,41.6647]]]},"properties":{"geoid":"09067","state":"09","district":"67","name":"State House District 67","chamber":"House"}},{"type":"Feature","geometry":{"type":"Polygon","coordinates":[[[-73.1708,41.6692],[-73.145,41.5578],[-73.0939,41.5702],[-73.0913,41.5557],[-73.0867,41.5545],[-73.081,41.5728],[-73.0856,41.579],[-73.083,41.5827],[-73.0776,41.5875],[-73.0574,41.5893],[-73.0591,41.6198],[-73.0777,41.6313],[-73.0811,41.6476],[-73.0949,41.6548],[-73.114,41.6568],[-73.1138,41.6611],[-73.1254,41.6642],[-73.1317,41.6617],[-73.1415,41.6727],[-73.1708,41.6692]]]},"properties":{"geoid":"09068","state":"09","district":"68","name":"State House District 68","chamber":"House"}},{"type":"Feature","geometry":{"type":"Polygon","coordinates":[[[-73.4047,41.537],[-73.3998,41.5201],[-73.3851,41.5125],[-73.3886,41.5065],[-73.379,41.5019],[-73.3753,41.4892],[-73.3268,41.4695],[-73.3006,41.4708],[-73.2978,41.4483],[-73.2737,41.4516],[-73.2645,41.4351],[-73.2584,41.4334],[-73.2453,41.4399],[-73.2384,41.4263],[-73.2221,41.4298],[-73.2077,41.4205],[-73.1889,41.4317],[-73.199,41.4557],[-73.1778,41.4694],[-73.1664,41.4708],[-73.1719,41.4864],[-73.181,41.4937],[-73.1825,41.5029],[-73.1783,41.5032],[-73.185,41.5109],[-73.2523,41.5121],[-73.2673,41.6032],[-73.3709,41.5934],[-73.3682,41.5788],[-73.3783,41.5836],[-73.4033,41.5722],[-73.3954,41.5658],[-73.391,41.5482],[-73.4047,41.537]]]},"properties":{"geoid":"09069","state":"09","district":"69","name":"State House District 69","chamber":"House"}},{"type":"Feature","geometry":{"type":"Polygon","coordinates":[[[-73.0961,41.5078],[-73.0953,41.5016],[-73.0879,41.499],[-73.0866,41.505],[-73.0701,41.5072],[-73.0753,41.4995],[-73.072,41.4946],[-73.0647,41.4946],[-73.0667,41.4917],[-73.0506,41.486],[-73.0413,41.4735],[-73.0271,41.4686],[-73.0258,41.4596],[-73.0033,41.4627],[-73.0019,41.4748],[-73.0182,41.5198],[-73.0947,41.5138],[-73.0961,41.5078]]]},"properties":{"geoid":"09070","state":"09","district":"70","name":"State House District 70","chamber":"House"}},{"type":"Feature","geometry":{"type":"Polygon","coordinates":[[[-73.1647,41.5571],[-73.1553,41.5143],[-73.1604,41.4979],[-73.1579,41.4894],[-73.1042,41.4894],[-73.0953,41.5016],[-73.0947,41.5138],[-73.0225,41.519],[-73.0222,41.5297],[-73.0446,41.5305],[-73.0441,41.537],[-73.0542,41.5492],[-73.0831,41.5438],[-73.0904,41.5515],[-73.0939,41.5702],[-73.1647,41.5571]]]},"properties":{"geoid":"09071","state":"09","district":"71","name":"State House District 71","chamber":"House"}},{"type":"Feature","geometry":{"type":"Polygon","coordinates":[[[-73.0655,41.5804],[-73.0583,41.5763],[-73.0541,41.5788],[-73.0534,41.5883],[-73.0458,41.5991],[-73.0302,41.5955],[-73.0295,41.5841],[-73.0349,41.5838],[-73.0443,41.5614],[-73.0254,41.5583],[-73.0204,41.5507],[-73.0086,41.5653],[-73.0029,41.5599],[-72.998,41.5709],[-73.0121,41.5838],[-73.0186,41.6141],[-73.0362,41.6152],[-73.0595,41.6062],[-73.0574,41.5893],[-73.0642,41.5885],[-73.0655,41.5804]]]},"properties":{"geoid":"09072","state":"09","district":"72","name":"State House District 72","chamber":"House"}},{"type":"Feature","geometry":{"type":"Polygon","coordinates":[[[-73.0913,41.5557],[-73.083,41.5437],[-73.0459,41.5518],[-73.0502,41.5584],[-73.0486,41.5696],[-73.0405,41.5656],[-73.0416,41.5734],[-73.036,41.5739],[-73.0349,41.5838],[-73.0295,41.5841],[-73.0276,41.5915],[-73.0458,41.5991],[-73.0583,41.5763],[-73.0653,41.5797],[-73.0642,41.5885],[-73.0776,41.5875],[-73.0856,41.579],[-73.081,41.5728],[-73.0867,41.5545],[-73.0913,41.5557]]]},"properties":{"geoid":"09073","state":"09","district":"73","name":"State House District 73","chamber":"House"}},{"type":"Feature","geometry":{"type":"Polygon","coordinates":[[[-73.0204,41.5485],[-73.0087,41.5436],[-73.0172,41.5369],[-72.9996,41.5259],[-72.9783,41.5339],[-72.9694,41.5302],[-72.9568,41.5553],[-72.9799,41.5533],[-72.9988,41.5708],[-73.0029,41.5599],[-73.0086,41.5653],[-73.0204,41.5485]]]},"properties":{"geoid":"09074","state":"09","district":"74","name":"State House District 74","chamber":"House"}},{"type":"Feature","geometry":{"type":"Polygon","coordinates":[[[-73.054,41.5492],[-73.0441,41.537],[-73.0446,41.5305],[-73.025,41.5285],[-73.0087,41.541],[-73.0204,41.5485],[-73.0254,41.5583],[-73.0443,41.5614],[-73.0429,41.568],[-73.0479,41.5698],[-73.0502,41.5584],[-73.0459,41.5518],[-73.054,41.5492]]]},"properties":{"geoid":"09075","state":"09","district":"75","name":"State House District 75","chamber":"House"}},{"type":"Feature","geometry":{"type":"Polygon","coordinates":[[[-73.1433,41.6806],[-73.1317,41.6617],[-73.1138,41.6611],[-73.114,41.6568],[-73.1038,41.6579],[-73.0811,41.6477],[-73.0777,41.6313],[-73.0591,41.6198],[-73.0588,41.6067],[-73.0504,41.6097],[-73.0648,41.641],[-73.0553,41.7082],[-72.8983,41.7232],[-72.9085,41.776],[-72.9194,41.7786],[-72.925,41.7879],[-72.9282,41.8025],[-72.9212,41.8071],[-73.0167,41.7982],[-73.1041,41.7984],[-73.1205,41.7746],[-73.1121,41.7507],[-73.1156,41.7419],[-73.1087,41.7337],[-73.1271,41.717],[-73.123,41.7043],[-73.1345,41.7048],[-73.1373,41.6818],[-73.1433,41.6806]]]},"properties":{"geoid":"09076","state":"09","district":"76","name":"State House District 76","chamber":"House"}},{"type":"Feature","geometry":{"type":"Polygon","coordinates":[[[-72.9985,41.7125],[-72.9935,41.6901],[-72.9582,41.6992],[-72.9448,41.6959],[-72.9354,41.6873],[-72.9146,41.6935],[-72.9117,41.678],[-72.9202,41.6769],[-72.9224,41.6697],[-72.8885,41.6752],[-72.8983,41.7232],[-72.9985,41.7125]]]},"properties":{"geoid":"09077","state":"09","district":"77","name":"State House District 77","chamber":"House"}},{"type":"Feature","geometry":{"type":"Polygon","coordinates":[[[-73.0647,41.6418],[-73.0504,41.6097],[-73.0362,41.6152],[-73.0186,41.6141],[-73.0215,41.6271],[-72.9639,41.6413],[-72.9629,41.6686],[-72.9501,41.6747],[-72.9492,41.6816],[-72.9243,41.6828],[-72.9202,41.6769],[-72.9117,41.678],[-72.9106,41.6838],[-72.9146,41.6935],[-72.9354,41.6873],[-72.9448,41.6959],[-72.9582,41.6992],[-72.9935,41.6901],[-72.9989,41.7144],[-73.0553,41.7082],[-73.0647,41.6418]]]},"properties":{"geoid":"09078","state":"09","district":"78","name":"State House District 78","chamber":"House"}},{"type":"Feature","geometry":{"type":"Polygon","coordinates":[[[-72.9658,41.6547],[-72.9639,41.6413],[-72.9286,41.6455],[-72.9278,41.6407],[-72.922,41.6411],[-72.9239,41.6455],[-72.8834,41.6495],[-72.8885,41.6752],[-72.9224,41.6697],[-72.9202,41.6769],[-72.9246,41.6828],[-72.9492,41.6816],[-72.9501,41.6747],[-72.9627,41.669],[-72.9615,41.6598],[-72.9658,41.6547]]]},"properties":{"geoid":"09079","state":"09","district":"79","name":"State House District 79","chamber":"House"}},{"type":"Feature","geometry":{"type":"Polygon","coordinates":[[[-73.0215,41.6271],[-73.0121,41.5838],[-72.9799,41.5533],[-72.9264,41.5589],[-72.9164,41.5797],[-72.9194,41.5896],[-72.8981,41.5916],[-72.899,41.6124],[-72.8939,41.6188],[-72.8995,41.6198],[-72.903,41.6475],[-72.9239,41.6455],[-72.922,41.6411],[-72.9278,41.6407],[-72.9286,41.6455],[-72.9831,41.6395],[-73.004,41.6286],[-73.0215,41.6271]]]},"properties":{"geoid":"09080","state":"09","district":"80","name":"State House District 80","chamber":"House"}},{"type":"Feature","geometry":{"type":"Polygon","coordinates":[[[-72.9266,41.5617],[-72.8793,41.5632],[-72.8678,41.549],[-72.8443,41.5447],[-72.8485,41.5673],[-72.8402,41.5691],[-72.8339,41.5832],[-72.8429,41.5842],[-72.8428,41.5966],[-72.8569,41.5972],[-72.8578,41.6057],[-72.8781,41.6061],[-72.8744,41.6133],[-72.8977,41.6108],[-72.8981,41.5916],[-72.9194,41.5896],[-72.9164,41.5797],[-72.9266,41.5617]]]},"properties":{"geoid":"09081","state":"09","district":"81","name":"State House District 81","chamber":"House"}},{"type":"Feature","geometry":{"type":"Polygon","coordinates":[[[-72.8346,41.5429],[-72.8205,41.5406],[-72.8141,41.5502],[-72.798,41.5444],[-72.7932,41.5488],[-72.7827,41.5476],[-72.7901,41.5332],[-72.7794,41.5297],[-72.7902,41.5147],[-72.7817,41.5124],[-72.7927,41.5036],[-72.7726,41.4968],[-72.7448,41.4982],[-72.7522,41.5789],[-72.8012,41.5731],[-72.8191,41.5543],[-72.8261,41.5559],[-72.8346,41.5429]]]},"properties":{"geoid":"09082","state":"09","district":"82","name":"State House District 82","chamber":"House"}},{"type":"Feature","geometry":{"type":"Polygon","coordinates":[[[-72.8953,41.5293],[-72.8854,41.5281],[-72.8865,41.5181],[-72.8743,41.5121],[-72.8788,41.5009],[-72.8533,41.4946],[-72.8463,41.5028],[-72.8503,41.5157],[-72.7927,41.5036],[-72.7817,41.5124],[-72.7902,41.5147],[-72.7794,41.5297],[-72.79,41.5332],[-72.8021,41.5207],[-72.8139,41.5243],[-72.8229,41.5176],[-72.8346,41.5197],[-72.8389,41.5223],[-72.8213,41.5406],[-72.8346,41.5429],[-72.8328,41.5463],[-72.8261,41.5559],[-72.8191,41.5543],[-72.8092,41.562],[-72.8012,41.5731],[-72.7521,41.5789],[-72.7529,41.5925],[-72.7317,41.5958],[-72.7298,41.6022],[-72.7372,41.6011],[-72.7364,41.6108],[-72.7469,41.6108],[-72.7464,41.6178],[-72.7938,41.6113],[-72.7972,41.603],[-72.818,41.6013],[-72.8241,41.597],[-72.8265,41.5869],[-72.8365,41.5805],[-72.8402,41.5691],[-72.8485,41.5673],[-72.8443,41.5447],[-72.8678,41.549],[-72.8793,41.5632],[-72.8901,41.5632],[-72.8953,41.5293]]]},"properties":{"geoid":"09083","state":"09","district":"83","name":"State House District 83","chamber":"House"}},{"type":"Feature","geometry":{"type":"Polygon","coordinates":[[[-72.8389,41.5223],[-72.8229,41.5176],[-72.8139,41.5243],[-72.8021,41.5207],[-72.7992,41.5262],[-72.794,41.525],[-72.7827,41.5476],[-72.7932,41.5488],[-72.798,41.5444],[-72.8141,41.5502],[-72.8389,41.5223]]]},"properties":{"geoid":"09084","state":"09","district":"84","name":"State House District 84","chamber":"House"}},{"type":"Feature","geometry":{"type":"Polygon","coordinates":[[[-72.8864,41.4483],[-72.8501,41.434],[-72.848,41.4261],[-72.8274,41.4244],[-72.827,41.4195],[-72.7989,41.4363],[-72.7804,41.4548],[-72.7836,41.4548],[-72.783,41.4619],[-72.7972,41.4609],[-72.7974,41.4672],[-72.8074,41.466],[-72.8193,41.4715],[-72.827,41.4582],[-72.8342,41.4626],[-72.839,41.457],[-72.8683,41.47],[-72.8864,41.4483]]]},"properties":{"geoid":"09085","state":"09","district":"85","name":"State House District 85","chamber":"House"}},{"type":"Feature","geometry":{"type":"Polygon","coordinates":[[[-72.8676,41.3204],[-72.861,41.3263],[-72.8578,41.3219],[-72.8402,41.3241],[-72.8361,41.3355],[-72.819,41.3357],[-72.8238,41.3183],[-72.7992,41.3243],[-72.7713,41.3051],[-72.7461,41.3106],[-72.7415,41.3237],[-72.7436,41.3447],[-72.7069,41.3563],[-72.6762,41.3538],[-72.6787,41.4338],[-72.7104,41.4291],[-72.7179,41.4345],[-72.6981,41.4515],[-72.704,41.4749],[-72.7226,41.4715],[-72.728,41.4768],[-72.7228,41.4875],[-72.7339,41.4854],[-72.7391,41.4383],[-72.7461,41.4233],[-72.8177,41.3994],[-72.817,41.3639],[-72.8271,41.3615],[-72.828,41.3424],[-72.8603,41.3366],[-72.8676,41.3204]]]},"properties":{"geoid":"09086","state":"09","district":"86","name":"State House District 86","chamber":"House"}},{"type":"Feature","geometry":{"type":"Polygon","coordinates":[[[-72.9079,41.3669],[-72.8817,41.3609],[-72.8838,41.3535],[-72.8745,41.3517],[-72.888,41.3397],[-72.8888,41.3326],[-72.828,41.3424],[-72.8271,41.3615],[-72.817,41.3639],[-72.8177,41.3994],[-72.8276,41.3966],[-72.8274,41.4244],[-72.8483,41.4262],[-72.8514,41.4344],[-72.8618,41.4259],[-72.8832,41.4233],[-72.887,41.3933],[-72.9038,41.3781],[-72.9079,41.3669]]]},"properties":{"geoid":"09087","state":"09","district":"87","name":"State House District 87","chamber":"House"}},{"type":"Feature","geometry":{"type":"Polygon","coordinates":[[[-72.9495,41.4181],[-72.9389,41.4086],[-72.944,41.4054],[-72.9373,41.3853],[-72.9224,41.385],[-72.9262,41.3801],[-72.9158,41.3745],[-72.9258,41.359],[-72.9028,41.3535],[-72.8997,41.3646],[-72.908,41.3665],[-72.9038,41.3781],[-72.887,41.3933],[-72.8832,41.4233],[-72.8618,41.4259],[-72.8514,41.4344],[-72.9009,41.4529],[-72.9056,41.4454],[-72.9026,41.4388],[-72.9109,41.4386],[-72.9095,41.4282],[-72.9199,41.4223],[-72.9223,41.4156],[-72.9447,41.4235],[-72.9495,41.4181]]]},"properties":{"geoid":"09088","state":"09","district":"88","name":"State House District 88","chamber":"House"}},{"type":"Feature","geometry":{"type":"Polygon","coordinates":[[[-73.0475,41.3959],[-73.03,41.3885],[-72.9549,41.3945],[-72.9535,41.3997],[-72.9389,41.4086],[-72.9526,41.4194],[-72.9507,41.4278],[-72.9635,41.4375],[-72.949,41.4558],[-72.948,41.4641],[-72.918,41.4599],[-72.9269,41.4826],[-72.9252,41.4877],[-72.9204,41.4865],[-72.9215,41.4998],[-72.9145,41.4987],[-72.913,41.5078],[-72.9271,41.5164],[-72.9202,41.5315],[-72.9287,41.5394],[-72.9264,41.5589],[-72.9568,41.5553],[-72.9694,41.5302],[-72.9783,41.5339],[-72.9996,41.5259],[-73.0123,41.5361],[-73.0208,41.5332],[-73.0236,41.5219],[-73.0182,41.5198],[-73.0009,41.4699],[-73.0033,41.4627],[-73.0258,41.4596],[-73.0295,41.4195],[-73.0417,41.4209],[-73.0475,41.3959]]]},"properties":{"geoid":"09089","state":"09","district":"89","name":"State House District 89","chamber":"House"}},{"type":"Feature","geometry":{"type":"Polygon","coordinates":[[[-72.8575,41.488],[-72.8552,41.4831],[-72.83,41.4753],[-72.8343,41.4649],[-72.8434,41.4687],[-72.8465,41.4654],[-72.8409,41.4574],[-72.8342,41.4626],[-72.827,41.4582],[-72.8193,41.4715],[-72.8074,41.466],[-72.7974,41.4672],[-72.7972,41.4609],[-72.783,41.4619],[-72.7836,41.4548],[-72.7804,41.4548],[-72.7989,41.4363],[-72.8265,41.42],[-72.8276,41.3966],[-72.7461,41.4233],[-72.7391,41.4383],[-72.7339,41.4854],[-72.6792,41.4946],[-72.6821,41.5297],[-72.6946,41.5495],[-72.7489,41.5443],[-72.7448,41.4982],[-72.7726,41.4968],[-72.8503,41.5157],[-72.8463,41.5028],[-72.8575,41.488]]]},"properties":{"geoid":"09090","state":"09","district":"90","name":"State House District 90","chamber":"House"}},{"type":"Feature","geometry":{"type":"Polygon","coordinates":[[[-72.955,41.3637],[-72.9443,41.3498],[-72.9264,41.3437],[-72.9224,41.3345],[-72.9025,41.3272],[-72.8917,41.3285],[-72.8868,41.3412],[-72.8733,41.3494],[-72.8838,41.3535],[-72.8817,41.3609],[-72.8996,41.3647],[-72.9028,41.3535],[-72.9258,41.359],[-72.9158,41.3745],[-72.9262,41.3801],[-72.9224,41.385],[-72.9373,41.3853],[-72.9388,41.3934],[-72.946,41.3929],[-72.9441,41.3835],[-72.955,41.3637]]]},"properties":{"geoid":"09091","state":"09","district":"91","name":"State House District 91","chamber":"House"}},{"type":"Feature","geometry":{"type":"Polygon","coordinates":[[[-72.9979,41.3157],[-72.9563,41.3105],[-72.9569,41.303],[-72.9511,41.2973],[-72.9364,41.3032],[-72.9392,41.3155],[-72.9534,41.3222],[-72.9544,41.3283],[-72.9714,41.3301],[-72.9805,41.3388],[-72.9968,41.3236],[-72.9979,41.3157]]]},"properties":{"geoid":"09092","state":"09","district":"92","name":"State House District 92","chamber":"House"}},{"type":"Feature","geometry":{"type":"Polygon","coordinates":[[[-72.9805,41.3388],[-72.9714,41.3301],[-72.9544,41.3283],[-72.9534,41.3222],[-72.9392,41.3155],[-72.9364,41.3032],[-72.9284,41.3129],[-72.9303,41.3204],[-72.9341,41.3198],[-72.9352,41.3355],[-72.957,41.3398],[-72.9514,41.3439],[-72.9547,41.3502],[-72.9645,41.3438],[-72.9729,41.3474],[-72.9702,41.3429],[-72.9805,41.3388]]]},"properties":{"geoid":"09093","state":"09","district":"93","name":"State House District 93","chamber":"House"}},{"type":"Feature","geometry":{"type":"Polygon","coordinates":[[[-72.9572,41.3403],[-72.9352,41.3355],[-72.9341,41.3198],[-72.9303,41.3204],[-72.93,41.3107],[-72.9241,41.3082],[-72.9125,41.3332],[-72.9224,41.3345],[-72.9264,41.3437],[-72.9443,41.3498],[-72.9472,41.356],[-72.9533,41.3545],[-72.9514,41.3439],[-72.9572,41.3403]]]},"properties":{"geoid":"09094","state":"09","district":"94","name":"State House District 94","chamber":"House"}},{"type":"Feature","geometry":{"type":"Polygon","coordinates":[[[-72.9518,41.2946],[-72.9402,41.2878],[-72.9385,41.281],[-72.9153,41.282],[-72.9045,41.2992],[-72.8929,41.3021],[-72.8891,41.3132],[-72.9056,41.3138],[-72.9141,41.3112],[-72.9154,41.3008],[-72.9359,41.2978],[-72.9404,41.3018],[-72.9518,41.2946]]]},"properties":{"geoid":"09095","state":"09","district":"95","name":"State House District 95","chamber":"House"}},{"type":"Feature","geometry":{"type":"Polygon","coordinates":[[[-72.9404,41.3018],[-72.9359,41.2978],[-72.9154,41.3008],[-72.9141,41.3112],[-72.8872,41.3165],[-72.8904,41.3203],[-72.873,41.3322],[-72.8626,41.3316],[-72.8603,41.3366],[-72.9025,41.3272],[-72.9125,41.3332],[-72.9241,41.3082],[-72.93,41.3107],[-72.9404,41.3018]]]},"properties":{"geoid":"09096","state":"09","district":"96","name":"State House District 96","chamber":"House"}},{"type":"Feature","geometry":{"type":"Polygon","coordinates":[[[-72.9135,41.2854],[-72.9153,41.282],[-72.906,41.2827],[-72.9057,41.2704],[-72.8937,41.2601],[-72.9041,41.2476],[-72.8892,41.251],[-72.8877,41.2857],[-72.8626,41.3316],[-72.873,41.3322],[-72.8904,41.3203],[-72.8872,41.3165],[-72.8921,41.3159],[-72.8885,41.3092],[-72.8924,41.3029],[-72.9045,41.2992],[-72.9135,41.2854]]]},"properties":{"geoid":"09097","state":"09","district":"97","name":"State House District 97","chamber":"House"}},{"type":"Feature","geometry":{"type":"Polygon","coordinates":[[[-72.8066,41.2558],[-72.7947,41.2457],[-72.7842,41.2554],[-72.7682,41.2541],[-72.7594,41.2397],[-72.7352,41.2521],[-72.7063,41.2437],[-72.695,41.2447],[-72.6845,41.2551],[-72.6786,41.2445],[-72.6778,41.2503],[-72.6714,41.2477],[-72.6673,41.2513],[-72.6669,41.2597],[-72.6746,41.2665],[-72.6689,41.2655],[-72.6656,41.2706],[-72.6545,41.2657],[-72.6544,41.274],[-72.6444,41.2809],[-72.649,41.2892],[-72.6333,41.2994],[-72.6317,41.3094],[-72.6424,41.3226],[-72.6653,41.3354],[-72.6762,41.3538],[-72.7069,41.3563],[-72.7285,41.3503],[-72.7436,41.3447],[-72.7415,41.3237],[-72.7461,41.3106],[-72.7713,41.3051],[-72.7719,41.2999],[-72.7878,41.2925],[-72.7886,41.2815],[-72.7978,41.2788],[-72.786,41.2736],[-72.7897,41.2625],[-72.8066,41.2558]]]},"properties":{"geoid":"09098","state":"09","district":"98","name":"State House District 98","chamber":"House"}},{"type":"Feature","geometry":{"type":"Polygon","coordinates":[[[-72.904,41.2409],[-72.862,41.2392],[-72.8519,41.2622],[-72.8643,41.2692],[-72.8603,41.2851],[-72.8413,41.298],[-72.8365,41.3135],[-72.8238,41.3183],[-72.819,41.3357],[-72.8361,41.3355],[-72.8402,41.3241],[-72.8578,41.3219],[-72.861,41.3263],[-72.8676,41.3204],[-72.8878,41.2856],[-72.8873,41.253],[-72.8996,41.2485],[-72.904,41.2409]]]},"properties":{"geoid":"09099","state":"09","district":"99","name":"State House District 99","chamber":"House"}},{"type":"Feature","geometry":{"type":"Polygon","coordinates":[[[-72.6974,41.5941],[-72.6913,41.5911],[-72.6927,41.5819],[-72.6733,41.5834],[-72.6677,41.562],[-72.651,41.5623],[-72.6472,41.5567],[-72.6593,41.5461],[-72.663,41.5318],[-72.6784,41.5311],[-72.6787,41.5395],[-72.6874,41.5362],[-72.6821,41.5297],[-72.6776,41.4948],[-72.5549,41.511],[-72.5509,41.5381],[-72.5546,41.5509],[-72.6081,41.5628],[-72.6387,41.5604],[-72.6477,41.5665],[-72.6488,41.5752],[-72.654,41.5723],[-72.6553,41.5776],[-72.6681,41.5835],[-72.6654,41.5871],[-72.674,41.5997],[-72.6795,41.5971],[-72.6841,41.6019],[-72.6937,41.6016],[-72.6974,41.5941]]]},"properties":{"geoid":"09100","state":"09","district":"100","name":"State House District 100","chamber":"House"}},{"type":"Feature","geometry":{"type":"MultiPolygon","coordinates":[[[[-72.728,41.4768],[-72.7218,41.4714],[-72.704,41.4749],[-72.7016,41.4669],[-72.6983,41.4509],[-72.7178,41.4342],[-72.7104,41.4291],[-72.6787,41.4338],[-72.6797,41.3798],[-72.675,41.3486],[-72.6653,41.3354],[-72.6424,41.3226],[-72.6317,41.3094],[-72.6333,41.2994],[-72.649,41.2892],[-72.6444,41.2809],[-72.6544,41.274],[-72.6545,41.2657],[-72.6222,41.2718],[-72.5828,41.272],[-72.5685,41.2668],[-72.5446,41.2487],[-72.5366,41.2516],[-72.5413,41.2518],[-72.5359,41.2546],[-72.5472,41.2625],[-72.546,41.2803],[-72.5572,41.282],[-72.5886,41.3117],[-72.5846,41.3132],[-72.5896,41.3155],[-72.5859,41.324],[-72.6143,41.3296],[-72.6126,41.3605],[-72.6081,41.3674],[-72.6123,41.3862],[-72.6303,41.4027],[-72.632,41.4121],[-72.6505,41.4191],[-72.6423,41.4292],[-72.6495,41.4309],[-72.6484,41.4351],[-72.6537,41.4381],[-72.609,41.4431],[-72.637,41.4638],[-72.6279,41.4854],[-72.6337,41.5002],[-72.7228,41.4875],[-72.728,41.4768]]],[[[-72.6027,41.2666],[-72.6009,41.2659],[-72.6017,41.2667],[-72.6027,41.2666]]]]},"properties":{"geoid":"09101","state":"09","district":"101","name":"State House District 101","chamber":"House"}},{"type":"Feature","geometry":{"type":"Polygon","coordinates":[[[-72.8642,41.2694],[-72.8519,41.2622],[-72.8603,41.2442],[-72.8501,41.247],[-72.8472,41.2549],[-72.8366,41.2471],[-72.8266,41.2558],[-72.8246,41.2467],[-72.8163,41.2397],[-72.8021,41.2427],[-72.7947,41.2457],[-72.8066,41.2558],[-72.7906,41.2617],[-72.786,41.2736],[-72.7978,41.2788],[-72.7893,41.2807],[-72.7878,41.2925],[-72.7719,41.2999],[-72.7713,41.3051],[-72.7992,41.3243],[-72.835,41.3144],[-72.8413,41.298],[-72.859,41.2877],[-72.8642,41.2694]]]},"properties":{"geoid":"09102","state":"09","district":"102","name":"State House District 102","chamber":"House"}},{"type":"Feature","geometry":{"type":"Polygon","coordinates":[[[-72.9627,41.4387],[-72.9616,41.4324],[-72.9507,41.4278],[-72.9497,41.4175],[-72.9447,41.4235],[-72.9223,41.4156],[-72.9199,41.4223],[-72.9095,41.4282],[-72.9109,41.4386],[-72.9026,41.4388],[-72.9056,41.4452],[-72.9025,41.4523],[-72.8867,41.448],[-72.8692,41.4699],[-72.8563,41.463],[-72.8469,41.4629],[-72.8434,41.4687],[-72.8343,41.4649],[-72.83,41.4753],[-72.8552,41.4831],[-72.8575,41.488],[-72.8527,41.4943],[-72.8788,41.5009],[-72.8743,41.5121],[-72.8865,41.5181],[-72.8854,41.5281],[-72.8953,41.529],[-72.8901,41.5632],[-72.9264,41.5589],[-72.9287,41.5394],[-72.9202,41.5315],[-72.9271,41.5164],[-72.913,41.5078],[-72.9145,41.4987],[-72.9215,41.4998],[-72.9204,41.4865],[-72.9252,41.4877],[-72.9269,41.4826],[-72.918,41.4599],[-72.948,41.4641],[-72.949,41.4558],[-72.9627,41.4387]]]},"properties":{"geoid":"09103","state":"09","district":"103","name":"State House District 103","chamber":"House"}},{"type":"Feature","geometry":{"type":"Polygon","coordinates":[[[-73.1246,41.3453],[-73.1158,41.3322],[-73.0892,41.3175],[-73.0862,41.334],[-73.0583,41.324],[-73.0391,41.3267],[-73.0472,41.3605],[-73.0947,41.3608],[-73.1024,41.3529],[-73.0947,41.3389],[-73.1021,41.3317],[-73.1145,41.3327],[-73.1246,41.3453]]]},"properties":{"geoid":"09104","state":"09","district":"104","name":"State House District 104","chamber":"House"}},{"type":"Feature","geometry":{"type":"Polygon","coordinates":[[[-73.1475,41.3677],[-73.1361,41.3512],[-73.1235,41.3452],[-73.1102,41.3309],[-73.11,41.3347],[-73.1021,41.3317],[-73.0947,41.3389],[-73.1024,41.3529],[-73.0947,41.3608],[-73.0472,41.3605],[-73.0471,41.3988],[-73.0417,41.4209],[-73.0295,41.4195],[-73.0252,41.4346],[-73.0262,41.4616],[-73.0305,41.4659],[-73.0521,41.469],[-73.0537,41.4616],[-73.0621,41.4563],[-73.0774,41.4652],[-73.0927,41.4135],[-73.0836,41.4038],[-73.1105,41.3981],[-73.1158,41.3863],[-73.1475,41.3677]]]},"properties":{"geoid":"09105","state":"09","district":"105","name":"State House District 105","chamber":"House"}},{"type":"Feature","geometry":{"type":"Polygon","coordinates":[[[-73.3786,41.42],[-73.3333,41.3183],[-73.2291,41.3703],[-73.2281,41.3652],[-73.2212,41.364],[-73.2048,41.3705],[-73.1956,41.3879],[-73.1833,41.3917],[-73.1882,41.3982],[-73.1866,41.4086],[-73.1982,41.4119],[-73.2171,41.4284],[-73.2384,41.4263],[-73.2453,41.4399],[-73.2623,41.434],[-73.2702,41.448],[-73.2783,41.4526],[-73.3026,41.4476],[-73.3037,41.4441],[-73.3094,41.4466],[-73.3142,41.4291],[-73.3627,41.4224],[-73.3748,41.4248],[-73.3786,41.42]]]},"properties":{"geoid":"09106","state":"09","district":"106","name":"State House District 106","chamber":"House"}},{"type":"Feature","geometry":{"type":"Polygon","coordinates":[[[-73.4444,41.4776],[-73.4374,41.4655],[-73.4383,41.4741],[-73.4297,41.4697],[-73.4158,41.4303],[-73.406,41.4282],[-73.4008,41.4034],[-73.4037,41.3969],[-73.3957,41.3926],[-73.3682,41.3971],[-73.3786,41.42],[-73.3748,41.4248],[-73.3627,41.4224],[-73.3142,41.4291],[-73.3107,41.4454],[-73.3037,41.4441],[-73.2984,41.4489],[-73.2996,41.4701],[-73.3268,41.4695],[-73.3753,41.4892],[-73.379,41.5019],[-73.3886,41.5065],[-73.387,41.5148],[-73.4415,41.4913],[-73.437,41.4836],[-73.4427,41.4854],[-73.4444,41.4776]]]},"properties":{"geoid":"09107","state":"09","district":"107","name":"State House District 107","chamber":"House"}},{"type":"Feature","geometry":{"type":"Polygon","coordinates":[[[-73.537,41.4405],[-73.5085,41.4446],[-73.4991,41.4384],[-73.4817,41.4409],[-73.4713,41.4287],[-73.455,41.4213],[-73.4481,41.4278],[-73.4545,41.4372],[-73.4439,41.459],[-73.4358,41.4528],[-73.4293,41.4384],[-73.4183,41.4379],[-73.4297,41.4697],[-73.4383,41.4741],[-73.4374,41.4655],[-73.4444,41.4773],[-73.4427,41.4854],[-73.437,41.4836],[-73.4453,41.5095],[-73.4431,41.5721],[-73.4345,41.5833],[-73.4566,41.6006],[-73.4492,41.6139],[-73.4599,41.6191],[-73.4936,41.6609],[-73.4983,41.6589],[-73.5104,41.6665],[-73.5181,41.6666],[-73.537,41.4405]]]},"properties":{"geoid":"09108","state":"09","district":"108","name":"State House District 108","chamber":"House"}},{"type":"Feature","geometry":{"type":"Polygon","coordinates":[[[-73.4611,41.4053],[-73.4513,41.3976],[-73.4256,41.4012],[-73.4247,41.3822],[-73.4008,41.4034],[-73.406,41.4282],[-73.4158,41.4303],[-73.4183,41.4379],[-73.4293,41.4384],[-73.4358,41.4528],[-73.4439,41.459],[-73.4473,41.4455],[-73.4544,41.4381],[-73.4481,41.4278],[-73.455,41.4213],[-73.4509,41.4138],[-73.4611,41.4053]]]},"properties":{"geoid":"09109","state":"09","district":"109","name":"State House District 109","chamber":"House"}},{"type":"Feature","geometry":{"type":"Polygon","coordinates":[[[-73.4744,41.3819],[-73.4652,41.3826],[-73.4592,41.3776],[-73.4453,41.3817],[-73.4378,41.3732],[-73.4247,41.3822],[-73.4256,41.4012],[-73.468,41.3971],[-73.4648,41.3921],[-73.4693,41.3887],[-73.4686,41.3818],[-73.4744,41.3819]]]},"properties":{"geoid":"09110","state":"09","district":"110","name":"State House District 110","chamber":"House"}},{"type":"Feature","geometry":{"type":"Polygon","coordinates":[[[-73.5499,41.3015],[-73.551,41.2954],[-73.5263,41.2661],[-73.5199,41.2737],[-73.5019,41.2762],[-73.4975,41.253],[-73.4849,41.2451],[-73.4382,41.2652],[-73.4471,41.2785],[-73.4512,41.306],[-73.4661,41.3122],[-73.4854,41.3566],[-73.5016,41.362],[-73.5064,41.3774],[-73.5436,41.3751],[-73.5499,41.3015]]]},"properties":{"geoid":"09111","state":"09","district":"111","name":"State House District 111","chamber":"House"}},{"type":"Feature","geometry":{"type":"Polygon","coordinates":[[[-73.306,41.3324],[-73.2978,41.3287],[-73.2919,41.308],[-73.2853,41.3005],[-73.2966,41.2714],[-73.2633,41.2314],[-73.2743,41.2257],[-73.2621,41.2129],[-73.2514,41.2305],[-73.2217,41.2442],[-73.2198,41.2527],[-73.2357,41.2548],[-73.2354,41.2589],[-73.2425,41.2609],[-73.247,41.2606],[-73.2477,41.2521],[-73.2745,41.2839],[-73.2744,41.2938],[-73.2048,41.2994],[-73.1768,41.3376],[-73.1707,41.3579],[-73.1571,41.3767],[-73.158,41.383],[-73.1734,41.3836],[-73.1833,41.3917],[-73.1946,41.3887],[-73.2036,41.3792],[-73.2048,41.3705],[-73.2212,41.364],[-73.2281,41.3652],[-73.2291,41.3703],[-73.306,41.3324]]]},"properties":{"geoid":"09112","state":"09","district":"112","name":"State House District 112","chamber":"House"}},{"type":"Feature","geometry":{"type":"Polygon","coordinates":[[[-73.1789,41.3347],[-73.1684,41.3318],[-73.1722,41.3162],[-73.1594,41.293],[-73.1534,41.2974],[-73.1444,41.2923],[-73.1458,41.297],[-73.1243,41.3086],[-73.1242,41.3032],[-73.1121,41.3028],[-73.1054,41.2944],[-73.1108,41.2839],[-73.0994,41.2883],[-73.0815,41.2829],[-73.0653,41.2949],[-73.079,41.3116],[-73.1158,41.3322],[-73.1571,41.3767],[-73.1707,41.3579],[-73.1789,41.3347]]]},"properties":{"geoid":"09113","state":"09","district":"113","name":"State House District 113","chamber":"House"}},{"type":"Feature","geometry":{"type":"Polygon","coordinates":[[[-73.0894,41.3301],[-73.0867,41.3145],[-73.0679,41.301],[-73.0643,41.305],[-73.0442,41.3039],[-73.0409,41.286],[-73.0284,41.2826],[-73.0244,41.276],[-72.9871,41.2824],[-72.9843,41.3018],[-72.9891,41.3133],[-72.998,41.3141],[-72.9968,41.3236],[-72.9833,41.3373],[-72.9702,41.3429],[-72.9729,41.3474],[-72.9645,41.3438],[-72.9472,41.356],[-72.955,41.3637],[-72.9441,41.3835],[-72.946,41.3929],[-72.9388,41.3934],[-72.9426,41.4071],[-72.9549,41.3945],[-73.03,41.3885],[-73.0475,41.3958],[-73.0463,41.3461],[-73.0391,41.3267],[-73.0583,41.324],[-73.0862,41.334],[-73.0894,41.3301]]]},"properties":{"geoid":"09114","state":"09","district":"114","name":"State House District 114","chamber":"House"}},{"type":"Feature","geometry":{"type":"Polygon","coordinates":[[[-72.9868,41.2621],[-72.9739,41.2525],[-72.9699,41.2566],[-72.957,41.2517],[-72.933,41.2602],[-72.9203,41.2708],[-72.9309,41.2664],[-72.9386,41.2809],[-72.9469,41.2817],[-72.9532,41.2766],[-72.9558,41.2807],[-72.9798,41.2726],[-72.9815,41.2696],[-72.976,41.2673],[-72.9868,41.2621]]]},"properties":{"geoid":"09115","state":"09","district":"115","name":"State House District 115","chamber":"House"}},{"type":"Feature","geometry":{"type":"Polygon","coordinates":[[[-72.992,41.2667],[-72.9877,41.2644],[-72.9833,41.2709],[-72.9558,41.2807],[-72.9532,41.2766],[-72.9469,41.2817],[-72.9387,41.2807],[-72.9402,41.2878],[-72.9563,41.3016],[-72.9563,41.3105],[-72.9891,41.3133],[-72.9843,41.3018],[-72.9871,41.2815],[-72.9799,41.2792],[-72.992,41.2667]]]},"properties":{"geoid":"09116","state":"09","district":"116","name":"State House District 116","chamber":"House"}},{"type":"Feature","geometry":{"type":"Polygon","coordinates":[[[-73.0441,41.2575],[-73.0064,41.2481],[-73.0225,41.2383],[-73.0102,41.2336],[-73.0202,41.2164],[-73.0197,41.2041],[-73.0081,41.2102],[-73.0063,41.216],[-72.996,41.2133],[-72.9843,41.2189],[-72.979,41.2304],[-72.9867,41.2354],[-72.9755,41.2335],[-72.9598,41.2528],[-72.9832,41.2572],[-72.9868,41.2621],[-72.976,41.2673],[-72.9833,41.2709],[-72.992,41.2644],[-72.9799,41.2792],[-72.9903,41.2831],[-73.0244,41.276],[-73.0338,41.2844],[-73.0441,41.2575]]]},"properties":{"geoid":"09117","state":"09","district":"117","name":"State House District 117","chamber":"House"}},{"type":"Feature","geometry":{"type":"Polygon","coordinates":[[[-73.1225,41.1829],[-73.1199,41.1757],[-73.1078,41.1686],[-73.0768,41.1956],[-73.0579,41.1854],[-73.0375,41.1951],[-73.0555,41.2089],[-73.0489,41.2103],[-73.0556,41.2227],[-73.0496,41.2252],[-73.0577,41.2288],[-73.0596,41.2371],[-73.0785,41.2224],[-73.1073,41.2201],[-73.1097,41.202],[-73.1225,41.1829]]]},"properties":{"geoid":"09118","state":"09","district":"118","name":"State House District 118","chamber":"House"}},{"type":"Feature","geometry":{"type":"Polygon","coordinates":[[[-73.1106,41.2274],[-73.1103,41.2133],[-73.1036,41.2218],[-73.0785,41.2224],[-73.0709,41.232],[-73.0579,41.2373],[-73.0577,41.2288],[-73.0496,41.2252],[-73.0556,41.2227],[-73.0541,41.2151],[-73.0378,41.2018],[-73.0326,41.2068],[-73.0203,41.2067],[-73.0202,41.2164],[-73.0102,41.2336],[-73.0225,41.2383],[-73.0064,41.2481],[-73.0441,41.2568],[-73.0338,41.2844],[-73.0409,41.286],[-73.0442,41.3039],[-73.0655,41.3048],[-73.0688,41.2892],[-73.0869,41.2766],[-73.0873,41.2518],[-73.1106,41.2274]]]},"properties":{"geoid":"09119","state":"09","district":"119","name":"State House District 119","chamber":"House"}},{"type":"Feature","geometry":{"type":"Polygon","coordinates":[[[-73.1628,41.2203],[-73.158,41.2054],[-73.143,41.2074],[-73.1303,41.1927],[-73.1281,41.1794],[-73.122,41.1789],[-73.1214,41.1875],[-73.1097,41.202],[-73.11,41.2294],[-73.0912,41.2464],[-73.1462,41.237],[-73.1628,41.2203]]]},"properties":{"geoid":"09120","state":"09","district":"120","name":"State House District 120","chamber":"House"}},{"type":"Feature","geometry":{"type":"Polygon","coordinates":[[[-73.1655,41.155],[-73.1305,41.1463],[-73.0954,41.1466],[-73.1075,41.1684],[-73.1281,41.1794],[-73.1303,41.1927],[-73.143,41.2074],[-73.158,41.2054],[-73.1542,41.183],[-73.1655,41.155]]]},"properties":{"geoid":"09121","state":"09","district":"121","name":"State House District 121","chamber":"House"}},{"type":"Feature","geometry":{"type":"Polygon","coordinates":[[[-73.2045,41.2997],[-73.1739,41.2686],[-73.1553,41.2691],[-73.1467,41.255],[-73.1537,41.2373],[-73.1958,41.2349],[-73.1945,41.2268],[-73.1814,41.2271],[-73.1907,41.2242],[-73.1873,41.2205],[-73.1695,41.2228],[-73.1455,41.2373],[-73.0912,41.2464],[-73.0873,41.2518],[-73.0887,41.2717],[-73.0815,41.2829],[-73.0994,41.2883],[-73.1108,41.2839],[-73.1054,41.2944],[-73.1121,41.3028],[-73.1242,41.3032],[-73.1243,41.3086],[-73.1458,41.297],[-73.1444,41.2923],[-73.1534,41.2974],[-73.1594,41.293],[-73.1722,41.3162],[-73.1683,41.3312],[-73.174,41.3347],[-73.1806,41.333],[-73.2045,41.2997]]]},"properties":{"geoid":"09122","state":"09","district":"122","name":"State House District 122","chamber":"House"}},{"type":"Feature","geometry":{"type":"Polygon","coordinates":[[[-73.2752,41.2916],[-73.2745,41.2839],[-73.2477,41.2521],[-73.247,41.2606],[-73.2425,41.2609],[-73.2354,41.2589],[-73.2357,41.2548],[-73.2198,41.2527],[-73.2206,41.2484],[-73.2111,41.2513],[-73.1961,41.2444],[-73.1958,41.2349],[-73.1537,41.2373],[-73.1467,41.255],[-73.1553,41.2691],[-73.1739,41.2686],[-73.2048,41.2994],[-73.2752,41.2916]]]},"properties":{"geoid":"09123","state":"09","district":"123","name":"State House District 123","chamber":"House"}},{"type":"Feature","geometry":{"type":"Polygon","coordinates":[[[-73.1805,41.1713],[-73.1759,41.1669],[-73.1799,41.1526],[-73.1658,41.1543],[-73.1542,41.183],[-73.1619,41.2176],[-73.1733,41.2008],[-73.1789,41.2061],[-73.1803,41.198],[-73.1716,41.1934],[-73.1709,41.1865],[-73.1805,41.1713]]]},"properties":{"geoid":"09124","state":"09","district":"124","name":"State House District 124","chamber":"House"}},{"type":"Feature","geometry":{"type":"Polygon","coordinates":[[[-73.5814,41.1642],[-73.5705,41.1506],[-73.574,41.1314],[-73.5642,41.1206],[-73.5561,41.1205],[-73.5464,41.112],[-73.5249,41.1165],[-73.5134,41.1025],[-73.5097,41.103],[-73.5101,41.1093],[-73.4934,41.1145],[-73.4926,41.1023],[-73.4856,41.0963],[-73.4684,41.0942],[-73.4724,41.1055],[-73.4675,41.1068],[-73.4746,41.1147],[-73.4495,41.1501],[-73.4515,41.1531],[-73.4579,41.1472],[-73.4634,41.1539],[-73.4871,41.1444],[-73.5025,41.1865],[-73.4999,41.1928],[-73.504,41.2033],[-73.5791,41.1687],[-73.5814,41.1642]]]},"properties":{"geoid":"09125","state":"09","district":"125","name":"State House District 125","chamber":"House"}},{"type":"Feature","geometry":{"type":"Polygon","coordinates":[[[-73.2191,41.2278],[-73.2113,41.2132],[-73.2027,41.2111],[-73.1979,41.1994],[-73.1886,41.2028],[-73.1836,41.1971],[-73.1789,41.2061],[-73.1733,41.2008],[-73.1576,41.2284],[-73.1863,41.2205],[-73.1907,41.2242],[-73.1814,41.2271],[-73.2191,41.2278]]]},"properties":{"geoid":"09126","state":"09","district":"126","name":"State House District 126","chamber":"House"}},{"type":"Feature","geometry":{"type":"Polygon","coordinates":[[[-73.2441,41.2266],[-73.2256,41.2053],[-73.2194,41.2077],[-73.2078,41.1973],[-73.2198,41.1916],[-73.2198,41.1867],[-73.2004,41.1968],[-73.1997,41.2064],[-73.2113,41.2132],[-73.2191,41.2278],[-73.2441,41.2266]]]},"properties":{"geoid":"09127","state":"09","district":"127","name":"State House District 127","chamber":"House"}},{"type":"Feature","geometry":{"type":"Polygon","coordinates":[[[-73.2065,41.1833],[-73.2029,41.1743],[-73.1989,41.1747],[-73.1881,41.1897],[-73.1711,41.1857],[-73.1716,41.1934],[-73.1886,41.2028],[-73.1967,41.1986],[-73.1993,41.2013],[-73.2026,41.2001],[-73.197,41.1917],[-73.2065,41.1833]]]},"properties":{"geoid":"09128","state":"09","district":"128","name":"State House District 128","chamber":"House"}},{"type":"Feature","geometry":{"type":"Polygon","coordinates":[[[-73.2372,41.1551],[-73.2348,41.1438],[-73.2211,41.1399],[-73.2192,41.1509],[-73.2075,41.1608],[-73.2088,41.1705],[-73.2171,41.178],[-73.197,41.1917],[-73.2004,41.1968],[-73.2198,41.1867],[-73.2192,41.1791],[-73.2278,41.1692],[-73.2223,41.1689],[-73.2372,41.1551]]]},"properties":{"geoid":"09129","state":"09","district":"129","name":"State House District 129","chamber":"House"}},{"type":"Feature","geometry":{"type":"Polygon","coordinates":[[[-73.2216,41.1425],[-73.1799,41.1526],[-73.1759,41.1669],[-73.1805,41.1713],[-73.1711,41.1857],[-73.1881,41.1897],[-73.1989,41.1747],[-73.2029,41.1743],[-73.2067,41.1831],[-73.2171,41.178],[-73.2088,41.1705],[-73.2075,41.1608],[-73.2192,41.1509],[-73.2216,41.1425]]]},"properties":{"geoid":"09130","state":"09","district":"130","name":"State House District 130","chamber":"House"}},{"type":"Feature","geometry":{"type":"Polygon","coordinates":[[[-73.2077,41.4205],[-73.1866,41.4086],[-73.188,41.3973],[-73.1812,41.3896],[-73.1734,41.3836],[-73.1587,41.3834],[-73.1579,41.3772],[-73.147,41.3678],[-73.1158,41.3863],[-73.1105,41.3981],[-73.0836,41.4038],[-73.0927,41.4135],[-73.0774,41.4652],[-73.0618,41.4563],[-73.0537,41.4616],[-73.0521,41.469],[-73.0294,41.4648],[-73.027,41.4683],[-73.0413,41.4735],[-73.0506,41.486],[-73.0667,41.4917],[-73.0647,41.4946],[-73.072,41.4946],[-73.0753,41.4995],[-73.0701,41.5072],[-73.0866,41.505],[-73.0879,41.499],[-73.0972,41.5008],[-73.1042,41.4894],[-73.125,41.4876],[-73.1579,41.4894],[-73.1604,41.4979],[-73.1557,41.5153],[-73.185,41.5109],[-73.1783,41.5032],[-73.1825,41.5029],[-73.181,41.4937],[-73.1719,41.4864],[-73.1664,41.4708],[-73.1778,41.4694],[-73.199,41.4557],[-73.1889,41.4317],[-73.2077,41.4205]]]},"properties":{"geoid":"09131","state":"09","district":"131","name":"State House District 131","chamber":"House"}},{"type":"Feature","geometry":{"type":"Polygon","coordinates":[[[-73.299,41.1252],[-73.2643,41.1145],[-73.2417,41.1274],[-73.2326,41.1425],[-73.2337,41.1521],[-73.2412,41.1563],[-73.2368,41.1599],[-73.2418,41.1624],[-73.2359,41.1681],[-73.247,41.1758],[-73.2425,41.1779],[-73.2517,41.1816],[-73.2551,41.172],[-73.2621,41.168],[-73.2718,41.1729],[-73.2687,41.1679],[-73.2746,41.1589],[-73.2707,41.1557],[-73.2746,41.1424],[-73.2979,41.1383],[-73.299,41.1252]]]},"properties":{"geoid":"09132","state":"09","district":"132","name":"State House District 132","chamber":"House"}},{"type":"Feature","geometry":{"type":"Polygon","coordinates":[[[-73.26,41.1924],[-73.2554,41.1834],[-73.2431,41.1785],[-73.247,41.1758],[-73.2359,41.1681],[-73.2418,41.1624],[-73.2368,41.1599],[-73.2412,41.1563],[-73.238,41.153],[-73.2223,41.1689],[-73.2278,41.1692],[-73.2178,41.1828],[-73.2198,41.1916],[-73.2068,41.1953],[-73.2194,41.2077],[-73.2256,41.2053],[-73.239,41.2207],[-73.2459,41.2183],[-73.2493,41.2223],[-73.2537,41.22],[-73.2455,41.2082],[-73.2515,41.1993],[-73.2549,41.2026],[-73.26,41.1924]]]},"properties":{"geoid":"09133","state":"09","district":"133","name":"State House District 133","chamber":"House"}},{"type":"Feature","geometry":{"type":"Polygon","coordinates":[[[-73.3384,41.1946],[-73.2988,41.1448],[-73.2979,41.1383],[-73.2746,41.1423],[-73.2707,41.1557],[-73.2746,41.1589],[-73.2687,41.1679],[-73.272,41.1727],[-73.2621,41.168],[-73.253,41.1759],[-73.2517,41.1816],[-73.26,41.1923],[-73.2454,41.2105],[-73.2537,41.22],[-73.239,41.2207],[-73.2442,41.2266],[-73.1952,41.2273],[-73.1961,41.2444],[-73.2111,41.2513],[-73.2206,41.2484],[-73.2217,41.2442],[-73.2514,41.2305],[-73.2633,41.2125],[-73.2796,41.2316],[-73.3019,41.2127],[-73.329,41.2134],[-73.3384,41.1946]]]},"properties":{"geoid":"09134","state":"09","district":"134","name":"State House District 134","chamber":"House"}},{"type":"Feature","geometry":{"type":"Polygon","coordinates":[[[-73.4701,41.3264],[-73.4661,41.3122],[-73.4512,41.306],[-73.4471,41.2785],[-73.3716,41.1747],[-73.3336,41.1987],[-73.329,41.2134],[-73.3019,41.2127],[-73.2796,41.2316],[-73.2743,41.2257],[-73.2633,41.2314],[-73.2966,41.2714],[-73.2853,41.3005],[-73.2919,41.308],[-73.2978,41.3287],[-73.306,41.3324],[-73.3333,41.3183],[-73.3471,41.3504],[-73.4701,41.3264]]]},"properties":{"geoid":"09135","state":"09","district":"135","name":"State House District 135","chamber":"House"}},{"type":"Feature","geometry":{"type":"Polygon","coordinates":[[[-73.3876,41.1625],[-73.3758,41.1638],[-73.3637,41.1386],[-73.3843,41.1073],[-73.3838,41.0288],[-73.3685,41.0473],[-73.3614,41.0754],[-73.2956,41.0796],[-73.2961,41.1337],[-73.2988,41.1448],[-73.3385,41.1945],[-73.3716,41.1747],[-73.3796,41.1858],[-73.3876,41.1625]]]},"properties":{"geoid":"09136","state":"09","district":"136","name":"State House District 136","chamber":"House"}},{"type":"Feature","geometry":{"type":"Polygon","coordinates":[[[-73.4564,41.0216],[-73.3903,41.021],[-73.3838,41.0288],[-73.3829,41.0997],[-73.3953,41.111],[-73.4067,41.1093],[-73.4032,41.1295],[-73.4072,41.136],[-73.415,41.1362],[-73.4219,41.1269],[-73.4296,41.1263],[-73.4238,41.1216],[-73.4274,41.1137],[-73.4231,41.1065],[-73.4158,41.1064],[-73.4124,41.0868],[-73.4199,41.0776],[-73.4218,41.0813],[-73.4204,41.0684],[-73.4277,41.0567],[-73.4491,41.053],[-73.4564,41.0216]]]},"properties":{"geoid":"09137","state":"09","district":"137","name":"State House District 137","chamber":"House"}},{"type":"Feature","geometry":{"type":"Polygon","coordinates":[[[-73.5426,41.3892],[-73.5272,41.3925],[-73.4694,41.3816],[-73.4648,41.3921],[-73.468,41.3971],[-73.4576,41.3992],[-73.4611,41.4053],[-73.451,41.4166],[-73.4713,41.4287],[-73.4817,41.4409],[-73.4991,41.4384],[-73.5085,41.4446],[-73.536,41.4406],[-73.5426,41.3892]]]},"properties":{"geoid":"09138","state":"09","district":"138","name":"State House District 138","chamber":"House"}},{"type":"Feature","geometry":{"type":"Polygon","coordinates":[[[-72.2276,41.5187],[-72.2184,41.5005],[-72.2014,41.5021],[-72.1152,41.4608],[-72.1185,41.4379],[-72.1098,41.4361],[-72.1102,41.4267],[-72.0956,41.4253],[-72.0958,41.4004],[-72.0443,41.4011],[-72.0495,41.4193],[-72.0682,41.4319],[-72.0798,41.4343],[-72.0821,41.4434],[-72.0695,41.4552],[-72.0663,41.4653],[-72.07,41.4636],[-72.081,41.4921],[-72.0937,41.4972],[-72.0992,41.4946],[-72.108,41.5028],[-72.1154,41.5009],[-72.1195,41.5175],[-72.1131,41.5365],[-72.0956,41.5444],[-72.0825,41.5456],[-72.0782,41.535],[-72.0701,41.5399],[-72.0522,41.5349],[-72.0432,41.5622],[-72.0453,41.573],[-72.054,41.5739],[-72.053,41.5784],[-72.0631,41.5708],[-72.0664,41.5825],[-72.0928,41.5693],[-72.1057,41.5534],[-72.1124,41.5729],[-72.1187,41.5744],[-72.1252,41.5633],[-72.1358,41.5692],[-72.1321,41.5648],[-72.1327,41.5485],[-72.1407,41.5363],[-72.1329,41.5089],[-72.1354,41.504],[-72.1785,41.516],[-72.1935,41.512],[-72.2276,41.5187]]]},"properties":{"geoid":"09139","state":"09","district":"139","name":"State House District 139","chamber":"House"}},{"type":"Feature","geometry":{"type":"Polygon","coordinates":[[[-73.4414,41.1051],[-73.4326,41.1003],[-73.4279,41.0806],[-73.4182,41.0789],[-73.4124,41.0868],[-73.4158,41.1064],[-73.4231,41.1065],[-73.429,41.1196],[-73.4385,41.1182],[-73.4366,41.1105],[-73.4414,41.1051]]]},"properties":{"geoid":"09140","state":"09","district":"140","name":"State House District 140","chamber":"House"}},{"type":"Feature","geometry":{"type":"Polygon","coordinates":[[[-73.5182,41.0803],[-73.4959,41.0486],[-73.4961,40.9755],[-73.4565,40.9838],[-73.4554,41.0337],[-73.4493,41.0527],[-73.4277,41.0567],[-73.4204,41.0684],[-73.4209,41.0772],[-73.4459,41.0744],[-73.4475,41.085],[-73.4538,41.0875],[-73.4675,41.1068],[-73.4724,41.1055],[-73.4684,41.0942],[-73.4769,41.0933],[-73.4925,41.1021],[-73.4934,41.1145],[-73.511,41.1084],[-73.5182,41.0803]]]},"properties":{"geoid":"09141","state":"09","district":"141","name":"State House District 141","chamber":"House"}},{"type":"Feature","geometry":{"type":"Polygon","coordinates":[[[-73.4898,41.1512],[-73.4871,41.1444],[-73.4634,41.1539],[-73.4562,41.1469],[-73.4515,41.1531],[-73.4495,41.1501],[-73.4746,41.1147],[-73.4538,41.0875],[-73.4481,41.086],[-73.4459,41.0744],[-73.4308,41.0737],[-73.4246,41.0781],[-73.4326,41.1003],[-73.4414,41.105],[-73.4366,41.1105],[-73.4385,41.1182],[-73.4238,41.1216],[-73.4296,41.1263],[-73.4219,41.1269],[-73.4276,41.1423],[-73.4215,41.1438],[-73.419,41.1608],[-73.4489,41.1538],[-73.4529,41.1597],[-73.4786,41.1608],[-73.4896,41.1563],[-73.4898,41.1512]]]},"properties":{"geoid":"09142","state":"09","district":"142","name":"State House District 142","chamber":"House"}},{"type":"Feature","geometry":{"type":"Polygon","coordinates":[[[-73.4276,41.1423],[-73.423,41.1299],[-73.4128,41.1371],[-73.4069,41.1358],[-73.4032,41.1295],[-73.4067,41.1093],[-73.3953,41.111],[-73.3871,41.1008],[-73.3826,41.1146],[-73.3749,41.1181],[-73.3637,41.1386],[-73.3758,41.1638],[-73.3876,41.1624],[-73.3871,41.1705],[-73.3948,41.1718],[-73.419,41.1608],[-73.4215,41.1438],[-73.4276,41.1423]]]},"properties":{"geoid":"09143","state":"09","district":"143","name":"State House District 143","chamber":"House"}},{"type":"Feature","geometry":{"type":"Polygon","coordinates":[[[-73.566,41.1031],[-73.5569,41.0765],[-73.5584,41.0644],[-73.5487,41.0661],[-73.5432,41.0556],[-73.531,41.0552],[-73.5343,41.0701],[-73.5392,41.0713],[-73.5361,41.0774],[-73.5427,41.0927],[-73.5407,41.0975],[-73.5476,41.0958],[-73.5482,41.1031],[-73.5593,41.1066],[-73.566,41.1031]]]},"properties":{"geoid":"09144","state":"09","district":"144","name":"State House District 144","chamber":"House"}},{"type":"Feature","geometry":{"type":"Polygon","coordinates":[[[-73.5683,41.0595],[-73.5551,41.0252],[-73.5421,41.0196],[-73.5393,41.0305],[-73.5445,41.0396],[-73.5447,41.0634],[-73.5487,41.0661],[-73.5584,41.0644],[-73.5599,41.0589],[-73.5683,41.0595]]]},"properties":{"geoid":"09145","state":"09","district":"145","name":"State House District 145","chamber":"House"}},{"type":"Feature","geometry":{"type":"Polygon","coordinates":[[[-73.5459,41.0498],[-73.5393,41.0305],[-73.5421,41.0196],[-73.5228,41.0201],[-73.517,41.0301],[-73.5226,41.037],[-73.5169,41.0437],[-73.5245,41.0515],[-73.5242,41.0579],[-73.5432,41.0556],[-73.5459,41.0498]]]},"properties":{"geoid":"09146","state":"09","district":"146","name":"State House District 146","chamber":"House"}},{"type":"Feature","geometry":{"type":"Polygon","coordinates":[[[-73.5906,41.1165],[-73.5822,41.1006],[-73.5593,41.1066],[-73.5482,41.1031],[-73.5476,41.0958],[-73.5408,41.0976],[-73.5427,41.0927],[-73.5361,41.0774],[-73.5392,41.0713],[-73.5099,41.0687],[-73.5182,41.0803],[-73.5098,41.103],[-73.5163,41.1031],[-73.5249,41.1165],[-73.551,41.1141],[-73.5551,41.12],[-73.5681,41.1241],[-73.5764,41.1404],[-73.588,41.1337],[-73.5906,41.1165]]]},"properties":{"geoid":"09147","state":"09","district":"147","name":"State House District 147","chamber":"House"}},{"type":"Feature","geometry":{"type":"Polygon","coordinates":[[[-73.5539,41.0222],[-73.5537,40.9635],[-73.4961,40.9755],[-73.4959,41.0486],[-73.5099,41.0687],[-73.5343,41.0701],[-73.5338,41.0592],[-73.5242,41.0579],[-73.5245,41.0515],[-73.5169,41.0437],[-73.5226,41.037],[-73.517,41.0301],[-73.5222,41.0208],[-73.5294,41.0169],[-73.5539,41.0222]]]},"properties":{"geoid":"09148","state":"09","district":"148","name":"State House District 148","chamber":"House"}},{"type":"Feature","geometry":{"type":"Polygon","coordinates":[[[-73.7278,41.1007],[-73.6556,41.0127],[-73.6294,41.0281],[-73.6393,41.0552],[-73.6411,41.0768],[-73.6363,41.0778],[-73.6371,41.0866],[-73.6239,41.0849],[-73.6225,41.0899],[-73.5992,41.099],[-73.5683,41.0595],[-73.5599,41.0589],[-73.5585,41.0632],[-73.5569,41.0765],[-73.5654,41.1022],[-73.5822,41.1006],[-73.5906,41.114],[-73.5875,41.1343],[-73.5821,41.1396],[-73.5702,41.1385],[-73.5705,41.1506],[-73.5742,41.151],[-73.5751,41.1608],[-73.5814,41.1635],[-73.5791,41.1687],[-73.7278,41.1007]]]},"properties":{"geoid":"09149","state":"09","district":"149","name":"State House District 149","chamber":"House"}},{"type":"Feature","geometry":{"type":"Polygon","coordinates":[[[-73.6603,41.0005],[-73.6568,40.9845],[-73.6129,40.9509],[-73.5537,40.9635],[-73.5509,41.0222],[-73.5632,41.0402],[-73.5732,41.0321],[-73.5946,41.0308],[-73.59,41.0423],[-73.6119,41.037],[-73.6137,41.03],[-73.6248,41.033],[-73.6556,41.0127],[-73.6603,41.0005]]]},"properties":{"geoid":"09150","state":"09","district":"150","name":"State House District 150","chamber":"House"}},{"type":"Feature","geometry":{"type":"Polygon","coordinates":[[[-73.6411,41.0768],[-73.6389,41.0534],[-73.6294,41.0281],[-73.6248,41.033],[-73.6137,41.03],[-73.6119,41.037],[-73.5906,41.0422],[-73.5946,41.0308],[-73.5732,41.0321],[-73.5702,41.0383],[-73.5635,41.0386],[-73.5679,41.059],[-73.5992,41.099],[-73.6225,41.0899],[-73.6239,41.0849],[-73.6371,41.0866],[-73.6363,41.0778],[-73.6411,41.0768]]]},"properties":{"geoid":"09151","state":"09","district":"151","name":"State House District 151","chamber":"House"}},{"type":"Feature","geometry":{"type":"Polygon","coordinates":[[[-73.4565,40.9912],[-73.4565,40.9838],[-73.2496,41.0259],[-72.9995,41.0871],[-72.1415,41.2501],[-72.0818,41.2622],[-72.0501,41.2766],[-72.3335,41.2722],[-72.3329,41.2656],[-72.3393,41.262],[-72.385,41.2539],[-72.4216,41.258],[-72.4568,41.2501],[-72.487,41.2501],[-72.4834,41.2623],[-72.5017,41.2478],[-72.5165,41.2482],[-72.5263,41.2556],[-72.5279,41.2501],[-72.5364,41.2546],[-72.5446,41.2487],[-72.5795,41.2716],[-72.6206,41.2719],[-72.6584,41.265],[-72.6656,41.2706],[-72.6689,41.2655],[-72.6747,41.2664],[-72.6669,41.2597],[-72.6673,41.2513],[-72.6714,41.2477],[-72.6778,41.2503],[-72.6786,41.2445],[-72.6845,41.2551],[-72.695,41.2447],[-72.7063,41.2437],[-72.7352,41.2521],[-72.7594,41.2397],[-72.7675,41.2538],[-72.7842,41.2554],[-72.793,41.2465],[-72.8162,41.2397],[-72.8246,41.2467],[-72.8266,41.2558],[-72.8366,41.2471],[-72.8472,41.2549],[-72.8487,41.2483],[-72.8603,41.2442],[-72.862,41.2392],[-72.9051,41.2391],[-72.8994,41.2475],[-72.9041,41.2476],[-72.9028,41.253],[-72.8934,41.2584],[-72.9057,41.2704],[-72.906,41.2827],[-72.9378,41.282],[-72.9311,41.2664],[-72.921,41.2696],[-72.933,41.2602],[-72.962,41.2514],[-72.9755,41.2335],[-72.9867,41.2354],[-72.979,41.2304],[-72.9843,41.2189],[-72.996,41.2133],[-73.0063,41.216],[-73.0162,41.2043],[-73.0296,41.2075],[-73.0379,41.2018],[-73.0523,41.2101],[-73.0555,41.2089],[-73.0375,41.1951],[-73.0579,41.1854],[-73.0736,41.1966],[-73.0882,41.1878],[-73.1078,41.1686],[-73.0954,41.1466],[-73.1305,41.1463],[-73.1658,41.1543],[-73.2211,41.1399],[-73.2326,41.1425],[-73.2417,41.1274],[-73.2643,41.1145],[-73.2977,41.1238],[-73.2956,41.0796],[-73.3614,41.0754],[-73.3685,41.0473],[-73.3903,41.021],[-73.4565,41.0204],[-73.4565,40.9912]],[[-72.6027,41.2665],[-72.6017,41.2667],[-72.6009,41.2659],[-72.6027,41.2665]]]},"properties":{"geoid":"09ZZZ","state":"09","district":"State House Districts not defined","name":"State House Districts not defined","chamber":"House"}}]}