{"type":"FeatureCollection","features":[{"type":"Feature","geometry":{"type":"Polygon","coordinates":[[[-72.7155,41.7442],[-72.7146,41.7236],[-72.7059,41.7243],[-72.708,41.7104],[-72.7019,41.6826],[-72.6965,41.6826],[-72.6974,41.6887],[-72.6654,41.6965],[-72.6754,41.6842],[-72.6768,41.675],[-72.6713,41.6754],[-72.6717,41.6696],[-72.6633,41.6809],[-72.6157,41.6881],[-72.6367,41.6929],[-72.6353,41.6987],[-72.6159,41.7071],[-72.622,41.7122],[-72.6406,41.7145],[-72.6489,41.7231],[-72.6363,41.7249],[-72.6478,41.7279],[-72.6426,41.7352],[-72.6446,41.7457],[-72.6651,41.7658],[-72.6579,41.7769],[-72.6644,41.7799],[-72.666,41.7907],[-72.674,41.7896],[-72.6751,41.7783],[-72.6859,41.7806],[-72.6877,41.7758],[-72.6775,41.7737],[-72.6818,41.7707],[-72.678,41.7674],[-72.6905,41.7616],[-72.7136,41.76],[-72.7155,41.7442]]]},"properties":{"geoid":"09001","state":"09","district":"1","name":"State Senate District 1","chamber":"Senate"}},{"type":"Feature","geometry":{"type":"Polygon","coordinates":[[[-72.785,41.8484],[-72.7843,41.8378],[-72.7699,41.8282],[-72.755,41.831],[-72.7497,41.8265],[-72.7532,41.8168],[-72.7377,41.8169],[-72.7294,41.8064],[-72.7182,41.8066],[-72.715,41.7575],[-72.6905,41.7616],[-72.678,41.7674],[-72.6818,41.7707],[-72.6775,41.7737],[-72.6877,41.7758],[-72.6859,41.7806],[-72.6751,41.7783],[-72.674,41.7896],[-72.666,41.7907],[-72.6644,41.7799],[-72.6579,41.7769],[-72.6459,41.7859],[-72.6419,41.8207],[-72.6256,41.8457],[-72.6193,41.8683],[-72.6217,41.9046],[-72.6278,41.888],[-72.6449,41.8965],[-72.6678,41.8978],[-72.6736,41.9025],[-72.6846,41.9001],[-72.6875,41.9118],[-72.696,41.916],[-72.7045,41.9159],[-72.7178,41.8965],[-72.7317,41.8908],[-72.7606,41.9057],[-72.785,41.8484]]]},"properties":{"geoid":"09002","state":"09","district":"2","name":"State Senate District 2","chamber":"Senate"}},{"type":"Feature","geometry":{"type":"Polygon","coordinates":[[[-72.6651,41.7665],[-72.6446,41.7457],[-72.6426,41.7352],[-72.6478,41.7279],[-72.6363,41.7249],[-72.5712,41.7338],[-72.5835,41.8006],[-72.5054,41.8203],[-72.496,41.8659],[-72.4276,41.8748],[-72.4312,41.8993],[-72.4392,41.8942],[-72.4593,41.9004],[-72.4531,41.9174],[-72.4752,41.9173],[-72.4823,41.9485],[-72.6234,41.9343],[-72.6193,41.8683],[-72.6256,41.8457],[-72.6419,41.8207],[-72.6459,41.7859],[-72.6642,41.7722],[-72.6651,41.7665]]]},"properties":{"geoid":"09003","state":"09","district":"3","name":"State Senate District 3","chamber":"Senate"}},{"type":"Feature","geometry":{"type":"Polygon","coordinates":[[[-72.6483,41.7232],[-72.6406,41.7145],[-72.622,41.7122],[-72.6159,41.7071],[-72.6353,41.6987],[-72.6362,41.692],[-72.6157,41.6881],[-72.6086,41.6813],[-72.612,41.6725],[-72.628,41.666],[-72.6235,41.6503],[-72.6305,41.6333],[-72.5054,41.647],[-72.4973,41.6624],[-72.4773,41.6688],[-72.4827,41.6813],[-72.4768,41.6861],[-72.4522,41.6888],[-72.4601,41.7273],[-72.4228,41.732],[-72.3987,41.6969],[-72.3565,41.7015],[-72.3289,41.7388],[-72.3546,41.7672],[-72.4103,41.7655],[-72.4189,41.8066],[-72.4735,41.7983],[-72.476,41.813],[-72.5075,41.8097],[-72.5054,41.8203],[-72.5835,41.8006],[-72.5712,41.7338],[-72.6483,41.7232]]]},"properties":{"geoid":"09004","state":"09","district":"4","name":"State Senate District 4","chamber":"Senate"}},{"type":"Feature","geometry":{"type":"Polygon","coordinates":[[[-73.0169,41.7982],[-72.9985,41.7125],[-72.8983,41.7232],[-72.8929,41.6967],[-72.8778,41.6981],[-72.8154,41.6878],[-72.8024,41.7069],[-72.8093,41.7112],[-72.8028,41.7275],[-72.7812,41.7461],[-72.7791,41.7302],[-72.7689,41.7396],[-72.7625,41.7377],[-72.7622,41.7183],[-72.7146,41.7236],[-72.7139,41.7774],[-72.7182,41.8066],[-72.7294,41.8064],[-72.7377,41.8169],[-72.7532,41.8168],[-72.7497,41.8265],[-72.755,41.831],[-72.7699,41.8282],[-72.7843,41.8378],[-72.7833,41.8269],[-72.7986,41.8249],[-72.7967,41.7588],[-72.8959,41.7649],[-72.903,41.7757],[-72.9205,41.7796],[-72.9282,41.8022],[-72.9207,41.806],[-72.9256,41.8092],[-73.0169,41.7982]]]},"properties":{"geoid":"09005","state":"09","district":"5","name":"State Senate District 5","chamber":"Senate"}},{"type":"Feature","geometry":{"type":"Polygon","coordinates":[[[-72.8402,41.5691],[-72.8276,41.571],[-72.8296,41.5624],[-72.8257,41.5643],[-72.8261,41.5559],[-72.8191,41.5543],[-72.8012,41.5731],[-72.7521,41.5789],[-72.7529,41.5925],[-72.7317,41.5958],[-72.7299,41.6015],[-72.7145,41.6043],[-72.7111,41.618],[-72.7158,41.6237],[-72.7123,41.6306],[-72.7153,41.6527],[-72.7499,41.647],[-72.7625,41.7377],[-72.7689,41.7396],[-72.7791,41.7302],[-72.7812,41.7461],[-72.8028,41.7275],[-72.8093,41.7112],[-72.8024,41.7069],[-72.8256,41.6685],[-72.8192,41.645],[-72.8142,41.6457],[-72.8252,41.6298],[-72.818,41.6276],[-72.8228,41.6176],[-72.8183,41.6069],[-72.8235,41.6043],[-72.8265,41.5869],[-72.8365,41.5805],[-72.8402,41.5691]]]},"properties":{"geoid":"09006","state":"09","district":"6","name":"State Senate District 6","chamber":"Senate"}},{"type":"Feature","geometry":{"type":"Polygon","coordinates":[[[-72.8866,41.9746],[-72.8655,41.971],[-72.8575,41.9609],[-72.8466,41.9591],[-72.83,41.9335],[-72.8213,41.9371],[-72.8264,41.9189],[-72.7682,41.9177],[-72.7589,41.9081],[-72.7605,41.9029],[-72.7335,41.8907],[-72.718,41.8963],[-72.7045,41.9159],[-72.6913,41.9154],[-72.6846,41.9001],[-72.6736,41.9025],[-72.6678,41.8978],[-72.6449,41.8965],[-72.6278,41.888],[-72.6217,41.9046],[-72.6234,41.9343],[-72.4823,41.9485],[-72.4752,41.9173],[-72.4531,41.9174],[-72.4561,41.9304],[-72.4476,41.9528],[-72.4071,41.9571],[-72.3974,42.0331],[-72.5315,42.0346],[-72.5728,42.0302],[-72.5822,42.0247],[-72.6072,42.0251],[-72.608,42.0311],[-72.7559,42.0363],[-72.7521,42.029],[-72.7573,42.021],[-72.7653,42.0224],[-72.759,42.0155],[-72.7667,42.0033],[-72.8171,41.9977],[-72.8138,42.0367],[-72.8636,42.0375],[-72.8866,41.9746]]]},"properties":{"geoid":"09007","state":"09","district":"7","name":"State Senate District 7","chamber":"Senate"}},{"type":"Feature","geometry":{"type":"Polygon","coordinates":[[[-73.2623,41.9187],[-73.165,41.9132],[-73.1515,41.9597],[-73.034,41.9663],[-73.0535,41.8873],[-73.1271,41.8761],[-73.1205,41.868],[-73.1002,41.863],[-73.0968,41.8515],[-73.1058,41.8318],[-73.1014,41.824],[-73.1067,41.8099],[-73.1016,41.8122],[-73.1013,41.8032],[-73.1098,41.8024],[-73.1121,41.8067],[-73.1212,41.8007],[-73.1213,41.8121],[-73.1551,41.8211],[-73.1575,41.8094],[-73.1435,41.8033],[-73.1884,41.8002],[-73.1944,41.7916],[-73.1632,41.794],[-73.1586,41.7848],[-73.1198,41.7756],[-73.1143,41.7622],[-73.0127,41.7771],[-73.0169,41.7982],[-72.9256,41.8092],[-72.9207,41.806],[-72.9282,41.8022],[-72.9205,41.7796],[-72.903,41.7757],[-72.8959,41.7649],[-72.7967,41.7588],[-72.7986,41.8249],[-72.7833,41.8269],[-72.7844,41.8557],[-72.7704,41.8808],[-72.7651,41.9026],[-72.7586,41.9072],[-72.7682,41.9177],[-72.8264,41.9189],[-72.8213,41.9371],[-72.83,41.9335],[-72.8466,41.9591],[-72.8575,41.9609],[-72.8655,41.971],[-72.8866,41.9745],[-72.8636,42.0375],[-73.233,42.045],[-73.2623,41.9187]]]},"properties":{"geoid":"09008","state":"09","district":"8","name":"State Senate District 8","chamber":"Senate"}},{"type":"Feature","geometry":{"type":"Polygon","coordinates":[[[-72.7622,41.7178],[-72.7499,41.647],[-72.7153,41.6527],[-72.7123,41.6306],[-72.7158,41.6237],[-72.7111,41.618],[-72.7159,41.6064],[-72.7127,41.6025],[-72.6943,41.6014],[-72.7094,41.5949],[-72.7141,41.5837],[-72.7023,41.5812],[-72.7025,41.5696],[-72.6995,41.5761],[-72.6916,41.5749],[-72.6874,41.5459],[-72.6635,41.5606],[-72.6607,41.5546],[-72.665,41.55],[-72.6532,41.5486],[-72.656,41.5418],[-72.6474,41.5418],[-72.6496,41.5329],[-72.6376,41.5331],[-72.6384,41.5446],[-72.6188,41.5393],[-72.6144,41.5354],[-72.632,41.5335],[-72.6265,41.5209],[-72.6335,41.5193],[-72.6337,41.5002],[-72.5549,41.511],[-72.5509,41.5381],[-72.5546,41.5509],[-72.6081,41.5628],[-72.6387,41.5604],[-72.6485,41.5678],[-72.6489,41.5759],[-72.6386,41.5934],[-72.6175,41.6077],[-72.6308,41.6277],[-72.6235,41.6503],[-72.628,41.666],[-72.6095,41.6746],[-72.6107,41.6842],[-72.6157,41.6881],[-72.6491,41.685],[-72.6653,41.6801],[-72.6672,41.6722],[-72.6729,41.6697],[-72.6754,41.6842],[-72.6654,41.6965],[-72.6974,41.6887],[-72.6965,41.6826],[-72.7019,41.6826],[-72.708,41.7104],[-72.7059,41.7243],[-72.7622,41.7178]]]},"properties":{"geoid":"09009","state":"09","district":"9","name":"State Senate District 9","chamber":"Senate"}},{"type":"Feature","geometry":{"type":"Polygon","coordinates":[[[-72.9979,41.3157],[-72.9891,41.3133],[-72.9843,41.3018],[-72.9871,41.2815],[-72.9799,41.2792],[-72.9865,41.273],[-72.9794,41.2683],[-72.9611,41.2794],[-72.9581,41.275],[-72.9537,41.2773],[-72.9609,41.2718],[-72.9569,41.2699],[-72.9364,41.2768],[-72.9378,41.282],[-72.9153,41.282],[-72.9052,41.2983],[-72.9355,41.3063],[-72.9326,41.3127],[-72.9256,41.3117],[-72.92,41.3341],[-72.954,41.3374],[-72.9572,41.3402],[-72.9514,41.3439],[-72.9547,41.3502],[-72.9645,41.3438],[-72.9729,41.3474],[-72.9702,41.3429],[-72.9833,41.3373],[-72.9968,41.3236],[-72.9979,41.3157]]]},"properties":{"geoid":"09010","state":"09","district":"10","name":"State Senate District 10","chamber":"Senate"}},{"type":"Feature","geometry":{"type":"Polygon","coordinates":[[[-72.9354,41.3064],[-72.9052,41.2983],[-72.9153,41.282],[-72.906,41.2827],[-72.9057,41.2704],[-72.8934,41.2584],[-72.9041,41.2476],[-72.8892,41.251],[-72.8877,41.2857],[-72.8603,41.3366],[-72.8888,41.3326],[-72.888,41.3397],[-72.8745,41.3517],[-72.8838,41.3535],[-72.8817,41.3609],[-72.908,41.3665],[-72.9038,41.3781],[-72.887,41.3933],[-72.8832,41.4233],[-72.8618,41.4259],[-72.8514,41.4344],[-72.9084,41.4563],[-72.9097,41.4386],[-72.9143,41.4394],[-72.9197,41.4313],[-72.9261,41.4358],[-72.9337,41.4204],[-72.9223,41.4156],[-72.9242,41.398],[-72.9227,41.3915],[-72.9153,41.3893],[-72.9146,41.3779],[-72.932,41.3452],[-72.9192,41.3449],[-72.9158,41.3405],[-72.9264,41.341],[-72.9193,41.3383],[-72.9234,41.3195],[-72.9256,41.3117],[-72.9326,41.3127],[-72.9354,41.3064]]]},"properties":{"geoid":"09011","state":"09","district":"11","name":"State Senate District 11","chamber":"Senate"}},{"type":"Feature","geometry":{"type":"MultiPolygon","coordinates":[[[[-72.904,41.2409],[-72.862,41.2392],[-72.8603,41.2442],[-72.8487,41.2483],[-72.8472,41.2549],[-72.8366,41.2471],[-72.8266,41.2558],[-72.8246,41.2467],[-72.8162,41.2397],[-72.793,41.2465],[-72.7842,41.2554],[-72.7675,41.2538],[-72.7594,41.2397],[-72.7352,41.2521],[-72.7063,41.2437],[-72.695,41.2447],[-72.6845,41.2551],[-72.6786,41.2445],[-72.6778,41.2503],[-72.6714,41.2477],[-72.6673,41.2513],[-72.6669,41.2597],[-72.6747,41.2664],[-72.6689,41.2655],[-72.6656,41.2706],[-72.6584,41.265],[-72.6164,41.2722],[-72.5789,41.2714],[-72.5446,41.2487],[-72.5384,41.2503],[-72.5364,41.2529],[-72.5413,41.2521],[-72.5359,41.2546],[-72.5472,41.2625],[-72.546,41.2803],[-72.5572,41.282],[-72.5862,41.3092],[-72.5317,41.3368],[-72.512,41.3416],[-72.5388,41.4215],[-72.57,41.4148],[-72.609,41.4431],[-72.637,41.4638],[-72.6279,41.4854],[-72.6337,41.5002],[-72.6776,41.4948],[-72.6824,41.5309],[-72.6946,41.5495],[-72.7123,41.5486],[-72.7122,41.5151],[-72.7228,41.4875],[-72.6906,41.4898],[-72.6926,41.459],[-72.689,41.4595],[-72.7114,41.4417],[-72.7079,41.4399],[-72.7142,41.4356],[-72.7083,41.4294],[-72.7501,41.4221],[-72.7794,41.4122],[-72.7784,41.4075],[-72.7894,41.4032],[-72.7946,41.383],[-72.813,41.3541],[-72.8238,41.3183],[-72.8365,41.3135],[-72.8413,41.298],[-72.8603,41.2851],[-72.8643,41.2692],[-72.8533,41.2641],[-72.8523,41.2591],[-72.8725,41.2665],[-72.8892,41.251],[-72.8996,41.2485],[-72.904,41.2409]]],[[[-72.6027,41.2666],[-72.6009,41.2659],[-72.6017,41.2667],[-72.6027,41.2666]]]]},"properties":{"geoid":"09012","state":"09","district":"12","name":"State Senate District 12","chamber":"Senate"}},{"type":"Feature","geometry":{"type":"Polygon","coordinates":[[[-72.9524,41.4646],[-72.9169,41.4597],[-72.8867,41.448],[-72.8463,41.5028],[-72.8503,41.5157],[-72.7726,41.4968],[-72.7448,41.4982],[-72.7433,41.4831],[-72.7228,41.4875],[-72.7122,41.5151],[-72.7123,41.5486],[-72.6946,41.5495],[-72.6824,41.5309],[-72.6776,41.4948],[-72.6337,41.5002],[-72.6335,41.5193],[-72.6265,41.5209],[-72.632,41.5335],[-72.6144,41.5354],[-72.6314,41.5453],[-72.6392,41.5437],[-72.6376,41.5331],[-72.6496,41.5329],[-72.6474,41.5418],[-72.656,41.5418],[-72.6532,41.5486],[-72.665,41.55],[-72.6607,41.5546],[-72.6635,41.5606],[-72.6874,41.5459],[-72.6916,41.5749],[-72.6995,41.5761],[-72.7025,41.5696],[-72.7023,41.5812],[-72.7141,41.5837],[-72.7094,41.5949],[-72.6943,41.6014],[-72.727,41.6024],[-72.7317,41.5958],[-72.7529,41.5925],[-72.7521,41.5789],[-72.8012,41.5731],[-72.8191,41.5543],[-72.8261,41.5559],[-72.8257,41.5643],[-72.8296,41.5624],[-72.8276,41.571],[-72.8485,41.5673],[-72.8443,41.5447],[-72.8707,41.5495],[-72.8763,41.542],[-72.8679,41.5362],[-72.8734,41.5304],[-72.8633,41.5292],[-72.8743,41.5121],[-72.8886,41.5207],[-72.8896,41.517],[-72.9105,41.5189],[-72.91,41.5295],[-72.9205,41.5127],[-72.9357,41.5222],[-72.9386,41.5115],[-72.9346,41.5012],[-72.9412,41.4952],[-72.9524,41.4646]]]},"properties":{"geoid":"09013","state":"09","district":"13","name":"State Senate District 13","chamber":"Senate"}},{"type":"Feature","geometry":{"type":"Polygon","coordinates":[[[-73.1225,41.1829],[-73.1199,41.1757],[-73.1078,41.1686],[-73.0768,41.1956],[-73.0579,41.1854],[-73.0375,41.1951],[-73.0555,41.2089],[-73.0456,41.2096],[-73.0379,41.2018],[-73.0296,41.2075],[-73.0139,41.2051],[-73.0063,41.216],[-72.996,41.2133],[-72.9843,41.2189],[-72.979,41.2304],[-72.9867,41.2354],[-72.9755,41.2335],[-72.962,41.2514],[-72.933,41.2602],[-72.9206,41.2715],[-72.9309,41.2664],[-72.9364,41.2768],[-72.9579,41.2701],[-72.9609,41.2718],[-72.9537,41.2773],[-72.9581,41.275],[-72.9611,41.2794],[-72.9798,41.2685],[-72.9865,41.273],[-72.9799,41.2792],[-72.9871,41.2815],[-72.9843,41.3018],[-72.9891,41.3133],[-72.998,41.3141],[-72.9968,41.3236],[-72.9873,41.3312],[-73.0079,41.3392],[-73.0075,41.3314],[-73.016,41.3289],[-73.04,41.3324],[-73.0407,41.3139],[-73.0617,41.3101],[-73.0688,41.2892],[-73.0869,41.2766],[-73.0873,41.2518],[-73.11,41.2294],[-73.1097,41.202],[-73.1225,41.1829]]]},"properties":{"geoid":"09014","state":"09","district":"14","name":"State Senate District 14","chamber":"Senate"}},{"type":"Feature","geometry":{"type":"Polygon","coordinates":[[[-73.145,41.5578],[-73.1345,41.5246],[-73.1237,41.5337],[-73.1217,41.5437],[-73.103,41.5429],[-73.104,41.5563],[-73.0913,41.5557],[-73.0802,41.526],[-73.0701,41.5143],[-73.0593,41.5145],[-73.0557,41.5072],[-73.084,41.4939],[-73.0565,41.4843],[-73.0512,41.4857],[-73.0511,41.4949],[-73.0441,41.4998],[-73.03,41.4916],[-73.011,41.4975],[-73.0182,41.5198],[-72.9996,41.5259],[-73.0064,41.5297],[-73.007,41.5381],[-73.0121,41.5387],[-73.0079,41.5434],[-73.024,41.5545],[-73.0181,41.5553],[-73.0178,41.5626],[-73.0086,41.5653],[-73.0029,41.5599],[-72.998,41.5709],[-73.0121,41.5838],[-73.0186,41.6141],[-73.0362,41.6152],[-73.0595,41.6062],[-73.058,41.5886],[-73.083,41.5856],[-73.0924,41.5705],[-73.145,41.5578]]]},"properties":{"geoid":"09015","state":"09","district":"15","name":"State Senate District 15","chamber":"Senate"}},{"type":"Feature","geometry":{"type":"Polygon","coordinates":[[[-73.024,41.5546],[-73.0079,41.5434],[-73.0121,41.5387],[-73.007,41.5381],[-73.0064,41.5297],[-72.9996,41.5259],[-73.0182,41.5198],[-73.0013,41.4711],[-72.9524,41.4646],[-72.9412,41.4952],[-72.9346,41.5012],[-72.9386,41.5115],[-72.9357,41.5222],[-72.9205,41.5127],[-72.91,41.5295],[-72.9105,41.5189],[-72.8896,41.517],[-72.8886,41.5207],[-72.8743,41.5121],[-72.8633,41.5292],[-72.8736,41.5309],[-72.8678,41.5353],[-72.8763,41.5415],[-72.8726,41.5475],[-72.8443,41.5447],[-72.8485,41.5673],[-72.8402,41.5691],[-72.8365,41.5805],[-72.8265,41.5869],[-72.8235,41.6043],[-72.8183,41.6069],[-72.8228,41.6176],[-72.818,41.6276],[-72.8252,41.6298],[-72.8142,41.6457],[-72.8192,41.645],[-72.8226,41.6557],[-72.9239,41.6455],[-72.922,41.6411],[-72.9278,41.6407],[-72.9286,41.6455],[-72.9831,41.6395],[-73.004,41.6286],[-73.0215,41.6271],[-73.0121,41.5838],[-72.998,41.5709],[-73.0029,41.5599],[-73.0086,41.5653],[-73.0178,41.5626],[-73.0181,41.5553],[-73.024,41.5546]]]},"properties":{"geoid":"09016","state":"09","district":"16","name":"State Senate District 16","chamber":"Senate"}},{"type":"Feature","geometry":{"type":"Polygon","coordinates":[[[-73.1246,41.3453],[-73.1158,41.3322],[-73.0679,41.301],[-73.059,41.3116],[-73.0407,41.3139],[-73.04,41.3324],[-73.016,41.3289],[-73.0075,41.3314],[-73.0079,41.3392],[-72.9873,41.3312],[-72.9702,41.3429],[-72.9726,41.3475],[-72.9645,41.3438],[-72.9547,41.3502],[-72.9514,41.3439],[-72.9572,41.3402],[-72.954,41.3374],[-72.92,41.3341],[-72.9193,41.3383],[-72.9265,41.3407],[-72.9158,41.3405],[-72.9192,41.3449],[-72.932,41.3452],[-72.9158,41.3745],[-72.9153,41.3893],[-72.9227,41.3915],[-72.9223,41.4156],[-72.9337,41.4204],[-72.926,41.4359],[-72.9197,41.4313],[-72.9143,41.4394],[-72.9097,41.4386],[-72.9084,41.4563],[-73.0013,41.4711],[-73.0119,41.4977],[-73.03,41.4916],[-73.0441,41.4998],[-73.0511,41.4949],[-73.0512,41.4857],[-73.0565,41.4843],[-73.084,41.4939],[-73.0557,41.5072],[-73.0593,41.5145],[-73.0947,41.5138],[-73.0953,41.5016],[-73.1035,41.4945],[-73.1043,41.4836],[-73.0774,41.4652],[-73.0927,41.4135],[-73.0836,41.4038],[-73.0685,41.4107],[-73.0631,41.4236],[-73.0417,41.4209],[-73.0489,41.3841],[-73.0472,41.3605],[-73.0863,41.3629],[-73.1246,41.3453]]]},"properties":{"geoid":"09017","state":"09","district":"17","name":"State Senate District 17","chamber":"Senate"}},{"type":"Feature","geometry":{"type":"Polygon","coordinates":[[[-72.0971,41.3966],[-72.0877,41.3625],[-72.0796,41.2989],[-72.0551,41.2766],[-72.0192,41.2906],[-71.9295,41.3104],[-71.9073,41.3045],[-71.8921,41.3301],[-71.8665,41.3192],[-71.8575,41.3208],[-71.8294,41.3424],[-71.8379,41.3601],[-71.8306,41.3788],[-71.8331,41.3878],[-71.8422,41.3954],[-71.8424,41.4103],[-71.8181,41.4199],[-71.7977,41.4167],[-71.7872,41.6561],[-71.7913,41.7745],[-71.9172,41.7597],[-71.9129,41.7511],[-71.919,41.7361],[-71.9315,41.7346],[-71.9457,41.7225],[-71.9563,41.7262],[-71.9663,41.7141],[-71.9624,41.6958],[-71.9547,41.6898],[-71.9557,41.6798],[-71.9484,41.6748],[-71.955,41.6348],[-71.9753,41.6381],[-71.9784,41.6328],[-71.9844,41.6101],[-71.9915,41.6055],[-71.9846,41.5979],[-71.9891,41.566],[-72.0107,41.5694],[-72.0192,41.554],[-72.0461,41.556],[-72.0503,41.5418],[-72.0403,41.5311],[-72.0586,41.5121],[-72.0677,41.5175],[-72.0725,41.4919],[-72.081,41.4921],[-72.07,41.4636],[-72.0501,41.4849],[-71.9566,41.4874],[-71.9428,41.4299],[-71.9628,41.4114],[-71.9613,41.3979],[-72.0958,41.4004],[-72.0971,41.3966]]]},"properties":{"geoid":"09018","state":"09","district":"18","name":"State Senate District 18","chamber":"Senate"}},{"type":"Feature","geometry":{"type":"Polygon","coordinates":[[[-72.5054,41.647],[-72.4667,41.5839],[-72.4172,41.5906],[-72.4104,41.6026],[-72.3841,41.5887],[-72.3752,41.6014],[-72.3562,41.5976],[-72.3281,41.6055],[-72.3245,41.6186],[-72.3131,41.6095],[-72.3095,41.6115],[-72.2191,41.5388],[-72.194,41.5904],[-72.1387,41.5764],[-72.1321,41.5648],[-72.1327,41.5485],[-72.1407,41.5365],[-72.1329,41.5089],[-72.1354,41.504],[-72.1154,41.5009],[-72.1173,41.4414],[-72.111,41.4374],[-72.091,41.4374],[-72.0965,41.4302],[-72.093,41.4158],[-72.0958,41.4004],[-71.9613,41.3979],[-71.9628,41.4114],[-71.9429,41.4296],[-71.9566,41.4874],[-72.0501,41.4849],[-72.07,41.4636],[-72.081,41.4921],[-72.0725,41.4919],[-72.0677,41.5175],[-72.0586,41.5121],[-72.0403,41.5311],[-72.0503,41.5418],[-72.0461,41.556],[-72.0192,41.554],[-72.0107,41.5694],[-71.9892,41.5656],[-71.9846,41.5979],[-71.9915,41.6055],[-71.9844,41.6101],[-71.9753,41.6381],[-72.1467,41.6672],[-72.1517,41.6675],[-72.1575,41.6576],[-72.2442,41.7169],[-72.2466,41.7229],[-72.2654,41.7176],[-72.2781,41.724],[-72.3003,41.7252],[-72.3271,41.7345],[-72.3289,41.7388],[-72.3565,41.7015],[-72.3987,41.6969],[-72.4228,41.732],[-72.4601,41.7273],[-72.4522,41.6888],[-72.4768,41.6861],[-72.4827,41.6813],[-72.4773,41.6688],[-72.4973,41.6624],[-72.5054,41.647]]]},"properties":{"geoid":"09019","state":"09","district":"19","name":"State Senate District 19","chamber":"Senate"}},{"type":"Feature","geometry":{"type":"Polygon","coordinates":[[[-72.4086,41.3297],[-72.3843,41.3106],[-72.3783,41.3228],[-72.3646,41.3197],[-72.3646,41.3126],[-72.362,41.3141],[-72.3668,41.3096],[-72.3595,41.3089],[-72.3771,41.2974],[-72.3872,41.2966],[-72.3767,41.2949],[-72.3811,41.2926],[-72.3795,41.2889],[-72.3685,41.2811],[-72.3741,41.2692],[-72.3822,41.2669],[-72.3792,41.2652],[-72.3896,41.2646],[-72.385,41.2539],[-72.3393,41.262],[-72.3329,41.2656],[-72.3335,41.2722],[-72.0551,41.2766],[-72.0796,41.2989],[-72.0877,41.3625],[-72.0972,41.3962],[-72.093,41.4158],[-72.0965,41.4302],[-72.091,41.4374],[-72.111,41.4374],[-72.1173,41.4414],[-72.1154,41.5009],[-72.1354,41.504],[-72.1329,41.5089],[-72.1407,41.5363],[-72.1327,41.5485],[-72.1358,41.5735],[-72.194,41.5904],[-72.2191,41.5388],[-72.3229,41.5181],[-72.3049,41.4327],[-72.2766,41.4404],[-72.2822,41.4059],[-72.2767,41.3663],[-72.3339,41.3557],[-72.338,41.3509],[-72.354,41.35],[-72.3543,41.3462],[-72.3839,41.332],[-72.4086,41.3297]]]},"properties":{"geoid":"09020","state":"09","district":"20","name":"State Senate District 20","chamber":"Senate"}},{"type":"Feature","geometry":{"type":"Polygon","coordinates":[[[-73.306,41.3324],[-73.2734,41.3188],[-73.2555,41.3237],[-73.2514,41.3302],[-73.2369,41.3203],[-73.2205,41.3232],[-73.2087,41.3325],[-73.1946,41.3305],[-73.1882,41.3219],[-73.2048,41.2994],[-73.1739,41.2686],[-73.1553,41.2691],[-73.1455,41.2544],[-73.1407,41.238],[-73.1575,41.2286],[-73.1628,41.2202],[-73.1547,41.1934],[-73.1477,41.1927],[-73.1503,41.186],[-73.134,41.1904],[-73.1373,41.1794],[-73.1303,41.1794],[-73.1272,41.1714],[-73.143,41.1666],[-73.1588,41.1743],[-73.1658,41.1543],[-73.1305,41.1463],[-73.0954,41.1466],[-73.1075,41.1684],[-73.1199,41.1757],[-73.1225,41.1829],[-73.1097,41.202],[-73.11,41.2294],[-73.0873,41.2518],[-73.0869,41.2766],[-73.0688,41.2892],[-73.0651,41.2976],[-73.079,41.3116],[-73.1158,41.3322],[-73.1247,41.3453],[-73.0863,41.3629],[-73.0472,41.3605],[-73.0464,41.4017],[-73.0552,41.404],[-73.0634,41.3921],[-73.0691,41.3922],[-73.0588,41.3785],[-73.0685,41.371],[-73.0701,41.3768],[-73.0761,41.3731],[-73.0798,41.3773],[-73.0734,41.3926],[-73.0818,41.3755],[-73.09,41.3819],[-73.0954,41.3804],[-73.0981,41.3692],[-73.1071,41.3741],[-73.12,41.3693],[-73.1268,41.3787],[-73.1401,41.3641],[-73.1579,41.3772],[-73.1587,41.3834],[-73.1734,41.3836],[-73.1833,41.3917],[-73.1944,41.3888],[-73.2036,41.3792],[-73.2048,41.3705],[-73.2212,41.364],[-73.2281,41.3652],[-73.2291,41.3703],[-73.306,41.3324]]]},"properties":{"geoid":"09021","state":"09","district":"21","name":"State Senate District 21","chamber":"Senate"}},{"type":"Feature","geometry":{"type":"Polygon","coordinates":[[[-73.2781,41.2986],[-73.2745,41.2839],[-73.2361,41.2384],[-73.2486,41.232],[-73.2191,41.1978],[-73.2178,41.1828],[-73.2278,41.1692],[-73.2223,41.1689],[-73.2372,41.1551],[-73.2348,41.1438],[-73.2211,41.1399],[-73.2192,41.1509],[-73.2075,41.1608],[-73.2082,41.1664],[-73.2174,41.1666],[-73.209,41.1738],[-73.2148,41.179],[-73.2067,41.1831],[-73.211,41.1883],[-73.204,41.1917],[-73.2075,41.1966],[-73.2016,41.1986],[-73.2075,41.2109],[-73.1916,41.2118],[-73.1927,41.2198],[-73.1695,41.2228],[-73.1407,41.238],[-73.1455,41.2544],[-73.1553,41.2691],[-73.1739,41.2686],[-73.2048,41.2994],[-73.1882,41.3219],[-73.1946,41.3305],[-73.2087,41.3325],[-73.2205,41.3232],[-73.2369,41.3203],[-73.2514,41.3302],[-73.2555,41.3237],[-73.2734,41.3188],[-73.2706,41.3072],[-73.2781,41.2986]]]},"properties":{"geoid":"09022","state":"09","district":"22","name":"State Senate District 22","chamber":"Senate"}},{"type":"Feature","geometry":{"type":"Polygon","coordinates":[[[-73.2216,41.1425],[-73.1658,41.1543],[-73.1588,41.1743],[-73.143,41.1666],[-73.1272,41.1714],[-73.1303,41.1794],[-73.1373,41.1794],[-73.134,41.1904],[-73.1503,41.186],[-73.1477,41.1927],[-73.1547,41.1934],[-73.1628,41.2202],[-73.1576,41.2284],[-73.1927,41.2198],[-73.1916,41.2118],[-73.2075,41.2109],[-73.2016,41.1986],[-73.2075,41.1966],[-73.204,41.1917],[-73.211,41.1883],[-73.2067,41.1831],[-73.2148,41.179],[-73.209,41.1738],[-73.2174,41.1666],[-73.2082,41.1664],[-73.2075,41.1608],[-73.2192,41.1509],[-73.2216,41.1425]]]},"properties":{"geoid":"09023","state":"09","district":"23","name":"State Senate District 23","chamber":"Senate"}},{"type":"Feature","geometry":{"type":"Polygon","coordinates":[[[-73.5499,41.3015],[-73.5488,41.293],[-73.5453,41.2937],[-73.5445,41.3041],[-73.5248,41.2905],[-73.5172,41.2958],[-73.5174,41.2915],[-73.5064,41.2937],[-73.5081,41.3037],[-73.504,41.3062],[-73.4989,41.2966],[-73.4928,41.2952],[-73.4928,41.3093],[-73.4873,41.3087],[-73.4785,41.3175],[-73.4732,41.332],[-73.4701,41.3264],[-73.4242,41.3349],[-73.4338,41.3759],[-73.4008,41.4034],[-73.406,41.4282],[-73.4158,41.4303],[-73.4269,41.4638],[-73.4561,41.458],[-73.4585,41.4659],[-73.4922,41.4631],[-73.4992,41.4842],[-73.508,41.4814],[-73.5103,41.4867],[-73.526,41.4849],[-73.5332,41.4905],[-73.5499,41.3015]]]},"properties":{"geoid":"09024","state":"09","district":"24","name":"State Senate District 24","chamber":"Senate"}},{"type":"Feature","geometry":{"type":"Polygon","coordinates":[[[-73.511,41.0742],[-73.5081,41.0621],[-73.5024,41.0593],[-73.4992,41.0692],[-73.4818,41.0744],[-73.4815,41.0713],[-73.4475,41.0729],[-73.444,41.0684],[-73.4565,41.0204],[-73.3903,41.021],[-73.3838,41.0288],[-73.3843,41.1073],[-73.3801,41.1219],[-73.3827,41.1423],[-73.3888,41.1489],[-73.3871,41.1705],[-73.3948,41.1718],[-73.4489,41.1538],[-73.4769,41.1123],[-73.4731,41.1068],[-73.4936,41.1055],[-73.511,41.0742]]]},"properties":{"geoid":"09025","state":"09","district":"25","name":"State Senate District 25","chamber":"Senate"}},{"type":"Feature","geometry":{"type":"Polygon","coordinates":[[[-73.5487,41.2933],[-73.4827,41.2128],[-73.4844,41.209],[-73.4701,41.1896],[-73.4735,41.1819],[-73.4653,41.1759],[-73.4668,41.1655],[-73.4626,41.1611],[-73.4766,41.1554],[-73.48,41.1457],[-73.4741,41.1363],[-73.4802,41.1364],[-73.477,41.1311],[-73.4856,41.1139],[-73.5008,41.1144],[-73.511,41.1084],[-73.5098,41.103],[-73.5313,41.0985],[-73.5339,41.0688],[-73.51,41.0724],[-73.4936,41.1055],[-73.4731,41.1068],[-73.4769,41.1123],[-73.4489,41.1538],[-73.3948,41.1718],[-73.3868,41.1698],[-73.3888,41.1489],[-73.3827,41.1423],[-73.3801,41.1219],[-73.3843,41.1073],[-73.3838,41.0288],[-73.3685,41.0473],[-73.3614,41.0754],[-73.2956,41.0796],[-73.2981,41.1437],[-73.3385,41.1945],[-73.3236,41.2222],[-73.3688,41.275],[-73.3048,41.2978],[-73.3253,41.3225],[-73.3333,41.3183],[-73.3471,41.3504],[-73.4701,41.3264],[-73.4728,41.3321],[-73.4785,41.3175],[-73.4873,41.3087],[-73.4928,41.3093],[-73.4928,41.2952],[-73.5052,41.3063],[-73.5064,41.2937],[-73.5174,41.2915],[-73.5172,41.2958],[-73.5248,41.2905],[-73.5445,41.3041],[-73.5453,41.2937],[-73.5487,41.2933]]]},"properties":{"geoid":"09026","state":"09","district":"26","name":"State Senate District 26","chamber":"Senate"}},{"type":"Feature","geometry":{"type":"Polygon","coordinates":[[[-73.5824,41.1014],[-73.566,41.1031],[-73.5407,41.064],[-73.5487,41.0661],[-73.5584,41.0644],[-73.5599,41.0589],[-73.5682,41.0595],[-73.5632,41.0402],[-73.5509,41.0222],[-73.5537,40.9635],[-73.4565,40.9838],[-73.4554,41.0337],[-73.444,41.0684],[-73.4475,41.0729],[-73.4815,41.0713],[-73.4818,41.0744],[-73.4992,41.0692],[-73.5024,41.0593],[-73.5081,41.0621],[-73.5118,41.0728],[-73.5339,41.0688],[-73.5333,41.1146],[-73.5464,41.112],[-73.5694,41.1266],[-73.5734,41.1246],[-73.5722,41.1178],[-73.5798,41.1141],[-73.5824,41.1014]]]},"properties":{"geoid":"09027","state":"09","district":"27","name":"State Senate District 27","chamber":"Senate"}},{"type":"Feature","geometry":{"type":"Polygon","coordinates":[[[-73.4287,41.3499],[-73.4243,41.3353],[-73.3471,41.3504],[-73.3333,41.3183],[-73.3253,41.3225],[-73.3048,41.2978],[-73.3688,41.275],[-73.3236,41.2222],[-73.3385,41.1945],[-73.2983,41.1439],[-73.2977,41.1238],[-73.2643,41.1145],[-73.2417,41.1274],[-73.2326,41.1425],[-73.2372,41.1551],[-73.2236,41.1669],[-73.2236,41.1711],[-73.2277,41.1702],[-73.2178,41.1828],[-73.2191,41.1978],[-73.2486,41.232],[-73.2361,41.2384],[-73.2745,41.2839],[-73.2782,41.2984],[-73.2706,41.3072],[-73.2726,41.3182],[-73.306,41.3324],[-73.2291,41.3703],[-73.2281,41.3652],[-73.2212,41.364],[-73.2024,41.372],[-73.2036,41.3792],[-73.1956,41.3879],[-73.1833,41.3917],[-73.1882,41.3982],[-73.1866,41.4086],[-73.1982,41.4119],[-73.2182,41.4291],[-73.2384,41.4263],[-73.2453,41.4399],[-73.2637,41.4345],[-73.2737,41.4516],[-73.2978,41.4483],[-73.3006,41.4708],[-73.3129,41.4674],[-73.3317,41.4727],[-73.3786,41.42],[-73.3757,41.4136],[-73.3863,41.4155],[-73.3838,41.4074],[-73.3908,41.4028],[-73.3872,41.3917],[-73.396,41.3885],[-73.4079,41.3703],[-73.4149,41.3699],[-73.4184,41.3574],[-73.4268,41.358],[-73.4287,41.3499]]]},"properties":{"geoid":"09028","state":"09","district":"28","name":"State Senate District 28","chamber":"Senate"}},{"type":"Feature","geometry":{"type":"Polygon","coordinates":[[[-72.3168,41.8164],[-72.3159,41.8054],[-72.3095,41.8021],[-72.3128,41.7983],[-72.2916,41.7953],[-72.272,41.7712],[-72.2657,41.751],[-72.2696,41.746],[-72.2598,41.7297],[-72.2537,41.7294],[-72.2442,41.7169],[-72.1575,41.6576],[-72.1517,41.6675],[-72.1467,41.6672],[-71.955,41.6348],[-71.9484,41.6748],[-71.9557,41.6798],[-71.9547,41.6898],[-71.9624,41.6958],[-71.9663,41.7144],[-71.9563,41.7262],[-71.9457,41.7225],[-71.9315,41.7346],[-71.919,41.7361],[-71.9129,41.7511],[-71.9172,41.7597],[-71.7913,41.7745],[-71.8007,42.0235],[-71.9011,42.0246],[-71.9118,42.0186],[-71.9147,42.0069],[-71.9116,42.0055],[-71.9312,41.9964],[-71.947,41.9794],[-71.9274,41.917],[-72.044,41.9146],[-72.0447,41.8315],[-72.0214,41.8282],[-72.0145,41.805],[-72.0229,41.7596],[-72.0458,41.7305],[-72.1567,41.7537],[-72.1645,41.8349],[-72.3101,41.8361],[-72.3168,41.8164]]]},"properties":{"geoid":"09029","state":"09","district":"29","name":"State Senate District 29","chamber":"Senate"}},{"type":"Feature","geometry":{"type":"Polygon","coordinates":[[[-73.5332,41.4905],[-73.526,41.4849],[-73.5103,41.4867],[-73.508,41.4814],[-73.4992,41.4842],[-73.4922,41.4631],[-73.4585,41.4659],[-73.4561,41.458],[-73.4269,41.4638],[-73.4158,41.4303],[-73.4097,41.429],[-73.3935,41.4425],[-73.3916,41.4388],[-73.3762,41.4421],[-73.3767,41.4492],[-73.3694,41.4503],[-73.3682,41.4647],[-73.353,41.4727],[-73.3507,41.4798],[-73.3753,41.4892],[-73.379,41.5019],[-73.3886,41.5065],[-73.3851,41.5125],[-73.3998,41.5201],[-73.4047,41.537],[-73.3995,41.544],[-73.389,41.5469],[-73.3912,41.556],[-73.3791,41.5621],[-73.3431,41.5659],[-73.3591,41.6465],[-73.3704,41.6553],[-73.3669,41.6612],[-73.3456,41.6646],[-73.3302,41.6618],[-73.3231,41.6693],[-73.3324,41.6818],[-73.2936,41.7052],[-73.2606,41.6838],[-73.2592,41.647],[-73.1658,41.6487],[-73.1708,41.6692],[-73.142,41.6723],[-73.0684,41.7071],[-73.0887,41.7181],[-73.1156,41.7419],[-73.1121,41.7507],[-73.1172,41.7567],[-73.1198,41.7756],[-73.1586,41.7848],[-73.1632,41.794],[-73.1944,41.7914],[-73.1884,41.8002],[-73.1435,41.8033],[-73.1575,41.8094],[-73.1551,41.8211],[-73.1213,41.8121],[-73.1212,41.8007],[-73.1121,41.8067],[-73.1098,41.8024],[-73.1013,41.8032],[-73.1016,41.8122],[-73.1067,41.8099],[-73.1014,41.824],[-73.1058,41.8318],[-73.0968,41.8515],[-73.1002,41.863],[-73.1205,41.868],[-73.1271,41.8761],[-73.0535,41.8873],[-73.034,41.9663],[-73.1515,41.9597],[-73.165,41.9132],[-73.263,41.9162],[-73.233,42.045],[-73.4873,42.0495],[-73.5332,41.4905]]]},"properties":{"geoid":"09030","state":"09","district":"30","name":"State Senate District 30","chamber":"Senate"}},{"type":"Feature","geometry":{"type":"Polygon","coordinates":[[[-73.1415,41.6727],[-73.1317,41.6617],[-73.1138,41.6611],[-73.114,41.6568],[-73.1038,41.6579],[-73.0811,41.6477],[-73.0777,41.6313],[-73.0591,41.6198],[-73.0588,41.6067],[-73.0362,41.6152],[-73.0186,41.6141],[-73.0215,41.6271],[-73.004,41.6286],[-72.9831,41.6395],[-72.9286,41.6455],[-72.9278,41.6407],[-72.922,41.6411],[-72.9239,41.6455],[-72.8226,41.6557],[-72.8256,41.6685],[-72.8154,41.6878],[-72.8778,41.6981],[-72.8929,41.6967],[-72.8983,41.7232],[-72.9985,41.7125],[-73.0138,41.7772],[-73.1171,41.7635],[-73.1121,41.7507],[-73.1156,41.7419],[-73.0887,41.7181],[-73.0684,41.7071],[-73.1415,41.6727]]]},"properties":{"geoid":"09031","state":"09","district":"31","name":"State Senate District 31","chamber":"Senate"}},{"type":"Feature","geometry":{"type":"Polygon","coordinates":[[[-73.435,41.3724],[-73.4288,41.3497],[-73.4268,41.358],[-73.4184,41.3574],[-73.4149,41.3699],[-73.4079,41.3703],[-73.396,41.3885],[-73.3872,41.3917],[-73.3908,41.4028],[-73.3838,41.4074],[-73.3863,41.4155],[-73.3757,41.4136],[-73.3786,41.42],[-73.3317,41.4727],[-73.3129,41.4674],[-73.3006,41.4708],[-73.2983,41.4487],[-73.2737,41.4516],[-73.2623,41.434],[-73.2453,41.4399],[-73.2384,41.4263],[-73.2182,41.4291],[-73.1982,41.4119],[-73.1866,41.4086],[-73.188,41.3973],[-73.1812,41.3896],[-73.1734,41.3836],[-73.1587,41.3834],[-73.1579,41.3772],[-73.1401,41.3641],[-73.1268,41.3787],[-73.12,41.3693],[-73.1071,41.3741],[-73.0981,41.3692],[-73.0954,41.3804],[-73.09,41.3819],[-73.0818,41.3755],[-73.0734,41.3926],[-73.0798,41.3773],[-73.0761,41.3731],[-73.0701,41.3768],[-73.0685,41.371],[-73.0588,41.3785],[-73.0691,41.3922],[-73.0634,41.3921],[-73.0552,41.404],[-73.0464,41.4017],[-73.0417,41.4209],[-73.0631,41.4236],[-73.0685,41.4107],[-73.0836,41.4038],[-73.0887,41.409],[-73.0927,41.4135],[-73.0774,41.4652],[-73.1034,41.4817],[-73.1046,41.4914],[-73.0953,41.5016],[-73.0947,41.5138],[-73.0701,41.5143],[-73.0866,41.5367],[-73.0913,41.5557],[-73.104,41.5563],[-73.103,41.5429],[-73.1217,41.5437],[-73.1237,41.5337],[-73.1345,41.5246],[-73.145,41.5578],[-73.0924,41.5705],[-73.0804,41.5867],[-73.058,41.5886],[-73.0591,41.6198],[-73.0777,41.6313],[-73.0811,41.6477],[-73.1038,41.6579],[-73.114,41.6568],[-73.1138,41.6611],[-73.1317,41.6617],[-73.1415,41.6727],[-73.1708,41.6692],[-73.1658,41.6487],[-73.2592,41.647],[-73.2606,41.6838],[-73.293,41.7051],[-73.3324,41.6818],[-73.3231,41.6693],[-73.3302,41.6618],[-73.3456,41.6646],[-73.3668,41.6613],[-73.3704,41.6553],[-73.3591,41.6465],[-73.3431,41.5659],[-73.372,41.5651],[-73.3912,41.556],[-73.389,41.5469],[-73.4035,41.5406],[-73.4045,41.5312],[-73.3998,41.5201],[-73.3851,41.5125],[-73.3886,41.5065],[-73.379,41.5019],[-73.3753,41.4892],[-73.3502,41.4776],[-73.3682,41.4647],[-73.3696,41.45],[-73.3767,41.4492],[-73.374,41.4435],[-73.3916,41.4388],[-73.3938,41.4423],[-73.4093,41.4294],[-73.4008,41.4033],[-73.435,41.3724]]]},"properties":{"geoid":"09032","state":"09","district":"32","name":"State Senate District 32","chamber":"Senate"}},{"type":"Feature","geometry":{"type":"Polygon","coordinates":[[[-72.6489,41.5757],[-72.6477,41.5665],[-72.6387,41.5604],[-72.6089,41.5628],[-72.5735,41.5571],[-72.5546,41.5509],[-72.5516,41.5455],[-72.5549,41.511],[-72.6337,41.5002],[-72.6279,41.4854],[-72.637,41.4638],[-72.57,41.4148],[-72.5388,41.4215],[-72.512,41.3416],[-72.5317,41.3368],[-72.5862,41.3092],[-72.5572,41.282],[-72.546,41.2803],[-72.5458,41.2603],[-72.5279,41.2501],[-72.5263,41.2556],[-72.5165,41.2482],[-72.5017,41.2478],[-72.4834,41.2623],[-72.487,41.2501],[-72.4568,41.2501],[-72.4216,41.258],[-72.385,41.2539],[-72.3896,41.2646],[-72.3792,41.2652],[-72.3822,41.2669],[-72.3741,41.2692],[-72.3685,41.2811],[-72.3795,41.2889],[-72.3811,41.2926],[-72.3767,41.2949],[-72.3872,41.2966],[-72.3771,41.2974],[-72.3595,41.3089],[-72.3668,41.3096],[-72.362,41.3141],[-72.3646,41.3126],[-72.3646,41.3197],[-72.3783,41.3228],[-72.3843,41.3106],[-72.4086,41.3297],[-72.3839,41.332],[-72.3543,41.3462],[-72.354,41.35],[-72.338,41.3509],[-72.3339,41.3557],[-72.2767,41.3663],[-72.2822,41.4059],[-72.2766,41.4404],[-72.3049,41.4327],[-72.3229,41.5181],[-72.2191,41.5388],[-72.3095,41.6115],[-72.3131,41.6095],[-72.3245,41.6186],[-72.3281,41.6055],[-72.3562,41.5976],[-72.3752,41.6014],[-72.3841,41.5887],[-72.4104,41.6026],[-72.4172,41.5906],[-72.4667,41.5839],[-72.5054,41.647],[-72.6305,41.6333],[-72.6175,41.6077],[-72.6381,41.594],[-72.6489,41.5757]]]},"properties":{"geoid":"09033","state":"09","district":"33","name":"State Senate District 33","chamber":"Senate"}},{"type":"Feature","geometry":{"type":"Polygon","coordinates":[[[-72.9079,41.3669],[-72.8817,41.3609],[-72.8838,41.3535],[-72.8745,41.3517],[-72.888,41.3397],[-72.8888,41.3326],[-72.8603,41.3366],[-72.8877,41.2857],[-72.8871,41.2552],[-72.8725,41.2665],[-72.8523,41.2591],[-72.8533,41.2641],[-72.8643,41.2692],[-72.8603,41.2851],[-72.8413,41.298],[-72.8365,41.3135],[-72.8238,41.3183],[-72.813,41.3541],[-72.7946,41.383],[-72.7896,41.403],[-72.7784,41.4075],[-72.7794,41.4122],[-72.7501,41.4221],[-72.7083,41.4294],[-72.7142,41.4356],[-72.7079,41.4399],[-72.7114,41.4417],[-72.689,41.4595],[-72.6926,41.459],[-72.69,41.4893],[-72.695,41.4924],[-72.7433,41.4831],[-72.7448,41.4982],[-72.7726,41.4968],[-72.8503,41.5157],[-72.8463,41.5028],[-72.8867,41.448],[-72.8514,41.4344],[-72.8618,41.4259],[-72.8832,41.4233],[-72.887,41.3933],[-72.9038,41.3781],[-72.9079,41.3669]]]},"properties":{"geoid":"09034","state":"09","district":"34","name":"State Senate District 34","chamber":"Senate"}},{"type":"Feature","geometry":{"type":"Polygon","coordinates":[[[-72.5072,41.8115],[-72.476,41.813],[-72.4735,41.7983],[-72.4189,41.8066],[-72.4103,41.7655],[-72.3546,41.7672],[-72.3271,41.7345],[-72.2649,41.7176],[-72.2466,41.7229],[-72.2598,41.7297],[-72.2696,41.746],[-72.2657,41.7507],[-72.2689,41.7629],[-72.281,41.7848],[-72.2916,41.7953],[-72.3128,41.7983],[-72.3095,41.8021],[-72.3159,41.8054],[-72.3168,41.8164],[-72.3101,41.8361],[-72.1645,41.8349],[-72.1567,41.7537],[-72.0458,41.7305],[-72.0229,41.7596],[-72.0145,41.805],[-72.0214,41.8282],[-72.0447,41.8315],[-72.044,41.9146],[-71.9274,41.917],[-71.947,41.9794],[-71.9312,41.9964],[-71.9116,42.0055],[-71.9147,42.0069],[-71.9118,42.0186],[-71.9011,42.0246],[-72.3974,42.0331],[-72.4071,41.9571],[-72.4476,41.9528],[-72.4561,41.9304],[-72.4526,41.92],[-72.4593,41.9004],[-72.4392,41.8942],[-72.432,41.9005],[-72.4276,41.8748],[-72.496,41.8659],[-72.5072,41.8115]]]},"properties":{"geoid":"09035","state":"09","district":"35","name":"State Senate District 35","chamber":"Senate"}},{"type":"Feature","geometry":{"type":"Polygon","coordinates":[[[-73.7278,41.1007],[-73.6553,41.0122],[-73.6603,41.0005],[-73.6568,40.9845],[-73.6129,40.9509],[-73.5537,40.9635],[-73.5509,41.0222],[-73.5632,41.0402],[-73.5682,41.0595],[-73.5599,41.0589],[-73.5584,41.0644],[-73.5487,41.0661],[-73.5407,41.064],[-73.566,41.1031],[-73.5822,41.1005],[-73.5798,41.1141],[-73.5722,41.1178],[-73.5703,41.1266],[-73.5464,41.112],[-73.5351,41.1162],[-73.5313,41.0985],[-73.5098,41.103],[-73.511,41.1084],[-73.5008,41.1144],[-73.4856,41.1139],[-73.477,41.1311],[-73.4802,41.1364],[-73.4741,41.1363],[-73.48,41.1457],[-73.4766,41.1554],[-73.4628,41.1598],[-73.4668,41.1655],[-73.4653,41.1759],[-73.4732,41.181],[-73.4701,41.1896],[-73.4849,41.2117],[-73.7278,41.1007]]]},"properties":{"geoid":"09036","state":"09","district":"36","name":"State Senate District 36","chamber":"Senate"}},{"type":"Feature","geometry":{"type":"Polygon","coordinates":[[[-73.4565,40.9912],[-73.4565,40.9838],[-73.2496,41.0259],[-72.9995,41.0871],[-72.1415,41.2501],[-72.0818,41.2622],[-72.0501,41.2766],[-72.3335,41.2722],[-72.3329,41.2656],[-72.3393,41.262],[-72.385,41.2539],[-72.4216,41.258],[-72.4568,41.2501],[-72.487,41.2501],[-72.4834,41.2623],[-72.5017,41.2478],[-72.5165,41.2482],[-72.5263,41.2556],[-72.5279,41.2501],[-72.5364,41.2546],[-72.5446,41.2487],[-72.5795,41.2716],[-72.6206,41.2719],[-72.6584,41.265],[-72.6656,41.2706],[-72.6689,41.2655],[-72.6747,41.2664],[-72.6669,41.2597],[-72.6673,41.2513],[-72.6714,41.2477],[-72.6778,41.2503],[-72.6786,41.2445],[-72.6845,41.2551],[-72.695,41.2447],[-72.7063,41.2437],[-72.7352,41.2521],[-72.7594,41.2397],[-72.7675,41.2538],[-72.7842,41.2554],[-72.793,41.2465],[-72.8162,41.2397],[-72.8246,41.2467],[-72.8266,41.2558],[-72.8366,41.2471],[-72.8472,41.2549],[-72.8487,41.2483],[-72.8603,41.2442],[-72.862,41.2392],[-72.9051,41.2391],[-72.8994,41.2475],[-72.9041,41.2476],[-72.9028,41.253],[-72.8934,41.2584],[-72.9057,41.2704],[-72.906,41.2827],[-72.9378,41.282],[-72.9311,41.2664],[-72.921,41.2696],[-72.933,41.2602],[-72.962,41.2514],[-72.9755,41.2335],[-72.9867,41.2354],[-72.979,41.2304],[-72.9843,41.2189],[-72.996,41.2133],[-73.0063,41.216],[-73.0162,41.2043],[-73.0296,41.2075],[-73.0379,41.2018],[-73.0523,41.2101],[-73.0555,41.2089],[-73.0375,41.1951],[-73.0579,41.1854],[-73.0736,41.1966],[-73.0882,41.1878],[-73.1078,41.1686],[-73.0954,41.1466],[-73.1305,41.1463],[-73.1658,41.1543],[-73.2211,41.1399],[-73.2326,41.1425],[-73.2417,41.1274],[-73.2643,41.1145],[-73.2977,41.1238],[-73.2956,41.0796],[-73.3614,41.0754],[-73.3685,41.0473],[-73.3903,41.021],[-73.4565,41.0204],[-73.4565,40.9912]],[[-72.6027,41.2665],[-72.6017,41.2667],[-72.6009,41.2659],[-72.6027,41.2665]]]},"properties":{"geoid":"09ZZZ","state":"09","district":"State Senate Districts not defined","name":"State Senate Districts not defined","chamber":"Senate"}}]}