{"type":"FeatureCollection","features":[{"type":"Feature","geometry":{"type":"Polygon","coordinates":[[[-77.0508,38.933],[-77.0445,38.9285],[-77.0499,38.9277],[-77.0461,38.9144],[-77.0143,38.915],[-77.0121,38.9263],[-77.0181,38.9285],[-77.019,38.9374],[-77.0364,38.9382],[-77.0508,38.933]]]},"properties":{"geoid":"11001","state":"11","district":"1","name":"Ward 1","chamber":"Council"}},{"type":"Feature","geometry":{"type":"Polygon","coordinates":[[[-77.0818,38.9174],[-77.0783,38.9024],[-77.0677,38.8995],[-77.0498,38.8715],[-77.0345,38.8802],[-77.032,38.8876],[-77.0152,38.8876],[-77.0219,38.9021],[-77.0148,38.9054],[-77.0184,38.9148],[-77.0461,38.9144],[-77.0502,38.9212],[-77.0818,38.9174]]]},"properties":{"geoid":"11002","state":"11","district":"2","name":"Ward 2","chamber":"Council"}},{"type":"Feature","geometry":{"type":"Polygon","coordinates":[[[-77.1198,38.9343],[-77.102,38.9119],[-77.0783,38.9024],[-77.0818,38.9174],[-77.0583,38.9177],[-77.0487,38.9224],[-77.0497,38.9281],[-77.0449,38.9266],[-77.0521,38.9381],[-77.0405,38.9596],[-77.0651,38.9585],[-77.0716,38.9718],[-77.1198,38.9343]]]},"properties":{"geoid":"11003","state":"11","district":"3","name":"Ward 3","chamber":"Council"}},{"type":"Feature","geometry":{"type":"Polygon","coordinates":[[[-77.0716,38.9718],[-77.0651,38.9585],[-77.0406,38.9597],[-77.0513,38.9415],[-77.0483,38.9348],[-77.0176,38.9378],[-77.0088,38.9462],[-77.009,38.9548],[-76.9916,38.9572],[-77.0409,38.9958],[-77.0716,38.9718]]]},"properties":{"geoid":"11004","state":"11","district":"4","name":"Ward 4","chamber":"Council"}},{"type":"Feature","geometry":{"type":"Polygon","coordinates":[[[-77.0192,38.9367],[-77.0181,38.9285],[-77.0121,38.9263],[-77.0178,38.9137],[-77.0148,38.9053],[-77.0045,38.9089],[-76.962,38.8971],[-76.9536,38.9144],[-76.9419,38.9186],[-76.9916,38.9572],[-77.009,38.9548],[-77.0088,38.9462],[-77.0192,38.9367]]]},"properties":{"geoid":"11005","state":"11","district":"5","name":"Ward 5","chamber":"Council"}},{"type":"Feature","geometry":{"type":"Polygon","coordinates":[[[-77.0437,38.8744],[-77.0377,38.8652],[-77.0428,38.8634],[-77.038,38.8632],[-77.0322,38.8507],[-77.0082,38.8645],[-77.0057,38.8808],[-76.9915,38.8777],[-76.9901,38.8713],[-76.9707,38.8814],[-76.9837,38.8811],[-76.9833,38.9002],[-77.0045,38.9089],[-77.0219,38.9029],[-77.0152,38.8876],[-77.032,38.8876],[-77.0437,38.8744]]]},"properties":{"geoid":"11006","state":"11","district":"6","name":"Ward 6","chamber":"Council"}},{"type":"Feature","geometry":{"type":"Polygon","coordinates":[[[-76.9837,38.8841],[-76.9707,38.8814],[-76.978,38.8769],[-76.971,38.8733],[-76.9707,38.864],[-76.962,38.8519],[-76.9094,38.8929],[-76.9419,38.9186],[-76.9536,38.9144],[-76.962,38.8971],[-76.9836,38.9],[-76.9837,38.8841]]]},"properties":{"geoid":"11007","state":"11","district":"7","name":"Ward 7","chamber":"Council"}},{"type":"Feature","geometry":{"type":"Polygon","coordinates":[[[-77.048,38.8413],[-77.0432,38.8314],[-77.0378,38.8301],[-77.0411,38.8229],[-77.0373,38.8146],[-77.039,38.7916],[-76.962,38.8519],[-76.9707,38.864],[-76.971,38.8733],[-76.978,38.8769],[-76.9901,38.8713],[-76.9915,38.8777],[-77.0057,38.8808],[-77.0091,38.8636],[-77.0322,38.8507],[-77.0346,38.84],[-77.048,38.8413]]]},"properties":{"geoid":"11008","state":"11","district":"8","name":"Ward 8","chamber":"Council"}}]}