{"type":"FeatureCollection","features":[{"type":"Feature","geometry":{"type":"Polygon","coordinates":[[[-87.6349,30.8663],[-87.6152,30.8342],[-87.6043,30.8314],[-87.6001,30.8205],[-87.5796,30.8109],[-87.5454,30.7794],[-87.546,30.7721],[-87.536,30.7612],[-87.5326,30.7432],[-87.5106,30.7329],[-87.5023,30.7215],[-87.4813,30.717],[-87.4793,30.7096],[-87.4681,30.7002],[-87.458,30.6964],[-87.4496,30.699],[-87.419,30.6785],[-87.4065,30.6751],[-87.4031,30.6575],[-87.3968,30.6548],[-87.3943,30.6456],[-87.3967,30.6089],[-87.4076,30.6009],[-87.4119,30.5742],[-87.4185,30.5701],[-87.418,30.5621],[-87.4254,30.5603],[-87.4351,30.5491],[-87.4416,30.5375],[-87.439,30.5303],[-87.448,30.5266],[-87.4438,30.5239],[-87.4473,30.522],[-87.4445,30.5142],[-87.4504,30.5145],[-87.431,30.4983],[-87.4284,30.4885],[-87.4339,30.4877],[-87.4356,30.4805],[-87.4251,30.4656],[-87.3999,30.451],[-87.3708,30.4469],[-87.3666,30.4366],[-87.403,30.4104],[-87.4296,30.4065],[-87.4407,30.3915],[-87.4387,30.3808],[-87.4514,30.3672],[-87.4511,30.3456],[-87.4611,30.3353],[-87.4982,30.3295],[-87.5047,30.324],[-87.5056,30.3111],[-87.5,30.3062],[-87.4501,30.3111],[-87.4524,30.3002],[-87.5184,30.2839],[-87.5184,30.1255],[-87.3028,30.1683],[-87.251,30.1658],[-87.1336,30.1785],[-86.8034,30.2349],[-86.7923,30.6422],[-86.7738,30.647],[-86.7464,30.6738],[-86.7269,30.6688],[-86.7134,30.6751],[-86.7102,30.6701],[-86.7026,30.6769],[-86.686,30.6711],[-86.6757,30.6753],[-86.6772,30.685],[-86.6691,30.6879],[-86.6619,30.678],[-86.6512,30.6806],[-86.646,30.6892],[-86.6505,30.7035],[-86.6486,30.7163],[-86.6189,30.715],[-86.5887,30.725],[-86.5687,30.7258],[-86.5638,30.7517],[-86.5708,30.7617],[-86.5547,30.8043],[-86.5405,30.8135],[-86.5297,30.8411],[-86.5259,30.8681],[-86.5078,30.8818],[-86.506,30.895],[-86.4909,30.9031],[-86.4764,30.9506],[-86.4576,30.9531],[-86.4578,30.9458],[-86.4539,30.9458],[-86.4537,30.953],[-86.4492,30.9529],[-86.4476,30.9383],[-86.4392,30.934],[-86.4391,30.9456],[-86.4446,30.9475],[-86.4468,30.9616],[-86.4347,30.9544],[-86.4346,30.9595],[-86.4305,30.9595],[-86.4331,30.9633],[-86.3886,30.9666],[-86.3886,30.9942],[-87.0402,30.9995],[-87.5988,30.9975],[-87.5889,30.9658],[-87.5909,30.9535],[-87.6157,30.9016],[-87.6218,30.8977],[-87.6203,30.8874],[-87.6291,30.8804],[-87.6349,30.8663]]]},"properties":{"geoid":"12001","state":"12","district":"1","name":"State Senate District 1","chamber":"Senate"}},{"type":"Feature","geometry":{"type":"Polygon","coordinates":[[[-86.8025,30.2693],[-86.8034,30.2349],[-86.6384,30.2463],[-86.5239,30.2316],[-86.4261,30.2305],[-86.3447,30.2184],[-86.1498,30.1629],[-86.0313,30.1175],[-85.966,30.0858],[-85.8886,30.0421],[-85.8502,30.0092],[-85.8036,29.9782],[-85.7098,29.9358],[-85.6459,29.8759],[-85.5896,29.8376],[-85.5859,29.7868],[-85.5702,29.721],[-85.5437,29.6515],[-85.5227,29.6131],[-85.4882,29.5682],[-85.4533,29.5379],[-85.4145,29.5178],[-85.3729,29.507],[-85.4403,29.7881],[-85.4343,29.9],[-85.3887,29.9244],[-85.3897,30.201],[-85.1157,30.2],[-85.1192,30.2086],[-85.1099,30.2093],[-85.1114,30.218],[-85.1018,30.2117],[-85.0995,30.2197],[-85.0909,30.2224],[-85.0915,30.2294],[-85.0798,30.2297],[-85.0834,30.2372],[-85.0787,30.2488],[-85.07,30.2494],[-85.0677,30.2588],[-85.0591,30.2632],[-85.0641,30.2699],[-85.058,30.2761],[-85.0596,30.285],[-85.0527,30.287],[-85.0569,30.3035],[-85.0474,30.3031],[-85.0481,30.3127],[-85.0343,30.3125],[-85.0463,30.3202],[-85.0443,30.3288],[-85.05,30.3382],[-85.0404,30.3557],[-85.026,30.363],[-85.0386,30.3656],[-85.0406,30.3713],[-85.0312,30.3787],[-85.0251,30.3758],[-85.0146,30.3874],[-85.0156,30.3962],[-85.03,30.4013],[-85.0141,30.4119],[-85.0294,30.413],[-85.0319,30.4226],[-85.0152,30.4344],[-84.9812,30.4441],[-84.9828,30.4476],[-85.0008,30.4481],[-85.0006,30.4553],[-84.9867,30.4696],[-85.0043,30.4762],[-84.9945,30.4891],[-84.9912,30.5224],[-84.9737,30.553],[-84.9615,30.5651],[-84.9654,30.5802],[-84.9451,30.581],[-84.9449,30.5955],[-84.9358,30.6003],[-84.929,30.6116],[-84.9063,30.6212],[-84.9037,30.6378],[-84.893,30.6467],[-84.8892,30.6616],[-84.8749,30.672],[-84.8579,30.6984],[-84.8698,30.7219],[-84.8838,30.7326],[-84.8961,30.7506],[-84.9143,30.7536],[-84.9201,30.766],[-84.918,30.7781],[-84.9283,30.7931],[-84.9283,30.8051],[-84.9374,30.8209],[-84.9348,30.8359],[-84.9257,30.8427],[-84.9361,30.857],[-84.9323,30.8643],[-84.9398,30.8726],[-84.9344,30.8836],[-84.9667,30.9173],[-84.971,30.9282],[-84.9831,30.9348],[-84.9811,30.9634],[-85.0057,30.9759],[-85.0019,31.0007],[-85.9986,30.9929],[-86.3886,30.9942],[-86.3886,30.9666],[-86.4331,30.9633],[-86.4305,30.9595],[-86.4346,30.9595],[-86.4347,30.9544],[-86.4468,30.9616],[-86.4446,30.9475],[-86.4391,30.9456],[-86.4392,30.934],[-86.4476,30.9383],[-86.4492,30.9529],[-86.4537,30.953],[-86.4539,30.9458],[-86.4578,30.9458],[-86.4576,30.9531],[-86.4764,30.9506],[-86.4909,30.9031],[-86.506,30.895],[-86.5078,30.8818],[-86.5259,30.8681],[-86.5297,30.8411],[-86.5405,30.8135],[-86.5547,30.8043],[-86.5708,30.7617],[-86.5638,30.7517],[-86.5687,30.7258],[-86.5887,30.725],[-86.6189,30.715],[-86.6486,30.7163],[-86.6505,30.7035],[-86.646,30.6892],[-86.6512,30.6806],[-86.6619,30.678],[-86.6691,30.6879],[-86.6772,30.685],[-86.6757,30.6753],[-86.686,30.6711],[-86.7026,30.6769],[-86.7102,30.6701],[-86.7134,30.6751],[-86.7269,30.6688],[-86.7464,30.6738],[-86.7738,30.647],[-86.7923,30.6422],[-86.8025,30.2693]]]},"properties":{"geoid":"12002","state":"12","district":"2","name":"State Senate District 2","chamber":"Senate"}},{"type":"Feature","geometry":{"type":"Polygon","coordinates":[[[-85.4343,29.9],[-85.4403,29.7881],[-85.3729,29.507],[-85.3137,29.5079],[-85.2597,29.5248],[-85.2188,29.5004],[-85.1771,29.4852],[-85.1238,29.4507],[-85.087,29.4394],[-85.0448,29.4361],[-85.0008,29.4417],[-84.8964,29.4712],[-84.7973,29.522],[-84.7071,29.5537],[-84.6528,29.5855],[-84.5887,29.6407],[-84.5453,29.6545],[-84.4745,29.6877],[-84.4428,29.7152],[-84.42,29.747],[-84.3801,29.7429],[-84.3233,29.7481],[-84.2592,29.7682],[-84.2179,29.7966],[-84.19,29.8304],[-84.1702,29.8713],[-84.1608,29.9213],[-84.1205,29.9255],[-84.0649,29.9401],[-84.0302,29.9131],[-83.9726,29.8864],[-83.9499,29.8628],[-83.919,29.8419],[-83.8788,29.8262],[-83.8303,29.8197],[-83.7831,29.7922],[-83.7575,29.7532],[-83.7417,29.6982],[-83.7058,29.6441],[-83.6714,29.6144],[-83.6144,29.5884],[-83.5821,29.5633],[-83.5674,29.4685],[-83.5413,29.4176],[-83.5049,29.3842],[-83.4357,29.3497],[-83.4025,29.3169],[-83.3572,29.2917],[-83.3462,29.2419],[-83.1648,29.2892],[-83.1581,29.3022],[-83.148,29.3078],[-83.142,29.3226],[-83.1129,29.3181],[-83.1119,29.3247],[-83.1045,29.3254],[-83.0988,29.3369],[-83.0904,29.3328],[-83.0617,29.3484],[-83.0614,29.3527],[-83.0721,29.3539],[-83.0622,29.3642],[-83.0647,29.374],[-83.0454,29.3807],[-83.0339,29.3906],[-83.033,29.3979],[-83.0232,29.3986],[-83.0259,29.4057],[-83.0218,29.4131],[-83.0269,29.4189],[-83.0158,29.4214],[-83.0212,29.4312],[-83.0005,29.4626],[-82.9899,29.4633],[-82.9845,29.4699],[-82.9829,29.5154],[-82.9727,29.5173],[-82.9694,29.5223],[-82.9786,29.5319],[-82.9773,29.5399],[-82.9479,29.5575],[-82.9445,29.5823],[-82.9371,29.5883],[-82.9418,29.5932],[-82.9488,29.5854],[-82.9555,29.5861],[-82.9624,29.6019],[-82.9722,29.609],[-82.9677,29.6165],[-82.9731,29.6243],[-82.9563,29.6396],[-82.9576,29.6553],[-82.9518,29.6598],[-82.9592,29.6705],[-82.9544,29.6767],[-82.9594,29.6843],[-82.9574,29.7005],[-82.937,29.7032],[-82.9566,29.7187],[-82.9538,29.7224],[-82.9438,29.7157],[-82.9433,29.7218],[-82.9499,29.7256],[-82.9384,29.7476],[-82.9404,29.7536],[-82.9497,29.7544],[-82.9476,29.7661],[-82.9368,29.7847],[-82.9197,29.7962],[-82.9334,29.8015],[-82.9354,29.8095],[-82.9238,29.8234],[-82.9108,29.8208],[-82.8929,29.8275],[-82.8884,29.8501],[-82.8756,29.8665],[-82.8793,29.8882],[-82.8668,29.8988],[-82.8633,29.9111],[-82.8315,29.9128],[-82.8144,29.9298],[-82.8005,29.9321],[-82.7858,29.9549],[-82.7622,29.9644],[-82.7586,29.9757],[-82.7604,29.9862],[-82.794,29.9862],[-82.7946,30.337],[-82.7884,30.324],[-82.7774,30.3233],[-82.7632,30.3309],[-82.7608,30.3243],[-82.7454,30.3174],[-82.7366,30.3284],[-82.7246,30.3338],[-82.717,30.3211],[-82.7031,30.3326],[-82.6899,30.3331],[-82.6815,30.3428],[-82.6869,30.3537],[-82.6624,30.37],[-82.6654,30.3792],[-82.6592,30.3827],[-82.658,30.3913],[-82.6473,30.3946],[-82.6455,30.4072],[-82.6499,30.41],[-82.6492,30.4182],[-82.6591,30.4408],[-82.6729,30.4481],[-82.6623,30.4488],[-82.6633,30.4521],[-82.6802,30.461],[-82.6808,30.4646],[-82.6755,30.4653],[-82.6774,30.472],[-82.7016,30.4774],[-82.6968,30.4896],[-82.7062,30.4925],[-82.7062,30.5045],[-82.7158,30.5059],[-82.7184,30.521],[-82.7236,30.5174],[-82.7286,30.5257],[-82.7269,30.531],[-82.7143,30.5322],[-82.7225,30.5479],[-82.7209,30.554],[-82.7268,30.5578],[-82.7247,30.5643],[-82.7168,30.5645],[-82.717,30.5696],[-82.7051,30.5762],[-82.7067,30.5843],[-82.6961,30.5916],[-82.6964,30.5962],[-82.6895,30.5977],[-83.8778,30.6657],[-84.8647,30.7115],[-84.8583,30.6966],[-84.8749,30.672],[-84.8892,30.6616],[-84.893,30.6467],[-84.9037,30.6378],[-84.9056,30.622],[-84.929,30.6116],[-84.9358,30.6003],[-84.9449,30.5955],[-84.9451,30.581],[-84.9654,30.5802],[-84.9615,30.5651],[-84.9737,30.553],[-84.9912,30.5224],[-84.9945,30.4891],[-85.0043,30.4762],[-84.9867,30.4696],[-85.0006,30.4553],[-85.0008,30.4481],[-84.9828,30.4476],[-84.9812,30.4441],[-85.0152,30.4344],[-85.0319,30.4226],[-85.0294,30.413],[-85.0141,30.4119],[-85.03,30.4013],[-85.0156,30.3962],[-85.0146,30.3874],[-85.0251,30.3758],[-85.0312,30.3787],[-85.0406,30.3713],[-85.0386,30.3656],[-85.026,30.363],[-85.0404,30.3557],[-85.05,30.3382],[-85.0443,30.3288],[-85.0463,30.3202],[-85.0343,30.3125],[-85.0481,30.3127],[-85.0474,30.3031],[-85.0569,30.3035],[-85.0527,30.287],[-85.0596,30.285],[-85.058,30.2761],[-85.0641,30.2699],[-85.0591,30.2632],[-85.0677,30.2588],[-85.07,30.2494],[-85.0787,30.2488],[-85.0834,30.2372],[-85.0798,30.2297],[-85.0915,30.2294],[-85.0909,30.2224],[-85.0995,30.2197],[-85.1018,30.2117],[-85.1114,30.218],[-85.1099,30.2093],[-85.1192,30.2086],[-85.1157,30.2],[-85.3897,30.201],[-85.3887,29.9244],[-85.4343,29.9]]]},"properties":{"geoid":"12003","state":"12","district":"3","name":"State Senate District 3","chamber":"Senate"}},{"type":"Feature","geometry":{"type":"Polygon","coordinates":[[[-82.0503,30.6757],[-82.046,30.6664],[-82.049,30.6551],[-82.0416,30.649],[-82.0405,30.6361],[-82.0332,30.6295],[-82.0316,30.6195],[-82.0283,30.622],[-82.0272,30.6067],[-82.0151,30.6006],[-82.0054,30.5637],[-82.0107,30.5607],[-82.0084,30.5545],[-82.019,30.533],[-82.0146,30.5123],[-82.0169,30.4751],[-82.0236,30.4672],[-82.0281,30.4473],[-82.04,30.4367],[-82.0341,30.42],[-82.0438,30.4149],[-82.0413,30.4067],[-82.0447,30.404],[-82.0358,30.385],[-82.0372,30.372],[-82.05,30.3625],[-82.0494,30.1869],[-81.8377,30.1886],[-81.8376,30.2152],[-81.8448,30.245],[-81.875,30.2734],[-81.8791,30.3067],[-81.7706,30.3153],[-81.7611,30.3367],[-81.7609,30.3796],[-81.7528,30.408],[-81.7371,30.4188],[-81.716,30.4502],[-81.6884,30.4601],[-81.6477,30.4599],[-81.5903,30.4414],[-81.5663,30.4197],[-81.5515,30.3693],[-81.5552,30.3549],[-81.5522,30.3326],[-81.5591,30.3231],[-81.5593,30.2814],[-81.5519,30.2208],[-81.5998,30.2205],[-81.6221,30.2159],[-81.6507,30.2235],[-81.6905,30.1719],[-81.6918,30.1423],[-81.6802,30.1212],[-81.6505,30.1215],[-81.6238,30.1336],[-81.6123,30.1329],[-81.5809,30.1261],[-81.5678,30.1178],[-81.539,30.1199],[-81.5387,30.1037],[-81.4338,30.1055],[-81.4369,30.2523],[-81.3179,30.2529],[-81.3306,30.2995],[-81.3354,30.3613],[-81.3216,30.3786],[-81.3169,30.4077],[-81.3323,30.433],[-81.3536,30.4467],[-81.3524,30.4821],[-81.375,30.5328],[-81.382,30.5836],[-81.3811,30.6252],[-81.3734,30.6628],[-81.3516,30.6857],[-81.347,30.7124],[-81.4512,30.7095],[-81.4741,30.7139],[-81.4885,30.7263],[-81.5323,30.7241],[-81.534,30.7114],[-81.5384,30.7087],[-81.5484,30.7183],[-81.5614,30.7117],[-81.5635,30.7175],[-81.5742,30.7225],[-81.5877,30.7236],[-81.5962,30.7187],[-81.5965,30.7275],[-81.6019,30.7296],[-81.6099,30.7159],[-81.6142,30.7224],[-81.623,30.7235],[-81.6207,30.731],[-81.6244,30.7363],[-81.6304,30.7281],[-81.6366,30.7339],[-81.6436,30.7282],[-81.6522,30.7289],[-81.6518,30.7422],[-81.663,30.7435],[-81.6623,30.7542],[-81.6831,30.7485],[-81.6799,30.7447],[-81.6708,30.7474],[-81.6725,30.7388],[-81.6892,30.7416],[-81.6939,30.7485],[-81.7201,30.7447],[-81.7422,30.7593],[-81.7408,30.765],[-81.7693,30.7771],[-81.7716,30.7641],[-81.7825,30.7614],[-81.7867,30.7698],[-81.7838,30.7733],[-81.7931,30.7873],[-81.7972,30.7815],[-81.8074,30.7901],[-81.8395,30.7866],[-81.8403,30.7926],[-81.8684,30.7928],[-81.8711,30.798],[-81.8827,30.8003],[-81.8925,30.8254],[-81.9018,30.8299],[-81.9072,30.8259],[-81.9054,30.8168],[-81.9284,30.8174],[-81.9388,30.8298],[-81.9642,30.8178],[-81.9623,30.7967],[-81.9777,30.7766],[-82.0077,30.793],[-82.023,30.7875],[-82.0112,30.7631],[-82.0202,30.7578],[-82.0179,30.7548],[-82.0315,30.7503],[-82.0361,30.7548],[-82.0387,30.7511],[-82.0389,30.7362],[-82.0456,30.7273],[-82.0385,30.7226],[-82.0359,30.7062],[-82.0429,30.7009],[-82.0412,30.691],[-82.0503,30.6757]]]},"properties":{"geoid":"12004","state":"12","district":"4","name":"State Senate District 4","chamber":"Senate"}},{"type":"Feature","geometry":{"type":"Polygon","coordinates":[[[-81.8792,30.2976],[-81.8736,30.2711],[-81.8451,30.246],[-81.8378,30.2172],[-81.8377,30.1886],[-81.7389,30.1893],[-81.7335,30.1935],[-81.6796,30.1905],[-81.6507,30.2235],[-81.6221,30.2159],[-81.5998,30.2205],[-81.5519,30.2208],[-81.5593,30.2814],[-81.5591,30.3231],[-81.5522,30.3326],[-81.5552,30.3549],[-81.5516,30.3704],[-81.564,30.4016],[-81.5653,30.4173],[-81.5906,30.4416],[-81.6252,30.4556],[-81.6859,30.4603],[-81.7142,30.4515],[-81.7371,30.4188],[-81.7531,30.4074],[-81.7609,30.3796],[-81.7611,30.3367],[-81.7706,30.3153],[-81.8791,30.3067],[-81.8792,30.2976]]]},"properties":{"geoid":"12005","state":"12","district":"5","name":"State Senate District 5","chamber":"Senate"}},{"type":"Feature","geometry":{"type":"Polygon","coordinates":[[[-82.9731,29.6243],[-82.9677,29.6165],[-82.9722,29.609],[-82.9624,29.6019],[-82.9522,29.5845],[-82.9418,29.5932],[-82.8566,29.5913],[-82.8565,29.5842],[-82.7729,29.5849],[-82.773,29.5776],[-82.7569,29.5777],[-82.7565,29.5625],[-82.6563,29.5648],[-82.6564,29.6431],[-82.6043,29.6467],[-82.5914,29.6542],[-82.4901,29.6539],[-82.4718,29.6599],[-82.419,29.6595],[-82.3859,29.6173],[-82.341,29.6401],[-82.3393,29.6521],[-82.3115,29.6519],[-82.2893,29.685],[-82.2683,29.6742],[-82.2573,29.6737],[-82.2408,29.6875],[-82.204,29.688],[-82.1529,29.7137],[-82.1332,29.7164],[-82.0991,29.7137],[-82.0782,29.707],[-82.0503,29.7097],[-82.0503,29.7155],[-82.0556,29.7182],[-82.0289,29.7187],[-82.0046,29.7404],[-81.9762,29.7471],[-81.9394,29.7475],[-81.9291,29.7594],[-81.9235,29.7809],[-81.9142,29.7914],[-81.862,29.8002],[-81.8124,29.8365],[-81.5812,29.8402],[-81.599,29.8754],[-81.6076,29.9057],[-81.608,29.9176],[-81.5987,29.941],[-81.6049,29.9635],[-81.6247,29.9815],[-81.6782,30.0122],[-81.6889,30.0286],[-81.6896,30.0609],[-81.6806,30.0827],[-81.68,30.1191],[-81.6921,30.1447],[-81.6905,30.1719],[-81.6796,30.1905],[-81.7335,30.1935],[-81.7389,30.1893],[-82.0494,30.1869],[-82.05,30.3625],[-82.0624,30.3606],[-82.0662,30.3558],[-82.0727,30.3614],[-82.0811,30.3588],[-82.1011,30.3628],[-82.1051,30.3689],[-82.1181,30.3644],[-82.1264,30.3683],[-82.1339,30.3622],[-82.14,30.3649],[-82.1618,30.3571],[-82.181,30.3686],[-82.1848,30.3789],[-82.1928,30.3791],[-82.2109,30.4254],[-82.2038,30.445],[-82.2077,30.4604],[-82.2012,30.4851],[-82.2126,30.5005],[-82.2251,30.5077],[-82.2308,30.5266],[-82.2404,30.5378],[-82.2342,30.5577],[-82.2147,30.5686],[-82.6964,30.5963],[-82.6961,30.5916],[-82.7067,30.5843],[-82.7035,30.5816],[-82.7062,30.5747],[-82.717,30.5696],[-82.7185,30.5632],[-82.7247,30.5643],[-82.7268,30.5578],[-82.7209,30.554],[-82.7225,30.5479],[-82.7143,30.5322],[-82.7269,30.531],[-82.7286,30.5257],[-82.7236,30.5174],[-82.7184,30.521],[-82.7158,30.5059],[-82.7062,30.5045],[-82.7062,30.4925],[-82.6968,30.4896],[-82.7016,30.4774],[-82.6774,30.472],[-82.6755,30.4653],[-82.6808,30.4646],[-82.6802,30.461],[-82.6625,30.451],[-82.6729,30.4481],[-82.6592,30.4409],[-82.6526,30.4291],[-82.6539,30.422],[-82.6455,30.4072],[-82.647,30.3951],[-82.6583,30.391],[-82.6592,30.3827],[-82.6656,30.3785],[-82.6625,30.3699],[-82.6869,30.3537],[-82.6815,30.3432],[-82.684,30.3381],[-82.6921,30.3324],[-82.7043,30.332],[-82.7164,30.3213],[-82.7248,30.3283],[-82.7241,30.3338],[-82.7364,30.3284],[-82.7454,30.3174],[-82.7608,30.3243],[-82.7632,30.3309],[-82.7774,30.3233],[-82.7882,30.3239],[-82.7946,30.337],[-82.794,29.9862],[-82.7604,29.9862],[-82.76,29.9699],[-82.7622,29.9644],[-82.7858,29.9549],[-82.8005,29.9321],[-82.8144,29.9298],[-82.8315,29.9128],[-82.8633,29.9111],[-82.8668,29.8988],[-82.8793,29.8882],[-82.8756,29.8665],[-82.8884,29.8501],[-82.8929,29.8275],[-82.9108,29.8208],[-82.923,29.8237],[-82.9318,29.8161],[-82.9349,29.8039],[-82.9199,29.7957],[-82.936,29.7855],[-82.9476,29.7661],[-82.9497,29.7544],[-82.9404,29.7536],[-82.9384,29.7476],[-82.9499,29.7256],[-82.9433,29.7218],[-82.9438,29.7157],[-82.9538,29.7224],[-82.9566,29.7187],[-82.937,29.7032],[-82.9574,29.7005],[-82.9594,29.6843],[-82.9544,29.6767],[-82.9592,29.6705],[-82.9518,29.6598],[-82.9576,29.6553],[-82.9563,29.6396],[-82.9731,29.6243]]]},"properties":{"geoid":"12006","state":"12","district":"6","name":"State Senate District 6","chamber":"Senate"}},{"type":"Feature","geometry":{"type":"Polygon","coordinates":[[[-82.0561,29.6485],[-82.0559,29.4712],[-82.032,29.4923],[-82.0044,29.5017],[-81.964,29.5038],[-81.9313,29.5165],[-81.9121,29.5039],[-81.9017,29.516],[-81.8876,29.5092],[-81.8488,29.5215],[-81.843,29.521],[-81.8428,29.4865],[-81.7762,29.4874],[-81.7749,29.4292],[-81.7418,29.4299],[-81.7414,29.371],[-81.6685,29.3717],[-81.6626,29.3635],[-81.6563,29.338],[-81.6643,29.3415],[-81.6754,29.3386],[-81.6807,29.3232],[-81.6721,29.3053],[-81.6557,29.2999],[-81.6501,29.2931],[-81.6386,29.269],[-81.634,29.2448],[-81.6157,29.2211],[-81.6174,29.2127],[-81.6123,29.2028],[-81.5609,29.2002],[-81.554,29.1846],[-81.5321,29.1774],[-81.5307,29.1712],[-81.5226,29.1677],[-81.4604,29.1719],[-81.4292,29.1812],[-81.4162,29.1911],[-81.3567,29.2057],[-81.3249,29.2249],[-81.2517,29.2402],[-81.2327,29.2397],[-81.2149,29.2523],[-81.1756,29.2623],[-81.1623,29.2558],[-81.1313,29.2527],[-81.1116,29.2582],[-81.0882,29.2782],[-81.0828,29.2786],[-81.0719,29.2514],[-81.0649,29.2415],[-81.0588,29.2404],[-81.0474,29.2197],[-80.9792,29.2503],[-80.9579,29.2545],[-81.0457,29.4325],[-81.0419,29.4329],[-81.1238,29.6055],[-81.1674,29.7231],[-81.1864,29.7601],[-81.2052,29.8224],[-81.2093,29.8752],[-81.2551,30.0002],[-81.3202,30.2529],[-81.4369,30.2523],[-81.4338,30.1055],[-81.5387,30.1037],[-81.539,30.1199],[-81.5678,30.1178],[-81.5809,30.1261],[-81.6123,30.1329],[-81.6238,30.1336],[-81.6505,30.1215],[-81.6802,30.1212],[-81.6806,30.0827],[-81.6898,30.0588],[-81.6878,30.0255],[-81.6782,30.0122],[-81.6247,29.9815],[-81.6049,29.9635],[-81.5987,29.941],[-81.608,29.9176],[-81.6076,29.9057],[-81.599,29.8754],[-81.5812,29.8402],[-81.8124,29.8365],[-81.862,29.8002],[-81.9142,29.7914],[-81.9235,29.7809],[-81.9291,29.7594],[-81.9394,29.7475],[-81.9911,29.744],[-82.0071,29.7395],[-82.0289,29.7187],[-82.0556,29.7182],[-82.0491,29.7134],[-82.0561,29.6485]]]},"properties":{"geoid":"12007","state":"12","district":"7","name":"State Senate District 7","chamber":"Senate"}},{"type":"Feature","geometry":{"type":"Polygon","coordinates":[[[-81.5236,29.1605],[-81.5045,29.1237],[-81.5067,29.1122],[-81.5006,29.1035],[-81.5021,29.0978],[-81.487,29.0929],[-81.4687,29.097],[-81.4585,29.0938],[-81.4544,29.082],[-81.4609,29.0758],[-81.4553,29.0631],[-81.4461,29.0621],[-81.4322,29.0444],[-81.4258,29.0448],[-81.4099,29.0313],[-81.4029,29.0325],[-81.3782,28.9989],[-81.3722,28.9985],[-81.3757,28.994],[-81.3644,28.9927],[-81.3547,28.9848],[-81.3642,28.9686],[-81.3696,28.9689],[-81.3658,28.9609],[-81.3709,28.9585],[-81.3589,28.9559],[-81.3604,28.9517],[-81.354,28.9496],[-81.3594,28.9448],[-81.3537,28.9471],[-81.3553,28.9403],[-81.3496,28.9393],[-81.3554,28.9299],[-81.3519,28.9207],[-81.3592,28.9146],[-81.3567,28.9105],[-81.3602,28.9067],[-81.3526,28.8971],[-81.3572,28.8871],[-81.3661,28.8878],[-81.363,28.8794],[-81.3668,28.8787],[-81.3602,28.8714],[-81.3647,28.8657],[-81.3525,28.8626],[-81.3511,28.8581],[-81.3545,28.8587],[-81.3587,28.8483],[-81.3415,28.8471],[-81.3205,28.8345],[-81.226,28.8326],[-81.2246,28.8216],[-81.2159,28.8144],[-81.2137,28.8042],[-81.1974,28.7919],[-81.181,28.7966],[-81.1789,28.7819],[-81.1604,28.7909],[-81.1362,28.7922],[-81.1403,28.7962],[-81.1293,28.7995],[-81.1311,28.8063],[-81.1231,28.8141],[-81.1266,28.8209],[-81.1198,28.8262],[-81.1053,28.8285],[-81.0977,28.8215],[-81.0919,28.8247],[-81.0848,28.8157],[-81.0761,28.8193],[-81.0667,28.8117],[-81.0678,28.8037],[-81.0587,28.7942],[-81.0539,28.7775],[-81.0611,28.75],[-81.0364,28.7249],[-81.0347,28.7094],[-81.0166,28.693],[-81.0213,28.6743],[-81.0072,28.6635],[-81.0011,28.64],[-81.0071,28.6363],[-80.9982,28.6306],[-80.9945,28.6217],[-80.9888,28.6245],[-80.9899,28.6139],[-80.9759,28.6078],[-80.971,28.6112],[-80.9683,28.6042],[-80.9521,28.6042],[-80.953,28.6007],[-80.9435,28.5939],[-80.9472,28.5849],[-80.93,28.5632],[-80.9343,28.559],[-80.9328,28.5436],[-80.902,28.5435],[-80.8887,28.5506],[-80.8604,28.5505],[-80.8605,28.5435],[-80.8515,28.5452],[-80.8508,28.5172],[-80.8323,28.4939],[-80.7799,28.4953],[-80.7859,28.5012],[-80.7811,28.5276],[-80.6575,28.526],[-80.6549,28.5844],[-80.6972,28.6451],[-80.6796,28.6453],[-80.6649,28.6518],[-80.6329,28.6517],[-80.6177,28.6425],[-80.5922,28.6109],[-80.5242,28.6102],[-80.6356,28.7503],[-80.8748,29.106],[-80.9068,29.1447],[-80.9579,29.2545],[-80.9792,29.2503],[-81.0474,29.2197],[-81.0588,29.2404],[-81.0649,29.2415],[-81.0719,29.2514],[-81.0828,29.2786],[-81.0882,29.2782],[-81.1113,29.2584],[-81.1256,29.2542],[-81.162,29.2557],[-81.1756,29.2623],[-81.2149,29.2523],[-81.2327,29.2397],[-81.2517,29.2402],[-81.3249,29.2249],[-81.3567,29.2057],[-81.4162,29.1911],[-81.4292,29.1812],[-81.4604,29.1719],[-81.5198,29.1689],[-81.5236,29.1605]]]},"properties":{"geoid":"12008","state":"12","district":"8","name":"State Senate District 8","chamber":"Senate"}},{"type":"Feature","geometry":{"type":"Polygon","coordinates":[[[-83.3462,29.2419],[-83.3152,29.1931],[-83.292,29.1729],[-83.2621,29.1557],[-83.2639,29.1145],[-83.2537,29.0765],[-83.2206,29.0195],[-83.1879,28.9866],[-82.7616,28.9921],[-82.7554,29.0019],[-82.741,29.0121],[-82.7281,29.0148],[-82.7115,29.031],[-82.6898,29.034],[-82.6771,29.0306],[-82.6752,29.0261],[-82.6405,29.0215],[-82.6127,29.0093],[-82.6021,29.0135],[-82.5952,29.0299],[-82.577,29.0281],[-82.5365,29.0448],[-82.5351,29.0409],[-82.5304,29.0436],[-82.5224,29.0396],[-82.5119,29.0434],[-82.5081,29.0375],[-82.4874,29.048],[-82.4881,29.0514],[-82.4779,29.0526],[-82.4638,29.0447],[-82.4586,29.0476],[-82.4295,29.0212],[-82.4197,29.018],[-82.4187,29.0131],[-82.4016,29.019],[-82.3935,29.008],[-82.3869,29.0093],[-82.3775,29.0007],[-82.3639,29.0019],[-82.3614,28.9935],[-82.3158,28.9733],[-82.3117,28.9604],[-81.6587,28.9603],[-81.6592,29.0478],[-81.6387,29.0478],[-81.6419,29.2768],[-81.6553,29.2997],[-81.6724,29.3056],[-81.6809,29.3244],[-81.6754,29.3386],[-81.6643,29.3415],[-81.6563,29.338],[-81.6629,29.3639],[-81.6685,29.3717],[-81.7414,29.371],[-81.7418,29.4299],[-81.7749,29.4292],[-81.7762,29.4874],[-81.8428,29.4865],[-81.8449,29.5217],[-81.8876,29.5092],[-81.9017,29.516],[-81.9121,29.5039],[-81.9313,29.5165],[-81.964,29.5038],[-82.0044,29.5017],[-82.032,29.4923],[-82.0559,29.4712],[-82.0561,29.6568],[-82.0503,29.7097],[-82.0782,29.707],[-82.0991,29.7137],[-82.1332,29.7164],[-82.1529,29.7137],[-82.204,29.688],[-82.2408,29.6875],[-82.2573,29.6737],[-82.2683,29.6742],[-82.2893,29.685],[-82.3115,29.6519],[-82.3393,29.6521],[-82.341,29.6401],[-82.3859,29.6173],[-82.419,29.6595],[-82.4718,29.6599],[-82.4901,29.6539],[-82.5914,29.6542],[-82.6043,29.6467],[-82.6452,29.646],[-82.6564,29.6431],[-82.6563,29.5648],[-82.7565,29.5625],[-82.7569,29.5777],[-82.773,29.5776],[-82.7729,29.5849],[-82.8565,29.5842],[-82.8566,29.5913],[-82.9373,29.5912],[-82.9445,29.5823],[-82.9479,29.5575],[-82.9773,29.5399],[-82.9786,29.5319],[-82.9694,29.5223],[-82.9727,29.5173],[-82.9829,29.5154],[-82.9845,29.4699],[-82.9899,29.4633],[-83.0005,29.4626],[-83.0212,29.4312],[-83.0158,29.4214],[-83.0269,29.4189],[-83.0218,29.4131],[-83.0259,29.4057],[-83.0232,29.3986],[-83.033,29.3979],[-83.0339,29.3906],[-83.0454,29.3807],[-83.0656,29.3727],[-83.0622,29.3642],[-83.0721,29.3539],[-83.0614,29.3527],[-83.0617,29.3484],[-83.0904,29.3328],[-83.0988,29.3369],[-83.1045,29.3254],[-83.1119,29.3247],[-83.1129,29.3181],[-83.142,29.3226],[-83.148,29.3078],[-83.1581,29.3022],[-83.1648,29.2892],[-83.3462,29.2419]]]},"properties":{"geoid":"12009","state":"12","district":"9","name":"State Senate District 9","chamber":"Senate"}},{"type":"Feature","geometry":{"type":"Polygon","coordinates":[[[-81.4597,28.6426],[-81.4152,28.6401],[-81.4149,28.6184],[-81.407,28.6185],[-81.4065,28.622],[-81.3757,28.6209],[-81.3754,28.6117],[-81.3821,28.6116],[-81.3828,28.6076],[-81.3867,28.6115],[-81.3863,28.5988],[-81.3756,28.5865],[-81.3729,28.5641],[-81.3399,28.5683],[-81.3401,28.5788],[-81.3246,28.5753],[-81.3246,28.5818],[-81.3152,28.5818],[-81.3151,28.5752],[-81.3109,28.5752],[-81.307,28.5844],[-81.309,28.6107],[-80.9872,28.613],[-80.9905,28.6158],[-80.9869,28.6179],[-80.9888,28.6245],[-80.9945,28.6217],[-80.9982,28.6306],[-81.0071,28.6363],[-81.0012,28.6411],[-81.0072,28.6635],[-81.0213,28.6743],[-81.0163,28.6919],[-81.0208,28.7005],[-81.0347,28.7094],[-81.0364,28.7249],[-81.0611,28.75],[-81.0539,28.7775],[-81.0587,28.7942],[-81.0678,28.8037],[-81.0667,28.8117],[-81.0761,28.8193],[-81.0848,28.8157],[-81.0919,28.8247],[-81.0977,28.8215],[-81.1053,28.8285],[-81.1198,28.8262],[-81.1266,28.8209],[-81.1231,28.8141],[-81.1311,28.8063],[-81.1293,28.7995],[-81.1403,28.7962],[-81.1362,28.7922],[-81.1604,28.7909],[-81.1789,28.7819],[-81.181,28.7966],[-81.1974,28.7919],[-81.2137,28.8042],[-81.2159,28.8144],[-81.2246,28.8216],[-81.226,28.8326],[-81.3205,28.8345],[-81.3415,28.8471],[-81.358,28.8478],[-81.3521,28.8623],[-81.3647,28.8657],[-81.3602,28.8714],[-81.3669,28.8792],[-81.3663,28.8736],[-81.3739,28.87],[-81.383,28.852],[-81.4168,28.8246],[-81.4197,28.8155],[-81.4136,28.7918],[-81.4165,28.7554],[-81.4228,28.7369],[-81.4407,28.7158],[-81.4595,28.7133],[-81.4597,28.6426]]]},"properties":{"geoid":"12010","state":"12","district":"10","name":"State Senate District 10","chamber":"Senate"}},{"type":"Feature","geometry":{"type":"Polygon","coordinates":[[[-83.1879,28.9866],[-83.1353,28.9575],[-83.0822,28.9462],[-83.0016,28.9473],[-82.9456,28.9637],[-82.9469,28.9348],[-82.9418,28.9068],[-82.9158,28.8565],[-82.9274,28.8107],[-82.9235,28.7671],[-82.8904,28.7],[-82.8709,28.6216],[-82.8391,28.5746],[-82.8564,28.5277],[-82.8554,28.4772],[-82.8709,28.4453],[-82.8966,28.3586],[-82.9377,28.3412],[-82.7199,28.3427],[-82.709,28.3377],[-82.7073,28.3313],[-82.6355,28.3314],[-82.6155,28.3394],[-82.5824,28.3285],[-82.5521,28.3307],[-82.5385,28.3839],[-82.4873,28.4216],[-82.485,28.4337],[-82.2534,28.4348],[-82.2533,28.4785],[-82.0547,28.4784],[-82.0558,28.3128],[-82.0204,28.3238],[-81.9957,28.3188],[-81.9857,28.3053],[-81.9748,28.3105],[-81.9578,28.3089],[-81.9542,28.9601],[-82.3117,28.9604],[-82.3158,28.9733],[-82.3614,28.9935],[-82.3639,29.0019],[-82.3775,29.0007],[-82.3869,29.0093],[-82.3935,29.008],[-82.4016,29.019],[-82.4187,29.0131],[-82.4197,29.018],[-82.4295,29.0212],[-82.4586,29.0476],[-82.4638,29.0447],[-82.4779,29.0526],[-82.4881,29.0514],[-82.4874,29.048],[-82.5081,29.0375],[-82.5119,29.0434],[-82.5224,29.0396],[-82.5304,29.0436],[-82.5351,29.0409],[-82.5365,29.0448],[-82.577,29.0281],[-82.5952,29.0299],[-82.6021,29.0135],[-82.6127,29.0093],[-82.6405,29.0215],[-82.6752,29.0261],[-82.6771,29.0306],[-82.6898,29.034],[-82.7115,29.031],[-82.7281,29.0148],[-82.741,29.0121],[-82.7554,29.0019],[-82.7616,28.9921],[-83.1879,28.9866]]]},"properties":{"geoid":"12011","state":"12","district":"11","name":"State Senate District 11","chamber":"Senate"}},{"type":"Feature","geometry":{"type":"Polygon","coordinates":[[[-82.1062,28.2502],[-82.1059,28.1718],[-82.0562,28.1717],[-82.0559,27.9964],[-81.9124,27.9965],[-81.8785,28.0084],[-81.8419,28.0106],[-81.8014,28.0107],[-81.7608,28.0036],[-81.7476,27.9866],[-81.7348,27.9979],[-81.7081,27.9567],[-81.7201,27.9457],[-81.7177,27.9236],[-81.7099,27.9213],[-81.7099,27.9154],[-81.6457,27.8993],[-81.6151,27.9043],[-81.5876,27.894],[-81.4841,27.8937],[-81.3891,27.8704],[-81.3164,27.8063],[-81.2018,27.805],[-81.2086,27.8122],[-81.208,27.821],[-81.2301,27.8424],[-81.2465,27.8488],[-81.2503,27.8436],[-81.2505,27.8489],[-81.2591,27.846],[-81.2773,27.8508],[-81.2813,27.8575],[-81.3019,27.8621],[-81.3015,27.8652],[-81.2973,27.8627],[-81.3044,27.8704],[-81.3061,27.8862],[-81.3148,27.9006],[-81.3089,27.9221],[-81.316,27.9285],[-81.3178,27.9243],[-81.3467,27.9368],[-81.3459,27.9415],[-81.3382,27.9392],[-81.3368,27.9499],[-81.3498,27.9539],[-81.3498,27.9638],[-81.3765,27.9783],[-81.3869,28.0035],[-81.4159,27.9982],[-81.4386,28.0332],[-81.4486,28.0323],[-81.4588,28.0398],[-81.4574,28.0551],[-81.4411,28.0587],[-81.428,28.0393],[-81.4158,28.0371],[-81.4065,28.0291],[-81.3946,28.0284],[-81.3922,28.0198],[-81.3788,28.0117],[-81.3758,28.0295],[-81.3626,28.0406],[-81.3655,28.0679],[-81.3465,28.0693],[-81.3464,28.0847],[-81.4558,28.0849],[-81.4562,28.1432],[-81.5242,28.1428],[-81.5241,28.201],[-81.5575,28.2594],[-81.6572,28.2592],[-81.6573,28.3471],[-81.7907,28.3464],[-81.7909,28.3618],[-81.8576,28.3619],[-81.8575,28.346],[-81.9576,28.3452],[-81.9578,28.3089],[-81.9748,28.3105],[-81.9858,28.3053],[-81.9953,28.3186],[-82.0076,28.3232],[-82.0451,28.3185],[-82.0558,28.3128],[-82.0555,28.2589],[-82.1062,28.2592],[-82.1062,28.2502]]]},"properties":{"geoid":"12012","state":"12","district":"12","name":"State Senate District 12","chamber":"Senate"}},{"type":"Feature","geometry":{"type":"Polygon","coordinates":[[[-81.9576,28.348],[-81.8575,28.346],[-81.8576,28.3619],[-81.7909,28.3618],[-81.7907,28.3464],[-81.5315,28.3473],[-81.4744,28.4119],[-81.4742,28.4501],[-81.488,28.4499],[-81.4915,28.4566],[-81.4909,28.4937],[-81.4835,28.4937],[-81.4838,28.5028],[-81.5379,28.5436],[-81.6189,28.5461],[-81.6245,28.54],[-81.6439,28.5399],[-81.6498,28.546],[-81.6573,28.5461],[-81.6572,28.5698],[-81.6527,28.5711],[-81.6481,28.5845],[-81.6572,28.5926],[-81.6586,28.7664],[-81.6465,28.7699],[-81.6465,28.7859],[-81.4147,28.7856],[-81.4197,28.8155],[-81.4163,28.8256],[-81.383,28.852],[-81.3741,28.8698],[-81.363,28.8792],[-81.3656,28.889],[-81.3572,28.8871],[-81.3526,28.8971],[-81.3602,28.9067],[-81.3567,28.9105],[-81.3592,28.9146],[-81.3519,28.9207],[-81.3554,28.9299],[-81.3497,28.9396],[-81.3553,28.9403],[-81.3537,28.9471],[-81.3594,28.9448],[-81.354,28.9496],[-81.3604,28.9517],[-81.3589,28.9559],[-81.3709,28.9583],[-81.3658,28.9609],[-81.3696,28.9689],[-81.3642,28.9686],[-81.3546,28.9844],[-81.3644,28.9927],[-81.3757,28.994],[-81.3722,28.9985],[-81.3782,28.9989],[-81.4029,29.0325],[-81.4099,29.0313],[-81.4258,29.0448],[-81.4322,29.0444],[-81.4461,29.0621],[-81.4553,29.0631],[-81.4609,29.0758],[-81.4544,29.082],[-81.4585,29.0938],[-81.4687,29.097],[-81.487,29.0929],[-81.5021,29.0978],[-81.5006,29.1035],[-81.5067,29.1122],[-81.5045,29.1237],[-81.5231,29.1569],[-81.5226,29.1677],[-81.5307,29.1712],[-81.5317,29.1772],[-81.554,29.1846],[-81.5609,29.2002],[-81.6123,29.2028],[-81.6192,29.2285],[-81.634,29.2448],[-81.6419,29.2768],[-81.6387,29.0478],[-81.6592,29.0478],[-81.6587,28.9603],[-81.9542,28.9601],[-81.9576,28.348]]]},"properties":{"geoid":"12013","state":"12","district":"13","name":"State Senate District 13","chamber":"Senate"}},{"type":"Feature","geometry":{"type":"Polygon","coordinates":[[[-82.6513,28.1734],[-82.6477,27.9544],[-82.6105,27.9454],[-82.585,27.9254],[-82.5736,27.8884],[-82.5639,27.8134],[-82.4503,27.8126],[-82.4508,27.892],[-82.4365,27.9024],[-82.4608,27.9467],[-82.4673,27.9501],[-82.4727,27.9447],[-82.4851,27.9448],[-82.4849,27.9674],[-82.4753,27.9668],[-82.4816,27.973],[-82.4755,27.9815],[-82.4594,27.9815],[-82.4549,28.088],[-82.4308,28.0844],[-82.4308,28.0804],[-82.4251,28.0796],[-82.4102,28.0859],[-82.4099,28.0691],[-82.354,28.07],[-82.3547,28.0889],[-82.3679,28.1036],[-82.3806,28.1393],[-82.3946,28.1614],[-82.394,28.1713],[-82.6513,28.1734]]]},"properties":{"geoid":"12014","state":"12","district":"14","name":"State Senate District 14","chamber":"Senate"}},{"type":"Feature","geometry":{"type":"Polygon","coordinates":[[[-81.6586,28.7428],[-81.6572,28.5926],[-81.6481,28.5845],[-81.6527,28.5711],[-81.6572,28.5698],[-81.6573,28.5461],[-81.6498,28.546],[-81.6439,28.5399],[-81.6245,28.54],[-81.6189,28.5461],[-81.5396,28.5447],[-81.4838,28.5028],[-81.4835,28.4937],[-81.4909,28.4937],[-81.4927,28.4824],[-81.488,28.4499],[-81.3669,28.451],[-81.3835,28.5351],[-81.3753,28.5848],[-81.3862,28.5973],[-81.3867,28.6115],[-81.3828,28.6076],[-81.3821,28.6116],[-81.3754,28.6117],[-81.3757,28.6209],[-81.4065,28.622],[-81.407,28.6185],[-81.4149,28.6184],[-81.4152,28.6401],[-81.4597,28.6402],[-81.4595,28.7133],[-81.4414,28.7151],[-81.4228,28.7369],[-81.4157,28.7597],[-81.4146,28.7856],[-81.6465,28.7859],[-81.6465,28.7699],[-81.6586,28.7664],[-81.6586,28.7428]]]},"properties":{"geoid":"12015","state":"12","district":"15","name":"State Senate District 15","chamber":"Senate"}},{"type":"Feature","geometry":{"type":"Polygon","coordinates":[[[-82.7123,27.7845],[-82.7121,27.7646],[-82.6998,27.7627],[-82.6997,27.7447],[-82.6874,27.7447],[-82.6965,27.7338],[-82.6793,27.7265],[-82.677,27.655],[-82.6729,27.6451],[-82.4523,27.6459],[-82.4415,27.6521],[-82.4193,27.688],[-82.3863,27.7095],[-82.3828,27.7346],[-82.3711,27.7349],[-82.3579,27.7428],[-82.3352,27.7408],[-82.335,27.8003],[-82.3267,27.8462],[-82.3312,27.9005],[-82.3229,27.9207],[-82.3334,27.9231],[-82.3267,27.9621],[-82.3268,27.9971],[-82.3301,28.0161],[-82.3511,28.0409],[-82.354,28.07],[-82.4099,28.0691],[-82.4102,28.0859],[-82.4251,28.0796],[-82.4308,28.0804],[-82.4308,28.0844],[-82.4549,28.088],[-82.4594,27.9815],[-82.4755,27.9815],[-82.4808,27.9755],[-82.4753,27.9668],[-82.4849,27.9674],[-82.4851,27.9448],[-82.4727,27.9447],[-82.4673,27.9501],[-82.4608,27.9467],[-82.4365,27.9024],[-82.4508,27.892],[-82.4503,27.8126],[-82.5639,27.8134],[-82.5652,27.8235],[-82.5788,27.8235],[-82.6041,27.7879],[-82.6288,27.7924],[-82.6795,27.7919],[-82.6794,27.7846],[-82.7123,27.7845]]]},"properties":{"geoid":"12016","state":"12","district":"16","name":"State Senate District 16","chamber":"Senate"}},{"type":"Feature","geometry":{"type":"Polygon","coordinates":[[[-81.3833,28.5353],[-81.3669,28.4458],[-81.3334,28.4511],[-81.3346,28.4186],[-81.3433,28.4122],[-81.3322,28.3972],[-81.3097,28.3825],[-81.3096,28.3481],[-80.8629,28.3475],[-80.8736,28.3606],[-80.8731,28.3703],[-80.8819,28.3748],[-80.8796,28.3804],[-80.8885,28.3856],[-80.883,28.4082],[-80.8964,28.4185],[-80.9013,28.4335],[-80.8901,28.4454],[-80.8983,28.4551],[-80.8934,28.459],[-80.8945,28.467],[-80.8708,28.4714],[-80.8781,28.4867],[-80.8754,28.4897],[-80.8841,28.4949],[-80.8809,28.5035],[-80.8865,28.5107],[-80.9065,28.5115],[-80.907,28.5204],[-80.9195,28.5242],[-80.9234,28.5327],[-80.9393,28.535],[-80.9392,28.5418],[-80.9321,28.5424],[-80.9343,28.559],[-80.93,28.5632],[-80.9472,28.5849],[-80.9433,28.5937],[-80.953,28.6007],[-80.9519,28.6042],[-80.9685,28.6043],[-80.971,28.6112],[-80.9757,28.6078],[-80.9954,28.6132],[-81.309,28.6107],[-81.307,28.5844],[-81.3109,28.5752],[-81.3151,28.5752],[-81.3152,28.5818],[-81.3246,28.5818],[-81.3246,28.5753],[-81.3401,28.5788],[-81.3399,28.5683],[-81.3549,28.5677],[-81.3556,28.5641],[-81.3729,28.5641],[-81.3759,28.5677],[-81.3826,28.5524],[-81.3833,28.5353]]]},"properties":{"geoid":"12017","state":"12","district":"17","name":"State Senate District 17","chamber":"Senate"}},{"type":"Feature","geometry":{"type":"Polygon","coordinates":[[[-83.0205,27.881],[-83.0118,27.8206],[-82.9939,27.7777],[-82.9655,27.7339],[-82.9152,27.6841],[-82.924,27.6477],[-82.7458,27.6488],[-82.7352,27.6105],[-82.7026,27.6258],[-82.6967,27.645],[-82.6729,27.6451],[-82.677,27.655],[-82.6793,27.7265],[-82.6965,27.7338],[-82.6874,27.7447],[-82.6997,27.7447],[-82.6998,27.7627],[-82.7121,27.7646],[-82.7123,27.7845],[-82.6794,27.7846],[-82.6795,27.7919],[-82.6288,27.7924],[-82.6041,27.7879],[-82.5788,27.8235],[-82.5652,27.8235],[-82.5736,27.8884],[-82.585,27.9254],[-82.6105,27.9454],[-82.6477,27.9544],[-82.6479,27.9672],[-82.7036,27.9607],[-82.7753,27.9607],[-82.78,27.9656],[-82.7999,27.9656],[-82.8005,27.9241],[-82.8227,27.9222],[-82.8285,27.9221],[-82.8223,27.9364],[-83.0133,27.9373],[-83.0205,27.881]]]},"properties":{"geoid":"12018","state":"12","district":"18","name":"State Senate District 18","chamber":"Senate"}},{"type":"Feature","geometry":{"type":"Polygon","coordinates":[[[-80.9396,28.5408],[-80.9392,28.5349],[-80.9234,28.5327],[-80.9175,28.523],[-80.9114,28.5246],[-80.9065,28.5115],[-80.8857,28.5103],[-80.8799,28.5],[-80.8841,28.4949],[-80.8754,28.4897],[-80.8781,28.4867],[-80.8708,28.4716],[-80.8945,28.467],[-80.8934,28.459],[-80.8983,28.4551],[-80.8901,28.4454],[-80.9013,28.4335],[-80.8964,28.4185],[-80.883,28.4082],[-80.8885,28.3856],[-80.8796,28.3804],[-80.8819,28.3748],[-80.8731,28.3703],[-80.8736,28.3606],[-80.8628,28.3471],[-80.8629,28.0847],[-80.8693,28.0847],[-80.8701,28.0571],[-80.8689,27.8225],[-80.5091,27.8221],[-80.4911,27.8546],[-80.4546,27.8547],[-80.4471,27.8608],[-80.3851,27.8614],[-80.4998,28.0772],[-80.544,28.2711],[-80.5342,28.3357],[-80.5194,28.3911],[-80.4812,28.4255],[-80.4686,28.4631],[-80.4781,28.4925],[-80.5036,28.5404],[-80.5242,28.6102],[-80.5922,28.6109],[-80.6177,28.6425],[-80.6329,28.6517],[-80.6649,28.6518],[-80.6796,28.6453],[-80.6972,28.6451],[-80.6549,28.5844],[-80.6575,28.526],[-80.7811,28.5276],[-80.7859,28.5012],[-80.7799,28.4953],[-80.8323,28.4939],[-80.8508,28.5172],[-80.8515,28.5452],[-80.8605,28.5435],[-80.8604,28.5505],[-80.8884,28.5506],[-80.9013,28.5436],[-80.9396,28.5408]]]},"properties":{"geoid":"12019","state":"12","district":"19","name":"State Senate District 19","chamber":"Senate"}},{"type":"Feature","geometry":{"type":"Polygon","coordinates":[[[-82.9351,27.5953],[-82.9324,27.5588],[-82.9247,27.5321],[-82.8918,27.4602],[-82.8616,27.4237],[-82.8507,27.3914],[-82.5965,27.3893],[-82.5959,27.4294],[-82.5877,27.4312],[-82.5877,27.4358],[-82.5754,27.4367],[-82.5754,27.4477],[-82.4751,27.4459],[-82.4303,27.4322],[-82.3847,27.4317],[-82.3638,27.4192],[-82.2797,27.3876],[-82.2486,27.3868],[-82.2026,27.3633],[-82.1686,27.3521],[-82.1026,27.3113],[-82.0562,27.292],[-82.0553,27.9271],[-82.0747,27.9276],[-82.0924,27.9378],[-82.2196,27.9377],[-82.2196,27.9083],[-82.2374,27.9083],[-82.2686,27.9232],[-82.3228,27.9232],[-82.3312,27.9005],[-82.3267,27.8462],[-82.335,27.8003],[-82.3352,27.7408],[-82.3579,27.7428],[-82.3711,27.7349],[-82.3828,27.7346],[-82.3868,27.7087],[-82.4176,27.6897],[-82.439,27.6547],[-82.4523,27.6459],[-82.6967,27.645],[-82.7026,27.6258],[-82.7352,27.6105],[-82.7458,27.6488],[-82.924,27.6477],[-82.9351,27.5953]]]},"properties":{"geoid":"12020","state":"12","district":"20","name":"State Senate District 20","chamber":"Senate"}},{"type":"Feature","geometry":{"type":"Polygon","coordinates":[[[-83.0224,28.2114],[-83.0082,28.0619],[-82.9975,28.0128],[-82.9984,27.9903],[-83.0133,27.9373],[-82.8223,27.9364],[-82.8285,27.9221],[-82.8005,27.9241],[-82.7999,27.9656],[-82.78,27.9656],[-82.7753,27.9607],[-82.7036,27.9607],[-82.6479,27.9672],[-82.6513,28.1734],[-82.5357,28.1726],[-82.5461,28.1945],[-82.5501,28.2269],[-82.5521,28.3307],[-82.5824,28.3285],[-82.615,28.3394],[-82.6341,28.3316],[-82.6526,28.3304],[-82.7073,28.3313],[-82.709,28.3377],[-82.7199,28.3427],[-82.9377,28.3412],[-82.9742,28.3157],[-82.9997,28.2854],[-83.0153,28.2523],[-83.0224,28.2114]]]},"properties":{"geoid":"12021","state":"12","district":"21","name":"State Senate District 21","chamber":"Senate"}},{"type":"Feature","geometry":{"type":"Polygon","coordinates":[[[-82.8507,27.3914],[-82.8263,27.3478],[-82.7863,27.3107],[-82.7347,27.2468],[-82.7109,27.1949],[-82.6705,27.1544],[-82.6353,27.0877],[-82.6003,27.0014],[-82.5659,26.9473],[-82.2555,26.9453],[-82.2552,27.033],[-82.0575,27.0321],[-82.0562,27.292],[-82.1026,27.3113],[-82.1693,27.3525],[-82.2026,27.3633],[-82.2489,27.3869],[-82.2801,27.3878],[-82.3638,27.4192],[-82.3845,27.4316],[-82.4303,27.4322],[-82.4758,27.4459],[-82.5754,27.4477],[-82.5754,27.4367],[-82.5877,27.4358],[-82.5877,27.4312],[-82.5959,27.4294],[-82.5965,27.3893],[-82.8507,27.3914]]]},"properties":{"geoid":"12022","state":"12","district":"22","name":"State Senate District 22","chamber":"Senate"}},{"type":"Feature","geometry":{"type":"Polygon","coordinates":[[[-82.5532,28.3226],[-82.5498,28.2243],[-82.5461,28.1945],[-82.5357,28.1726],[-82.394,28.1713],[-82.3946,28.1614],[-82.3806,28.1393],[-82.3679,28.1036],[-82.3547,28.0889],[-82.3505,28.0394],[-82.3285,28.0122],[-82.3265,27.9649],[-82.3334,27.9231],[-82.2686,27.9232],[-82.2374,27.9083],[-82.2196,27.9083],[-82.2196,27.9377],[-82.0924,27.9378],[-82.0747,27.9276],[-82.0553,27.9271],[-82.0562,28.1717],[-82.1059,28.1718],[-82.1062,28.2502],[-82.1062,28.2592],[-82.0555,28.2589],[-82.0547,28.4784],[-82.2533,28.4785],[-82.2534,28.4348],[-82.485,28.4337],[-82.4873,28.4216],[-82.5385,28.3839],[-82.5532,28.3226]]]},"properties":{"geoid":"12023","state":"12","district":"23","name":"State Senate District 23","chamber":"Senate"}},{"type":"Feature","geometry":{"type":"Polygon","coordinates":[[[-80.1742,26.6627],[-80.1731,26.5723],[-80.0696,26.5722],[-80.0604,26.5539],[-80.049,26.5538],[-80.0501,26.5465],[-79.9853,26.545],[-79.9809,26.6636],[-79.9747,26.7026],[-79.9796,26.7503],[-79.9743,26.7924],[-79.9793,26.8142],[-80.0356,26.8147],[-80.0408,26.8361],[-80.0489,26.8358],[-80.0526,26.8438],[-80.09,26.845],[-80.1053,26.8382],[-80.1065,26.809],[-80.131,26.8096],[-80.1368,26.7149],[-80.1622,26.6851],[-80.1742,26.6627]]]},"properties":{"geoid":"12024","state":"12","district":"24","name":"State Senate District 24","chamber":"Senate"}},{"type":"Feature","geometry":{"type":"Polygon","coordinates":[[[-81.6573,28.3471],[-81.6572,28.2592],[-81.5575,28.2594],[-81.5241,28.201],[-81.5242,28.1428],[-81.4562,28.1432],[-81.4558,28.0849],[-81.3464,28.0847],[-81.3465,28.0693],[-81.3655,28.0679],[-81.3626,28.0406],[-81.3758,28.0295],[-81.3788,28.0117],[-81.3922,28.0198],[-81.3946,28.0284],[-81.4065,28.0291],[-81.4158,28.0371],[-81.428,28.0393],[-81.4411,28.0587],[-81.4574,28.0551],[-81.4588,28.0398],[-81.4486,28.0323],[-81.4386,28.0332],[-81.4159,27.9982],[-81.3869,28.0035],[-81.3765,27.9783],[-81.3498,27.9638],[-81.3498,27.9539],[-81.3368,27.9499],[-81.3382,27.9392],[-81.3459,27.9415],[-81.3467,27.9368],[-81.3178,27.9243],[-81.316,27.9285],[-81.3089,27.9221],[-81.3148,27.9006],[-81.3061,27.8862],[-81.3044,27.8704],[-81.2973,27.8627],[-81.3015,27.8652],[-81.3019,27.8621],[-81.2813,27.8575],[-81.2773,27.8508],[-81.2591,27.846],[-81.2505,27.8489],[-81.2503,27.8436],[-81.2465,27.8488],[-81.2311,27.8428],[-81.208,27.821],[-81.2086,27.8122],[-81.186,27.779],[-81.1875,27.775],[-81.1811,27.7742],[-81.173,27.7609],[-81.178,27.7589],[-81.1787,27.7521],[-81.1718,27.7432],[-81.165,27.7423],[-81.1674,27.7234],[-81.1613,27.7242],[-81.1458,27.7103],[-81.1502,27.6998],[-81.1443,27.6697],[-81.131,27.6593],[-81.1325,27.6475],[-81.1422,27.6432],[-80.8731,27.6423],[-80.8738,27.7339],[-80.8801,27.7337],[-80.8816,27.8225],[-80.8689,27.8225],[-80.8701,28.0571],[-80.8693,28.0847],[-80.8629,28.0847],[-80.8629,28.3475],[-81.3096,28.3481],[-81.3097,28.3825],[-81.3322,28.3972],[-81.3433,28.4122],[-81.3346,28.4186],[-81.3334,28.4511],[-81.3633,28.4458],[-81.3669,28.451],[-81.4742,28.4498],[-81.4752,28.4101],[-81.5315,28.3473],[-81.6573,28.3471]]]},"properties":{"geoid":"12025","state":"12","district":"25","name":"State Senate District 25","chamber":"Senate"}},{"type":"Feature","geometry":{"type":"Polygon","coordinates":[[[-80.886,26.6546],[-80.8818,26.3338],[-80.297,26.3344],[-80.2975,26.356],[-80.284,26.3643],[-80.2517,26.365],[-80.2516,26.3577],[-80.2143,26.3694],[-80.1429,26.3689],[-80.1175,26.3682],[-80.0935,26.3615],[-80.0682,26.366],[-80.0686,26.3607],[-80.0643,26.3607],[-80.0685,26.321],[-80.0153,26.321],[-80.0061,26.4328],[-79.9853,26.545],[-80.0501,26.5465],[-80.049,26.5538],[-80.0604,26.5539],[-80.0696,26.5722],[-80.1731,26.5723],[-80.1742,26.6627],[-80.1664,26.6792],[-80.3834,26.6859],[-80.4441,26.7253],[-80.6839,26.7257],[-80.6818,26.7495],[-80.689,26.7674],[-80.6897,26.788],[-80.6942,26.7982],[-80.706,26.7987],[-80.8504,26.7504],[-80.8839,26.7503],[-80.886,26.6546]]]},"properties":{"geoid":"12026","state":"12","district":"26","name":"State Senate District 26","chamber":"Senate"}},{"type":"Feature","geometry":{"type":"Polygon","coordinates":[[[-82.5659,26.9473],[-82.4988,26.8357],[-82.462,26.7874],[-82.2647,26.7894],[-82.2215,26.7818],[-82.2056,26.7705],[-81.9311,26.77],[-81.9059,26.7238],[-81.9001,26.7051],[-81.9015,26.682],[-81.8725,26.6841],[-81.8334,26.7142],[-81.8115,26.7151],[-81.7988,26.6951],[-81.7992,26.6475],[-81.8055,26.6242],[-81.803,26.6127],[-81.7757,26.6131],[-81.7648,26.6207],[-81.7361,26.621],[-81.7276,26.6167],[-81.6466,26.6161],[-81.5974,26.6008],[-81.5651,26.6003],[-81.5635,27.6466],[-81.1368,27.6443],[-81.1315,27.6494],[-81.131,27.6593],[-81.1443,27.6697],[-81.1502,27.6998],[-81.1458,27.7102],[-81.1613,27.7242],[-81.1674,27.7234],[-81.165,27.7423],[-81.1718,27.7432],[-81.1787,27.7522],[-81.178,27.7589],[-81.1729,27.76],[-81.1783,27.7708],[-81.1875,27.775],[-81.186,27.779],[-81.2018,27.805],[-81.3173,27.8067],[-81.3845,27.8674],[-81.4082,27.8768],[-81.4861,27.894],[-81.5876,27.894],[-81.6151,27.9043],[-81.6461,27.8993],[-81.7099,27.9154],[-81.7099,27.9213],[-81.7177,27.9236],[-81.7201,27.9457],[-81.7081,27.9567],[-81.7348,27.9979],[-81.7476,27.9866],[-81.7608,28.0036],[-81.8014,28.0107],[-81.8419,28.0106],[-81.8785,28.0084],[-81.9124,27.9965],[-82.0559,27.9964],[-82.0575,27.0321],[-82.2552,27.033],[-82.2555,26.9453],[-82.5659,26.9473]]]},"properties":{"geoid":"12027","state":"12","district":"27","name":"State Senate District 27","chamber":"Senate"}},{"type":"Feature","geometry":{"type":"Polygon","coordinates":[[[-82.245,26.3298],[-82.2001,26.3014],[-82.1248,26.2757],[-82.0636,26.2723],[-82.0055,26.2844],[-81.9853,26.2132],[-81.9806,26.1555],[-81.9633,26.0497],[-81.9184,25.9527],[-81.9147,25.922],[-81.905,25.8942],[-81.8737,25.8341],[-81.8482,25.8008],[-80.8731,25.8054],[-80.8726,26.0015],[-80.8858,26.6092],[-80.8856,26.9589],[-80.9453,26.7691],[-81.4349,26.7688],[-81.4349,26.7835],[-81.4491,26.7835],[-81.4593,26.7835],[-81.4595,26.7689],[-81.5657,26.7696],[-81.5651,26.6003],[-81.5974,26.6008],[-81.6466,26.6161],[-81.7276,26.6167],[-81.7361,26.621],[-81.7648,26.6207],[-81.7757,26.6131],[-81.803,26.6127],[-81.7921,26.574],[-81.7939,26.4843],[-81.7733,26.42],[-81.7714,26.3749],[-81.7547,26.352],[-81.7462,26.3169],[-81.819,26.3162],[-81.8191,26.3304],[-82.245,26.3298]]]},"properties":{"geoid":"12028","state":"12","district":"28","name":"State Senate District 28","chamber":"Senate"}},{"type":"Feature","geometry":{"type":"Polygon","coordinates":[[[-81.5657,26.7696],[-81.4595,26.7689],[-81.4593,26.7835],[-81.4491,26.7835],[-81.4349,26.7835],[-81.4349,26.7688],[-80.9453,26.7691],[-80.8856,26.9589],[-80.6774,27.1216],[-80.6779,27.206],[-80.5805,27.206],[-80.4532,27.3197],[-80.4262,27.2945],[-80.3702,27.2958],[-80.3582,27.2732],[-80.2883,27.2711],[-80.2839,27.2637],[-80.138,27.2629],[-80.2224,27.447],[-80.2293,27.4856],[-80.2498,27.519],[-80.2814,27.6212],[-80.2949,27.6393],[-80.3325,27.7612],[-80.3851,27.8614],[-80.4471,27.8608],[-80.4546,27.8547],[-80.4911,27.8546],[-80.5091,27.8221],[-80.8816,27.8225],[-80.8801,27.7337],[-80.8738,27.7339],[-80.8731,27.6423],[-81.5635,27.6466],[-81.5657,26.7696]]]},"properties":{"geoid":"12029","state":"12","district":"29","name":"State Senate District 29","chamber":"Senate"}},{"type":"Feature","geometry":{"type":"Polygon","coordinates":[[[-80.2976,26.3558],[-80.2975,26.2295],[-80.2335,26.2301],[-80.221,26.2282],[-80.2206,26.2219],[-80.2044,26.2201],[-80.2029,26.2129],[-80.1956,26.215],[-80.1955,26.209],[-80.1382,26.209],[-80.1363,26.2314],[-80.1263,26.2315],[-80.101,26.3203],[-80.0922,26.3264],[-80.0879,26.3208],[-80.0685,26.321],[-80.0643,26.3607],[-80.0722,26.3666],[-80.0931,26.3615],[-80.1184,26.3683],[-80.2135,26.3694],[-80.2509,26.3578],[-80.2517,26.365],[-80.284,26.3643],[-80.2976,26.3558]]]},"properties":{"geoid":"12030","state":"12","district":"30","name":"State Senate District 30","chamber":"Senate"}},{"type":"Feature","geometry":{"type":"Polygon","coordinates":[[[-80.8861,26.9492],[-80.8855,26.7461],[-80.8839,26.7503],[-80.8504,26.7504],[-80.706,26.7987],[-80.6942,26.7982],[-80.6818,26.7495],[-80.6839,26.7257],[-80.4441,26.7253],[-80.3834,26.6859],[-80.1664,26.6792],[-80.1368,26.7149],[-80.131,26.8096],[-80.1065,26.809],[-80.1053,26.8382],[-80.09,26.845],[-80.0526,26.8438],[-80.0489,26.8358],[-80.0408,26.8361],[-80.0356,26.8147],[-79.9793,26.8142],[-80.0391,27.0299],[-80.081,27.1253],[-80.0954,27.1806],[-80.138,27.2629],[-80.2839,27.2637],[-80.2883,27.2711],[-80.3582,27.2732],[-80.3702,27.2958],[-80.4262,27.2945],[-80.4526,27.3198],[-80.5805,27.206],[-80.6779,27.206],[-80.6774,27.1216],[-80.8856,26.9589],[-80.8861,26.9492]]]},"properties":{"geoid":"12031","state":"12","district":"31","name":"State Senate District 31","chamber":"Senate"}},{"type":"Feature","geometry":{"type":"Polygon","coordinates":[[[-80.3302,26.1185],[-80.2168,26.091],[-80.2146,26.1061],[-80.1371,26.1077],[-80.1386,26.1369],[-80.131,26.1529],[-80.1467,26.1512],[-80.1605,26.1644],[-80.1219,26.1646],[-80.117,26.1673],[-80.1189,26.1835],[-80.1319,26.1926],[-80.1324,26.206],[-80.1473,26.2118],[-80.1955,26.209],[-80.1956,26.215],[-80.2029,26.2129],[-80.2044,26.2201],[-80.2206,26.2219],[-80.221,26.2282],[-80.2975,26.2295],[-80.2981,26.189],[-80.3173,26.1702],[-80.3128,26.168],[-80.3139,26.1459],[-80.3301,26.1459],[-80.3302,26.1185]]]},"properties":{"geoid":"12032","state":"12","district":"32","name":"State Senate District 32","chamber":"Senate"}},{"type":"Feature","geometry":{"type":"Polygon","coordinates":[[[-82.462,26.7874],[-82.4316,26.7361],[-82.433,26.6752],[-82.4258,26.6381],[-82.4087,26.6012],[-82.3903,26.5753],[-82.3796,26.5369],[-82.3596,26.5027],[-82.3369,26.4246],[-82.3014,26.3727],[-82.245,26.3298],[-81.8191,26.3304],[-81.819,26.3162],[-81.7462,26.3169],[-81.7547,26.352],[-81.7714,26.3749],[-81.7733,26.42],[-81.794,26.4844],[-81.7921,26.5744],[-81.8055,26.623],[-81.7992,26.6475],[-81.7988,26.6951],[-81.8115,26.7151],[-81.8334,26.7142],[-81.8725,26.6841],[-81.9015,26.682],[-81.9001,26.7051],[-81.9059,26.7238],[-81.9311,26.77],[-82.2056,26.7705],[-82.2215,26.7818],[-82.2647,26.7894],[-82.462,26.7874]]]},"properties":{"geoid":"12033","state":"12","district":"33","name":"State Senate District 33","chamber":"Senate"}},{"type":"Feature","geometry":{"type":"Polygon","coordinates":[[[-80.2932,25.925],[-80.292,25.8986],[-80.2665,25.8848],[-80.2431,25.8828],[-80.2415,25.8386],[-80.2475,25.8354],[-80.2469,25.8238],[-80.2408,25.8239],[-80.2402,25.8091],[-80.1166,25.8123],[-80.1239,25.7867],[-80.1249,25.76],[-80.1099,25.7504],[-80.0706,25.7504],[-80.0726,25.7793],[-80.0628,25.8496],[-80.0629,25.9768],[-80.1138,25.9754],[-80.1186,25.9214],[-80.1286,25.921],[-80.1305,25.9298],[-80.1537,25.9261],[-80.147,25.9474],[-80.1805,25.9439],[-80.1851,25.9474],[-80.1671,25.9611],[-80.1657,25.9738],[-80.2788,25.971],[-80.2767,25.9251],[-80.2932,25.925]]]},"properties":{"geoid":"12034","state":"12","district":"34","name":"State Senate District 34","chamber":"Senate"}},{"type":"Feature","geometry":{"type":"Polygon","coordinates":[[[-80.8812,26.3338],[-80.8729,25.9794],[-80.68,25.9787],[-80.68,25.9569],[-80.295,25.9568],[-80.2952,25.9706],[-80.2298,25.9722],[-80.2286,25.9889],[-80.2245,25.9952],[-80.2193,25.9945],[-80.2129,26.012],[-80.2168,26.091],[-80.3302,26.1185],[-80.3301,26.1459],[-80.3139,26.1459],[-80.3128,26.168],[-80.3173,26.1702],[-80.2981,26.189],[-80.297,26.3344],[-80.8812,26.3338]]]},"properties":{"geoid":"12035","state":"12","district":"35","name":"State Senate District 35","chamber":"Senate"}},{"type":"Feature","geometry":{"type":"Polygon","coordinates":[[[-80.3696,25.7756],[-80.3677,25.7396],[-80.3276,25.7406],[-80.3186,25.733],[-80.2508,25.7352],[-80.2091,25.75],[-80.1962,25.7599],[-80.1552,25.7303],[-80.1355,25.7404],[-80.1237,25.7624],[-80.1239,25.7867],[-80.1166,25.8123],[-80.2402,25.8091],[-80.2398,25.7943],[-80.2645,25.7935],[-80.2742,25.7837],[-80.3631,25.7815],[-80.369,25.7807],[-80.3696,25.7756]]]},"properties":{"geoid":"12036","state":"12","district":"36","name":"State Senate District 36","chamber":"Senate"}},{"type":"Feature","geometry":{"type":"Polygon","coordinates":[[[-80.2302,25.9813],[-80.2298,25.9722],[-80.1657,25.9738],[-80.1671,25.9611],[-80.1851,25.9474],[-80.1805,25.9439],[-80.147,25.9474],[-80.1537,25.9261],[-80.1305,25.9298],[-80.1286,25.921],[-80.1186,25.9214],[-80.1161,25.9301],[-80.1138,25.9754],[-80.0629,25.9768],[-80.0465,26.1385],[-80.0153,26.321],[-80.0879,26.3208],[-80.0922,26.3264],[-80.1009,26.3204],[-80.1263,26.2315],[-80.1363,26.2314],[-80.1382,26.209],[-80.1324,26.206],[-80.1319,26.1926],[-80.1189,26.1835],[-80.117,26.1673],[-80.1295,26.1626],[-80.1384,26.1667],[-80.1605,26.1644],[-80.1467,26.1512],[-80.131,26.1529],[-80.1386,26.1369],[-80.1371,26.1077],[-80.2146,26.1061],[-80.2129,26.012],[-80.2302,25.9813]]]},"properties":{"geoid":"12037","state":"12","district":"37","name":"State Senate District 37","chamber":"Senate"}},{"type":"Feature","geometry":{"type":"Polygon","coordinates":[[[-80.4903,25.5388],[-80.4897,25.489],[-80.4796,25.4918],[-80.4712,25.4809],[-80.459,25.4846],[-80.4589,25.481],[-80.4339,25.4808],[-80.4193,25.4923],[-80.4172,25.4995],[-80.4123,25.4996],[-80.4121,25.4803],[-80.4049,25.4804],[-80.4038,25.4722],[-80.3404,25.4706],[-80.3341,25.4632],[-80.246,25.4646],[-80.2366,25.5315],[-80.1755,25.5477],[-80.1206,25.5341],[-80.1196,25.5413],[-80.1117,25.5403],[-80.1037,25.5649],[-80.1078,25.6066],[-80.0918,25.7211],[-80.0787,25.7334],[-80.0706,25.7504],[-80.1099,25.7504],[-80.1249,25.76],[-80.1355,25.7404],[-80.1552,25.7303],[-80.1962,25.7599],[-80.2091,25.75],[-80.2508,25.7352],[-80.3186,25.733],[-80.3276,25.7406],[-80.3637,25.7397],[-80.3638,25.7324],[-80.3757,25.7322],[-80.3749,25.7151],[-80.3837,25.7151],[-80.3894,25.6893],[-80.3865,25.6489],[-80.4903,25.5388]]]},"properties":{"geoid":"12038","state":"12","district":"38","name":"State Senate District 38","chamber":"Senate"}},{"type":"Feature","geometry":{"type":"Polygon","coordinates":[[[-80.4845,25.8905],[-80.4814,25.7609],[-80.3684,25.7613],[-80.369,25.7807],[-80.2742,25.7837],[-80.2645,25.7935],[-80.2398,25.7943],[-80.2408,25.8239],[-80.2469,25.8238],[-80.2475,25.8354],[-80.2415,25.8386],[-80.2431,25.8828],[-80.2665,25.8848],[-80.292,25.8986],[-80.2932,25.925],[-80.2767,25.9251],[-80.2788,25.971],[-80.2952,25.9706],[-80.295,25.9568],[-80.4314,25.957],[-80.4321,25.9499],[-80.4845,25.8905]]]},"properties":{"geoid":"12039","state":"12","district":"39","name":"State Senate District 39","chamber":"Senate"}},{"type":"Feature","geometry":{"type":"MultiPolygon","coordinates":[[[[-82.3251,24.5901],[-82.3265,24.5837],[-82.2154,24.5838],[-82.2223,24.5602],[-82.2173,24.5342],[-82.2032,24.5134],[-82.1786,24.4999],[-82.1557,24.4961],[-82.1003,24.5],[-82.0672,24.5237],[-82.0511,24.4968],[-82.0343,24.4825],[-81.9744,24.4712],[-81.9821,24.4454],[-81.9745,24.4208],[-81.9464,24.3993],[-81.9206,24.3963],[-81.8943,24.4057],[-81.8748,24.4031],[-81.841,24.4076],[-81.8007,24.4271],[-81.789,24.4395],[-81.7818,24.4609],[-81.7833,24.4787],[-81.7924,24.4956],[-81.7708,24.4969],[-81.7737,24.4727],[-81.7629,24.4496],[-81.7498,24.4385],[-81.7301,24.4307],[-81.6972,24.4323],[-81.6103,24.4543],[-81.5858,24.4711],[-81.565,24.4728],[-81.5399,24.486],[-81.5199,24.5126],[-81.5194,24.5306],[-81.5279,24.5533],[-81.5146,24.5648],[-81.4651,24.5529],[-81.4206,24.5706],[-81.3748,24.5715],[-81.2935,24.5967],[-81.2646,24.5992],[-81.2399,24.6171],[-81.2043,24.6312],[-81.1694,24.6346],[-81.1477,24.6491],[-81.1248,24.6366],[-81.0972,24.633],[-81.0476,24.6402],[-81.0226,24.6653],[-80.9998,24.6689],[-80.9189,24.7131],[-80.8933,24.7165],[-80.8522,24.7489],[-80.837,24.75],[-80.8125,24.7612],[-80.793,24.7597],[-80.7711,24.766],[-80.7451,24.7889],[-80.6748,24.8256],[-80.6404,24.8384],[-80.5855,24.8893],[-80.5382,24.9127],[-80.5143,24.9406],[-80.4781,24.9484],[-80.4534,24.9637],[-80.4402,24.9857],[-80.4391,24.998],[-80.4125,25.0102],[-80.3965,25.0282],[-80.3904,25.0572],[-80.3578,25.0729],[-80.3333,25.0992],[-80.3029,25.1449],[-80.2948,25.1717],[-80.2597,25.2306],[-80.2389,25.2555],[-80.2249,25.2843],[-80.191,25.3253],[-80.1766,25.3669],[-80.1544,25.3919],[-80.1391,25.4331],[-80.1171,25.4418],[-80.1006,25.4588],[-80.0943,25.4891],[-80.1008,25.5076],[-80.1151,25.5229],[-80.1117,25.5403],[-80.1196,25.5413],[-80.1206,25.5341],[-80.1755,25.5477],[-80.2366,25.5315],[-80.246,25.4646],[-80.3341,25.4632],[-80.3404,25.4706],[-80.4038,25.4722],[-80.4049,25.4804],[-80.4121,25.4803],[-80.4123,25.4996],[-80.4172,25.4995],[-80.4193,25.4923],[-80.4339,25.4808],[-80.4589,25.481],[-80.459,25.4846],[-80.4712,25.4809],[-80.4796,25.4918],[-80.4897,25.489],[-80.4897,25.5412],[-80.4478,25.5804],[-80.3865,25.6489],[-80.3894,25.6893],[-80.3837,25.7151],[-80.3749,25.7151],[-80.3757,25.7322],[-80.3638,25.7324],[-80.3684,25.7613],[-80.4814,25.7609],[-80.4842,25.8918],[-80.4321,25.9499],[-80.4314,25.957],[-80.68,25.9569],[-80.68,25.9787],[-80.8729,25.9794],[-80.8731,25.8054],[-81.8482,25.8008],[-81.8057,25.7341],[-81.7617,25.6972],[-81.721,25.6797],[-81.6797,25.6726],[-81.6202,25.6736],[-81.5762,25.686],[-81.519,25.6569],[-81.5087,25.6236],[-81.4876,25.5921],[-81.4598,25.5683],[-81.4254,25.5516],[-81.3848,25.497],[-81.358,25.4275],[-81.3252,25.3906],[-81.3149,25.3516],[-81.3402,25.264],[-81.3423,25.2248],[-81.3285,25.1764],[-81.3048,25.1324],[-81.2951,25.0979],[-81.2622,25.0509],[-81.2143,25.0192],[-81.1886,24.9948],[-81.1738,24.9749],[-81.1703,24.9621],[-81.212,24.9803],[-81.2549,24.9866],[-81.3504,24.9705],[-81.4055,24.9785],[-81.4885,24.9664],[-81.5813,24.9238],[-81.6216,24.8972],[-81.6601,24.8833],[-81.7008,24.8578],[-81.7619,24.8287],[-81.7782,24.8154],[-81.8142,24.8064],[-81.8943,24.7636],[-81.9675,24.7528],[-82.0269,24.7257],[-82.0653,24.7394],[-82.1098,24.7471],[-82.155,24.7469],[-82.2007,24.7382],[-82.2439,24.7156],[-82.2824,24.6762],[-82.3081,24.637],[-82.3251,24.5901]]],[[[-83.1087,24.6295],[-83.1035,24.58],[-83.0826,24.5369],[-83.0436,24.4986],[-82.9999,24.477],[-82.9997,24.5839],[-82.982,24.5838],[-82.9603,24.5715],[-82.9433,24.5689],[-82.9141,24.576],[-82.8959,24.5667],[-82.8721,24.5622],[-82.8485,24.5676],[-82.8282,24.5838],[-82.6567,24.5837],[-82.6441,24.6158],[-82.6399,24.6549],[-82.6453,24.6886],[-82.6551,24.7133],[-82.68,24.7485],[-82.7098,24.7731],[-82.7399,24.7884],[-82.7757,24.7982],[-82.8689,24.7981],[-82.9791,24.7761],[-83.0411,24.7409],[-83.0668,24.7198],[-83.0885,24.6921],[-83.1035,24.658],[-83.1087,24.6295]]]]},"properties":{"geoid":"12040","state":"12","district":"40","name":"State Senate District 40","chamber":"Senate"}}]}