{"type":"FeatureCollection","features":[{"type":"Feature","geometry":{"type":"Polygon","coordinates":[[[-155.7141,20.1219],[-155.7061,20.1106],[-155.6649,20.1007],[-155.6798,20.0853],[-155.6704,20.0802],[-155.6675,20.0651],[-155.641,20.0675],[-155.6418,20.0537],[-155.6285,20.0689],[-155.6252,20.0624],[-155.6203,20.0691],[-155.611,20.0573],[-155.5992,20.0897],[-155.5933,20.0726],[-155.5784,20.0721],[-155.5755,20.0484],[-155.5526,20.0533],[-155.5378,20.0626],[-155.5323,20.062],[-155.5371,20.0463],[-155.5217,20.0537],[-155.5141,20.0494],[-155.4905,20.051],[-155.4845,20.0484],[-155.4858,20.0398],[-155.472,20.0388],[-155.4932,20.0164],[-155.5028,19.9914],[-155.5001,19.982],[-155.5184,19.9571],[-155.5389,19.9655],[-155.5367,19.9498],[-155.5022,19.9255],[-155.4995,19.9037],[-155.491,19.8998],[-155.5615,19.86],[-155.58,19.8401],[-155.6095,19.824],[-155.6112,19.8159],[-155.6217,19.8166],[-155.631,19.8069],[-155.6257,19.7923],[-155.6147,19.7817],[-155.5965,19.7781],[-155.5807,19.7671],[-155.5313,19.7591],[-155.5277,19.7485],[-155.5022,19.7301],[-155.4847,19.7069],[-155.4797,19.6913],[-155.3876,19.6781],[-155.357,19.5948],[-155.3458,19.5966],[-155.3418,19.5897],[-155.1743,19.6535],[-155.1435,19.6589],[-155.1103,19.6927],[-155.1219,19.6946],[-155.1027,19.7174],[-155.0868,19.7267],[-155.0823,19.7458],[-155.0622,19.7492],[-154.9845,19.7848],[-155.0333,19.7934],[-155.0316,19.875],[-155.086,19.9417],[-155.1403,19.9895],[-155.2524,20.0634],[-155.2983,20.0815],[-155.3975,20.1328],[-155.5407,20.1802],[-155.5617,20.1836],[-155.5798,20.1804],[-155.6891,20.2452],[-155.6952,20.2005],[-155.7112,20.1543],[-155.7096,20.1374],[-155.7141,20.1219]]]},"properties":{"geoid":"15001","state":"15","district":"1","name":"State House District 1","chamber":"House"}},{"type":"Feature","geometry":{"type":"Polygon","coordinates":[[[-155.1507,19.6442],[-155.1366,19.621],[-155.1198,19.6302],[-155.1238,19.6304],[-155.1253,19.6381],[-155.1176,19.6467],[-155.1095,19.6477],[-155.1045,19.6411],[-155.0942,19.6451],[-155.0821,19.6389],[-155.0736,19.6492],[-155.062,19.638],[-155.0494,19.6468],[-155.0634,19.6679],[-155.0662,19.6849],[-155.0734,19.6843],[-155.0746,19.6944],[-155.0813,19.6939],[-155.0731,19.7034],[-155.0741,19.72],[-155.0701,19.7218],[-155.0797,19.7424],[-155.0852,19.7417],[-155.0868,19.7267],[-155.1027,19.7174],[-155.1219,19.6946],[-155.1103,19.6927],[-155.1426,19.6595],[-155.1354,19.6626],[-155.1507,19.6442]]]},"properties":{"geoid":"15002","state":"15","district":"2","name":"State House District 2","chamber":"House"}},{"type":"Feature","geometry":{"type":"Polygon","coordinates":[[[-155.1039,19.5266],[-155.0706,19.4732],[-154.9867,19.5187],[-154.9736,19.5414],[-155.0103,19.5852],[-154.9618,19.6173],[-154.9452,19.6212],[-154.9597,19.6233],[-154.9795,19.6363],[-154.9828,19.6443],[-154.9779,19.6547],[-154.9763,19.6437],[-154.9392,19.623],[-154.9475,19.6067],[-154.9306,19.5936],[-154.8832,19.6215],[-154.9115,19.662],[-154.9289,19.6736],[-154.9281,19.7045],[-154.9524,19.7568],[-154.9845,19.7848],[-155.0852,19.742],[-155.0797,19.7424],[-155.0701,19.7224],[-155.075,19.7143],[-155.0731,19.7034],[-155.0813,19.6939],[-155.0746,19.6944],[-155.0734,19.6843],[-155.0662,19.6849],[-155.0634,19.6679],[-155.0408,19.6344],[-155.0398,19.626],[-155.0608,19.5897],[-155.0583,19.578],[-155.0815,19.5595],[-155.1039,19.5266]]]},"properties":{"geoid":"15003","state":"15","district":"3","name":"State House District 3","chamber":"House"}},{"type":"Feature","geometry":{"type":"Polygon","coordinates":[[[-155.2534,19.4002],[-155.234,19.3726],[-155.2221,19.3662],[-155.2243,19.3577],[-155.2183,19.348],[-155.2008,19.3324],[-155.1859,19.3285],[-155.169,19.3168],[-155.1286,19.3145],[-155.1543,19.3026],[-155.1475,19.2928],[-155.1172,19.283],[-155.09,19.2992],[-155.0679,19.3204],[-155.0463,19.3222],[-155.0295,19.3313],[-155.0241,19.3298],[-155.0219,19.3361],[-155.0164,19.3283],[-155.0185,19.2775],[-155,19.282],[-154.9397,19.3128],[-154.889,19.3604],[-154.8479,19.3852],[-154.7861,19.4404],[-154.7579,19.5],[-154.7593,19.5365],[-154.7783,19.5599],[-154.8222,19.5933],[-154.8832,19.6215],[-154.9308,19.5937],[-154.9475,19.6067],[-154.9392,19.623],[-154.9763,19.6437],[-154.9779,19.6547],[-154.9828,19.6443],[-154.9795,19.6363],[-154.9597,19.6233],[-154.9452,19.6212],[-154.9618,19.6173],[-155.0103,19.5852],[-154.9736,19.5414],[-154.9867,19.5187],[-155.1222,19.4454],[-155.2356,19.418],[-155.2331,19.4156],[-155.2406,19.4147],[-155.2395,19.4087],[-155.2498,19.408],[-155.2534,19.4002]]]},"properties":{"geoid":"15004","state":"15","district":"4","name":"State House District 4","chamber":"House"}},{"type":"Feature","geometry":{"type":"Polygon","coordinates":[[[-156.0006,19.4704],[-155.9781,19.4458],[-155.9636,19.3865],[-155.9423,19.3395],[-155.9451,19.2967],[-155.9562,19.2599],[-155.9567,19.231],[-155.9747,19.1302],[-155.9725,19.1014],[-155.9541,19.0536],[-155.9259,19.0082],[-155.9163,19],[-155.875,18.9764],[-155.8282,18.9665],[-155.7817,18.9334],[-155.74,18.9169],[-155.7229,18.8825],[-155.6943,18.8668],[-155.663,18.8662],[-155.6391,18.875],[-155.6161,18.8902],[-155.5515,18.9518],[-155.5374,18.9891],[-155.5146,19.0156],[-155.4949,19.0716],[-155.4661,19.0954],[-155.4188,19.1142],[-155.3914,19.1444],[-155.3254,19.1713],[-155.2979,19.1995],[-155.2684,19.2195],[-155.258,19.2222],[-155.2301,19.2129],[-155.1756,19.2114],[-155.1055,19.2343],[-155.079,19.249],[-155.0832,19.25],[-155.0793,19.2541],[-155.0675,19.2553],[-155.0492,19.2673],[-155.0185,19.2775],[-155.0164,19.3283],[-155.0219,19.3361],[-155.0241,19.3298],[-155.0295,19.3313],[-155.0463,19.3222],[-155.0679,19.3204],[-155.09,19.2992],[-155.1197,19.2828],[-155.1478,19.2929],[-155.1549,19.3],[-155.1288,19.3147],[-155.169,19.3168],[-155.1859,19.3285],[-155.2008,19.3324],[-155.2183,19.348],[-155.2243,19.3577],[-155.2221,19.3662],[-155.234,19.3726],[-155.2534,19.3995],[-155.253,19.4053],[-155.2395,19.4087],[-155.2406,19.4147],[-155.2331,19.4156],[-155.2356,19.418],[-155.1222,19.4454],[-155.0706,19.4732],[-155.1039,19.5266],[-155.0815,19.5595],[-155.0583,19.578],[-155.0608,19.5897],[-155.0398,19.626],[-155.0494,19.6468],[-155.062,19.638],[-155.0736,19.6492],[-155.0821,19.6389],[-155.0942,19.6451],[-155.1045,19.6411],[-155.1095,19.6477],[-155.1176,19.6467],[-155.1253,19.6381],[-155.1238,19.6304],[-155.1198,19.6302],[-155.1366,19.621],[-155.1507,19.6442],[-155.1366,19.6624],[-155.1743,19.6535],[-155.3418,19.5897],[-155.3458,19.5966],[-155.357,19.5948],[-155.3876,19.6781],[-155.4785,19.6908],[-155.4924,19.716],[-155.5117,19.6624],[-155.5313,19.6607],[-155.538,19.6646],[-155.5646,19.6585],[-155.5641,19.6498],[-155.6719,19.6431],[-155.7057,19.6649],[-155.7147,19.665],[-155.7247,19.6725],[-155.7253,19.6668],[-155.7332,19.6715],[-155.7829,19.6374],[-155.7794,19.6281],[-155.7853,19.6136],[-155.7933,19.6072],[-155.7959,19.5879],[-155.8026,19.5831],[-155.7984,19.555],[-155.8066,19.5392],[-155.8356,19.5389],[-155.8334,19.526],[-155.92,19.5085],[-155.9183,19.4938],[-155.8951,19.4791],[-155.881,19.4607],[-155.8803,19.4166],[-155.8891,19.4323],[-155.8971,19.4215],[-155.9036,19.4252],[-155.9137,19.4215],[-155.9049,19.4105],[-155.9224,19.4091],[-155.9387,19.4732],[-156.0006,19.4704]]]},"properties":{"geoid":"15005","state":"15","district":"5","name":"State House District 5","chamber":"House"}},{"type":"Feature","geometry":{"type":"Polygon","coordinates":[[[-156.0589,19.6093],[-156.0389,19.6009],[-156.0303,19.5875],[-156.0129,19.5],[-156.0006,19.4704],[-155.9387,19.4732],[-155.9224,19.4091],[-155.9055,19.4102],[-155.9137,19.4215],[-155.9036,19.4252],[-155.8971,19.4215],[-155.8891,19.4323],[-155.8801,19.4168],[-155.8797,19.4566],[-155.8947,19.4788],[-155.9183,19.4938],[-155.92,19.5085],[-155.8334,19.526],[-155.8356,19.5389],[-155.8066,19.5392],[-155.7984,19.555],[-155.8026,19.5831],[-155.7959,19.5879],[-155.7933,19.6072],[-155.7853,19.6136],[-155.7794,19.6281],[-155.7829,19.6374],[-155.7736,19.6434],[-155.8284,19.6336],[-155.8294,19.6461],[-155.8399,19.6452],[-155.8611,19.6643],[-155.8859,19.6444],[-155.9301,19.6317],[-155.9375,19.636],[-155.9489,19.634],[-155.955,19.6496],[-155.9935,19.6368],[-156.0094,19.6386],[-156.0589,19.6093]]]},"properties":{"geoid":"15006","state":"15","district":"6","name":"State House District 6","chamber":"House"}},{"type":"Feature","geometry":{"type":"Polygon","coordinates":[[[-156.1193,19.7365],[-156.1191,19.7193],[-156.0888,19.6614],[-156.0829,19.6327],[-156.0753,19.621],[-156.0589,19.6093],[-156.0094,19.6386],[-155.9935,19.6368],[-155.955,19.6496],[-155.9489,19.634],[-155.9375,19.636],[-155.9301,19.6317],[-155.8859,19.6444],[-155.8611,19.6643],[-155.8399,19.6452],[-155.8294,19.6461],[-155.8284,19.6336],[-155.7672,19.6447],[-155.7345,19.671],[-155.7253,19.6668],[-155.7259,19.6725],[-155.6719,19.6431],[-155.5641,19.6498],[-155.5646,19.6585],[-155.538,19.6646],[-155.5313,19.6607],[-155.5117,19.6624],[-155.4924,19.716],[-155.515,19.7425],[-155.528,19.7488],[-155.5314,19.7592],[-155.5825,19.7676],[-155.5965,19.7781],[-155.6157,19.7822],[-155.6257,19.7923],[-155.6385,19.7904],[-155.6772,19.8172],[-155.6795,19.8229],[-155.7209,19.8423],[-155.7309,19.8574],[-155.7219,19.8765],[-155.7357,19.8872],[-155.7419,19.9039],[-155.7701,19.9073],[-155.7783,19.9157],[-155.7786,19.9234],[-155.7966,19.925],[-155.8075,19.9379],[-155.8298,19.9512],[-155.8213,19.9671],[-155.8129,20.0228],[-155.8289,20.029],[-155.8341,20.0373],[-155.8307,20.0314],[-155.8254,20.0325],[-155.8398,20.0508],[-155.8888,20.0259],[-155.8843,20.0183],[-155.9389,19.9615],[-155.9624,19.9092],[-156.0081,19.8927],[-156.0535,19.8435],[-156.0906,19.8211],[-156.1055,19.7973],[-156.1193,19.7365]]]},"properties":{"geoid":"15007","state":"15","district":"7","name":"State House District 7","chamber":"House"}},{"type":"Feature","geometry":{"type":"Polygon","coordinates":[[[-155.9608,20.1977],[-155.948,20.1238],[-155.9336,20.0866],[-155.8888,20.0259],[-155.8391,20.0503],[-155.8254,20.0324],[-155.8307,20.0314],[-155.8341,20.0373],[-155.8289,20.029],[-155.8129,20.0228],[-155.8213,19.9671],[-155.8296,19.9509],[-155.8075,19.9379],[-155.7966,19.925],[-155.7786,19.9234],[-155.7783,19.9157],[-155.7701,19.9073],[-155.7421,19.9041],[-155.7357,19.8872],[-155.7219,19.8765],[-155.7309,19.8574],[-155.7209,19.8423],[-155.6795,19.8229],[-155.6468,19.7946],[-155.6385,19.7904],[-155.6257,19.7923],[-155.631,19.8069],[-155.6227,19.816],[-155.6112,19.8159],[-155.6095,19.824],[-155.58,19.8401],[-155.5615,19.86],[-155.491,19.8998],[-155.4995,19.9037],[-155.5022,19.9255],[-155.5367,19.9498],[-155.5389,19.9655],[-155.5184,19.9571],[-155.5001,19.982],[-155.5028,19.9914],[-155.4932,20.0164],[-155.472,20.0388],[-155.4858,20.0398],[-155.4845,20.0484],[-155.4905,20.051],[-155.5141,20.0494],[-155.5217,20.0537],[-155.5371,20.0463],[-155.5323,20.062],[-155.5378,20.0626],[-155.5526,20.0533],[-155.5755,20.0484],[-155.5784,20.0721],[-155.5933,20.0726],[-155.5982,20.0895],[-155.6128,20.0564],[-155.6203,20.0691],[-155.6252,20.0624],[-155.6285,20.0689],[-155.6409,20.0536],[-155.6442,20.0569],[-155.641,20.0675],[-155.6677,20.0653],[-155.6704,20.0802],[-155.6798,20.0853],[-155.6649,20.1007],[-155.7061,20.1106],[-155.7141,20.1219],[-155.7096,20.1374],[-155.7112,20.1543],[-155.6952,20.2005],[-155.6891,20.2452],[-155.6999,20.2596],[-155.7348,20.2854],[-155.7929,20.3093],[-155.8368,20.3212],[-155.8924,20.3124],[-155.9176,20.2997],[-155.9424,20.2716],[-155.9577,20.235],[-155.9608,20.1977]]]},"properties":{"geoid":"15008","state":"15","district":"8","name":"State House District 8","chamber":"House"}},{"type":"Feature","geometry":{"type":"Polygon","coordinates":[[[-156.5006,20.8685],[-156.4963,20.8518],[-156.486,20.8467],[-156.4319,20.8467],[-156.4113,20.8293],[-156.399,20.837],[-156.3945,20.8458],[-156.397,20.8498],[-156.3831,20.8573],[-156.3806,20.8672],[-156.425,20.8858],[-156.4352,20.8876],[-156.4396,20.8829],[-156.4469,20.8991],[-156.4625,20.9092],[-156.4787,20.9041],[-156.4778,20.8939],[-156.4912,20.8888],[-156.493,20.8812],[-156.499,20.8801],[-156.5006,20.8685]]]},"properties":{"geoid":"15009","state":"15","district":"9","name":"State House District 9","chamber":"House"}},{"type":"Feature","geometry":{"type":"Polygon","coordinates":[[[-156.5655,20.8563],[-156.5588,20.8518],[-156.5451,20.8243],[-156.5333,20.8152],[-156.5149,20.8139],[-156.5034,20.8181],[-156.4941,20.8276],[-156.4849,20.8488],[-156.4963,20.8518],[-156.5006,20.8685],[-156.499,20.8801],[-156.493,20.8812],[-156.4912,20.8888],[-156.4778,20.8939],[-156.4849,20.9186],[-156.4978,20.9176],[-156.5027,20.9015],[-156.5039,20.9055],[-156.5089,20.9034],[-156.51,20.9088],[-156.5435,20.9085],[-156.54,20.8556],[-156.5593,20.8592],[-156.5655,20.8563]]]},"properties":{"geoid":"15010","state":"15","district":"10","name":"State House District 10","chamber":"House"}},{"type":"Feature","geometry":{"type":"Polygon","coordinates":[[[-156.5762,20.7445],[-156.5468,20.7325],[-156.5119,20.7354],[-156.4957,20.6916],[-156.5317,20.6792],[-156.5494,20.6583],[-156.499,20.6434],[-156.4843,20.6474],[-156.4633,20.6446],[-156.4585,20.642],[-156.4451,20.6008],[-156.4291,20.5932],[-156.4171,20.5971],[-156.4232,20.6054],[-156.4161,20.6248],[-156.4174,20.6357],[-156.4257,20.6389],[-156.4268,20.6438],[-156.412,20.6483],[-156.4144,20.7144],[-156.3977,20.7099],[-156.4024,20.7186],[-156.4157,20.7254],[-156.4018,20.7572],[-156.4257,20.766],[-156.4215,20.7762],[-156.4284,20.7821],[-156.4506,20.7872],[-156.4575,20.7818],[-156.4625,20.7867],[-156.4685,20.8115],[-156.4628,20.8454],[-156.4829,20.8495],[-156.495,20.8262],[-156.5069,20.8168],[-156.5076,20.8116],[-156.4965,20.8004],[-156.4866,20.797],[-156.4907,20.7921],[-156.5048,20.7901],[-156.523,20.7736],[-156.5369,20.7728],[-156.5459,20.7781],[-156.5762,20.7445]]]},"properties":{"geoid":"15011","state":"15","district":"11","name":"State House District 11","chamber":"House"}},{"type":"Feature","geometry":{"type":"Polygon","coordinates":[[[-156.4685,20.8115],[-156.4628,20.7873],[-156.4575,20.7818],[-156.4506,20.7872],[-156.4284,20.7821],[-156.4215,20.7762],[-156.4257,20.766],[-156.4018,20.7572],[-156.4157,20.7254],[-156.4024,20.7186],[-156.3977,20.7099],[-156.4144,20.7144],[-156.412,20.6483],[-156.4268,20.6438],[-156.4257,20.6389],[-156.4174,20.6357],[-156.4161,20.6248],[-156.4232,20.6054],[-156.4171,20.5971],[-156.4242,20.5942],[-156.4176,20.5836],[-156.4057,20.5786],[-156.386,20.5786],[-156.3718,20.5727],[-156.3481,20.5819],[-156.3401,20.5782],[-156.329,20.583],[-156.2893,20.5855],[-156.2442,20.6049],[-156.2549,20.6263],[-156.2538,20.6615],[-156.2403,20.6576],[-156.2415,20.6644],[-156.2367,20.6698],[-156.2276,20.664],[-156.2298,20.6759],[-156.225,20.6777],[-156.2164,20.665],[-156.1572,20.6822],[-156.1373,20.6837],[-156.1376,20.7151],[-156.1449,20.7241],[-156.1454,20.7372],[-156.1762,20.7371],[-156.2448,20.775],[-156.2518,20.7697],[-156.2643,20.788],[-156.2787,20.7974],[-156.2679,20.803],[-156.2783,20.8195],[-156.2779,20.8397],[-156.2842,20.8477],[-156.2954,20.8499],[-156.3048,20.8638],[-156.3067,20.8597],[-156.3175,20.8621],[-156.36,20.8991],[-156.3769,20.8873],[-156.3758,20.8755],[-156.3878,20.8714],[-156.3806,20.8672],[-156.382,20.859],[-156.397,20.8498],[-156.3946,20.8457],[-156.4053,20.8313],[-156.4184,20.8318],[-156.4319,20.8467],[-156.4628,20.8454],[-156.4685,20.8115]]]},"properties":{"geoid":"15012","state":"15","district":"12","name":"State House District 12","chamber":"House"}},{"type":"Feature","geometry":{"type":"MultiPolygon","coordinates":[[[[-156.756,20.5302],[-156.7528,20.5131],[-156.7443,20.5],[-156.75,20.5],[-156.75,20.4543],[-156.5461,20.4608],[-156.5122,20.4748],[-156.4894,20.5],[-156.4796,20.5296],[-156.4884,20.5585],[-156.4845,20.5791],[-156.4374,20.5439],[-156.4205,20.5366],[-156.375,20.529],[-156.3511,20.5344],[-156.2905,20.5369],[-156.25,20.5541],[-156.25,20.5503],[-156.1956,20.5772],[-156.1353,20.5698],[-156.0733,20.5984],[-156.0386,20.6007],[-156.0163,20.6124],[-156,20.6319],[-156,20.626],[-155.9615,20.6605],[-155.9328,20.7126],[-155.9268,20.7387],[-155.9268,20.7817],[-155.9391,20.8366],[-155.959,20.875],[-156,20.875],[-156,20.8521],[-156.0323,20.8599],[-156.0496,20.8705],[-156.0817,20.8807],[-156.0959,20.8985],[-156.1364,20.9174],[-156.1953,20.9715],[-156.2628,21.0022],[-156.3302,21.0055],[-156.3548,20.9938],[-156.3776,20.9898],[-156.4049,20.9742],[-156.4511,20.9688],[-156.4596,20.9762],[-156.4783,20.9403],[-156.4654,20.9088],[-156.4469,20.8991],[-156.4418,20.8843],[-156.425,20.8858],[-156.3878,20.8698],[-156.3758,20.8755],[-156.3769,20.8873],[-156.36,20.8991],[-156.3175,20.8621],[-156.3067,20.8597],[-156.3076,20.8634],[-156.3034,20.8632],[-156.2955,20.85],[-156.2842,20.8477],[-156.2779,20.8397],[-156.2784,20.8197],[-156.2679,20.803],[-156.2787,20.7974],[-156.2643,20.788],[-156.2518,20.7697],[-156.2448,20.775],[-156.1762,20.7371],[-156.1454,20.7372],[-156.1449,20.7241],[-156.1376,20.7151],[-156.1373,20.6837],[-156.1572,20.6822],[-156.2164,20.665],[-156.2246,20.6776],[-156.2298,20.6759],[-156.2276,20.664],[-156.2367,20.6698],[-156.2415,20.6644],[-156.2403,20.6576],[-156.2538,20.6615],[-156.2549,20.6263],[-156.2442,20.6049],[-156.2995,20.582],[-156.329,20.583],[-156.3401,20.5782],[-156.3481,20.5819],[-156.3718,20.5727],[-156.386,20.5786],[-156.4057,20.5786],[-156.4176,20.5836],[-156.4242,20.5942],[-156.4422,20.5981],[-156.4502,20.6094],[-156.4585,20.642],[-156.4665,20.6458],[-156.499,20.6434],[-156.5494,20.6583],[-156.5977,20.6579],[-156.6742,20.6154],[-156.7044,20.6046],[-156.7213,20.5921],[-156.7427,20.5701],[-156.756,20.5302]]],[[[-157.1162,20.9028],[-157.1127,20.875],[-157.0952,20.8472],[-157.0752,20.8273],[-157.0481,20.8205],[-157.0439,20.81],[-157.0476,20.7901],[-157.0452,20.7705],[-157.0273,20.7287],[-157,20.6969],[-156.9738,20.6868],[-156.9106,20.6933],[-156.875,20.691],[-156.8454,20.7117],[-156.817,20.7198],[-156.7823,20.75],[-156.75,20.8076],[-156.75,20.8267],[-156.7575,20.8508],[-156.8233,20.9308],[-156.8685,20.9644],[-156.9051,20.9759],[-156.9898,20.9851],[-157.0495,20.979],[-157.0999,20.9486],[-157.1112,20.9312],[-157.1162,20.9028]]],[[[-157.3663,21.1167],[-157.3665,21.101],[-157.3584,21.0836],[-157.3212,21.0507],[-157.2314,21.0431],[-157.1295,21.0486],[-157.1028,21.058],[-157.0776,21.0584],[-157.0502,21.0427],[-157.0106,21.0355],[-156.9739,21.0218],[-156.9631,21.0129],[-156.9145,20.9976],[-156.8779,20.9934],[-156.875,21],[-156.83,21.0023],[-156.8016,21.022],[-156.7853,21.0245],[-156.75,21.047],[-156.75,21.0438],[-156.7081,21.0722],[-156.694,21.0878],[-156.6726,21.0957],[-156.6577,21.1149],[-156.6505,21.1343],[-156.6563,21.1707],[-156.6674,21.1932],[-156.6865,21.2105],[-156.7221,21.2261],[-156.7948,21.2342],[-156.8409,21.2232],[-156.8535,21.2227],[-156.8861,21.2343],[-156.9103,21.2296],[-156.9274,21.2566],[-156.9713,21.2744],[-156.9903,21.2735],[-157.0091,21.2659],[-157.0302,21.2439],[-157.0574,21.2442],[-157.125,21.2571],[-157.159,21.2579],[-157.1995,21.2765],[-157.2313,21.2757],[-157.25,21.2803],[-157.2813,21.2726],[-157.3053,21.2529],[-157.3145,21.2304],[-157.3117,21.2041],[-157.3288,21.1878],[-157.3499,21.1571],[-157.3663,21.1167]]]]},"properties":{"geoid":"15013","state":"15","district":"13","name":"State House District 13","chamber":"House"}},{"type":"Feature","geometry":{"type":"Polygon","coordinates":[[[-156.7524,20.9241],[-156.75,20.9051],[-156.7394,20.8888],[-156.7375,20.8679],[-156.7286,20.8517],[-156.6847,20.804],[-156.6519,20.7722],[-156.625,20.7631],[-156.625,20.75],[-156.5869,20.75],[-156.5772,20.7431],[-156.5459,20.7781],[-156.5369,20.7728],[-156.523,20.7736],[-156.5142,20.7843],[-156.4866,20.797],[-156.4965,20.8004],[-156.5076,20.8116],[-156.5069,20.8168],[-156.5321,20.8147],[-156.5427,20.8213],[-156.5588,20.8518],[-156.5656,20.8562],[-156.5593,20.8592],[-156.54,20.8556],[-156.5425,20.9091],[-156.51,20.9088],[-156.5089,20.9034],[-156.5039,20.9055],[-156.5027,20.9015],[-156.4978,20.9176],[-156.4944,20.9149],[-156.4898,20.9195],[-156.4849,20.9186],[-156.4787,20.9041],[-156.4654,20.9087],[-156.4783,20.9403],[-156.4596,20.9762],[-156.4675,20.988],[-156.4754,21.0192],[-156.4907,21.0354],[-156.5595,21.0823],[-156.591,21.0924],[-156.6181,21.0905],[-156.6704,21.0767],[-156.6909,21.0535],[-156.7085,21.0432],[-156.735,21.0057],[-156.75,20.9608],[-156.7524,20.9241]]]},"properties":{"geoid":"15014","state":"15","district":"14","name":"State House District 14","chamber":"House"}},{"type":"Feature","geometry":{"type":"Polygon","coordinates":[[[-159.6919,22.1625],[-159.6908,22.1569],[-159.6467,22.1406],[-159.6165,22.1577],[-159.5971,22.1605],[-159.5807,22.1422],[-159.5798,22.1354],[-159.5474,22.1073],[-159.5365,22.0885],[-159.5394,22.0857],[-159.5022,22.0726],[-159.4929,22.0594],[-159.4873,22.0664],[-159.4604,22.0599],[-159.4429,22.0666],[-159.4242,22.0625],[-159.4209,22.0731],[-159.4121,22.0672],[-159.3886,22.0854],[-159.3793,22.084],[-159.3686,22.0927],[-159.3567,22.0891],[-159.3498,22.0918],[-159.3317,22.0727],[-159.3379,22.061],[-159.3421,22.0641],[-159.3517,22.0604],[-159.3579,22.0529],[-159.3561,22.0472],[-159.3399,22.0499],[-159.3348,22.0443],[-159.3065,22.0359],[-159.2729,22.0366],[-159.259,22.0729],[-159.25,22.0841],[-159.2426,22.1119],[-159.2458,22.1668],[-159.2655,22.2039],[-159.2913,22.2336],[-159.3343,22.2665],[-159.3557,22.2697],[-159.4029,22.2905],[-159.4328,22.278],[-159.484,22.2859],[-159.5247,22.2755],[-159.5474,22.2831],[-159.5749,22.283],[-159.613,22.2722],[-159.6919,22.1625]]]},"properties":{"geoid":"15015","state":"15","district":"15","name":"State House District 15","chamber":"House"}},{"type":"Feature","geometry":{"type":"Polygon","coordinates":[[[-159.5085,22.0214],[-159.497,21.9835],[-159.4762,21.9787],[-159.4682,21.9606],[-159.4892,21.9378],[-159.4931,21.9242],[-159.4854,21.9222],[-159.4818,21.9264],[-159.4807,21.9399],[-159.477,21.9279],[-159.4678,21.9389],[-159.4577,21.9195],[-159.4443,21.9363],[-159.4046,21.928],[-159.3995,21.9077],[-159.3843,21.9011],[-159.3549,21.8679],[-159.3398,21.8864],[-159.308,21.9087],[-159.2844,21.9406],[-159.2792,21.9653],[-159.2837,22.0185],[-159.2729,22.0366],[-159.3065,22.0359],[-159.3465,22.0511],[-159.3561,22.0472],[-159.3579,22.0529],[-159.3517,22.0604],[-159.3421,22.0641],[-159.3379,22.061],[-159.3317,22.0727],[-159.3498,22.0918],[-159.3567,22.0891],[-159.3686,22.0927],[-159.3793,22.084],[-159.3886,22.0854],[-159.4121,22.0672],[-159.4209,22.0731],[-159.4242,22.0625],[-159.4429,22.0666],[-159.4604,22.0599],[-159.4873,22.0664],[-159.4929,22.0594],[-159.5011,22.0718],[-159.5,22.0568],[-159.5061,22.0549],[-159.5026,22.0331],[-159.5085,22.0214]]]},"properties":{"geoid":"15016","state":"15","district":"16","name":"State House District 16","chamber":"House"}},{"type":"Feature","geometry":{"type":"MultiPolygon","coordinates":[[[[-159.851,22.0275],[-159.8436,22],[-159.8386,22],[-159.8086,21.9529],[-159.7936,21.9398],[-159.7358,21.9122],[-159.7117,21.9076],[-159.6729,21.875],[-159.6248,21.8439],[-159.5879,21.8455],[-159.5377,21.8343],[-159.5,21.8336],[-159.4625,21.8195],[-159.444,21.8178],[-159.4039,21.835],[-159.3549,21.8679],[-159.3843,21.9011],[-159.3995,21.9077],[-159.4046,21.928],[-159.4443,21.9363],[-159.4577,21.9195],[-159.4678,21.9389],[-159.477,21.9279],[-159.4807,21.9399],[-159.4818,21.9264],[-159.4854,21.9222],[-159.4931,21.9242],[-159.4892,21.9378],[-159.4682,21.9606],[-159.4759,21.9785],[-159.497,21.9835],[-159.5029,21.9973],[-159.5085,22.0204],[-159.5026,22.0331],[-159.5061,22.0549],[-159.5,22.0568],[-159.5011,22.0718],[-159.5394,22.0857],[-159.5365,22.0885],[-159.5474,22.1073],[-159.5798,22.1354],[-159.5807,22.1422],[-159.5971,22.1605],[-159.6165,22.1577],[-159.6467,22.1406],[-159.691,22.157],[-159.691,22.1676],[-159.6192,22.2668],[-159.6773,22.2271],[-159.75,22.1994],[-159.7728,22.1811],[-159.7888,22.1601],[-159.794,22.1346],[-159.8377,22.0942],[-159.8481,22.0761],[-159.851,22.0275]]],[[[-160.3044,21.8538],[-160.2985,21.7905],[-160.2782,21.7578],[-160.2658,21.7462],[-160.2183,21.7288],[-160.1773,21.7356],[-160.1553,21.7572],[-160.1419,21.799],[-160.122,21.825],[-160.093,21.8299],[-160.0594,21.8456],[-160.031,21.8694],[-160.0229,21.8965],[-160.0275,21.9312],[-160,21.9681],[-159.9972,21.9925],[-160.0183,22.03],[-160.0422,22.0495],[-160.0567,22.0683],[-160.1003,22.0825],[-160.125,22.0811],[-160.1404,22.0733],[-160.1514,22.0605],[-160.174,21.9915],[-160.1995,21.9813],[-160.2427,21.9439],[-160.2647,21.9359],[-160.2799,21.9206],[-160.3044,21.8538]]],[[[-160.6009,21.6582],[-160.5907,21.625],[-160.5707,21.6067],[-160.5462,21.6004],[-160.5204,21.6049],[-160.4962,21.6189],[-160.4829,21.6403],[-160.4832,21.6652],[-160.4941,21.6905],[-160.5088,21.7032],[-160.5317,21.712],[-160.5503,21.7121],[-160.5783,21.7002],[-160.5919,21.6859],[-160.6009,21.6582]]]]},"properties":{"geoid":"15017","state":"15","district":"17","name":"State House District 17","chamber":"House"}},{"type":"Feature","geometry":{"type":"Polygon","coordinates":[[[-157.7236,21.25],[-157.7232,21.2104],[-157.6894,21.2092],[-157.6758,21.2138],[-157.6077,21.2691],[-157.5979,21.2951],[-157.5976,21.3138],[-157.6479,21.3139],[-157.6514,21.3086],[-157.6604,21.3081],[-157.6788,21.3203],[-157.715,21.317],[-157.7075,21.289],[-157.7211,21.2805],[-157.7236,21.25]]]},"properties":{"geoid":"15018","state":"15","district":"18","name":"State House District 18","chamber":"House"}},{"type":"Feature","geometry":{"type":"Polygon","coordinates":[[[-157.7928,21.2795],[-157.7845,21.2783],[-157.7801,21.2678],[-157.7645,21.2555],[-157.7601,21.2564],[-157.7601,21.2144],[-157.7453,21.2217],[-157.7232,21.2104],[-157.7211,21.2805],[-157.7075,21.289],[-157.715,21.317],[-157.7259,21.3241],[-157.7371,21.323],[-157.7581,21.3313],[-157.7708,21.3076],[-157.7844,21.2981],[-157.7877,21.2819],[-157.7928,21.2795]]]},"properties":{"geoid":"15019","state":"15","district":"19","name":"State House District 19","chamber":"House"}},{"type":"Feature","geometry":{"type":"Polygon","coordinates":[[[-157.8281,21.2107],[-157.8281,21.2008],[-157.8102,21.1992],[-157.7909,21.2017],[-157.7601,21.2144],[-157.7601,21.2564],[-157.7645,21.2555],[-157.7801,21.2678],[-157.7845,21.2783],[-157.7972,21.2789],[-157.8129,21.2878],[-157.8142,21.2818],[-157.8265,21.283],[-157.8164,21.2738],[-157.8272,21.2714],[-157.8281,21.2107]]]},"properties":{"geoid":"15020","state":"15","district":"20","name":"State House District 20","chamber":"House"}},{"type":"Feature","geometry":{"type":"Polygon","coordinates":[[[-157.8118,21.2969],[-157.8106,21.2857],[-157.7915,21.2793],[-157.7844,21.2981],[-157.7708,21.3076],[-157.7581,21.3313],[-157.7792,21.3358],[-157.7955,21.3081],[-157.8118,21.2969]]]},"properties":{"geoid":"15021","state":"15","district":"21","name":"State House District 21","chamber":"House"}},{"type":"Feature","geometry":{"type":"Polygon","coordinates":[[[-157.8352,21.299],[-157.8106,21.2857],[-157.8106,21.2994],[-157.7955,21.3081],[-157.7792,21.3358],[-157.7872,21.3411],[-157.7891,21.3532],[-157.8214,21.3306],[-157.8137,21.3309],[-157.8249,21.3224],[-157.8352,21.299]]]},"properties":{"geoid":"15022","state":"15","district":"22","name":"State House District 22","chamber":"House"}},{"type":"Feature","geometry":{"type":"Polygon","coordinates":[[[-157.8463,21.2943],[-157.8142,21.2818],[-157.8131,21.288],[-157.8316,21.2974],[-157.8395,21.3002],[-157.8463,21.2943]]]},"properties":{"geoid":"15023","state":"15","district":"23","name":"State House District 23","chamber":"House"}},{"type":"Feature","geometry":{"type":"Polygon","coordinates":[[[-157.8455,21.2799],[-157.8272,21.2714],[-157.8164,21.2738],[-157.8265,21.283],[-157.8204,21.2847],[-157.8237,21.2876],[-157.8398,21.292],[-157.8455,21.2799]]]},"properties":{"geoid":"15024","state":"15","district":"24","name":"State House District 24","chamber":"House"}},{"type":"Feature","geometry":{"type":"Polygon","coordinates":[[[-157.8698,21.2956],[-157.8611,21.2903],[-157.8666,21.2927],[-157.8658,21.2197],[-157.8281,21.2008],[-157.8272,21.2714],[-157.8455,21.2795],[-157.8399,21.2897],[-157.8465,21.2938],[-157.8395,21.3002],[-157.8546,21.3146],[-157.8648,21.3095],[-157.8636,21.3034],[-157.8698,21.2956]]]},"properties":{"geoid":"15025","state":"15","district":"25","name":"State House District 25","chamber":"House"}},{"type":"Feature","geometry":{"type":"Polygon","coordinates":[[[-157.8532,21.3128],[-157.845,21.3022],[-157.8353,21.2987],[-157.8249,21.3224],[-157.8137,21.3309],[-157.8214,21.3306],[-157.8141,21.3348],[-157.8245,21.3301],[-157.8334,21.3186],[-157.8532,21.3128]]]},"properties":{"geoid":"15026","state":"15","district":"26","name":"State House District 26","chamber":"House"}},{"type":"Feature","geometry":{"type":"Polygon","coordinates":[[[-157.863,21.3301],[-157.8537,21.3265],[-157.8602,21.3214],[-157.8532,21.3128],[-157.8372,21.317],[-157.7891,21.3532],[-157.7894,21.3621],[-157.8097,21.3693],[-157.863,21.3301]]]},"properties":{"geoid":"15027","state":"15","district":"27","name":"State House District 27","chamber":"House"}},{"type":"Feature","geometry":{"type":"Polygon","coordinates":[[[-157.8907,21.3135],[-157.8881,21.299],[-157.8614,21.29],[-157.8698,21.2956],[-157.8636,21.3034],[-157.8648,21.3095],[-157.8546,21.3146],[-157.8602,21.3214],[-157.8537,21.3265],[-157.8632,21.3312],[-157.8803,21.3152],[-157.8907,21.3135]]]},"properties":{"geoid":"15028","state":"15","district":"28","name":"State House District 28","chamber":"House"}},{"type":"Feature","geometry":{"type":"Polygon","coordinates":[[[-157.8804,21.3419],[-157.863,21.3305],[-157.811,21.3678],[-157.8108,21.3756],[-157.8236,21.385],[-157.8273,21.3833],[-157.8605,21.3623],[-157.8804,21.3419]]]},"properties":{"geoid":"15029","state":"15","district":"29","name":"State House District 29","chamber":"House"}},{"type":"Feature","geometry":{"type":"Polygon","coordinates":[[[-157.9724,21.2574],[-157.9727,21.2526],[-157.9636,21.2577],[-157.9315,21.2483],[-157.8987,21.2499],[-157.8813,21.2393],[-157.8658,21.2197],[-157.8666,21.2927],[-157.8881,21.299],[-157.8908,21.3134],[-157.8803,21.3152],[-157.8652,21.3306],[-157.8797,21.3411],[-157.8918,21.3339],[-157.9273,21.339],[-157.9346,21.3491],[-157.9697,21.3427],[-157.9676,21.3095],[-157.9724,21.2574]]]},"properties":{"geoid":"15030","state":"15","district":"30","name":"State House District 30","chamber":"House"}},{"type":"Feature","geometry":{"type":"Polygon","coordinates":[[[-157.9735,21.3665],[-157.9697,21.3427],[-157.9346,21.3491],[-157.9268,21.3389],[-157.8921,21.3339],[-157.8837,21.3378],[-157.8951,21.348],[-157.8999,21.3611],[-157.9126,21.3547],[-157.9213,21.3564],[-157.9252,21.3516],[-157.9312,21.3705],[-157.9467,21.369],[-157.9619,21.3816],[-157.9669,21.3701],[-157.9735,21.3665]]]},"properties":{"geoid":"15031","state":"15","district":"31","name":"State House District 31","chamber":"House"}},{"type":"Feature","geometry":{"type":"Polygon","coordinates":[[[-157.9563,21.3758],[-157.9467,21.369],[-157.9312,21.3705],[-157.9252,21.3516],[-157.9213,21.3564],[-157.9126,21.3547],[-157.8999,21.3611],[-157.8951,21.348],[-157.8837,21.3378],[-157.8605,21.3623],[-157.8236,21.385],[-157.8241,21.3951],[-157.8389,21.402],[-157.8382,21.4175],[-157.8465,21.4201],[-157.8897,21.4017],[-157.9148,21.3847],[-157.9195,21.3721],[-157.941,21.3887],[-157.9461,21.3835],[-157.9523,21.3863],[-157.9563,21.3758]]]},"properties":{"geoid":"15032","state":"15","district":"32","name":"State House District 32","chamber":"House"}},{"type":"Feature","geometry":{"type":"Polygon","coordinates":[[[-157.9543,21.4032],[-157.9509,21.4014],[-157.953,21.3929],[-157.948,21.3911],[-157.9523,21.3863],[-157.9355,21.3867],[-157.9252,21.3729],[-157.9195,21.3721],[-157.9148,21.3847],[-157.8894,21.4019],[-157.8434,21.4203],[-157.866,21.4304],[-157.9038,21.4142],[-157.9134,21.4029],[-157.9276,21.4093],[-157.9322,21.4222],[-157.9484,21.4146],[-157.9543,21.4032]]]},"properties":{"geoid":"15033","state":"15","district":"33","name":"State House District 33","chamber":"House"}},{"type":"Feature","geometry":{"type":"Polygon","coordinates":[[[-157.9789,21.3798],[-157.9697,21.3686],[-157.9619,21.3816],[-157.9566,21.3752],[-157.948,21.3909],[-157.953,21.3929],[-157.9509,21.4014],[-157.9543,21.4032],[-157.9484,21.4146],[-157.9336,21.4218],[-157.9276,21.4093],[-157.9134,21.4029],[-157.9038,21.4142],[-157.888,21.4222],[-157.8592,21.4294],[-157.8725,21.4398],[-157.875,21.4563],[-157.919,21.446],[-157.9388,21.4345],[-157.9556,21.4333],[-157.965,21.4255],[-157.9693,21.4143],[-157.9605,21.4166],[-157.9692,21.4046],[-157.9667,21.402],[-157.977,21.4014],[-157.9703,21.3938],[-157.9781,21.3933],[-157.9743,21.3898],[-157.9775,21.3901],[-157.9789,21.3798]]]},"properties":{"geoid":"15034","state":"15","district":"34","name":"State House District 34","chamber":"House"}},{"type":"Feature","geometry":{"type":"Polygon","coordinates":[[[-158.013,21.3716],[-158.0028,21.3554],[-157.982,21.3499],[-157.9708,21.338],[-157.9735,21.3665],[-157.9693,21.37],[-157.9789,21.3798],[-157.9775,21.3901],[-157.9743,21.3898],[-157.9781,21.3933],[-157.9711,21.392],[-157.977,21.4014],[-157.9667,21.402],[-157.9692,21.4046],[-157.9605,21.4166],[-157.9694,21.4141],[-157.9681,21.4201],[-157.9788,21.4066],[-157.9866,21.4039],[-157.992,21.4147],[-158.0025,21.4088],[-158.0102,21.4142],[-158.0096,21.3961],[-157.9937,21.3978],[-158.0065,21.3837],[-158.0072,21.3712],[-158.013,21.3716]]]},"properties":{"geoid":"15035","state":"15","district":"35","name":"State House District 35","chamber":"House"}},{"type":"Feature","geometry":{"type":"Polygon","coordinates":[[[-158.0256,21.3827],[-158.021,21.3832],[-158.0177,21.3727],[-158.0076,21.3708],[-158.0065,21.3837],[-157.9937,21.3978],[-158.007,21.3976],[-158.0256,21.3873],[-158.0256,21.3827]]]},"properties":{"geoid":"15036","state":"15","district":"36","name":"State House District 36","chamber":"House"}},{"type":"Feature","geometry":{"type":"Polygon","coordinates":[[[-158.0302,21.4313],[-158.0268,21.4262],[-158.0087,21.4257],[-158.0032,21.409],[-157.992,21.4147],[-157.9882,21.404],[-157.9823,21.4042],[-157.9561,21.4331],[-157.9388,21.4345],[-157.919,21.446],[-157.8748,21.4584],[-157.8872,21.4636],[-157.8904,21.4839],[-157.9255,21.471],[-157.9369,21.4737],[-157.9632,21.4662],[-157.9738,21.4694],[-157.9928,21.4585],[-157.9884,21.4686],[-157.9925,21.4714],[-158.0066,21.4632],[-158.0081,21.4531],[-158.0156,21.4511],[-158.0134,21.4438],[-158.0256,21.441],[-158.029,21.4492],[-158.0302,21.4313]]]},"properties":{"geoid":"15037","state":"15","district":"37","name":"State House District 37","chamber":"House"}},{"type":"Feature","geometry":{"type":"Polygon","coordinates":[[[-158.0291,21.4517],[-158.0256,21.441],[-158.0134,21.4438],[-158.0156,21.4511],[-158.0081,21.4531],[-158.0066,21.4632],[-157.9925,21.4714],[-157.9884,21.4686],[-157.9928,21.4585],[-157.9738,21.4694],[-157.9632,21.4662],[-157.9369,21.4737],[-157.9322,21.4704],[-157.9108,21.4744],[-157.9072,21.4796],[-157.8904,21.4839],[-157.8921,21.4929],[-157.8962,21.5016],[-157.9013,21.5015],[-157.9993,21.4843],[-158.0146,21.4753],[-158.0088,21.4709],[-158.0131,21.4694],[-158.0105,21.4666],[-158.0171,21.461],[-158.0235,21.4624],[-158.0291,21.4517]]]},"properties":{"geoid":"15038","state":"15","district":"38","name":"State House District 38","chamber":"House"}},{"type":"Feature","geometry":{"type":"Polygon","coordinates":[[[-158.1012,21.4137],[-158.0993,21.3877],[-158.0787,21.3682],[-158.0577,21.3697],[-158.037,21.3492],[-158.0283,21.3534],[-158.0291,21.3604],[-158.022,21.354],[-158.0216,21.3586],[-158.0074,21.3592],[-158.0127,21.3731],[-158.0177,21.3727],[-158.021,21.3832],[-158.0256,21.3827],[-158.0256,21.3873],[-158.0096,21.3961],[-158.0122,21.4087],[-158.0102,21.4142],[-158.0065,21.4123],[-158.0058,21.4194],[-158.0127,21.4282],[-158.0248,21.4241],[-158.0367,21.4262],[-158.058,21.4348],[-158.0597,21.4419],[-158.09,21.454],[-158.0974,21.4401],[-158.0904,21.4354],[-158.0902,21.4274],[-158.1012,21.4137]]]},"properties":{"geoid":"15039","state":"15","district":"39","name":"State House District 39","chamber":"House"}},{"type":"Feature","geometry":{"type":"Polygon","coordinates":[[[-158.0295,21.3585],[-158.0226,21.3326],[-158.0102,21.3125],[-157.9902,21.314],[-157.9873,21.2497],[-157.9727,21.2526],[-157.9676,21.3095],[-157.9708,21.338],[-157.982,21.3499],[-157.9956,21.3559],[-158.0216,21.3586],[-158.022,21.354],[-158.0295,21.3585]]]},"properties":{"geoid":"15040","state":"15","district":"40","name":"State House District 40","chamber":"House"}},{"type":"Feature","geometry":{"type":"Polygon","coordinates":[[[-158.182,21.3412],[-158.1644,21.2723],[-158.1493,21.2517],[-158.1348,21.2424],[-158.0916,21.2379],[-157.9873,21.2497],[-157.9902,21.314],[-158.0099,21.3123],[-158.0252,21.3414],[-158.0756,21.3232],[-158.1147,21.3332],[-158.1289,21.3493],[-158.182,21.3412]]]},"properties":{"geoid":"15041","state":"15","district":"41","name":"State House District 41","chamber":"House"}},{"type":"Feature","geometry":{"type":"Polygon","coordinates":[[[-158.0727,21.3421],[-158.0669,21.3359],[-158.0717,21.3295],[-158.0681,21.3251],[-158.0252,21.3414],[-158.0284,21.3533],[-158.037,21.3492],[-158.0402,21.3555],[-158.055,21.3624],[-158.0727,21.3421]]]},"properties":{"geoid":"15042","state":"15","district":"42","name":"State House District 42","chamber":"House"}},{"type":"Feature","geometry":{"type":"Polygon","coordinates":[[[-158.1148,21.3639],[-158.1105,21.3683],[-158.1001,21.368],[-158.1008,21.3409],[-158.1042,21.3411],[-158.0953,21.3354],[-158.0986,21.3287],[-158.0756,21.3232],[-158.0682,21.3252],[-158.0717,21.3295],[-158.0669,21.3359],[-158.0727,21.3421],[-158.0532,21.3609],[-158.0577,21.3697],[-158.0783,21.3681],[-158.0884,21.3739],[-158.0993,21.3877],[-158.1001,21.3992],[-158.1134,21.3771],[-158.1076,21.3754],[-158.1148,21.3639]]]},"properties":{"geoid":"15043","state":"15","district":"43","name":"State House District 43","chamber":"House"}},{"type":"Feature","geometry":{"type":"Polygon","coordinates":[[[-158.2386,21.4032],[-158.2319,21.3811],[-158.2222,21.3682],[-158.1888,21.3535],[-158.182,21.3412],[-158.1289,21.3493],[-158.1131,21.3325],[-158.0986,21.3287],[-158.0953,21.3351],[-158.1042,21.3411],[-158.1008,21.3409],[-158.1001,21.368],[-158.1105,21.3683],[-158.1148,21.3639],[-158.1076,21.3754],[-158.1134,21.3771],[-158.0978,21.4008],[-158.1012,21.4135],[-158.1215,21.4129],[-158.1319,21.4022],[-158.1318,21.4132],[-158.1386,21.4211],[-158.16,21.4256],[-158.1632,21.4218],[-158.174,21.4299],[-158.1908,21.4266],[-158.1878,21.4031],[-158.2386,21.4032]]]},"properties":{"geoid":"15044","state":"15","district":"44","name":"State House District 44","chamber":"House"}},{"type":"Feature","geometry":{"type":"Polygon","coordinates":[[[-158.3188,21.5503],[-158.3287,21.546],[-158.2987,21.5247],[-158.3014,21.4968],[-158.2902,21.4968],[-158.2859,21.4652],[-158.2576,21.4255],[-158.2401,21.4115],[-158.2386,21.4032],[-158.1878,21.4031],[-158.1908,21.4266],[-158.174,21.4299],[-158.1632,21.4218],[-158.16,21.4256],[-158.1386,21.4211],[-158.1318,21.4132],[-158.1319,21.4022],[-158.1215,21.4129],[-158.1012,21.4135],[-158.0902,21.4274],[-158.0904,21.4354],[-158.0974,21.4401],[-158.0935,21.4544],[-158.1073,21.4735],[-158.1321,21.4802],[-158.1324,21.4882],[-158.1472,21.4981],[-158.1424,21.5077],[-158.1574,21.5093],[-158.1737,21.5192],[-158.1762,21.5283],[-158.1919,21.5357],[-158.195,21.5446],[-158.2179,21.549],[-158.2669,21.5719],[-158.3188,21.5503]]]},"properties":{"geoid":"15045","state":"15","district":"45","name":"State House District 45","chamber":"House"}},{"type":"Feature","geometry":{"type":"Polygon","coordinates":[[[-158.3446,21.5832],[-158.3422,21.5643],[-158.3287,21.546],[-158.2669,21.5719],[-158.2179,21.549],[-158.195,21.5446],[-158.1919,21.5357],[-158.1762,21.5283],[-158.1737,21.5192],[-158.1574,21.5093],[-158.1424,21.5077],[-158.1472,21.4981],[-158.1324,21.4882],[-158.1321,21.4802],[-158.1073,21.4735],[-158.0934,21.453],[-158.0792,21.4513],[-158.0597,21.4419],[-158.0548,21.4329],[-158.0275,21.4244],[-158.0291,21.4517],[-158.0235,21.4624],[-158.0122,21.4641],[-158.0131,21.4694],[-158.0088,21.4709],[-158.0152,21.4743],[-158.0024,21.4828],[-157.9013,21.5012],[-157.9229,21.5328],[-157.9606,21.5323],[-157.9938,21.5238],[-158.0003,21.5294],[-158.0052,21.5243],[-158.0169,21.5273],[-158.0226,21.521],[-158.0445,21.5171],[-158.046,21.5134],[-158.0719,21.5214],[-158.1083,21.5592],[-158.1297,21.568],[-158.1283,21.5745],[-158.1346,21.5865],[-158.122,21.5875],[-158.126,21.5925],[-158.1261,21.6635],[-158.1488,21.642],[-158.175,21.632],[-158.2472,21.6311],[-158.3119,21.6218],[-158.335,21.6046],[-158.3446,21.5832]]]},"properties":{"geoid":"15046","state":"15","district":"46","name":"State House District 46","chamber":"House"}},{"type":"Feature","geometry":{"type":"Polygon","coordinates":[[[-158.1346,21.5865],[-158.1283,21.5745],[-158.1297,21.568],[-158.1083,21.5592],[-158.0719,21.5214],[-158.046,21.5134],[-158.0445,21.5171],[-158.0226,21.521],[-158.0169,21.5273],[-158.0052,21.5243],[-158.0003,21.5294],[-157.9938,21.5238],[-157.9606,21.5323],[-157.9283,21.5334],[-157.9207,21.5319],[-157.9143,21.5171],[-157.9023,21.5023],[-157.8968,21.5015],[-157.8984,21.5304],[-157.886,21.5361],[-157.8855,21.5411],[-157.8773,21.5442],[-157.8782,21.5508],[-157.859,21.5632],[-157.8451,21.5563],[-157.8343,21.537],[-157.7863,21.5555],[-157.802,21.5901],[-157.8441,21.6218],[-157.8602,21.6655],[-157.8814,21.7052],[-157.9418,21.7546],[-157.9783,21.763],[-157.9972,21.7616],[-158.0309,21.7431],[-158.0501,21.7399],[-158.0955,21.703],[-158.1202,21.6573],[-158.1222,21.6657],[-158.1261,21.6635],[-158.126,21.5925],[-158.122,21.5875],[-158.1346,21.5865]]]},"properties":{"geoid":"15047","state":"15","district":"47","name":"State House District 47","chamber":"House"}},{"type":"Feature","geometry":{"type":"Polygon","coordinates":[[[-157.8986,21.5197],[-157.8948,21.5167],[-157.8962,21.4996],[-157.8872,21.4636],[-157.8758,21.4612],[-157.8725,21.4398],[-157.8385,21.4179],[-157.8387,21.4032],[-157.8294,21.402],[-157.817,21.4057],[-157.8162,21.4147],[-157.8078,21.4201],[-157.8053,21.4164],[-157.7881,21.4179],[-157.7837,21.4123],[-157.7812,21.4658],[-157.7472,21.491],[-157.6557,21.4919],[-157.7026,21.5187],[-157.7509,21.5165],[-157.781,21.5446],[-157.7863,21.5555],[-157.8343,21.537],[-157.8451,21.5563],[-157.859,21.5632],[-157.8782,21.5508],[-157.8773,21.5442],[-157.8855,21.5411],[-157.886,21.5361],[-157.8984,21.5304],[-157.8986,21.5197]]]},"properties":{"geoid":"15048","state":"15","district":"48","name":"State House District 48","chamber":"House"}},{"type":"Feature","geometry":{"type":"Polygon","coordinates":[[[-157.8391,21.4031],[-157.8241,21.3951],[-157.8236,21.385],[-157.8108,21.3756],[-157.8097,21.3693],[-157.7906,21.364],[-157.7872,21.3411],[-157.759,21.3319],[-157.7494,21.346],[-157.7599,21.3498],[-157.7646,21.3605],[-157.7607,21.3777],[-157.776,21.3793],[-157.7808,21.375],[-157.779,21.382],[-157.7905,21.3846],[-157.797,21.3936],[-157.7891,21.398],[-157.789,21.4049],[-157.7775,21.4107],[-157.7804,21.4149],[-157.7837,21.4123],[-157.7881,21.4179],[-157.8053,21.4164],[-157.8078,21.4201],[-157.8162,21.4147],[-157.8187,21.4045],[-157.8391,21.4031]]]},"properties":{"geoid":"15049","state":"15","district":"49","name":"State House District 49","chamber":"House"}},{"type":"Feature","geometry":{"type":"Polygon","coordinates":[[[-157.797,21.3936],[-157.7905,21.3846],[-157.779,21.382],[-157.7808,21.375],[-157.776,21.3793],[-157.7607,21.3777],[-157.7646,21.3605],[-157.7599,21.3498],[-157.7494,21.346],[-157.7457,21.3554],[-157.736,21.3599],[-157.74,21.3898],[-157.732,21.3913],[-157.7302,21.3974],[-157.6351,21.4057],[-157.6522,21.4391],[-157.6418,21.4582],[-157.6428,21.4723],[-157.6557,21.4919],[-157.7472,21.491],[-157.7812,21.4658],[-157.7833,21.4129],[-157.7775,21.4107],[-157.789,21.4049],[-157.7891,21.398],[-157.797,21.3936]]]},"properties":{"geoid":"15050","state":"15","district":"50","name":"State House District 50","chamber":"House"}},{"type":"Feature","geometry":{"type":"MultiPolygon","coordinates":[[[[-176.0434,27.7959],[-176.0396,27.7582],[-176.0293,27.7427],[-176,27.7161],[-176,27.7093],[-175.9696,27.6934],[-175.9395,27.6882],[-175.8952,27.6992],[-175.845,27.7285],[-175.8029,27.7235],[-175.7461,27.7327],[-175.7341,27.7389],[-175.7262,27.75],[-175.6656,27.875],[-175.6648,27.9144],[-175.6701,27.9416],[-175.7044,27.9827],[-175.7349,28],[-175.7697,28.0075],[-175.8101,28.0059],[-175.875,27.9759],[-175.9357,27.9406],[-175.9663,27.9299],[-175.9814,27.9132],[-175.9921,27.8895],[-175.9938,27.875],[-175.9889,27.8619],[-175.9782,27.848],[-175.9558,27.8331],[-175.921,27.8214],[-175.9243,27.8137],[-175.9746,27.8302],[-176,27.8305],[-176,27.8353],[-176.025,27.8216],[-176.0434,27.7959]]],[[[-157.759,21.332],[-157.7384,21.3233],[-157.7259,21.3241],[-157.7169,21.3171],[-157.6783,21.3202],[-157.6604,21.3081],[-157.6514,21.3086],[-157.6479,21.3139],[-157.5976,21.3138],[-157.6023,21.3415],[-157.6285,21.3766],[-157.6351,21.4057],[-157.7302,21.3974],[-157.732,21.3913],[-157.74,21.3898],[-157.736,21.3599],[-157.7457,21.3554],[-157.759,21.332]]],[[[-161.9876,23.0699],[-161.9854,23.0411],[-161.9761,23.0256],[-161.9552,23.0092],[-161.9319,23.0053],[-161.8942,23.0094],[-161.875,23.0192],[-161.8633,23.0366],[-161.8581,23.0608],[-161.863,23.0852],[-161.875,23.1016],[-161.8876,23.1104],[-161.9194,23.114],[-161.9654,23.105],[-161.9825,23.0913],[-161.9876,23.0699]]],[[[-164.7648,23.5817],[-164.7626,23.5585],[-164.75,23.5361],[-164.723,23.5218],[-164.7013,23.517],[-164.6733,23.5211],[-164.654,23.5352],[-164.64,23.5761],[-164.6446,23.5945],[-164.6541,23.6071],[-164.6889,23.6234],[-164.7246,23.6211],[-164.7401,23.6144],[-164.7581,23.599],[-164.7648,23.5817]]],[[[-166.3865,23.8464],[-166.3788,23.8236],[-166.375,23.8246],[-166.3563,23.8059],[-166.3368,23.7996],[-166.3226,23.7991],[-166.3136,23.8037],[-166.3237,23.771],[-166.3158,23.7401],[-166.3026,23.7287],[-166.286,23.7181],[-166.2656,23.7131],[-166.25,23.7139],[-166.25,23.7182],[-166.2268,23.7274],[-166.2228,23.7049],[-166.2054,23.6916],[-166.224,23.6725],[-166.2323,23.6416],[-166.2242,23.6148],[-166.2111,23.5998],[-166.1944,23.5895],[-166.1722,23.5871],[-166.1512,23.5905],[-166.1168,23.6113],[-166.1107,23.625],[-166.1171,23.625],[-166.1138,23.6523],[-166.133,23.6847],[-166.125,23.6901],[-166.125,23.6861],[-166.1135,23.6971],[-166.1059,23.7135],[-166.1068,23.7425],[-166.1167,23.7542],[-166.1185,23.7667],[-166.125,23.7729],[-166.125,23.7661],[-166.1482,23.7855],[-166.1535,23.8189],[-166.1697,23.8374],[-166.1648,23.851],[-166.1659,23.875],[-166.1704,23.8885],[-166.1823,23.9023],[-166.2043,23.9172],[-166.25,23.9324],[-166.25,23.9289],[-166.3071,23.9249],[-166.3247,23.918],[-166.3301,23.9083],[-166.3514,23.9029],[-166.3805,23.884],[-166.3865,23.8464]]],[[[-168.0582,25],[-168.0584,24.9879],[-168.0378,24.9597],[-168,24.9481],[-167.9668,24.9549],[-167.9537,24.9644],[-167.9442,24.9898],[-167.9524,25.0235],[-167.9725,25.0412],[-168,25.0522],[-168.027,25.0448],[-168.0421,25.0354],[-168.0506,25.0259],[-168.0582,25]]],[[[-170.6846,25.5063],[-170.6796,25.4855],[-170.6682,25.4707],[-170.6496,25.4594],[-170.6297,25.4557],[-170.6087,25.4592],[-170.5916,25.4686],[-170.5782,25.4851],[-170.5732,25.5051],[-170.5773,25.5254],[-170.5885,25.5412],[-170.6087,25.5536],[-170.6308,25.5571],[-170.6505,25.5532],[-170.6694,25.5414],[-170.6808,25.525],[-170.6846,25.5063]]],[[[-171.8096,25.7814],[-171.797,25.7405],[-171.7702,25.7182],[-171.7375,25.7065],[-171.6998,25.7169],[-171.6869,25.7279],[-171.6741,25.75],[-171.6777,25.75],[-171.6679,25.7812],[-171.6766,25.8109],[-171.6883,25.8238],[-171.7106,25.8332],[-171.75,25.8335],[-171.75,25.8379],[-171.7681,25.8337],[-171.787,25.8223],[-171.8001,25.8058],[-171.8096,25.7814]]],[[[-174.0674,26.0596],[-174.0592,26.0207],[-174.0461,26.0023],[-174.0272,25.9933],[-174,25.9902],[-173.926,26.0196],[-173.9131,26.036],[-173.9034,26.0601],[-173.9134,26.0994],[-173.9291,26.1201],[-173.9579,26.1357],[-173.9814,26.1332],[-174.0071,26.1371],[-174.0311,26.1291],[-174.0525,26.113],[-174.0674,26.0596]]],[[[-178.4436,28.419],[-178.4405,28.4052],[-178.4159,28.3801],[-178.4115,28.3607],[-178.3956,28.3419],[-178.375,28.3354],[-178.2889,28.3288],[-178.25,28.3472],[-178.233,28.375],[-178.2371,28.375],[-178.2305,28.3977],[-178.2322,28.4273],[-178.2385,28.4561],[-178.257,28.4765],[-178.2888,28.5],[-178.2811,28.5],[-178.3151,28.5163],[-178.3606,28.5138],[-178.375,28.5101],[-178.3864,28.5],[-178.3958,28.5],[-178.4276,28.4661],[-178.4383,28.4441],[-178.4436,28.419]]]]},"properties":{"geoid":"15051","state":"15","district":"51","name":"State House District 51","chamber":"House"}}]}