{"type":"FeatureCollection","features":[{"type":"Feature","geometry":{"type":"Polygon","coordinates":[[[-155.3962,19.6935],[-155.3402,19.5581],[-155.2996,19.5196],[-155.2337,19.5562],[-155.1861,19.5745],[-155.1691,19.5782],[-155.1776,19.5705],[-155.1613,19.5596],[-155.128,19.5899],[-155.0481,19.6477],[-154.9562,19.7608],[-154.9859,19.7855],[-155.0333,19.7934],[-155.0316,19.875],[-155.0832,19.9375],[-155.123,19.9051],[-155.1147,19.8874],[-155.0975,19.875],[-155.105,19.8698],[-155.0919,19.8647],[-155.084,19.8513],[-155.1191,19.8349],[-155.1482,19.8334],[-155.1451,19.8446],[-155.1559,19.8411],[-155.1572,19.8459],[-155.1626,19.8426],[-155.168,19.8491],[-155.193,19.8311],[-155.2574,19.8162],[-155.2663,19.8207],[-155.2933,19.8056],[-155.3134,19.8091],[-155.3355,19.8035],[-155.3431,19.7773],[-155.3894,19.7265],[-155.3962,19.6935]]]},"properties":{"geoid":"15001","state":"15","district":"1","name":"State Senate District 1","chamber":"Senate"}},{"type":"Feature","geometry":{"type":"Polygon","coordinates":[[[-155.2579,19.544],[-155.2408,19.5286],[-155.2274,19.536],[-155.1949,19.4956],[-155.1922,19.4994],[-155.1788,19.4948],[-155.1867,19.4838],[-155.1844,19.4784],[-155.1933,19.4837],[-155.1893,19.4679],[-155.1717,19.4574],[-155.1993,19.4491],[-155.2429,19.4225],[-155.2331,19.4156],[-155.2406,19.4147],[-155.24,19.4084],[-155.253,19.4053],[-155.2514,19.3947],[-155.234,19.3726],[-155.2223,19.3665],[-155.222,19.3534],[-155.2008,19.3324],[-155.1859,19.3285],[-155.169,19.3168],[-155.1288,19.3147],[-155.1549,19.3],[-155.1478,19.2929],[-155.1193,19.2827],[-155.09,19.2992],[-155.0679,19.3204],[-155.0463,19.3222],[-155.0295,19.3313],[-155.0241,19.3298],[-155.0219,19.3361],[-155.0164,19.3283],[-155.0185,19.2775],[-155,19.282],[-154.9397,19.3128],[-154.889,19.3604],[-154.8479,19.3852],[-154.7861,19.4404],[-154.7579,19.5],[-154.7558,19.5153],[-154.7593,19.5365],[-154.7783,19.5599],[-154.8222,19.5933],[-154.8814,19.62],[-154.9115,19.662],[-154.9289,19.6736],[-154.9281,19.7045],[-154.9562,19.7608],[-155.0481,19.6477],[-155.128,19.5899],[-155.1613,19.5596],[-155.1776,19.5705],[-155.1699,19.5782],[-155.221,19.5622],[-155.2579,19.544]]]},"properties":{"geoid":"15002","state":"15","district":"2","name":"State Senate District 2","chamber":"Senate"}},{"type":"Feature","geometry":{"type":"Polygon","coordinates":[[[-156.0589,19.6093],[-156.0389,19.6009],[-156.0303,19.5875],[-156.0129,19.5],[-155.9991,19.4662],[-155.9781,19.4458],[-155.9636,19.3865],[-155.9423,19.3395],[-155.9451,19.2967],[-155.9562,19.2599],[-155.9567,19.231],[-155.9747,19.1302],[-155.9725,19.1014],[-155.9541,19.0536],[-155.9216,19.0038],[-155.875,18.9764],[-155.8282,18.9665],[-155.7817,18.9334],[-155.74,18.9169],[-155.7229,18.8825],[-155.706,18.8703],[-155.663,18.8662],[-155.6391,18.875],[-155.6161,18.8902],[-155.5515,18.9518],[-155.5374,18.9891],[-155.5146,19.0156],[-155.4949,19.0716],[-155.4661,19.0954],[-155.4188,19.1142],[-155.3914,19.1444],[-155.3254,19.1713],[-155.2979,19.1995],[-155.2684,19.2195],[-155.258,19.2222],[-155.2301,19.2129],[-155.1756,19.2114],[-155.1055,19.2343],[-155.079,19.249],[-155.0832,19.25],[-155.0793,19.2541],[-155.0675,19.2553],[-155.0492,19.2673],[-155.0185,19.2775],[-155.0164,19.3283],[-155.0219,19.3361],[-155.0241,19.3298],[-155.0295,19.3313],[-155.0463,19.3222],[-155.0679,19.3204],[-155.09,19.2992],[-155.1193,19.2827],[-155.1478,19.2929],[-155.1549,19.3],[-155.1288,19.3147],[-155.1705,19.3173],[-155.1859,19.3285],[-155.2008,19.3324],[-155.2183,19.348],[-155.2243,19.3577],[-155.2221,19.3662],[-155.2338,19.3724],[-155.2459,19.3873],[-155.253,19.4053],[-155.2395,19.4087],[-155.2406,19.4147],[-155.2331,19.4156],[-155.2429,19.4225],[-155.2184,19.4393],[-155.1717,19.4574],[-155.1893,19.4679],[-155.1933,19.4837],[-155.1844,19.4784],[-155.1867,19.4838],[-155.1788,19.4948],[-155.1922,19.4994],[-155.1949,19.4956],[-155.2274,19.536],[-155.2408,19.5286],[-155.2582,19.5438],[-155.2996,19.5196],[-155.3413,19.5608],[-155.3424,19.4648],[-155.4271,19.5345],[-155.4815,19.5476],[-155.5557,19.5039],[-155.5962,19.5243],[-155.5995,19.5184],[-155.6175,19.5314],[-155.6343,19.5609],[-155.6361,19.574],[-155.673,19.6056],[-155.685,19.627],[-155.7086,19.6335],[-155.7263,19.6684],[-155.7347,19.6709],[-155.7672,19.6447],[-155.8284,19.6336],[-155.8294,19.6461],[-155.8399,19.6452],[-155.8611,19.6643],[-155.8657,19.6588],[-155.8876,19.68],[-155.8845,19.6958],[-155.9037,19.7027],[-155.9063,19.7079],[-155.9119,19.7045],[-155.924,19.7076],[-155.9458,19.6922],[-155.9679,19.6872],[-155.9747,19.6868],[-155.9918,19.6984],[-156.0058,19.6891],[-156.0243,19.6928],[-156.0381,19.6895],[-156.027,19.6691],[-156.0426,19.6669],[-156.0409,19.6512],[-156.0357,19.6408],[-156.0223,19.6309],[-156.0589,19.6093]]]},"properties":{"geoid":"15003","state":"15","district":"3","name":"State Senate District 3","chamber":"Senate"}},{"type":"Feature","geometry":{"type":"Polygon","coordinates":[[[-156.1193,19.7365],[-156.1191,19.7193],[-156.0888,19.6614],[-156.0829,19.6327],[-156.0753,19.621],[-156.0589,19.6093],[-156.0223,19.6309],[-156.0357,19.6408],[-156.0409,19.6512],[-156.0426,19.6669],[-156.027,19.6691],[-156.0381,19.6895],[-156.0243,19.6928],[-156.0058,19.6891],[-155.9918,19.6984],[-155.9747,19.6868],[-155.9679,19.6872],[-155.9458,19.6922],[-155.924,19.7076],[-155.9119,19.7045],[-155.9063,19.7079],[-155.9037,19.7027],[-155.8845,19.6958],[-155.8876,19.68],[-155.8657,19.6588],[-155.8611,19.6643],[-155.8399,19.6452],[-155.8294,19.6461],[-155.8284,19.6336],[-155.7672,19.6447],[-155.7347,19.6709],[-155.7263,19.6684],[-155.7152,19.6406],[-155.7042,19.6303],[-155.685,19.627],[-155.673,19.6056],[-155.6361,19.574],[-155.6343,19.5609],[-155.6183,19.5324],[-155.5995,19.5184],[-155.5962,19.5243],[-155.5551,19.504],[-155.4815,19.5476],[-155.4271,19.5345],[-155.3424,19.4648],[-155.3413,19.5608],[-155.3902,19.6846],[-155.3969,19.6906],[-155.3894,19.7265],[-155.3431,19.7773],[-155.3355,19.8035],[-155.3134,19.8091],[-155.2933,19.8056],[-155.2663,19.8207],[-155.2574,19.8162],[-155.193,19.8311],[-155.168,19.8491],[-155.1626,19.8426],[-155.1572,19.8459],[-155.1559,19.8411],[-155.1451,19.8446],[-155.1482,19.8334],[-155.1191,19.8349],[-155.084,19.8513],[-155.0919,19.8647],[-155.105,19.8698],[-155.0975,19.875],[-155.1147,19.8874],[-155.123,19.9051],[-155.0832,19.9375],[-155.1403,19.9895],[-155.2524,20.0634],[-155.4414,20.1501],[-155.5407,20.1802],[-155.5821,20.1813],[-155.6888,20.2448],[-155.7022,20.2616],[-155.7515,20.2945],[-155.7748,20.2986],[-155.7929,20.3093],[-155.8295,20.3199],[-155.8667,20.3193],[-155.9069,20.3061],[-155.9264,20.2918],[-155.948,20.2617],[-155.9595,20.2215],[-155.9577,20.1676],[-155.9447,20.1149],[-155.9323,20.0834],[-155.8843,20.0183],[-155.9389,19.9615],[-155.9624,19.9092],[-156.0081,19.8927],[-156.0535,19.8435],[-156.0906,19.8211],[-156.1055,19.7973],[-156.1193,19.7365]]]},"properties":{"geoid":"15004","state":"15","district":"4","name":"State Senate District 4","chamber":"Senate"}},{"type":"Feature","geometry":{"type":"Polygon","coordinates":[[[-156.5935,20.8729],[-156.5711,20.8631],[-156.5656,20.8562],[-156.5593,20.8592],[-156.5133,20.8555],[-156.5048,20.8499],[-156.5033,20.8712],[-156.4989,20.8709],[-156.4758,20.8619],[-156.486,20.8467],[-156.4319,20.8467],[-156.4113,20.8293],[-156.399,20.837],[-156.3945,20.8458],[-156.397,20.8498],[-156.3831,20.8573],[-156.3806,20.8672],[-156.425,20.8858],[-156.4352,20.8876],[-156.4396,20.8829],[-156.4469,20.8991],[-156.4654,20.9088],[-156.4783,20.9403],[-156.4596,20.9762],[-156.4675,20.988],[-156.4754,21.0192],[-156.4907,21.0354],[-156.5595,21.0823],[-156.5853,21.0911],[-156.5836,20.9994],[-156.5888,20.9885],[-156.5783,20.9458],[-156.5789,20.9265],[-156.5716,20.9173],[-156.583,20.902],[-156.5748,20.893],[-156.5872,20.891],[-156.5935,20.8729]]]},"properties":{"geoid":"15005","state":"15","district":"5","name":"State Senate District 5","chamber":"Senate"}},{"type":"Feature","geometry":{"type":"Polygon","coordinates":[[[-156.7524,20.9241],[-156.75,20.9051],[-156.7394,20.8888],[-156.7375,20.8679],[-156.7286,20.8517],[-156.6599,20.7784],[-156.6401,20.7651],[-156.625,20.7631],[-156.625,20.75],[-156.5869,20.75],[-156.5468,20.7325],[-156.5119,20.7354],[-156.4957,20.6916],[-156.5317,20.6792],[-156.5494,20.6583],[-156.499,20.6434],[-156.4843,20.6474],[-156.4633,20.6446],[-156.4585,20.642],[-156.4451,20.6008],[-156.4291,20.5932],[-156.4171,20.5971],[-156.4232,20.6054],[-156.4161,20.6248],[-156.4174,20.6357],[-156.4257,20.6389],[-156.4268,20.6438],[-156.412,20.6483],[-156.4144,20.7144],[-156.3977,20.7099],[-156.4024,20.7186],[-156.4157,20.7254],[-156.4018,20.7572],[-156.4257,20.766],[-156.4216,20.7691],[-156.4243,20.7787],[-156.4077,20.7805],[-156.4021,20.8073],[-156.406,20.8124],[-156.4053,20.8313],[-156.4184,20.8318],[-156.4319,20.8467],[-156.486,20.8467],[-156.4758,20.8619],[-156.5001,20.8712],[-156.5033,20.8712],[-156.5048,20.8499],[-156.5133,20.8555],[-156.5593,20.8592],[-156.5656,20.8562],[-156.5711,20.8631],[-156.5939,20.8724],[-156.5872,20.891],[-156.5748,20.893],[-156.583,20.902],[-156.5716,20.9173],[-156.5789,20.9265],[-156.5783,20.9458],[-156.5888,20.9885],[-156.5836,20.9994],[-156.5853,21.0911],[-156.6059,21.0926],[-156.6704,21.0767],[-156.6909,21.0535],[-156.7085,21.0432],[-156.735,21.0057],[-156.75,20.9608],[-156.7524,20.9241]]]},"properties":{"geoid":"15006","state":"15","district":"6","name":"State Senate District 6","chamber":"Senate"}},{"type":"Feature","geometry":{"type":"MultiPolygon","coordinates":[[[[-156.756,20.5302],[-156.7528,20.5131],[-156.7443,20.5],[-156.75,20.5],[-156.75,20.4543],[-156.5461,20.4608],[-156.5122,20.4748],[-156.4894,20.5],[-156.4796,20.5296],[-156.4884,20.5585],[-156.4845,20.5791],[-156.4374,20.5439],[-156.4205,20.5366],[-156.375,20.529],[-156.3511,20.5344],[-156.2905,20.5369],[-156.25,20.5541],[-156.25,20.5503],[-156.1956,20.5772],[-156.1353,20.5698],[-156.0733,20.5984],[-156.0386,20.6007],[-156.0163,20.6124],[-156,20.6319],[-156,20.626],[-155.9615,20.6605],[-155.9328,20.7126],[-155.9268,20.7387],[-155.9268,20.7817],[-155.9391,20.8366],[-155.959,20.875],[-156,20.875],[-156,20.8521],[-156.0323,20.8599],[-156.0496,20.8705],[-156.0817,20.8807],[-156.0959,20.8985],[-156.1364,20.9174],[-156.1953,20.9715],[-156.2628,21.0022],[-156.3302,21.0055],[-156.3548,20.9938],[-156.3776,20.9898],[-156.4049,20.9742],[-156.4511,20.9688],[-156.4596,20.9762],[-156.4783,20.9403],[-156.4654,20.9088],[-156.4469,20.8991],[-156.4396,20.8829],[-156.4352,20.8876],[-156.425,20.8858],[-156.3806,20.8672],[-156.3831,20.8573],[-156.397,20.8498],[-156.3946,20.8457],[-156.4059,20.8294],[-156.4021,20.8073],[-156.4078,20.7802],[-156.4244,20.7784],[-156.4216,20.7691],[-156.4257,20.766],[-156.4018,20.7572],[-156.4157,20.7254],[-156.4024,20.7186],[-156.3977,20.7099],[-156.4144,20.7144],[-156.412,20.6483],[-156.4268,20.6438],[-156.4257,20.6389],[-156.4174,20.6357],[-156.4161,20.6248],[-156.4232,20.6054],[-156.4171,20.5971],[-156.428,20.593],[-156.4436,20.5993],[-156.4585,20.642],[-156.4665,20.6458],[-156.499,20.6434],[-156.5494,20.6583],[-156.5977,20.6579],[-156.6742,20.6154],[-156.7044,20.6046],[-156.7213,20.5921],[-156.7427,20.5701],[-156.756,20.5302]]],[[[-157.1162,20.9028],[-157.1127,20.875],[-157.0952,20.8472],[-157.0752,20.8273],[-157.0481,20.8205],[-157.0439,20.81],[-157.0476,20.7901],[-157.0452,20.7705],[-157.0273,20.7287],[-157,20.6969],[-156.9738,20.6868],[-156.9106,20.6933],[-156.875,20.691],[-156.8454,20.7117],[-156.817,20.7198],[-156.7823,20.75],[-156.75,20.8076],[-156.75,20.8267],[-156.7575,20.8508],[-156.8233,20.9308],[-156.8685,20.9644],[-156.9051,20.9759],[-156.9898,20.9851],[-157.0495,20.979],[-157.0999,20.9486],[-157.1112,20.9312],[-157.1162,20.9028]]],[[[-157.3663,21.1167],[-157.3665,21.101],[-157.3584,21.0836],[-157.3212,21.0507],[-157.2314,21.0431],[-157.1295,21.0486],[-157.1028,21.058],[-157.0776,21.0584],[-157.0502,21.0427],[-157.0106,21.0355],[-156.9739,21.0218],[-156.9631,21.0129],[-156.9145,20.9976],[-156.8779,20.9934],[-156.875,21],[-156.83,21.0023],[-156.8016,21.022],[-156.7853,21.0245],[-156.75,21.047],[-156.75,21.0438],[-156.7081,21.0722],[-156.694,21.0878],[-156.6726,21.0957],[-156.6577,21.1149],[-156.6505,21.1343],[-156.6563,21.1707],[-156.6674,21.1932],[-156.6865,21.2105],[-156.7221,21.2261],[-156.7948,21.2342],[-156.8409,21.2232],[-156.8535,21.2227],[-156.8861,21.2343],[-156.9103,21.2296],[-156.9274,21.2566],[-156.9713,21.2744],[-156.9903,21.2735],[-157.0091,21.2659],[-157.0302,21.2439],[-157.0574,21.2442],[-157.125,21.2571],[-157.159,21.2579],[-157.1995,21.2765],[-157.2313,21.2757],[-157.25,21.2803],[-157.2813,21.2726],[-157.3053,21.2529],[-157.3145,21.2304],[-157.3117,21.2041],[-157.3288,21.1878],[-157.3499,21.1571],[-157.3663,21.1167]]]]},"properties":{"geoid":"15007","state":"15","district":"7","name":"State Senate District 7","chamber":"Senate"}},{"type":"Feature","geometry":{"type":"MultiPolygon","coordinates":[[[[-159.851,22.0275],[-159.8436,22],[-159.8386,22],[-159.8086,21.9529],[-159.7936,21.9398],[-159.7358,21.9122],[-159.7117,21.9076],[-159.6313,21.8467],[-159.6124,21.8429],[-159.5879,21.8455],[-159.5377,21.8343],[-159.5,21.8336],[-159.4625,21.8195],[-159.444,21.8178],[-159.4039,21.835],[-159.3578,21.8657],[-159.3398,21.8864],[-159.308,21.9087],[-159.2844,21.9406],[-159.2792,21.9653],[-159.2837,22.0185],[-159.245,22.1017],[-159.2418,22.125],[-159.2458,22.1668],[-159.2655,22.2039],[-159.3088,22.25],[-159.3343,22.2665],[-159.3557,22.2697],[-159.3897,22.2875],[-159.4124,22.2888],[-159.4328,22.278],[-159.484,22.2859],[-159.5247,22.2755],[-159.5474,22.2831],[-159.5964,22.278],[-159.613,22.2722],[-159.6773,22.2271],[-159.75,22.1994],[-159.7728,22.1811],[-159.7888,22.1601],[-159.794,22.1346],[-159.8377,22.0942],[-159.8481,22.0761],[-159.851,22.0275]]],[[[-160.3044,21.8538],[-160.2985,21.7905],[-160.2782,21.7578],[-160.2658,21.7462],[-160.2183,21.7288],[-160.1773,21.7356],[-160.1553,21.7572],[-160.1419,21.799],[-160.122,21.825],[-160.093,21.8299],[-160.0594,21.8456],[-160.031,21.8694],[-160.0229,21.8965],[-160.0275,21.9312],[-160,21.9681],[-159.9972,21.9925],[-160.0183,22.03],[-160.0422,22.0495],[-160.0567,22.0683],[-160.1003,22.0825],[-160.125,22.0811],[-160.1404,22.0733],[-160.1514,22.0605],[-160.174,21.9915],[-160.1995,21.9813],[-160.2427,21.9439],[-160.2647,21.9359],[-160.2799,21.9206],[-160.3044,21.8538]]],[[[-160.6009,21.6582],[-160.5907,21.625],[-160.5707,21.6067],[-160.5462,21.6004],[-160.5204,21.6049],[-160.4962,21.6189],[-160.4829,21.6403],[-160.4832,21.6652],[-160.4941,21.6905],[-160.5088,21.7032],[-160.5317,21.712],[-160.5503,21.7121],[-160.5783,21.7002],[-160.5919,21.6859],[-160.6009,21.6582]]]]},"properties":{"geoid":"15008","state":"15","district":"8","name":"State Senate District 8","chamber":"Senate"}},{"type":"Feature","geometry":{"type":"Polygon","coordinates":[[[-157.8281,21.2107],[-157.8281,21.2008],[-157.8102,21.1992],[-157.7714,21.2078],[-157.7453,21.2217],[-157.7232,21.2104],[-157.7211,21.2805],[-157.7129,21.2792],[-157.7001,21.2885],[-157.7046,21.2897],[-157.7007,21.3055],[-157.7072,21.3177],[-157.7169,21.3171],[-157.7259,21.3241],[-157.7371,21.323],[-157.7581,21.3313],[-157.7708,21.3076],[-157.7844,21.2981],[-157.7881,21.2788],[-157.8059,21.2833],[-157.808,21.2771],[-157.8272,21.2714],[-157.8281,21.2107]]]},"properties":{"geoid":"15009","state":"15","district":"9","name":"State Senate District 9","chamber":"Senate"}},{"type":"Feature","geometry":{"type":"Polygon","coordinates":[[[-157.8327,21.2884],[-157.8165,21.2738],[-157.808,21.2771],[-157.8059,21.2833],[-157.7881,21.2788],[-157.7844,21.2981],[-157.7708,21.3076],[-157.7581,21.3313],[-157.7792,21.3358],[-157.7955,21.3081],[-157.8089,21.302],[-157.8143,21.2918],[-157.824,21.2962],[-157.8327,21.2884]]]},"properties":{"geoid":"15010","state":"15","district":"10","name":"State Senate District 10","chamber":"Senate"}},{"type":"Feature","geometry":{"type":"Polygon","coordinates":[[[-157.8506,21.3116],[-157.8502,21.302],[-157.8143,21.2918],[-157.8089,21.302],[-157.7955,21.3081],[-157.7792,21.3358],[-157.7872,21.3411],[-157.7891,21.3532],[-157.8506,21.3116]]]},"properties":{"geoid":"15011","state":"15","district":"11","name":"State Senate District 11","chamber":"Senate"}},{"type":"Feature","geometry":{"type":"Polygon","coordinates":[[[-157.87,21.2963],[-157.8666,21.2927],[-157.8658,21.2197],[-157.8281,21.2008],[-157.8272,21.2714],[-157.8164,21.2738],[-157.8327,21.2883],[-157.829,21.2945],[-157.8644,21.3099],[-157.87,21.2963]]]},"properties":{"geoid":"15012","state":"15","district":"12","name":"State Senate District 12","chamber":"Senate"}},{"type":"Feature","geometry":{"type":"Polygon","coordinates":[[[-157.8792,21.3174],[-157.87,21.2963],[-157.8665,21.3095],[-157.8502,21.302],[-157.8494,21.3154],[-157.8349,21.3201],[-157.7891,21.3532],[-157.7894,21.3621],[-157.8097,21.3693],[-157.8441,21.3456],[-157.8547,21.3291],[-157.8643,21.3291],[-157.8792,21.3174]]]},"properties":{"geoid":"15013","state":"15","district":"13","name":"State Senate District 13","chamber":"Senate"}},{"type":"Feature","geometry":{"type":"Polygon","coordinates":[[[-157.9142,21.3702],[-157.9052,21.3675],[-157.8927,21.3446],[-157.8689,21.325],[-157.8547,21.3291],[-157.8441,21.3456],[-157.8097,21.3693],[-157.8108,21.3756],[-157.8236,21.385],[-157.8241,21.3951],[-157.8395,21.4031],[-157.861,21.4064],[-157.8915,21.393],[-157.9142,21.3702]]]},"properties":{"geoid":"15014","state":"15","district":"14","name":"State Senate District 14","chamber":"Senate"}},{"type":"Feature","geometry":{"type":"Polygon","coordinates":[[[-158.013,21.3716],[-158.0028,21.3554],[-157.982,21.3499],[-157.9708,21.338],[-157.9676,21.3095],[-157.9727,21.2526],[-157.9636,21.2577],[-157.9315,21.2483],[-157.8987,21.2499],[-157.8813,21.2393],[-157.8658,21.2197],[-157.8666,21.2927],[-157.8775,21.3115],[-157.8763,21.317],[-157.8796,21.3167],[-157.8689,21.325],[-157.8927,21.3446],[-157.9052,21.3675],[-157.9834,21.396],[-157.998,21.3866],[-157.9968,21.3819],[-158.0107,21.379],[-158.013,21.3716]]]},"properties":{"geoid":"15015","state":"15","district":"15","name":"State Senate District 15","chamber":"Senate"}},{"type":"Feature","geometry":{"type":"Polygon","coordinates":[[[-157.9701,21.3943],[-157.9143,21.3702],[-157.8923,21.3924],[-157.871,21.4042],[-157.8387,21.4032],[-157.8365,21.4128],[-157.8725,21.4398],[-157.875,21.4563],[-157.9615,21.43],[-157.9694,21.4141],[-157.9605,21.4166],[-157.9654,21.412],[-157.9571,21.4059],[-157.9701,21.3943]]]},"properties":{"geoid":"15016","state":"15","district":"16","name":"State Senate District 16","chamber":"Senate"}},{"type":"Feature","geometry":{"type":"Polygon","coordinates":[[[-158.047,21.4963],[-158.0383,21.4899],[-158.0284,21.4925],[-158.0263,21.4784],[-158.0141,21.4739],[-158.0289,21.449],[-157.9909,21.4484],[-157.997,21.4314],[-157.9882,21.404],[-157.9788,21.4066],[-157.9556,21.4333],[-157.9388,21.4345],[-157.919,21.446],[-157.875,21.4563],[-157.8758,21.4613],[-157.8872,21.4636],[-157.8959,21.5011],[-157.9023,21.5023],[-157.9229,21.5328],[-157.9606,21.5323],[-157.9938,21.5238],[-158.0007,21.5293],[-158.0072,21.5244],[-157.9924,21.5219],[-157.9933,21.5151],[-158.0318,21.5157],[-158.0298,21.4993],[-158.0341,21.5007],[-158.0405,21.4942],[-158.047,21.4963]]]},"properties":{"geoid":"15017","state":"15","district":"17","name":"State Senate District 17","chamber":"Senate"}},{"type":"Feature","geometry":{"type":"Polygon","coordinates":[[[-158.1012,21.4137],[-158.0993,21.3877],[-158.0783,21.3681],[-158.0573,21.3688],[-158.0322,21.3836],[-158.0285,21.379],[-158.0222,21.3826],[-158.0232,21.3887],[-158.0051,21.3984],[-157.9866,21.398],[-157.9969,21.4311],[-157.9909,21.4484],[-158.0009,21.4513],[-158.0082,21.4468],[-158.0118,21.4508],[-158.0318,21.4493],[-158.045,21.4379],[-158.0934,21.453],[-158.0974,21.4401],[-158.0904,21.4354],[-158.0902,21.4274],[-158.1012,21.4137]]]},"properties":{"geoid":"15018","state":"15","district":"18","name":"State Senate District 18","chamber":"Senate"}},{"type":"Feature","geometry":{"type":"Polygon","coordinates":[[[-158.0573,21.3688],[-158.037,21.3492],[-158.0283,21.3534],[-158.0267,21.3646],[-158.0211,21.3637],[-158.0211,21.3582],[-158.0074,21.3592],[-158.0135,21.3706],[-158.0107,21.379],[-157.9968,21.3819],[-157.998,21.3866],[-157.9877,21.3949],[-157.9659,21.3969],[-157.9571,21.4059],[-157.9654,21.412],[-157.9605,21.4166],[-157.9694,21.4141],[-157.9681,21.4201],[-157.9805,21.4052],[-157.9882,21.404],[-157.9866,21.398],[-158.0058,21.3982],[-158.0232,21.3887],[-158.0222,21.3826],[-158.0285,21.379],[-158.0322,21.3836],[-158.0573,21.3688]]]},"properties":{"geoid":"15019","state":"15","district":"19","name":"State Senate District 19","chamber":"Senate"}},{"type":"Feature","geometry":{"type":"Polygon","coordinates":[[[-158.0449,21.3137],[-158.0444,21.2429],[-157.9727,21.2526],[-157.9675,21.3155],[-157.9708,21.338],[-157.982,21.3499],[-158.0074,21.3592],[-158.0211,21.3582],[-158.0211,21.3637],[-158.0267,21.3646],[-158.0268,21.3473],[-158.0323,21.3373],[-158.0282,21.3317],[-158.0402,21.3283],[-158.0339,21.3188],[-158.0449,21.3137]]]},"properties":{"geoid":"15020","state":"15","district":"20","name":"State Senate District 20","chamber":"Senate"}},{"type":"Feature","geometry":{"type":"Polygon","coordinates":[[[-158.1264,21.321],[-158.1106,21.2941],[-158.0853,21.2929],[-158.0849,21.2393],[-158.0444,21.2429],[-158.0449,21.3137],[-158.0339,21.3188],[-158.0402,21.3283],[-158.0282,21.3317],[-158.0323,21.3373],[-158.0283,21.3403],[-158.0284,21.3533],[-158.037,21.3492],[-158.0577,21.3697],[-158.0783,21.3681],[-158.0884,21.3739],[-158.0993,21.3877],[-158.1001,21.3992],[-158.1134,21.3771],[-158.1076,21.3754],[-158.1148,21.3639],[-158.1105,21.3683],[-158.1001,21.368],[-158.1008,21.3409],[-158.1155,21.344],[-158.113,21.3309],[-158.1209,21.3293],[-158.1218,21.3223],[-158.1264,21.321]]]},"properties":{"geoid":"15021","state":"15","district":"21","name":"State Senate District 21","chamber":"Senate"}},{"type":"Feature","geometry":{"type":"Polygon","coordinates":[[[-158.3188,21.5503],[-158.3287,21.546],[-158.2987,21.5247],[-158.3014,21.4968],[-158.2902,21.4968],[-158.2859,21.4652],[-158.2576,21.4255],[-158.2401,21.4115],[-158.2289,21.3756],[-158.2178,21.3645],[-158.1888,21.3535],[-158.1833,21.3459],[-158.1596,21.2634],[-158.1348,21.2424],[-158.1101,21.2371],[-158.0849,21.2393],[-158.0853,21.2929],[-158.1106,21.2941],[-158.1264,21.321],[-158.1218,21.3223],[-158.1209,21.3293],[-158.113,21.3309],[-158.1155,21.344],[-158.1008,21.3409],[-158.098,21.3604],[-158.1028,21.3693],[-158.1148,21.3639],[-158.1076,21.3754],[-158.1134,21.3771],[-158.0978,21.4008],[-158.1012,21.4137],[-158.0895,21.4325],[-158.0974,21.4401],[-158.0935,21.4544],[-158.1013,21.4602],[-158.1052,21.471],[-158.1221,21.4803],[-158.1321,21.4802],[-158.1324,21.4882],[-158.1472,21.4981],[-158.1424,21.5077],[-158.1574,21.5093],[-158.1737,21.5192],[-158.1762,21.5283],[-158.1919,21.5357],[-158.195,21.5446],[-158.2179,21.549],[-158.2429,21.5633],[-158.2511,21.562],[-158.2669,21.5719],[-158.3188,21.5503]]]},"properties":{"geoid":"15022","state":"15","district":"22","name":"State Senate District 22","chamber":"Senate"}},{"type":"Feature","geometry":{"type":"Polygon","coordinates":[[[-158.3446,21.5832],[-158.3422,21.5643],[-158.3287,21.546],[-158.2669,21.5719],[-158.2179,21.549],[-158.195,21.5446],[-158.1919,21.5357],[-158.1762,21.5283],[-158.1737,21.5192],[-158.1574,21.5093],[-158.1424,21.5077],[-158.1472,21.4981],[-158.1324,21.4882],[-158.1321,21.4802],[-158.1073,21.4735],[-158.0934,21.453],[-158.045,21.4379],[-158.029,21.4492],[-158.0142,21.4724],[-158.0263,21.4784],[-158.0284,21.4925],[-158.0383,21.4899],[-158.047,21.4958],[-158.0298,21.4993],[-158.0318,21.5157],[-157.9933,21.5151],[-157.9924,21.5219],[-158.0072,21.5244],[-158.0005,21.5294],[-157.9938,21.5238],[-157.9606,21.5323],[-157.9211,21.5322],[-157.912,21.5141],[-157.9017,21.5018],[-157.8959,21.5011],[-157.8901,21.4702],[-157.885,21.4619],[-157.8758,21.4612],[-157.8725,21.4398],[-157.8385,21.4179],[-157.8387,21.4032],[-157.8194,21.4048],[-157.8131,21.3934],[-157.8074,21.4089],[-157.8144,21.4183],[-157.8103,21.4244],[-157.817,21.4344],[-157.8071,21.44],[-157.7838,21.4403],[-157.7812,21.4658],[-157.7472,21.491],[-157.6557,21.4919],[-157.7026,21.5187],[-157.7509,21.5165],[-157.781,21.5446],[-157.802,21.5901],[-157.8441,21.6218],[-157.8602,21.6655],[-157.8814,21.7052],[-157.9418,21.7546],[-157.9783,21.763],[-157.9972,21.7616],[-158.0309,21.7431],[-158.0571,21.7355],[-158.0955,21.703],[-158.1202,21.6573],[-158.1222,21.6657],[-158.1488,21.642],[-158.175,21.632],[-158.2472,21.6311],[-158.3119,21.6218],[-158.335,21.6046],[-158.3446,21.5832]]]},"properties":{"geoid":"15023","state":"15","district":"23","name":"State Senate District 23","chamber":"Senate"}},{"type":"Feature","geometry":{"type":"Polygon","coordinates":[[[-157.8391,21.4031],[-157.8241,21.3951],[-157.8236,21.385],[-157.8073,21.368],[-157.7855,21.3699],[-157.7807,21.3646],[-157.7817,21.3739],[-157.7753,21.3794],[-157.7607,21.3777],[-157.7618,21.3675],[-157.7508,21.378],[-157.7445,21.3738],[-157.746,21.3849],[-157.7376,21.385],[-157.7436,21.4008],[-157.7368,21.4027],[-157.7422,21.4225],[-157.7351,21.4285],[-157.7179,21.4325],[-157.6464,21.4313],[-157.6522,21.4391],[-157.6418,21.4582],[-157.6428,21.4723],[-157.6557,21.4919],[-157.7472,21.491],[-157.7812,21.4658],[-157.7838,21.4403],[-157.8071,21.44],[-157.817,21.4344],[-157.8103,21.4244],[-157.8144,21.4183],[-157.8074,21.4089],[-157.8117,21.3943],[-157.8194,21.4048],[-157.8391,21.4031]]]},"properties":{"geoid":"15024","state":"15","district":"24","name":"State Senate District 24","chamber":"Senate"}},{"type":"Feature","geometry":{"type":"MultiPolygon","coordinates":[[[[-176.0434,27.7959],[-176.0396,27.7582],[-176.0293,27.7427],[-176,27.7161],[-176,27.7093],[-175.9696,27.6934],[-175.9395,27.6882],[-175.8952,27.6992],[-175.845,27.7285],[-175.8029,27.7235],[-175.7461,27.7327],[-175.7341,27.7389],[-175.7262,27.75],[-175.6656,27.875],[-175.6648,27.9144],[-175.6701,27.9416],[-175.7044,27.9827],[-175.7349,28],[-175.7697,28.0075],[-175.8101,28.0059],[-175.875,27.9759],[-175.9357,27.9406],[-175.9663,27.9299],[-175.9814,27.9132],[-175.9921,27.8895],[-175.9938,27.875],[-175.9889,27.8619],[-175.9782,27.848],[-175.9558,27.8331],[-175.921,27.8214],[-175.9243,27.8137],[-175.9746,27.8302],[-176,27.8305],[-176,27.8353],[-176.025,27.8216],[-176.0434,27.7959]]],[[[-157.7938,21.3663],[-157.7886,21.3596],[-157.7881,21.343],[-157.7823,21.3371],[-157.7371,21.323],[-157.7259,21.3241],[-157.7169,21.3171],[-157.7072,21.3177],[-157.7007,21.3057],[-157.7046,21.2898],[-157.7001,21.2882],[-157.7129,21.2792],[-157.7211,21.2805],[-157.7232,21.2104],[-157.6894,21.2092],[-157.6651,21.2199],[-157.6459,21.2406],[-157.6161,21.2604],[-157.6009,21.2829],[-157.5973,21.3107],[-157.6023,21.3415],[-157.6285,21.3766],[-157.6386,21.4178],[-157.6464,21.4313],[-157.7179,21.4325],[-157.7351,21.4285],[-157.7422,21.4225],[-157.7368,21.4027],[-157.7436,21.4008],[-157.7434,21.3946],[-157.7376,21.385],[-157.746,21.3849],[-157.7445,21.3738],[-157.7508,21.378],[-157.7618,21.3675],[-157.7607,21.3777],[-157.776,21.3793],[-157.7818,21.3737],[-157.7804,21.3647],[-157.7855,21.3699],[-157.7938,21.3663]]],[[[-161.9876,23.0699],[-161.9854,23.0411],[-161.9761,23.0256],[-161.9552,23.0092],[-161.9319,23.0053],[-161.8942,23.0094],[-161.875,23.0192],[-161.8633,23.0366],[-161.8581,23.0608],[-161.863,23.0852],[-161.875,23.1016],[-161.8876,23.1104],[-161.9194,23.114],[-161.9654,23.105],[-161.9825,23.0913],[-161.9876,23.0699]]],[[[-164.7648,23.5817],[-164.7626,23.5585],[-164.75,23.5361],[-164.723,23.5218],[-164.7013,23.517],[-164.6733,23.5211],[-164.654,23.5352],[-164.64,23.5761],[-164.6446,23.5945],[-164.6541,23.6071],[-164.6889,23.6234],[-164.7246,23.6211],[-164.7401,23.6144],[-164.7581,23.599],[-164.7648,23.5817]]],[[[-166.3865,23.8464],[-166.3788,23.8236],[-166.375,23.8246],[-166.3563,23.8059],[-166.3368,23.7996],[-166.3226,23.7991],[-166.3136,23.8037],[-166.3237,23.771],[-166.3158,23.7401],[-166.3026,23.7287],[-166.286,23.7181],[-166.2656,23.7131],[-166.25,23.7139],[-166.25,23.7182],[-166.2268,23.7274],[-166.2228,23.7049],[-166.2054,23.6916],[-166.224,23.6725],[-166.2323,23.6416],[-166.2242,23.6148],[-166.2111,23.5998],[-166.1944,23.5895],[-166.1722,23.5871],[-166.1512,23.5905],[-166.1168,23.6113],[-166.1107,23.625],[-166.1171,23.625],[-166.1138,23.6523],[-166.133,23.6847],[-166.125,23.6901],[-166.125,23.6861],[-166.1135,23.6971],[-166.1059,23.7135],[-166.1068,23.7425],[-166.1167,23.7542],[-166.1185,23.7667],[-166.125,23.7729],[-166.125,23.7661],[-166.1482,23.7855],[-166.1535,23.8189],[-166.1697,23.8374],[-166.1648,23.851],[-166.1659,23.875],[-166.1704,23.8885],[-166.1823,23.9023],[-166.2043,23.9172],[-166.25,23.9324],[-166.25,23.9289],[-166.3071,23.9249],[-166.3247,23.918],[-166.3301,23.9083],[-166.3514,23.9029],[-166.3805,23.884],[-166.3865,23.8464]]],[[[-168.0582,25],[-168.0584,24.9879],[-168.0378,24.9597],[-168,24.9481],[-167.9668,24.9549],[-167.9537,24.9644],[-167.9442,24.9898],[-167.9524,25.0235],[-167.9725,25.0412],[-168,25.0522],[-168.027,25.0448],[-168.0421,25.0354],[-168.0506,25.0259],[-168.0582,25]]],[[[-170.6846,25.5063],[-170.6796,25.4855],[-170.6682,25.4707],[-170.6496,25.4594],[-170.6297,25.4557],[-170.6087,25.4592],[-170.5916,25.4686],[-170.5782,25.4851],[-170.5732,25.5051],[-170.5773,25.5254],[-170.5885,25.5412],[-170.6087,25.5536],[-170.6308,25.5571],[-170.6505,25.5532],[-170.6694,25.5414],[-170.6808,25.525],[-170.6846,25.5063]]],[[[-171.8096,25.7814],[-171.797,25.7405],[-171.7702,25.7182],[-171.7375,25.7065],[-171.6998,25.7169],[-171.6869,25.7279],[-171.6741,25.75],[-171.6777,25.75],[-171.6679,25.7812],[-171.6766,25.8109],[-171.6883,25.8238],[-171.7106,25.8332],[-171.75,25.8335],[-171.75,25.8379],[-171.7681,25.8337],[-171.787,25.8223],[-171.8001,25.8058],[-171.8096,25.7814]]],[[[-174.0674,26.0596],[-174.0592,26.0207],[-174.0461,26.0023],[-174.0272,25.9933],[-174,25.9902],[-173.926,26.0196],[-173.9131,26.036],[-173.9034,26.0601],[-173.9134,26.0994],[-173.9291,26.1201],[-173.9579,26.1357],[-173.9814,26.1332],[-174.0071,26.1371],[-174.0311,26.1291],[-174.0525,26.113],[-174.0674,26.0596]]],[[[-178.4436,28.419],[-178.4405,28.4052],[-178.4159,28.3801],[-178.4115,28.3607],[-178.3956,28.3419],[-178.375,28.3354],[-178.2889,28.3288],[-178.25,28.3472],[-178.233,28.375],[-178.2371,28.375],[-178.2305,28.3977],[-178.2322,28.4273],[-178.2385,28.4561],[-178.257,28.4765],[-178.2888,28.5],[-178.2811,28.5],[-178.3151,28.5163],[-178.3606,28.5138],[-178.375,28.5101],[-178.3864,28.5],[-178.3958,28.5],[-178.4276,28.4661],[-178.4383,28.4441],[-178.4436,28.419]]]]},"properties":{"geoid":"15025","state":"15","district":"25","name":"State Senate District 25","chamber":"Senate"}}]}