{"type":"FeatureCollection","features":[{"type":"Feature","geometry":{"type":"Polygon","coordinates":[[[-117.0411,48.1249],[-116.9796,48.1228],[-116.9798,48.0644],[-116.8943,48.0648],[-116.8936,48.0785],[-116.8867,48.0831],[-116.8439,48.0744],[-116.792,48.0753],[-116.7642,48.0821],[-116.7645,48.0643],[-116.7251,48.0649],[-116.7181,48.0705],[-116.5997,48.071],[-116.5998,48.0781],[-116.5464,48.0783],[-116.5461,48.1139],[-116.5336,48.1139],[-116.4781,48.0809],[-116.4927,48.0696],[-116.4968,48.056],[-116.4939,48.0366],[-116.4679,47.9897],[-116.4813,47.9772],[-116.5048,47.9665],[-116.5051,47.8901],[-116.3295,47.8904],[-116.3296,48.0177],[-116.3071,48.0381],[-116.2911,48.0453],[-116.2822,48.0594],[-116.242,48.0688],[-116.2296,48.0674],[-116.2071,48.0464],[-116.2066,48.0411],[-116.1928,48.0403],[-116.1606,48.0211],[-116.1314,48.0265],[-116.1202,48.0334],[-116.1041,48.0231],[-116.1034,48.0123],[-116.0874,48.0024],[-116.0621,47.9955],[-116.0609,47.9883],[-116.0491,47.9773],[-116.0491,49.0008],[-117.0323,48.9992],[-117.0352,48.3709],[-117.0411,48.1249]]]},"properties":{"geoid":"16001","state":"16","district":"1","name":"State House District 1","chamber":"House"}},{"type":"Feature","geometry":{"type":"Polygon","coordinates":[[[-117.0423,47.9627],[-117.0421,47.9215],[-117.0341,47.9203],[-116.9916,47.9262],[-116.975,47.9369],[-116.9644,47.9339],[-116.9364,47.9377],[-116.9392,47.933],[-116.9343,47.93],[-116.9179,47.937],[-116.9106,47.9326],[-116.8994,47.9356],[-116.896,47.9312],[-116.8876,47.9384],[-116.8826,47.9361],[-116.8584,47.943],[-116.8486,47.9225],[-116.8072,47.9187],[-116.807,47.9042],[-116.6126,47.9039],[-116.6126,47.8938],[-116.623,47.8918],[-116.6192,47.8866],[-116.6217,47.8808],[-116.6414,47.8769],[-116.6647,47.8639],[-116.6542,47.86],[-116.6519,47.8516],[-116.66,47.8513],[-116.6531,47.8459],[-116.6597,47.8461],[-116.655,47.8417],[-116.6587,47.8398],[-116.6558,47.8326],[-116.6701,47.8253],[-116.6547,47.8229],[-116.6603,47.8205],[-116.6532,47.8051],[-116.6225,47.8021],[-116.6254,47.7993],[-116.6209,47.7935],[-116.6142,47.7916],[-116.6069,47.799],[-116.5805,47.7922],[-116.5904,47.7874],[-116.5839,47.7816],[-116.5985,47.7805],[-116.583,47.768],[-116.5832,47.7634],[-116.5984,47.7604],[-116.5928,47.7565],[-116.5981,47.7514],[-116.5868,47.7518],[-116.5924,47.7496],[-116.5883,47.7432],[-116.6058,47.7354],[-116.6081,47.7417],[-116.6166,47.7453],[-116.6781,47.7123],[-116.6685,47.7233],[-116.6714,47.7323],[-116.6619,47.7336],[-116.6703,47.7403],[-116.6896,47.7389],[-116.699,47.7311],[-116.7186,47.7313],[-116.7345,47.7258],[-116.7329,47.7163],[-116.7268,47.7169],[-116.73,47.7132],[-116.7543,47.7046],[-116.7543,47.6999],[-116.7642,47.7008],[-116.7649,47.692],[-116.7524,47.6863],[-116.7386,47.6868],[-116.7268,47.6956],[-116.7118,47.694],[-116.7114,47.6865],[-116.7169,47.6827],[-116.7502,47.6702],[-116.7326,47.6717],[-116.7272,47.6549],[-116.7148,47.648],[-116.7336,47.6462],[-116.7404,47.6578],[-116.7648,47.6661],[-116.7648,47.6558],[-116.7781,47.6483],[-116.7781,47.6271],[-116.8082,47.594],[-116.8067,47.5439],[-116.8622,47.4837],[-116.8546,47.4703],[-116.8265,47.4542],[-116.7872,47.446],[-116.7505,47.4095],[-116.7496,47.3859],[-116.7682,47.3858],[-116.7682,47.3807],[-116.8108,47.3807],[-116.8108,47.3663],[-117.0398,47.366],[-117.0398,47.1273],[-117.0108,47.1308],[-116.9842,47.1262],[-116.9677,47.1152],[-116.9774,47.0891],[-116.955,47.0688],[-116.9444,47.0672],[-116.9252,47.0816],[-116.8962,47.0779],[-116.8722,47.0591],[-116.8483,47.0472],[-116.836,47.0466],[-116.8353,47.0325],[-116.7711,47.0325],[-116.7711,47.0374],[-116.4581,47.0366],[-116.4582,47.0221],[-116.3294,47.0219],[-116.3294,46.9347],[-116.3191,46.9346],[-116.3201,46.8483],[-116.3262,46.8483],[-116.3295,46.628],[-116.4561,46.6291],[-116.4559,46.5573],[-116.4516,46.5566],[-116.4517,46.491],[-116.4417,46.4996],[-116.3693,46.5005],[-116.3691,46.4669],[-116.32,46.4375],[-116.3086,46.413],[-116.1964,46.4129],[-116.1827,46.4019],[-116.1759,46.3879],[-116.1757,46.3737],[-116.1453,46.3681],[-116.1316,46.3542],[-116.1087,46.3641],[-116.0531,46.3555],[-116.0387,46.3469],[-116.0398,46.342],[-116.0327,46.3404],[-116.013,46.3171],[-115.9808,46.2997],[-115.9787,46.2944],[-115.9573,46.2889],[-115.8999,46.291],[-115.8632,46.2806],[-115.8485,46.2826],[-115.8277,46.2718],[-115.8209,46.2737],[-115.8147,46.2658],[-115.8068,46.2672],[-115.8044,46.2725],[-115.794,46.2662],[-115.7794,46.2672],[-115.7738,46.2717],[-115.7735,46.2801],[-115.7567,46.2846],[-115.7613,46.289],[-115.7484,46.2972],[-115.7542,46.3095],[-115.7394,46.3199],[-115.7408,46.3288],[-115.7325,46.3297],[-115.7317,46.3665],[-115.7141,46.3816],[-115.7048,46.38],[-115.6992,46.3901],[-115.6811,46.3942],[-115.6725,46.4097],[-115.6505,46.4212],[-115.6486,46.4349],[-115.6342,46.4376],[-115.6398,46.4486],[-115.629,46.4736],[-114.5946,46.6334],[-114.6142,46.6391],[-114.6146,46.6551],[-114.6352,46.6592],[-114.6398,46.6654],[-114.633,46.6711],[-114.6426,46.6729],[-114.6418,46.679],[-114.6235,46.6909],[-114.6208,46.7073],[-114.6446,46.7228],[-114.6487,46.7325],[-114.6654,46.7392],[-114.6886,46.7365],[-114.698,46.7406],[-114.713,46.7154],[-114.7398,46.7119],[-114.7485,46.6986],[-114.7668,46.6969],[-114.7685,46.7048],[-114.7819,46.7068],[-114.7884,46.7128],[-114.7821,46.7195],[-114.7828,46.7263],[-114.77,46.735],[-114.7652,46.7454],[-114.7683,46.7482],[-114.7651,46.7582],[-114.7836,46.7687],[-114.7875,46.7828],[-114.7987,46.7758],[-114.8084,46.7824],[-114.8291,46.7826],[-114.8366,46.7925],[-114.8569,46.8016],[-114.8658,46.8145],[-114.8869,46.8095],[-114.8952,46.8016],[-114.8984,46.8224],[-114.9207,46.8271],[-114.9287,46.8352],[-114.924,46.8482],[-114.9287,46.8548],[-114.9483,46.86],[-114.9314,46.877],[-114.9367,46.8973],[-114.9293,46.9099],[-114.9218,46.9127],[-114.9251,46.9187],[-114.9606,46.93],[-114.9588,46.9336],[-114.9645,46.9381],[-114.9861,46.9497],[-115.0013,46.9719],[-115.0286,46.9757],[-115.0314,46.9717],[-115.0488,46.97],[-115.0499,46.9811],[-115.0678,46.9952],[-115.0651,47.0002],[-115.0728,47.0129],[-115.0694,47.015],[-115.0717,47.0264],[-115.0798,47.0282],[-115.0874,47.0457],[-115.1058,47.0484],[-115.1225,47.0659],[-115.1311,47.069],[-115.1396,47.08],[-115.1441,47.1019],[-115.1717,47.1068],[-115.186,47.1294],[-115.199,47.1399],[-115.2125,47.142],[-115.2219,47.149],[-115.2446,47.1513],[-115.2555,47.1637],[-115.2562,47.175],[-115.2618,47.1814],[-115.3006,47.1883],[-115.2915,47.2109],[-115.2988,47.2255],[-115.3158,47.2328],[-115.3244,47.2447],[-115.3184,47.2519],[-115.3198,47.2567],[-115.3404,47.2629],[-115.3592,47.2596],[-115.3847,47.2678],[-115.4116,47.2644],[-115.426,47.2803],[-115.4559,47.2776],[-115.4658,47.2875],[-115.4823,47.2814],[-115.4908,47.2895],[-115.5285,47.2992],[-115.5279,47.309],[-115.5409,47.3246],[-115.5388,47.3291],[-115.5505,47.3343],[-115.5508,47.3497],[-115.5751,47.3559],[-115.5776,47.3674],[-115.6172,47.3825],[-115.6434,47.3773],[-115.6575,47.4005],[-115.6776,47.4018],[-115.6752,47.4094],[-115.692,47.4153],[-115.7123,47.4154],[-115.7211,47.4257],[-115.7589,47.4234],[-115.7474,47.442],[-115.7161,47.4529],[-115.6465,47.4568],[-115.6376,47.4628],[-115.6295,47.4796],[-115.661,47.4778],[-115.6679,47.4888],[-115.6863,47.4849],[-115.69,47.5008],[-115.6986,47.5023],[-115.7114,47.5168],[-115.7111,47.5234],[-115.6954,47.5277],[-115.6983,47.5314],[-115.7423,47.5383],[-115.7556,47.5479],[-115.741,47.5634],[-115.7237,47.5706],[-115.7212,47.5763],[-115.706,47.5776],[-115.7048,47.585],[-115.6878,47.5953],[-115.6984,47.6066],[-115.6987,47.612],[-115.6919,47.6172],[-115.6944,47.6238],[-115.7077,47.6347],[-115.7299,47.6419],[-115.7365,47.6538],[-115.7266,47.6729],[-115.7283,47.6817],[-115.7226,47.6951],[-115.753,47.717],[-115.7772,47.7204],[-115.7843,47.73],[-115.781,47.7432],[-115.7975,47.7573],[-115.825,47.7524],[-115.8309,47.755],[-115.8374,47.7748],[-115.8474,47.7851],[-115.8488,47.8101],[-115.8451,47.815],[-115.8523,47.8279],[-115.8707,47.835],[-115.8815,47.8496],[-115.9014,47.8431],[-115.9093,47.8526],[-115.9189,47.8536],[-115.938,47.8811],[-115.9541,47.8945],[-115.9684,47.8992],[-115.9669,47.9126],[-115.9824,47.9156],[-115.9847,47.9226],[-115.9934,47.926],[-115.9981,47.9385],[-116.0067,47.9433],[-116.0075,47.9508],[-116.0188,47.9629],[-116.0304,47.9726],[-116.0385,47.9713],[-116.0529,47.9796],[-116.0621,47.9955],[-116.0874,48.0024],[-116.1034,48.0123],[-116.1041,48.0231],[-116.1202,48.0334],[-116.1545,48.02],[-116.1928,48.0403],[-116.2066,48.0411],[-116.2093,48.0488],[-116.2331,48.0689],[-116.2822,48.0594],[-116.2911,48.0453],[-116.3071,48.0381],[-116.3296,48.0177],[-116.3295,47.8904],[-116.5051,47.8901],[-116.5048,47.9665],[-116.4813,47.9772],[-116.4679,47.9897],[-116.4939,48.0366],[-116.4968,48.056],[-116.4927,48.0696],[-116.4781,48.0809],[-116.5336,48.1139],[-116.5461,48.1139],[-116.5464,48.0783],[-116.5998,48.0781],[-116.5997,48.071],[-116.7181,48.0705],[-116.7251,48.0649],[-116.7645,48.0643],[-116.7642,48.0821],[-116.792,48.0753],[-116.8439,48.0744],[-116.8867,48.0831],[-116.8936,48.0785],[-116.8943,48.0648],[-116.9798,48.0644],[-116.9796,48.1228],[-117.0411,48.123],[-117.0423,47.9627]]]},"properties":{"geoid":"16002","state":"16","district":"2","name":"State House District 2","chamber":"House"}},{"type":"Feature","geometry":{"type":"Polygon","coordinates":[[[-117.0423,47.8745],[-117.0418,47.7068],[-116.9803,47.7272],[-116.9806,47.7452],[-116.8213,47.7446],[-116.8165,47.7332],[-116.7867,47.7332],[-116.7867,47.7226],[-116.7489,47.7225],[-116.749,47.7116],[-116.743,47.709],[-116.7268,47.7168],[-116.7329,47.7163],[-116.7345,47.7258],[-116.7186,47.7313],[-116.699,47.7311],[-116.6896,47.7389],[-116.6703,47.7403],[-116.6619,47.7336],[-116.6714,47.7323],[-116.6685,47.7233],[-116.6781,47.7123],[-116.6166,47.7453],[-116.6081,47.7417],[-116.6058,47.7354],[-116.587,47.7455],[-116.5924,47.7492],[-116.5868,47.7518],[-116.5986,47.7518],[-116.5928,47.7565],[-116.5984,47.7604],[-116.5832,47.7634],[-116.583,47.768],[-116.5985,47.7805],[-116.5839,47.7816],[-116.5904,47.7874],[-116.5805,47.7922],[-116.6069,47.799],[-116.6142,47.7916],[-116.6209,47.7935],[-116.6254,47.7993],[-116.6225,47.8021],[-116.6532,47.8051],[-116.6603,47.8205],[-116.6547,47.8229],[-116.6701,47.8253],[-116.6558,47.8326],[-116.6587,47.8398],[-116.655,47.8417],[-116.6597,47.8461],[-116.6531,47.8459],[-116.66,47.8513],[-116.6519,47.8516],[-116.6542,47.86],[-116.6647,47.8639],[-116.6414,47.8769],[-116.6217,47.8808],[-116.6192,47.8866],[-116.623,47.8918],[-116.6126,47.8938],[-116.6126,47.9039],[-116.8068,47.9042],[-116.8072,47.9187],[-116.8486,47.9225],[-116.858,47.9429],[-116.8876,47.9384],[-116.896,47.9312],[-116.8994,47.9356],[-116.9106,47.9326],[-116.9179,47.937],[-116.9343,47.93],[-116.9392,47.933],[-116.9364,47.9377],[-116.9644,47.9339],[-116.975,47.9369],[-116.9916,47.9262],[-117.0421,47.9215],[-117.0423,47.8745]]]},"properties":{"geoid":"16003","state":"16","district":"3","name":"State House District 3","chamber":"House"}},{"type":"Feature","geometry":{"type":"Polygon","coordinates":[[[-116.8511,47.7303],[-116.8404,47.7301],[-116.8404,47.7082],[-116.848,47.7073],[-116.8279,47.7031],[-116.8278,47.6973],[-116.7994,47.6852],[-116.8044,47.6736],[-116.7914,47.6592],[-116.7762,47.6512],[-116.7648,47.6558],[-116.7631,47.6658],[-116.7404,47.6578],[-116.7336,47.6462],[-116.7148,47.648],[-116.7272,47.6549],[-116.7326,47.6717],[-116.7502,47.6702],[-116.7169,47.6827],[-116.7114,47.6865],[-116.712,47.6941],[-116.7272,47.6956],[-116.7409,47.6863],[-116.7649,47.692],[-116.7642,47.7008],[-116.7543,47.6999],[-116.7543,47.7046],[-116.7394,47.7101],[-116.749,47.7116],[-116.7489,47.7225],[-116.7867,47.7226],[-116.7867,47.7332],[-116.8165,47.7332],[-116.8213,47.7446],[-116.851,47.7448],[-116.8511,47.7303]]]},"properties":{"geoid":"16004","state":"16","district":"4","name":"State House District 4","chamber":"House"}},{"type":"Feature","geometry":{"type":"Polygon","coordinates":[[[-117.0418,47.702],[-117.0398,47.366],[-116.8108,47.3663],[-116.8108,47.3807],[-116.7682,47.3807],[-116.7682,47.3858],[-116.7496,47.3859],[-116.7505,47.4095],[-116.7872,47.446],[-116.8265,47.4542],[-116.8546,47.4703],[-116.8625,47.4825],[-116.8067,47.5439],[-116.8082,47.594],[-116.7758,47.6342],[-116.7762,47.6512],[-116.7968,47.6628],[-116.8044,47.6736],[-116.7994,47.6852],[-116.8278,47.6973],[-116.8279,47.7031],[-116.848,47.7073],[-116.8404,47.7082],[-116.8404,47.7301],[-116.8511,47.7301],[-116.851,47.7448],[-116.9806,47.7452],[-116.9803,47.7272],[-117.0418,47.7068],[-117.0418,47.702]]]},"properties":{"geoid":"16005","state":"16","district":"5","name":"State House District 5","chamber":"House"}},{"type":"Feature","geometry":{"type":"Polygon","coordinates":[[[-117.04,47.0344],[-117.0397,46.4347],[-116.9631,46.4371],[-116.9861,46.4246],[-116.9808,46.4221],[-116.9809,46.3859],[-116.9756,46.3865],[-116.9755,46.3985],[-116.9651,46.3986],[-116.9599,46.373],[-116.944,46.3731],[-116.944,46.3695],[-116.9126,46.3696],[-116.9113,46.3769],[-116.9177,46.3768],[-116.9178,46.3987],[-116.8694,46.3985],[-116.842,46.2384],[-116.791,46.2387],[-116.791,46.2244],[-116.7699,46.2242],[-116.7709,46.2039],[-116.7653,46.1973],[-116.7652,46.1796],[-116.7027,46.1798],[-116.7018,45.9964],[-116.6867,45.9991],[-116.6619,45.9916],[-116.6476,45.9957],[-116.6431,46.0063],[-116.6485,46.0306],[-116.6249,46.0377],[-116.6152,46.0325],[-116.6069,46.035],[-116.581,46.0285],[-116.5414,45.9986],[-116.5299,46.0007],[-116.5245,46.0095],[-116.528,46.0197],[-116.5148,46.0382],[-116.5144,46.1318],[-116.5018,46.1231],[-116.4767,46.1234],[-116.4746,46.1281],[-116.4809,46.1427],[-116.4574,46.1744],[-116.4502,46.1963],[-116.4204,46.2015],[-116.3941,46.1882],[-116.3874,46.1903],[-116.3702,46.1833],[-116.3315,46.1842],[-116.3037,46.1668],[-116.2877,46.1738],[-116.2664,46.1679],[-116.257,46.1719],[-116.236,46.1598],[-116.2196,46.1611],[-116.1969,46.1521],[-116.188,46.1575],[-116.1863,46.1782],[-116.167,46.1879],[-116.1484,46.2105],[-116.1336,46.2152],[-116.0884,46.2076],[-116.0653,46.2124],[-116.055,46.21],[-116.0126,46.2257],[-116.0391,46.2417],[-116.0445,46.2518],[-116.0882,46.2638],[-116.0959,46.276],[-116.1261,46.2974],[-116.1533,46.3481],[-116.1645,46.3571],[-116.1682,46.3701],[-116.1766,46.3746],[-116.1759,46.3879],[-116.1827,46.4019],[-116.1964,46.4129],[-116.3086,46.413],[-116.32,46.4375],[-116.3691,46.4669],[-116.3693,46.5005],[-116.4417,46.4996],[-116.4517,46.491],[-116.4561,46.6291],[-116.3295,46.628],[-116.3262,46.8483],[-116.3201,46.8483],[-116.3191,46.9346],[-116.3294,46.9347],[-116.3294,47.0219],[-116.4582,47.0221],[-116.4581,47.0366],[-116.7711,47.0374],[-116.7711,47.0325],[-116.8353,47.0325],[-116.836,47.0466],[-116.8483,47.0472],[-116.8722,47.0591],[-116.8962,47.0779],[-116.9252,47.0816],[-116.9444,47.0672],[-116.955,47.0688],[-116.9774,47.0891],[-116.9677,47.1152],[-116.9707,47.1195],[-117.0108,47.1308],[-117.0398,47.1273],[-117.04,47.0344]]]},"properties":{"geoid":"16006","state":"16","district":"6","name":"State House District 6","chamber":"House"}},{"type":"Feature","geometry":{"type":"Polygon","coordinates":[[[-117.0628,46.3649],[-117.0599,46.3479],[-117.027,46.3383],[-117.0206,46.3148],[-116.9862,46.296],[-116.9912,46.277],[-116.9678,46.2585],[-116.9555,46.231],[-116.9654,46.2031],[-116.9414,46.1847],[-116.936,46.1752],[-116.9223,46.1688],[-116.9232,46.1604],[-116.935,46.1535],[-116.9347,46.1373],[-116.9499,46.1245],[-116.9554,46.1019],[-116.9788,46.0958],[-116.982,46.0848],[-116.9768,46.079],[-116.9579,46.0755],[-116.9428,46.0611],[-116.9403,46.0467],[-116.9298,46.0357],[-116.9299,46.0236],[-116.9217,46.0159],[-116.9189,45.9987],[-116.8936,45.9776],[-116.8913,45.9603],[-116.876,45.9548],[-116.8697,45.9238],[-116.8598,45.9073],[-116.7965,45.8612],[-116.7878,45.8443],[-116.7891,45.8335],[-116.7821,45.8251],[-116.7598,45.8162],[-116.7358,45.8264],[-116.7097,45.8257],[-116.6972,45.8201],[-116.6808,45.7944],[-116.6653,45.7821],[-116.6463,45.7798],[-116.632,45.785],[-116.5942,45.7791],[-116.5594,45.7552],[-116.5481,45.7524],[-116.5357,45.7342],[-116.5351,45.6913],[-116.4888,45.6508],[-116.4828,45.6336],[-116.4721,45.6292],[-116.4633,45.6148],[-116.4636,45.6028],[-116.4822,45.5867],[-116.4819,45.5779],[-116.5028,45.5666],[-116.507,45.5584],[-116.5283,45.5515],[-116.5234,45.5466],[-116.5355,45.5251],[-116.5575,45.5042],[-116.5531,45.4962],[-116.5588,45.4812],[-116.5548,45.4629],[-116.5882,45.4429],[-116.5974,45.4128],[-116.6234,45.394],[-116.6738,45.3215],[-116.6745,45.2763],[-116.6914,45.2637],[-116.7037,45.2401],[-116.7095,45.203],[-116.7242,45.1715],[-116.7296,45.1421],[-116.7455,45.133],[-116.7546,45.114],[-116.7748,45.1055],[-116.7835,45.0936],[-116.7837,45.077],[-116.7973,45.0603],[-116.8479,45.0226],[-116.8446,45.0014],[-116.8583,44.978],[-116.8486,44.9717],[-116.8397,44.9831],[-116.8269,44.9839],[-116.8364,44.9692],[-116.8514,44.9598],[-116.8322,44.9314],[-116.857,44.8808],[-116.8836,44.8583],[-116.8977,44.8548],[-116.8997,44.8406],[-116.625,44.839],[-116.6244,44.6629],[-116.5993,44.6369],[-116.5983,44.6253],[-116.6032,44.6152],[-116.5292,44.6152],[-116.5289,44.4915],[-116.4076,44.4444],[-116.2999,44.4446],[-116.2647,44.4643],[-116.256,44.4663],[-116.2438,44.4615],[-116.2361,44.4647],[-116.23,44.4895],[-116.2133,44.5108],[-116.2108,44.5046],[-116.2005,44.5031],[-116.1933,44.4937],[-116.1766,44.5007],[-116.157,44.4989],[-116.1642,44.5133],[-116.1606,44.5168],[-116.1653,44.5397],[-116.1763,44.561],[-116.1762,44.5787],[-116.1842,44.5858],[-116.1701,44.6206],[-116.1737,44.637],[-116.1687,44.6413],[-116.1776,44.6459],[-116.1777,44.6519],[-116.1678,44.6595],[-116.1574,44.703],[-116.1835,44.7262],[-116.1772,44.731],[-116.177,44.7459],[-116.1894,44.7509],[-116.1991,44.7646],[-116.2063,44.767],[-116.2112,44.7809],[-116.2025,44.7959],[-116.197,44.8642],[-116.1903,44.8655],[-116.1859,44.8888],[-116.1751,44.887],[-116.1725,44.9015],[-116.1611,44.902],[-116.155,44.9442],[-116.1324,44.9409],[-116.1154,44.9619],[-116.113,44.976],[-116.1199,44.9846],[-116.1275,44.9863],[-116.1343,45.0081],[-116.1283,45.0216],[-116.1149,45.0219],[-116.1133,45.0308],[-116.1047,45.0308],[-116.1012,45.0466],[-116.1066,45.0514],[-116.0944,45.0538],[-116.0891,45.0636],[-116.106,45.0725],[-116.141,45.0794],[-116.1395,45.0997],[-116.1453,45.1138],[-116.1356,45.123],[-116.1368,45.1378],[-116.1264,45.1444],[-116.1217,45.1585],[-116.0757,45.1547],[-116.0639,45.1653],[-116.048,45.1663],[-116.0433,45.1793],[-116.0193,45.1828],[-115.9913,45.205],[-115.9899,45.2128],[-115.9745,45.2197],[-115.9651,45.2035],[-115.9758,45.1953],[-114.694,45.1972],[-114.6852,45.2074],[-114.681,45.2257],[-114.6741,45.2342],[-114.6637,45.2374],[-114.6595,45.2486],[-114.624,45.2748],[-114.607,45.2817],[-114.5935,45.2979],[-114.6048,45.2961],[-114.6438,45.3209],[-114.6743,45.3483],[-114.6752,45.3652],[-114.6955,45.3689],[-114.7162,45.3955],[-114.7349,45.3954],[-114.7617,45.4129],[-114.7682,45.4213],[-114.764,45.4275],[-114.7691,45.4346],[-114.7932,45.4363],[-114.7932,45.4524],[-114.7877,45.4583],[-114.7986,45.4763],[-114.7932,45.4941],[-114.798,45.4968],[-114.7882,45.5125],[-114.7744,45.5136],[-114.7342,45.4899],[-114.6905,45.4908],[-114.6806,45.4841],[-114.6806,45.4739],[-114.6637,45.471],[-114.632,45.5192],[-114.6188,45.5286],[-114.5879,45.5379],[-114.5849,45.5443],[-114.5715,45.5496],[-114.5531,45.5762],[-114.5585,45.5845],[-114.5379,45.6066],[-114.5447,45.617],[-114.5546,45.6199],[-114.564,45.6376],[-114.5417,45.6414],[-114.5395,45.6506],[-114.5219,45.6495],[-114.5076,45.6575],[-114.4995,45.6688],[-114.5023,45.6739],[-114.499,45.6789],[-114.5151,45.6849],[-114.5014,45.6937],[-114.4951,45.704],[-114.5042,45.7218],[-114.5267,45.7276],[-114.5356,45.7391],[-114.5479,45.7433],[-114.5445,45.7592],[-114.5665,45.7733],[-114.5556,45.7865],[-114.5441,45.7904],[-114.545,45.7979],[-114.531,45.8099],[-114.531,45.8189],[-114.5115,45.8294],[-114.5174,45.8349],[-114.5093,45.8455],[-114.4871,45.8517],[-114.4749,45.8466],[-114.4377,45.8626],[-114.4097,45.8516],[-114.4059,45.8704],[-114.3961,45.8712],[-114.3886,45.8822],[-114.3876,45.8902],[-114.3937,45.893],[-114.3951,45.9014],[-114.4136,45.9116],[-114.4149,45.9221],[-114.4314,45.936],[-114.4025,45.9579],[-114.4014,45.9635],[-114.4118,45.9779],[-114.4288,45.9866],[-114.4485,45.9876],[-114.4578,45.9975],[-114.48,45.9929],[-114.4878,46.0036],[-114.4731,46.0142],[-114.4803,46.0303],[-114.4972,46.0279],[-114.5075,46.0315],[-114.5066,46.0385],[-114.4975,46.0424],[-114.4933,46.0526],[-114.4683,46.0628],[-114.4724,46.0768],[-114.462,46.0786],[-114.4605,46.0978],[-114.4745,46.1131],[-114.4885,46.113],[-114.521,46.1251],[-114.5177,46.1356],[-114.5274,46.1454],[-114.5144,46.154],[-114.5149,46.1677],[-114.5075,46.1646],[-114.4892,46.1677],[-114.476,46.1606],[-114.4577,46.1702],[-114.4441,46.1693],[-114.4433,46.203],[-114.4518,46.2148],[-114.4456,46.2197],[-114.448,46.2316],[-114.4521,46.2413],[-114.4683,46.2487],[-114.4648,46.2522],[-114.4707,46.266],[-114.4649,46.2732],[-114.4411,46.2739],[-114.4254,46.2879],[-114.4334,46.3055],[-114.4219,46.3301],[-114.414,46.3356],[-114.4102,46.3611],[-114.4224,46.387],[-114.4086,46.4007],[-114.3848,46.4114],[-114.383,46.4322],[-114.3684,46.4371],[-114.3844,46.447],[-114.3794,46.4603],[-114.4007,46.4778],[-114.4032,46.4988],[-114.384,46.5051],[-114.3756,46.5018],[-114.3583,46.5052],[-114.3426,46.5184],[-114.3492,46.5299],[-114.3439,46.5415],[-114.3479,46.5515],[-114.3296,46.5762],[-114.3442,46.59],[-114.3326,46.5967],[-114.3225,46.6109],[-114.3281,46.6198],[-114.3221,46.6258],[-114.3207,46.647],[-114.3331,46.6609],[-114.353,46.6636],[-114.3581,46.6711],[-114.3837,46.6625],[-114.4096,46.6622],[-114.4121,46.6568],[-114.4246,46.6607],[-114.4535,46.6492],[-114.4526,46.6416],[-114.4671,46.6318],[-114.4875,46.6332],[-114.5011,46.6414],[-114.5238,46.6406],[-114.5418,46.65],[-114.5632,46.6408],[-114.5706,46.6433],[-114.583,46.6333],[-115.629,46.4736],[-115.6398,46.4486],[-115.6342,46.4376],[-115.6486,46.4349],[-115.6505,46.4212],[-115.6725,46.4097],[-115.6811,46.3942],[-115.6992,46.3901],[-115.7048,46.38],[-115.7141,46.3816],[-115.7317,46.3665],[-115.7325,46.3297],[-115.7408,46.3288],[-115.7394,46.3199],[-115.7542,46.3095],[-115.7484,46.2972],[-115.7613,46.289],[-115.7567,46.2846],[-115.7735,46.2801],[-115.7738,46.2717],[-115.7794,46.2672],[-115.794,46.2662],[-115.8044,46.2725],[-115.8068,46.2672],[-115.8147,46.2658],[-115.8209,46.2737],[-115.8277,46.2718],[-115.8485,46.2826],[-115.8632,46.2806],[-115.8999,46.291],[-115.9573,46.2889],[-115.9787,46.2944],[-115.9808,46.2997],[-116.013,46.3171],[-116.0327,46.3404],[-116.0398,46.342],[-116.0387,46.3469],[-116.0531,46.3555],[-116.1087,46.3641],[-116.1316,46.3542],[-116.1453,46.3681],[-116.1695,46.3719],[-116.1645,46.3571],[-116.1533,46.3481],[-116.1271,46.2986],[-116.1143,46.2863],[-116.0959,46.276],[-116.0864,46.2627],[-116.0434,46.2512],[-116.0391,46.2417],[-116.0126,46.2257],[-116.055,46.21],[-116.0653,46.2124],[-116.0884,46.2076],[-116.1336,46.2152],[-116.1484,46.2105],[-116.167,46.1879],[-116.1863,46.1782],[-116.188,46.1575],[-116.1969,46.1521],[-116.2196,46.1611],[-116.236,46.1598],[-116.257,46.1719],[-116.2664,46.1679],[-116.2877,46.1738],[-116.3037,46.1668],[-116.3315,46.1842],[-116.3702,46.1833],[-116.3874,46.1903],[-116.3941,46.1882],[-116.4204,46.2015],[-116.4505,46.1962],[-116.4574,46.1744],[-116.4809,46.1427],[-116.4746,46.1281],[-116.4767,46.1234],[-116.5018,46.1231],[-116.5144,46.1318],[-116.5148,46.0382],[-116.5281,46.0195],[-116.5264,46.0041],[-116.5396,45.9984],[-116.581,46.0285],[-116.6069,46.035],[-116.6152,46.0325],[-116.6249,46.0377],[-116.6485,46.0306],[-116.6431,46.0063],[-116.6476,45.9957],[-116.6619,45.9916],[-116.6867,45.9991],[-116.7018,45.9964],[-116.7027,46.1798],[-116.7652,46.1796],[-116.7653,46.1973],[-116.7709,46.2039],[-116.7699,46.2242],[-116.791,46.2244],[-116.791,46.2387],[-116.842,46.2384],[-116.8694,46.3985],[-116.9178,46.3987],[-116.9177,46.3768],[-116.9113,46.3769],[-116.9126,46.3696],[-116.944,46.3695],[-116.944,46.3731],[-116.9599,46.373],[-116.9651,46.3986],[-116.9755,46.3985],[-116.9756,46.3865],[-116.9809,46.3859],[-116.9808,46.4221],[-116.9861,46.4246],[-116.9631,46.4371],[-117.0397,46.4347],[-117.0356,46.4098],[-117.0469,46.3796],[-117.0628,46.3649]]]},"properties":{"geoid":"16007","state":"16","district":"7","name":"State House District 7","chamber":"House"}},{"type":"Feature","geometry":{"type":"Polygon","coordinates":[[[-116.2799,43.8074],[-115.9802,43.5859],[-115.9757,43.5914],[-115.9787,43.1134],[-116.2662,43.1123],[-116.2676,43.1069],[-116.2552,43.1007],[-116.2374,43.0945],[-116.2116,43.095],[-116.193,43.0842],[-116.2081,43.0676],[-116.2038,43.0504],[-116.1708,43.0378],[-116.1471,43.0376],[-116.1397,43.0305],[-116.1499,43.0196],[-116.1482,43.0148],[-116.1188,43.0126],[-116.0907,42.9879],[-116.0515,42.9863],[-116.0322,42.9619],[-116.0111,42.9497],[-115.965,42.9437],[-115.9609,42.953],[-115.9721,42.9705],[-115.9655,42.9838],[-115.9376,43.0011],[-115.929,43.0019],[-115.9084,42.9829],[-115.8953,42.9822],[-115.8792,42.9891],[-115.868,42.9837],[-115.8647,42.9748],[-115.8463,42.9693],[-115.7918,42.9723],[-115.7861,42.9604],[-115.7968,42.9495],[-115.7715,42.9387],[-115.7523,42.9376],[-115.7399,42.9432],[-115.7315,42.9386],[-115.6945,42.9394],[-115.6259,42.9562],[-115.6137,42.951],[-115.6031,42.9373],[-115.5622,42.9344],[-115.5351,42.9429],[-115.4965,42.9266],[-115.4415,42.9311],[-115.4414,42.8511],[-115.4542,42.8511],[-115.4542,42.7679],[-115.0377,42.7684],[-115.0378,42.9119],[-115.0496,42.9171],[-115.0637,42.9127],[-115.0869,42.9146],[-115.0831,43.6043],[-115.0757,43.6069],[-115.0655,43.5997],[-115.0507,43.6155],[-115.0338,43.6186],[-115.0369,43.6468],[-115.0301,43.6606],[-115.0361,43.6754],[-115.0088,43.6969],[-115.0097,43.7156],[-115.0153,43.7267],[-115.0301,43.7288],[-115.0423,43.7456],[-115.0366,43.7512],[-115.0382,43.768],[-115.0302,43.7815],[-115.0304,43.7957],[-115.0188,43.8171],[-115.0198,43.823],[-115.002,43.8313],[-115.0005,43.8512],[-114.9895,43.8617],[-114.9739,43.8674],[-114.9741,43.8787],[-114.9884,43.8858],[-114.9885,43.901],[-114.9964,43.9105],[-114.9906,43.9216],[-114.9829,43.9218],[-114.9795,43.9329],[-114.9568,43.9474],[-114.9424,43.9507],[-114.931,43.9687],[-114.8881,43.9891],[-114.8734,43.9929],[-114.8139,43.9929],[-114.8138,43.9278],[-114.6812,43.9277],[-114.6704,43.9213],[-114.6601,43.9219],[-114.6554,43.9142],[-114.6456,43.915],[-114.6252,43.898],[-114.6062,43.8936],[-114.5835,43.8751],[-114.5864,43.8699],[-114.582,43.8514],[-114.5624,43.8444],[-114.5235,43.8486],[-114.5133,43.8632],[-114.5197,43.8717],[-114.5096,43.8851],[-114.5151,43.8947],[-114.4851,43.9045],[-114.4745,43.8965],[-114.4437,43.8972],[-114.4275,43.8915],[-114.41,43.8957],[-114.3589,43.8741],[-114.3435,43.8903],[-114.3235,43.8859],[-114.2927,43.8871],[-114.2787,43.8785],[-114.2839,43.8609],[-114.2761,43.8517],[-114.2796,43.8431],[-114.2757,43.8311],[-114.2678,43.8308],[-114.2416,43.8108],[-114.2057,43.7977],[-114.1973,43.7904],[-114.18,43.7899],[-114.165,43.7764],[-114.1421,43.7742],[-114.1347,43.7612],[-114.1376,43.7562],[-114.117,43.7403],[-114.07,43.7347],[-114.0531,43.7465],[-114.0534,43.7621],[-114.0327,43.767],[-114.0297,43.7734],[-114.0042,43.765],[-113.9936,43.7558],[-113.9971,43.7426],[-113.9855,43.737],[-113.9865,43.7254],[-113.974,43.7076],[-113.9566,43.7013],[-113.9337,43.6794],[-113.9114,43.6716],[-113.9049,43.6497],[-113.8753,43.6505],[-113.8626,43.6452],[-113.8618,43.6361],[-113.8439,43.625],[-113.8356,43.6049],[-113.8149,43.6019],[-113.808,43.5745],[-113.7984,43.5692],[-113.7846,43.5802],[-113.7815,43.5927],[-113.7693,43.6032],[-113.76,43.6227],[-113.7473,43.6285],[-113.7237,43.6291],[-113.6804,43.6601],[-113.6324,43.6765],[-113.599,43.6954],[-113.572,43.7009],[-113.5434,43.7194],[-113.5281,43.7189],[-113.5105,43.7368],[-113.4869,43.7395],[-113.4852,43.7468],[-113.448,43.7753],[-113.4428,43.8087],[-113.4135,43.8169],[-113.3923,43.8079],[-113.3773,43.8096],[-113.3638,43.7979],[-113.3674,43.7954],[-113.3608,43.7968],[-113.3726,43.8213],[-113.3855,43.8247],[-113.3911,43.8396],[-113.4111,43.8611],[-113.4208,43.8608],[-113.4566,43.8762],[-113.457,43.8935],[-113.4451,43.9169],[-113.4438,43.9512],[-113.4457,43.9827],[-113.4556,43.9952],[-113.4515,44.0003],[-113.4582,44.0305],[-113.4578,44.0595],[-113.4163,44.0593],[-113.4165,44.2334],[-113.3204,44.236],[-113.3339,44.2503],[-113.3348,44.2598],[-113.3261,44.2733],[-113.337,44.2939],[-113.3396,44.3163],[-113.3564,44.3291],[-113.3619,44.3466],[-113.4035,44.3805],[-113.4145,44.4076],[-113.4254,44.4229],[-113.4358,44.4268],[-113.437,44.4393],[-113.4518,44.4549],[-113.4652,44.4549],[-113.4774,44.448],[-113.4857,44.4336],[-113.5017,44.4221],[-113.5351,44.4243],[-113.5543,44.4265],[-113.565,44.4362],[-113.5817,44.4423],[-113.6651,44.4522],[-113.7067,44.4745],[-113.722,44.475],[-113.7884,44.4942],[-113.8162,44.494],[-113.8525,44.5299],[-113.8995,44.5585],[-113.9203,44.5657],[-113.9288,44.58],[-113.9439,44.5862],[-113.9617,44.6077],[-113.966,44.6075],[-113.9665,44.6143],[-113.9842,44.6191],[-114.0039,44.6347],[-114.0066,44.6486],[-114.0215,44.6521],[-114.0212,44.6571],[-114.0351,44.6707],[-114.0352,44.6801],[-114.0512,44.6963],[-114.0512,44.7122],[-114.0759,44.7456],[-114.0838,44.749],[-114.0849,44.7559],[-114.0959,44.7562],[-114.0926,44.7519],[-114.1078,44.7484],[-114.1058,44.7447],[-114.1188,44.739],[-114.1271,44.7406],[-114.1356,44.7303],[-114.1548,44.7453],[-114.1628,44.7405],[-114.1745,44.7456],[-114.2152,44.7455],[-114.2161,44.7623],[-114.2015,44.7783],[-114.2058,44.7817],[-114.2043,44.8],[-114.1961,44.8032],[-114.1966,44.8122],[-114.1896,44.825],[-114.1989,44.8306],[-114.1917,44.8379],[-114.1989,44.8446],[-114.1954,44.8606],[-114.2117,44.8631],[-114.2215,44.8791],[-114.2249,44.8643],[-114.2389,44.8617],[-114.2436,44.8524],[-114.2623,44.8499],[-114.2672,44.8415],[-114.2645,44.8364],[-114.2782,44.8231],[-114.3,44.8196],[-114.3161,44.8015],[-114.3443,44.7938],[-114.341,44.786],[-114.3534,44.7759],[-114.351,44.7645],[-114.3605,44.752],[-114.373,44.7509],[-114.3798,44.7435],[-114.3928,44.7474],[-114.3979,44.7388],[-114.4042,44.7395],[-114.4089,44.733],[-114.4036,44.73],[-114.4055,44.7182],[-114.3728,44.7097],[-114.3872,44.6824],[-114.3867,44.6711],[-114.4051,44.6652],[-114.4087,44.6564],[-114.4353,44.6513],[-114.4484,44.6315],[-114.4509,44.6125],[-114.4691,44.606],[-114.4774,44.5942],[-114.4889,44.5958],[-114.4954,44.604],[-114.5164,44.6041],[-114.5298,44.5968],[-114.5434,44.5806],[-114.5693,44.5762],[-114.5786,44.5861],[-114.6036,44.5963],[-114.5969,44.6071],[-114.5963,44.6221],[-114.6058,44.6353],[-114.6292,44.6529],[-114.6628,44.6622],[-114.6915,44.6553],[-114.7057,44.6566],[-114.7122,44.6504],[-114.7413,44.6528],[-114.7355,44.6619],[-114.7368,44.6699],[-114.7512,44.6882],[-114.7818,44.714],[-114.794,44.7131],[-114.8029,44.7199],[-114.8202,44.7478],[-114.7977,44.7943],[-114.8124,44.8083],[-114.8085,44.8171],[-114.7954,44.8253],[-114.7931,44.8361],[-114.789,44.8335],[-114.7836,44.8403],[-114.7664,44.8427],[-114.7713,44.8507],[-114.7608,44.8562],[-114.7698,44.8652],[-114.7689,44.8724],[-114.7524,44.8738],[-114.7507,44.8791],[-114.7346,44.8787],[-114.7318,44.8866],[-114.7233,44.8912],[-114.7321,44.8938],[-114.7266,44.9024],[-114.7329,44.9097],[-114.7292,44.9204],[-114.736,44.9257],[-114.7233,44.9344],[-114.7267,44.9475],[-114.7357,44.9498],[-114.7305,44.9691],[-114.736,44.9749],[-114.7301,45.0025],[-114.7215,45.0082],[-114.7287,45.0134],[-114.7224,45.0411],[-114.7273,45.0461],[-114.7229,45.056],[-114.7289,45.0725],[-114.7193,45.0875],[-114.7332,45.0945],[-114.731,45.107],[-114.7215,45.121],[-114.7278,45.1285],[-114.7323,45.1512],[-114.7236,45.1601],[-114.7225,45.1793],[-114.716,45.1877],[-114.6988,45.1897],[-114.694,45.1972],[-115.9758,45.1953],[-115.9651,45.2035],[-115.9745,45.2197],[-115.9899,45.2128],[-115.9913,45.205],[-116.0193,45.1828],[-116.0433,45.1793],[-116.048,45.1663],[-116.0639,45.1653],[-116.0757,45.1547],[-116.1217,45.1585],[-116.1264,45.1444],[-116.1368,45.1378],[-116.1356,45.123],[-116.1455,45.1129],[-116.1395,45.0997],[-116.1401,45.0783],[-116.1127,45.0745],[-116.0891,45.0636],[-116.0944,45.0538],[-116.1066,45.0514],[-116.1012,45.0466],[-116.1047,45.0308],[-116.1133,45.0308],[-116.1149,45.0219],[-116.1283,45.0216],[-116.1343,45.0081],[-116.1275,44.9863],[-116.1199,44.9846],[-116.113,44.976],[-116.1154,44.9619],[-116.1324,44.9409],[-116.155,44.9442],[-116.1611,44.902],[-116.1725,44.9015],[-116.1751,44.887],[-116.1859,44.8888],[-116.1903,44.8655],[-116.197,44.8642],[-116.2025,44.7959],[-116.2112,44.7809],[-116.2063,44.767],[-116.1991,44.7646],[-116.1894,44.7509],[-116.177,44.7459],[-116.1772,44.731],[-116.1835,44.7262],[-116.1574,44.703],[-116.1678,44.6595],[-116.1777,44.6519],[-116.1776,44.6459],[-116.1687,44.6413],[-116.1737,44.637],[-116.1701,44.6206],[-116.1842,44.5858],[-116.1762,44.5787],[-116.1763,44.561],[-116.1653,44.5397],[-116.1606,44.5168],[-116.1642,44.5133],[-116.1587,44.5088],[-116.1583,44.5002],[-116.1524,44.4988],[-116.1523,44.3245],[-116.2129,44.3244],[-116.2139,44.1514],[-116.2731,44.1512],[-116.274,43.8074],[-116.2799,43.8074]]]},"properties":{"geoid":"16008","state":"16","district":"8","name":"State House District 8","chamber":"House"}},{"type":"Feature","geometry":{"type":"Polygon","coordinates":[[[-117.243,44.391],[-117.2351,44.3739],[-117.207,44.3552],[-117.1901,44.3374],[-117.2033,44.313],[-117.2168,44.3082],[-117.2227,44.2983],[-117.1981,44.2738],[-117.1703,44.2589],[-117.1462,44.258],[-117.1368,44.2604],[-117.1199,44.2783],[-117.1042,44.2799],[-117.0895,44.2582],[-117.0514,44.2287],[-117.0461,44.2307],[-117.0423,44.2428],[-117.0319,44.2486],[-116.977,44.2432],[-116.972,44.2357],[-116.9706,44.1963],[-116.9254,44.1915],[-116.8958,44.1713],[-116.8959,44.1543],[-116.9112,44.14],[-116.9142,44.1273],[-116.9286,44.1152],[-116.9337,44.1],[-116.9774,44.0854],[-116.9732,44.0494],[-116.9567,44.0441],[-116.9361,44.0271],[-116.9369,44.0105],[-116.9449,44.0028],[-116.9353,43.9886],[-116.976,43.9751],[-116.9709,43.9683],[-116.9592,43.9664],[-116.9724,43.958],[-116.9605,43.9551],[-116.9691,43.9389],[-116.9593,43.9293],[-116.9615,43.9184],[-116.9811,43.9137],[-116.976,43.8955],[-116.9839,43.8808],[-116.9829,43.8677],[-117.02,43.859],[-117.0201,43.854],[-117.0107,43.8498],[-117.0116,43.841],[-117.0252,43.8413],[-117.0319,43.8342],[-117.0323,43.8288],[-117.0215,43.8194],[-117.0266,43.8081],[-117.0265,43.6808],[-117.0046,43.673],[-116.9705,43.669],[-116.9553,43.6357],[-116.924,43.6198],[-116.9079,43.6004],[-116.8715,43.5921],[-116.845,43.5944],[-116.8323,43.5857],[-116.8326,43.5891],[-116.7925,43.5886],[-116.7896,43.603],[-116.6829,43.6043],[-116.6829,43.6188],[-116.6929,43.6187],[-116.693,43.6335],[-116.7826,43.6331],[-116.7827,43.6623],[-116.7777,43.6622],[-116.7729,43.7021],[-116.7987,43.7057],[-116.7927,43.7345],[-116.7091,43.7354],[-116.7251,43.7772],[-116.7531,43.807],[-116.7127,43.8072],[-116.7125,43.9813],[-116.5722,43.9805],[-116.5721,44.0092],[-116.5322,44.0088],[-116.5321,44.066],[-116.4526,44.0654],[-116.4521,44.1515],[-116.3585,44.1512],[-116.3532,44.1755],[-116.357,44.2072],[-116.3433,44.2178],[-116.3515,44.2378],[-116.3464,44.2412],[-116.3503,44.245],[-116.3436,44.2572],[-116.3418,44.277],[-116.344,44.2864],[-116.3513,44.2882],[-116.3416,44.3071],[-116.348,44.3223],[-116.3411,44.3275],[-116.3286,44.3573],[-116.3358,44.3659],[-116.3339,44.376],[-116.3291,44.3755],[-116.3217,44.3877],[-116.3196,44.4207],[-116.3083,44.4234],[-116.2999,44.4446],[-116.4076,44.4444],[-116.5289,44.4915],[-116.5292,44.6152],[-116.6032,44.6152],[-116.5983,44.6253],[-116.5993,44.6369],[-116.6244,44.6629],[-116.625,44.839],[-116.8997,44.8406],[-116.9311,44.8048],[-116.9347,44.7839],[-116.9709,44.7739],[-116.9989,44.7564],[-117.0138,44.7568],[-117.02,44.751],[-117.0383,44.7482],[-117.0478,44.7415],[-117.0502,44.7326],[-117.0623,44.7271],[-117.0618,44.7067],[-117.0791,44.6922],[-117.0808,44.6738],[-117.0959,44.6647],[-117.0982,44.6407],[-117.1205,44.6147],[-117.1248,44.5838],[-117.1483,44.5644],[-117.1429,44.5572],[-117.1492,44.5362],[-117.161,44.5252],[-117.1816,44.523],[-117.2002,44.492],[-117.2251,44.4823],[-117.2153,44.4522],[-117.2151,44.4272],[-117.227,44.4056],[-117.2427,44.3965],[-117.243,44.391]]]},"properties":{"geoid":"16009","state":"16","district":"9","name":"State House District 9","chamber":"House"}},{"type":"Feature","geometry":{"type":"Polygon","coordinates":[[[-116.7984,43.7059],[-116.7729,43.702],[-116.7777,43.6622],[-116.7827,43.6623],[-116.7826,43.6331],[-116.7131,43.6334],[-116.7131,43.6698],[-116.7026,43.6774],[-116.7133,43.6774],[-116.713,43.7058],[-116.673,43.7061],[-116.6761,43.6929],[-116.6632,43.6736],[-116.6133,43.6739],[-116.6133,43.6632],[-116.6233,43.6631],[-116.623,43.6486],[-116.6331,43.6485],[-116.6331,43.634],[-116.5832,43.6023],[-116.5139,43.5994],[-116.5129,43.6632],[-116.4722,43.663],[-116.4626,43.6801],[-116.4585,43.6959],[-116.4582,43.7244],[-116.4634,43.7357],[-116.4595,43.7529],[-116.4839,43.8072],[-116.7531,43.8072],[-116.7251,43.7772],[-116.7091,43.7354],[-116.7927,43.7345],[-116.7984,43.7059]]]},"properties":{"geoid":"16010","state":"16","district":"10","name":"State House District 10","chamber":"House"}},{"type":"Feature","geometry":{"type":"Polygon","coordinates":[[[-116.7133,43.6775],[-116.7026,43.6774],[-116.7131,43.6698],[-116.7131,43.6334],[-116.693,43.6335],[-116.6929,43.6187],[-116.6829,43.6188],[-116.6829,43.6043],[-116.6529,43.6046],[-116.6529,43.6191],[-116.6235,43.6195],[-116.6132,43.6125],[-116.6132,43.6222],[-116.6331,43.6341],[-116.6331,43.6485],[-116.623,43.6486],[-116.6233,43.6631],[-116.6133,43.6632],[-116.6133,43.6739],[-116.6632,43.6736],[-116.6761,43.6929],[-116.673,43.7061],[-116.713,43.7058],[-116.7133,43.6775]]]},"properties":{"geoid":"16011","state":"16","district":"11","name":"State House District 11","chamber":"House"}},{"type":"Feature","geometry":{"type":"Polygon","coordinates":[[[-116.6929,43.593],[-116.6329,43.5904],[-116.6328,43.5468],[-116.5826,43.5472],[-116.5828,43.5544],[-116.5728,43.5543],[-116.5735,43.5697],[-116.552,43.5863],[-116.5325,43.5873],[-116.5139,43.5994],[-116.5819,43.6019],[-116.6132,43.6222],[-116.6132,43.6125],[-116.6235,43.6195],[-116.6529,43.6191],[-116.6529,43.6046],[-116.6929,43.6042],[-116.6929,43.593]]]},"properties":{"geoid":"16012","state":"16","district":"12","name":"State House District 12","chamber":"House"}},{"type":"Feature","geometry":{"type":"Polygon","coordinates":[[[-116.5928,43.5328],[-116.5728,43.5319],[-116.5728,43.5174],[-116.4735,43.5176],[-116.4735,43.6341],[-116.5131,43.6342],[-116.5159,43.5958],[-116.533,43.5872],[-116.5518,43.5864],[-116.5735,43.5697],[-116.5728,43.5543],[-116.5828,43.5544],[-116.5826,43.5472],[-116.5926,43.5472],[-116.5928,43.5328]]]},"properties":{"geoid":"16013","state":"16","district":"13","name":"State House District 13","chamber":"House"}},{"type":"Feature","geometry":{"type":"Polygon","coordinates":[[[-116.7128,43.8525],[-116.7127,43.8072],[-116.4839,43.8072],[-116.4595,43.7525],[-116.4634,43.7357],[-116.4582,43.7244],[-116.4585,43.6959],[-116.4722,43.663],[-116.3366,43.663],[-116.3037,43.6573],[-116.2989,43.6676],[-116.3134,43.6732],[-116.314,43.6825],[-116.32,43.6846],[-116.3197,43.7202],[-116.3055,43.729],[-116.3029,43.7391],[-116.2894,43.7516],[-116.2658,43.7621],[-116.2632,43.7838],[-116.2641,43.7957],[-116.2799,43.8074],[-116.274,43.8074],[-116.2731,44.1512],[-116.2139,44.1514],[-116.2129,44.3244],[-116.1523,44.3245],[-116.1524,44.4988],[-116.1766,44.5007],[-116.1933,44.4937],[-116.2005,44.5031],[-116.2108,44.5046],[-116.2133,44.5108],[-116.23,44.4895],[-116.2361,44.4647],[-116.2438,44.4615],[-116.258,44.4661],[-116.2915,44.4527],[-116.2983,44.4482],[-116.3083,44.4234],[-116.3196,44.4207],[-116.3217,44.3877],[-116.3291,44.3755],[-116.3339,44.376],[-116.3358,44.3659],[-116.3286,44.3573],[-116.3411,44.3275],[-116.348,44.3223],[-116.3416,44.3071],[-116.3513,44.2882],[-116.344,44.2864],[-116.3418,44.277],[-116.3436,44.2572],[-116.3503,44.245],[-116.3464,44.2412],[-116.3515,44.2378],[-116.3433,44.2178],[-116.357,44.2072],[-116.3532,44.1755],[-116.3585,44.1512],[-116.4521,44.1515],[-116.4526,44.0654],[-116.5321,44.066],[-116.5322,44.0088],[-116.5721,44.0092],[-116.5722,43.9805],[-116.7125,43.9813],[-116.7128,43.8525]]]},"properties":{"geoid":"16014","state":"16","district":"14","name":"State House District 14","chamber":"House"}},{"type":"Feature","geometry":{"type":"Polygon","coordinates":[[[-116.3549,43.5997],[-116.3547,43.5965],[-116.2908,43.5976],[-116.2741,43.6074],[-116.2941,43.6049],[-116.2941,43.6547],[-116.3544,43.663],[-116.3549,43.5997]]]},"properties":{"geoid":"16015","state":"16","district":"15","name":"State House District 15","chamber":"House"}},{"type":"Feature","geometry":{"type":"Polygon","coordinates":[[[-116.3141,43.6785],[-116.3134,43.6732],[-116.2989,43.6676],[-116.3037,43.6573],[-116.2941,43.6547],[-116.2941,43.6049],[-116.2783,43.6049],[-116.2536,43.617],[-116.2306,43.6206],[-116.2346,43.6263],[-116.2239,43.6263],[-116.2233,43.6488],[-116.2478,43.6658],[-116.2685,43.6665],[-116.2685,43.6616],[-116.2993,43.6775],[-116.314,43.6825],[-116.3141,43.6785]]]},"properties":{"geoid":"16016","state":"16","district":"16","name":"State House District 16","chamber":"House"}},{"type":"Feature","geometry":{"type":"Polygon","coordinates":[[[-116.3344,43.5772],[-116.2154,43.5714],[-116.2137,43.5772],[-116.2006,43.579],[-116.2131,43.6011],[-116.2084,43.6087],[-116.2306,43.6206],[-116.2613,43.6144],[-116.2903,43.5976],[-116.3344,43.5974],[-116.3344,43.5772]]]},"properties":{"geoid":"16017","state":"16","district":"17","name":"State House District 17","chamber":"House"}},{"type":"Feature","geometry":{"type":"Polygon","coordinates":[[[-116.2742,43.5611],[-116.2742,43.5229],[-116.2336,43.5224],[-116.2282,43.5114],[-116.2339,43.5069],[-116.2343,43.4588],[-116.1507,43.4589],[-116.1345,43.4526],[-116.1346,43.4997],[-116.1058,43.4784],[-116.0603,43.434],[-116.0277,43.4147],[-115.9749,43.365],[-115.9757,43.5914],[-115.9802,43.5859],[-116.0453,43.6341],[-116.0653,43.6201],[-116.061,43.608],[-116.0885,43.5842],[-116.0922,43.5713],[-116.1118,43.5746],[-116.1151,43.5814],[-116.1254,43.5832],[-116.1253,43.5711],[-116.1508,43.5787],[-116.1796,43.6009],[-116.1876,43.5995],[-116.2084,43.6087],[-116.2131,43.6011],[-116.2006,43.579],[-116.2137,43.5772],[-116.2154,43.5714],[-116.2741,43.5757],[-116.2742,43.5611]]]},"properties":{"geoid":"16018","state":"16","district":"18","name":"State House District 18","chamber":"House"}},{"type":"Feature","geometry":{"type":"Polygon","coordinates":[[[-116.3197,43.6851],[-116.2685,43.6616],[-116.2685,43.6665],[-116.2478,43.6658],[-116.2233,43.6488],[-116.222,43.6311],[-116.2239,43.6263],[-116.2346,43.6263],[-116.2339,43.6219],[-116.2035,43.6054],[-116.1796,43.6009],[-116.1513,43.5788],[-116.1253,43.5711],[-116.1254,43.5832],[-116.1151,43.5814],[-116.1118,43.5746],[-116.0921,43.5714],[-116.0885,43.5842],[-116.061,43.608],[-116.0653,43.6201],[-116.0451,43.6332],[-116.2641,43.7957],[-116.2658,43.7621],[-116.2894,43.7516],[-116.3029,43.7391],[-116.3055,43.729],[-116.3196,43.7206],[-116.3197,43.6851]]]},"properties":{"geoid":"16019","state":"16","district":"19","name":"State House District 19","chamber":"House"}},{"type":"Feature","geometry":{"type":"Polygon","coordinates":[[[-116.5131,43.6351],[-116.3936,43.6338],[-116.3935,43.6192],[-116.3545,43.6195],[-116.3544,43.6632],[-116.5129,43.6632],[-116.5131,43.6351]]]},"properties":{"geoid":"16020","state":"16","district":"20","name":"State House District 20","chamber":"House"}},{"type":"Feature","geometry":{"type":"Polygon","coordinates":[[[-116.4736,43.613],[-116.4735,43.5972],[-116.434,43.5936],[-116.4338,43.5757],[-116.3344,43.5757],[-116.3344,43.5974],[-116.3547,43.5965],[-116.3545,43.6195],[-116.3935,43.6192],[-116.3936,43.6338],[-116.4735,43.6341],[-116.4736,43.613]]]},"properties":{"geoid":"16021","state":"16","district":"21","name":"State House District 21","chamber":"House"}},{"type":"Feature","geometry":{"type":"Polygon","coordinates":[[[-116.4737,43.5614],[-116.4736,43.5329],[-116.4336,43.5321],[-116.4337,43.5175],[-116.3144,43.5175],[-116.3145,43.5228],[-116.2742,43.5229],[-116.2741,43.5757],[-116.4338,43.5757],[-116.434,43.5936],[-116.4735,43.5972],[-116.4737,43.5614]]]},"properties":{"geoid":"16022","state":"16","district":"22","name":"State House District 22","chamber":"House"}},{"type":"Feature","geometry":{"type":"Polygon","coordinates":[[[-117.027,43.5442],[-117.0262,42.0002],[-115.0382,41.9963],[-115.0377,42.7684],[-115.4542,42.7679],[-115.4542,42.8511],[-115.4414,42.8511],[-115.4415,42.9311],[-115.4965,42.9266],[-115.5351,42.9429],[-115.5622,42.9344],[-115.6031,42.9373],[-115.6137,42.951],[-115.6259,42.9562],[-115.6945,42.9394],[-115.7315,42.9386],[-115.7399,42.9432],[-115.7523,42.9376],[-115.7715,42.9387],[-115.7968,42.9495],[-115.7861,42.9604],[-115.7918,42.9723],[-115.8463,42.9693],[-115.8647,42.9748],[-115.868,42.9837],[-115.8792,42.9891],[-115.8953,42.9822],[-115.9084,42.9829],[-115.929,43.0019],[-115.9376,43.0011],[-115.9655,42.9838],[-115.9721,42.9705],[-115.9609,42.953],[-115.965,42.9437],[-116.0111,42.9497],[-116.0322,42.9619],[-116.0515,42.9863],[-116.0907,42.9879],[-116.1188,43.0126],[-116.1482,43.0148],[-116.1499,43.0196],[-116.1397,43.0305],[-116.1471,43.0376],[-116.1708,43.0378],[-116.2017,43.0489],[-116.2081,43.0676],[-116.193,43.0842],[-116.2116,43.095],[-116.2374,43.0945],[-116.2552,43.1007],[-116.2676,43.1069],[-116.2662,43.1123],[-115.9787,43.1134],[-115.9749,43.365],[-116.0277,43.4147],[-116.0603,43.434],[-116.1058,43.4784],[-116.1346,43.4997],[-116.1345,43.4526],[-116.1507,43.4589],[-116.2343,43.4588],[-116.2339,43.5069],[-116.2281,43.511],[-116.2336,43.5224],[-116.4337,43.5175],[-116.4336,43.5321],[-116.4736,43.5329],[-116.4735,43.5176],[-116.5728,43.5174],[-116.5728,43.5319],[-116.5928,43.5322],[-116.5926,43.5472],[-116.6328,43.5468],[-116.6329,43.5904],[-116.6929,43.5907],[-116.6929,43.6042],[-116.7883,43.6031],[-116.7925,43.6012],[-116.7925,43.5886],[-116.8326,43.5891],[-116.8323,43.5857],[-116.845,43.5944],[-116.869,43.5918],[-116.907,43.6002],[-116.9251,43.6206],[-116.9567,43.6368],[-116.9695,43.6683],[-117.0265,43.6808],[-117.027,43.5442]]]},"properties":{"geoid":"16023","state":"16","district":"23","name":"State House District 23","chamber":"House"}},{"type":"Feature","geometry":{"type":"Polygon","coordinates":[[[-115.0869,42.9958],[-115.0869,42.9146],[-115.0637,42.9127],[-115.0496,42.9171],[-115.0378,42.9119],[-115.0382,41.9963],[-114.8235,42.0018],[-114.5983,41.9946],[-114.2818,41.9944],[-114.2813,42.3309],[-114.2867,42.3305],[-114.2854,42.4173],[-114.0692,42.4171],[-114.0671,42.5145],[-114.0038,42.5202],[-114.0004,42.5264],[-114.0188,42.5283],[-114.0275,42.5241],[-114.0455,42.5287],[-114.0957,42.5081],[-114.1144,42.5066],[-114.1249,42.4961],[-114.15,42.4978],[-114.171,42.514],[-114.1803,42.5329],[-114.2374,42.5573],[-114.2872,42.5618],[-114.3073,42.5718],[-114.3329,42.5726],[-114.3443,42.5848],[-114.3759,42.5983],[-114.3907,42.5998],[-114.4025,42.5954],[-114.4324,42.5999],[-114.4408,42.5959],[-114.4406,42.5776],[-114.4211,42.5773],[-114.4211,42.5338],[-114.4602,42.5342],[-114.4602,42.5197],[-114.5355,42.5203],[-114.5351,42.593],[-114.4994,42.5919],[-114.4996,42.6152],[-114.5208,42.6309],[-114.5973,42.6407],[-114.6165,42.6493],[-114.6174,42.8509],[-114.5944,42.8509],[-114.5946,43.1983],[-114.375,43.1996],[-114.3748,43.2575],[-114.3948,43.2576],[-114.3946,43.3265],[-114.4189,43.3284],[-114.4304,43.3342],[-114.4499,43.3322],[-114.4617,43.325],[-114.4802,43.3324],[-114.4986,43.3286],[-114.5345,43.3334],[-114.5343,43.3686],[-114.5269,43.3686],[-114.5265,43.3984],[-114.5464,43.3984],[-114.5472,43.4358],[-114.5415,43.4412],[-114.5337,43.4398],[-114.5315,43.4473],[-114.5141,43.4579],[-114.5069,43.4803],[-114.514,43.4835],[-114.5155,43.4931],[-114.5294,43.4907],[-114.5433,43.4973],[-114.5608,43.498],[-114.5803,43.5162],[-114.5802,43.5233],[-114.5957,43.5312],[-114.5909,43.5464],[-114.585,43.5499],[-114.5891,43.5526],[-114.5867,43.5588],[-114.6016,43.5673],[-114.611,43.5651],[-114.6218,43.5751],[-114.6361,43.5736],[-114.6516,43.593],[-114.6824,43.5903],[-114.6817,43.6106],[-114.6709,43.624],[-114.6725,43.6364],[-114.6627,43.6445],[-114.6611,43.6555],[-114.6686,43.6686],[-114.6798,43.6698],[-114.6878,43.691],[-114.6762,43.6981],[-114.6822,43.7085],[-114.6801,43.7241],[-114.6661,43.739],[-114.6698,43.7441],[-114.6819,43.7429],[-114.6908,43.7514],[-114.6887,43.7632],[-114.6954,43.7753],[-114.6935,43.7873],[-114.702,43.8054],[-114.7146,43.8147],[-114.7195,43.8148],[-114.7248,43.8058],[-114.7404,43.8068],[-114.7551,43.8006],[-114.7602,43.7916],[-114.7749,43.7924],[-114.7869,43.8026],[-114.8005,43.8027],[-114.8151,43.7985],[-114.8273,43.7882],[-114.8398,43.7945],[-114.8524,43.791],[-114.856,43.7955],[-114.8537,43.8059],[-114.8476,43.8108],[-114.8501,43.8178],[-114.9104,43.8315],[-114.9519,43.8543],[-114.9702,43.8486],[-114.9892,43.8586],[-115.0005,43.8512],[-115.002,43.8313],[-115.0198,43.823],[-115.0188,43.8171],[-115.0304,43.7957],[-115.0302,43.7815],[-115.0382,43.768],[-115.0366,43.7512],[-115.0423,43.7446],[-115.0301,43.7288],[-115.0153,43.7267],[-115.0097,43.7156],[-115.0088,43.6969],[-115.0361,43.6754],[-115.0301,43.6606],[-115.0369,43.6468],[-115.0338,43.6186],[-115.0507,43.6155],[-115.0655,43.5997],[-115.0757,43.6069],[-115.0831,43.6043],[-115.0869,42.9958]]]},"properties":{"geoid":"16024","state":"16","district":"24","name":"State House District 24","chamber":"House"}},{"type":"Feature","geometry":{"type":"Polygon","coordinates":[[[-114.5393,42.6333],[-114.5102,42.6266],[-114.5119,42.6212],[-114.4995,42.6112],[-114.4994,42.5919],[-114.5351,42.593],[-114.5355,42.5203],[-114.4602,42.5197],[-114.4602,42.5342],[-114.4211,42.5338],[-114.4211,42.5773],[-114.4406,42.5776],[-114.4393,42.5949],[-114.4498,42.6006],[-114.467,42.6001],[-114.5113,42.6213],[-114.5102,42.6267],[-114.5393,42.6333]]]},"properties":{"geoid":"16025","state":"16","district":"25","name":"State House District 25","chamber":"House"}},{"type":"Feature","geometry":{"type":"Polygon","coordinates":[[[-114.9965,43.9146],[-114.9885,43.901],[-114.9884,43.8858],[-114.9741,43.8787],[-114.9729,43.8725],[-114.9774,43.8642],[-114.9893,43.8586],[-114.9702,43.8486],[-114.9519,43.8543],[-114.9104,43.8315],[-114.8501,43.8178],[-114.8476,43.8108],[-114.8537,43.8059],[-114.8536,43.7912],[-114.8398,43.7945],[-114.8273,43.7882],[-114.8151,43.7985],[-114.8005,43.8027],[-114.7869,43.8026],[-114.7749,43.7924],[-114.7602,43.7916],[-114.7551,43.8006],[-114.7404,43.8068],[-114.7248,43.8058],[-114.7163,43.8154],[-114.7031,43.8065],[-114.6926,43.7843],[-114.6954,43.7753],[-114.6891,43.7663],[-114.6908,43.7514],[-114.6819,43.7429],[-114.6698,43.7441],[-114.6661,43.739],[-114.6801,43.7241],[-114.6822,43.7085],[-114.6762,43.6981],[-114.6878,43.691],[-114.6798,43.6698],[-114.6686,43.6686],[-114.6611,43.6555],[-114.6627,43.6445],[-114.6725,43.6364],[-114.6709,43.624],[-114.6817,43.6106],[-114.6824,43.5903],[-114.6516,43.593],[-114.6361,43.5736],[-114.6218,43.5751],[-114.611,43.5651],[-114.6016,43.5673],[-114.5867,43.5588],[-114.5891,43.5526],[-114.585,43.5499],[-114.5909,43.5464],[-114.5957,43.5312],[-114.5802,43.5233],[-114.5803,43.5162],[-114.5608,43.498],[-114.5433,43.4973],[-114.5294,43.4907],[-114.5155,43.4931],[-114.514,43.4835],[-114.5069,43.4803],[-114.5141,43.4579],[-114.5315,43.4473],[-114.5337,43.4398],[-114.5415,43.4412],[-114.5472,43.4358],[-114.5464,43.3984],[-114.5265,43.3984],[-114.5269,43.3686],[-114.5343,43.3686],[-114.5345,43.3334],[-114.4986,43.3286],[-114.4802,43.3324],[-114.4617,43.325],[-114.4499,43.3322],[-114.4304,43.3342],[-114.4189,43.3284],[-114.3946,43.3265],[-114.3948,43.2576],[-114.3748,43.2575],[-114.375,43.1996],[-114.5946,43.1983],[-114.5944,42.8509],[-114.6174,42.8509],[-114.6165,42.6493],[-114.5973,42.6407],[-114.5205,42.631],[-114.5102,42.6267],[-114.5113,42.6213],[-114.4659,42.5997],[-114.4501,42.6007],[-114.4408,42.5959],[-114.4324,42.5999],[-114.4025,42.5954],[-114.3774,42.5986],[-114.3505,42.5886],[-114.3329,42.5726],[-114.3073,42.5718],[-114.2872,42.5618],[-114.2374,42.5573],[-114.1803,42.5329],[-114.171,42.514],[-114.15,42.4978],[-114.1249,42.4961],[-114.1144,42.5066],[-114.0957,42.5081],[-114.0455,42.5287],[-114.0275,42.5241],[-114.0188,42.5283],[-113.996,42.5259],[-113.9825,42.5344],[-113.9595,42.535],[-113.9505,42.5302],[-113.9318,42.5352],[-113.9317,42.765],[-113.7642,42.7643],[-113.7638,42.8498],[-113.714,42.8497],[-113.7146,43.1998],[-113.4139,43.1999],[-113.4131,42.8492],[-113.4722,42.8492],[-113.4722,42.6694],[-113.4149,42.6732],[-113.3969,42.6849],[-113.3731,42.6876],[-113.3595,42.6708],[-113.3318,42.6532],[-113.3262,42.6431],[-113.3089,42.6302],[-113.2622,42.6283],[-113.2573,42.6181],[-113.2509,42.6159],[-113.237,42.6253],[-113.2368,42.6753],[-113.1786,42.6755],[-113.1789,42.7624],[-113.2369,42.7622],[-113.237,42.8482],[-113.2437,42.8482],[-113.2435,43.1109],[-113.0077,43.1109],[-113.0073,43.2848],[-113.362,43.2847],[-113.3619,43.3672],[-113.6352,43.3675],[-113.6343,43.4975],[-113.6536,43.4937],[-113.6728,43.5004],[-113.6656,43.5118],[-113.6717,43.5246],[-113.6853,43.5323],[-113.6889,43.5615],[-113.6934,43.565],[-113.6942,43.5786],[-113.7004,43.5841],[-113.7277,43.5901],[-113.7483,43.5872],[-113.7529,43.5752],[-113.7736,43.5714],[-113.7771,43.5669],[-113.8061,43.5718],[-113.8134,43.6001],[-113.8213,43.6054],[-113.8356,43.6049],[-113.8439,43.625],[-113.8618,43.6361],[-113.8626,43.6452],[-113.8753,43.6505],[-113.9049,43.6497],[-113.9114,43.6716],[-113.9337,43.6794],[-113.9566,43.7013],[-113.9742,43.7078],[-113.9865,43.7254],[-113.9855,43.737],[-113.9971,43.7426],[-113.9936,43.7558],[-114.0042,43.765],[-114.0297,43.7734],[-114.0327,43.767],[-114.0534,43.7621],[-114.0531,43.7465],[-114.07,43.7347],[-114.117,43.7403],[-114.1376,43.7562],[-114.1347,43.7612],[-114.1421,43.7742],[-114.165,43.7764],[-114.18,43.7899],[-114.1973,43.7904],[-114.2057,43.7977],[-114.2416,43.8108],[-114.2678,43.8308],[-114.2757,43.8311],[-114.2796,43.8431],[-114.2761,43.8517],[-114.2839,43.8609],[-114.2787,43.8785],[-114.2927,43.8871],[-114.3235,43.8859],[-114.3435,43.8903],[-114.3589,43.8741],[-114.41,43.8957],[-114.4275,43.8915],[-114.4437,43.8972],[-114.4745,43.8965],[-114.4851,43.9045],[-114.5151,43.8947],[-114.5096,43.8851],[-114.5197,43.8717],[-114.5133,43.8632],[-114.5235,43.8486],[-114.5624,43.8444],[-114.582,43.8514],[-114.5864,43.8699],[-114.5835,43.8751],[-114.6062,43.8936],[-114.6252,43.898],[-114.6456,43.915],[-114.6554,43.9142],[-114.6601,43.9219],[-114.6704,43.9213],[-114.6812,43.9277],[-114.8138,43.9278],[-114.8139,43.9929],[-114.8734,43.9929],[-114.9048,43.9823],[-114.9321,43.9679],[-114.9424,43.9507],[-114.9568,43.9474],[-114.9795,43.9329],[-114.9829,43.9218],[-114.9906,43.9216],[-114.9965,43.9146]]]},"properties":{"geoid":"16026","state":"16","district":"26","name":"State House District 26","chamber":"House"}},{"type":"Feature","geometry":{"type":"Polygon","coordinates":[[[-114.2867,42.3323],[-114.2813,42.3309],[-114.2819,41.9942],[-114.0415,41.9939],[-113.8733,41.9882],[-112.7751,41.9998],[-112.1731,42.0015],[-112.1538,41.9972],[-112.1094,41.9978],[-112.1093,42.1699],[-112.0703,42.1696],[-112.071,42.2383],[-112.0844,42.2471],[-112.0983,42.2699],[-112.1133,42.2693],[-112.1304,42.2916],[-112.1378,42.2957],[-112.156,42.2945],[-112.1614,42.3],[-112.161,42.3085],[-112.1859,42.3374],[-112.1907,42.3508],[-112.2593,42.3507],[-112.2666,42.3287],[-112.2799,42.3166],[-112.2912,42.3168],[-112.3051,42.3265],[-112.3153,42.322],[-112.3271,42.3238],[-112.3289,42.3472],[-112.31,42.3656],[-112.3097,42.3724],[-112.2939,42.3867],[-112.2912,42.3957],[-112.2945,42.4462],[-112.2976,42.4543],[-112.3083,42.4567],[-112.3199,42.4493],[-112.3458,42.4494],[-112.346,42.4669],[-112.3655,42.467],[-112.3705,42.4813],[-112.3802,42.4815],[-112.3803,42.4886],[-112.3845,42.4886],[-112.3845,42.5031],[-112.4981,42.503],[-112.4978,42.416],[-112.654,42.4162],[-112.654,42.3289],[-113.0017,42.3274],[-113.0028,42.588],[-113.1757,42.5895],[-113.1752,42.6273],[-113.201,42.6338],[-113.2355,42.6261],[-113.2509,42.6159],[-113.2573,42.6181],[-113.2622,42.6283],[-113.3059,42.6289],[-113.3262,42.6431],[-113.3318,42.6532],[-113.3595,42.6708],[-113.3731,42.6876],[-113.3969,42.6849],[-113.4149,42.6732],[-113.4722,42.6694],[-113.4722,42.8492],[-113.4131,42.8492],[-113.4139,43.1999],[-113.7146,43.1998],[-113.714,42.8497],[-113.7638,42.8498],[-113.7639,42.7645],[-113.9317,42.765],[-113.9318,42.5352],[-113.9505,42.5302],[-113.9595,42.535],[-113.9825,42.5344],[-114.0004,42.5264],[-114.0003,42.5208],[-114.0671,42.5145],[-114.0692,42.4171],[-114.2854,42.4173],[-114.2867,42.3323]]]},"properties":{"geoid":"16027","state":"16","district":"27","name":"State House District 27","chamber":"House"}},{"type":"Feature","geometry":{"type":"Polygon","coordinates":[[[-113.2438,42.9514],[-113.2437,42.8482],[-113.237,42.8482],[-113.2369,42.7622],[-113.1789,42.7624],[-113.1786,42.6755],[-113.2368,42.6753],[-113.237,42.6253],[-113.201,42.6338],[-113.1752,42.6273],[-113.1757,42.5895],[-113.0028,42.588],[-113.0017,42.3274],[-112.654,42.3289],[-112.654,42.4162],[-112.4978,42.416],[-112.4981,42.503],[-112.3845,42.5031],[-112.3845,42.4886],[-112.3803,42.4886],[-112.3802,42.4815],[-112.3705,42.4813],[-112.3655,42.467],[-112.346,42.4669],[-112.3458,42.4494],[-112.3199,42.4493],[-112.3083,42.4567],[-112.2976,42.4543],[-112.2945,42.4462],[-112.2912,42.3957],[-112.2939,42.3867],[-112.3097,42.3724],[-112.31,42.3656],[-112.3289,42.3472],[-112.3271,42.3238],[-112.3153,42.322],[-112.3051,42.3265],[-112.2912,42.3168],[-112.2799,42.3166],[-112.2666,42.3287],[-112.2593,42.3507],[-112.1907,42.3508],[-112.1859,42.3374],[-112.161,42.3085],[-112.1614,42.3],[-112.156,42.2945],[-112.1378,42.2957],[-112.1304,42.2916],[-112.1133,42.2693],[-112.0983,42.2699],[-112.0844,42.2471],[-112.071,42.2383],[-112.0703,42.1696],[-112.1093,42.1699],[-112.1094,41.9978],[-111.5078,41.9996],[-111.5117,42.0338],[-111.5078,42.0382],[-111.5136,42.0465],[-111.511,42.0569],[-111.5171,42.0623],[-111.5153,42.0685],[-111.5216,42.0744],[-111.5398,42.075],[-111.5578,42.0846],[-111.5724,42.0849],[-111.581,42.0948],[-111.5957,42.0942],[-111.6006,42.107],[-111.5934,42.1139],[-111.5872,42.142],[-111.6106,42.1565],[-111.6158,42.1843],[-111.6257,42.1907],[-111.6262,42.2087],[-111.6136,42.2278],[-111.6145,42.2457],[-111.6099,42.2503],[-111.5972,42.2492],[-111.5912,42.2629],[-111.5622,42.2768],[-111.5784,42.2805],[-111.5865,42.2879],[-111.5875,42.2929],[-111.5833,42.2945],[-111.5863,42.3045],[-111.5821,42.31],[-111.589,42.3248],[-111.5671,42.3326],[-111.5727,42.337],[-111.5522,42.3514],[-111.559,42.3638],[-111.5747,42.3676],[-111.5821,42.3758],[-111.5796,42.3818],[-111.5842,42.3942],[-111.5991,42.3908],[-111.6039,42.4112],[-111.5992,42.4154],[-111.711,42.4159],[-111.7111,42.4269],[-111.716,42.4306],[-111.7337,42.4306],[-111.7282,42.4272],[-111.7373,42.4287],[-111.7338,42.4228],[-111.7385,42.4227],[-111.7345,42.4187],[-111.7384,42.4162],[-111.8756,42.4162],[-111.8755,42.4453],[-111.8852,42.4452],[-111.8854,42.4888],[-111.8951,42.4888],[-111.8952,42.5028],[-111.9105,42.5039],[-111.9232,42.5141],[-111.9289,42.5054],[-111.9473,42.5139],[-111.9541,42.504],[-111.9514,42.4972],[-111.9615,42.4938],[-111.9682,42.4982],[-111.9707,42.5077],[-111.9841,42.5094],[-111.9969,42.5181],[-112.0017,42.5144],[-112.0126,42.5182],[-112.0184,42.5316],[-112.0463,42.5264],[-112.0474,42.5433],[-112.0599,42.531],[-112.0644,42.5417],[-112.0784,42.5367],[-112.0886,42.5313],[-112.0908,42.5249],[-112.0998,42.524],[-112.1004,42.5177],[-112.1632,42.518],[-112.1626,42.5035],[-112.1693,42.5035],[-112.1751,42.5543],[-112.1984,42.6146],[-112.2206,42.6945],[-112.2309,42.7823],[-112.2576,42.7906],[-112.2576,42.7961],[-112.2641,42.7984],[-112.2545,42.8015],[-112.248,42.8152],[-112.2617,42.8285],[-112.2621,42.8476],[-112.2407,42.8502],[-112.2546,42.8513],[-112.2772,42.8623],[-112.2802,42.868],[-112.2994,42.8741],[-112.3008,42.9055],[-112.1365,42.9058],[-112.1343,42.9136],[-112.1436,42.9177],[-112.1322,42.9278],[-112.1274,42.9445],[-112.101,42.9521],[-112.0821,42.9504],[-112.0887,42.9735],[-112.075,42.9803],[-112.0638,42.9799],[-112.0529,42.991],[-112.0534,43.0005],[-112.0587,43.0036],[-112.056,43.008],[-112.0659,43.0194],[-112.0628,43.0224],[-112.6566,43.0219],[-112.6656,43.0155],[-112.6784,43.0217],[-112.6822,43.0187],[-112.6804,43.0123],[-112.6948,43.0081],[-112.6932,42.9997],[-112.7045,42.9977],[-112.7067,42.9907],[-112.7303,42.9925],[-112.7416,42.9889],[-112.7419,42.9813],[-112.7342,42.9755],[-112.7511,42.9634],[-112.7498,42.9527],[-112.7661,42.9343],[-112.7612,42.9236],[-112.7792,42.9138],[-112.7836,42.8875],[-112.7946,42.8775],[-112.8083,42.8818],[-112.8166,42.8632],[-113.0078,42.8631],[-113.0077,43.1109],[-113.2435,43.1109],[-113.2438,42.9514]],[[-112.5208,42.912],[-112.4445,42.9133],[-112.423,42.9095],[-112.42,42.9132],[-112.4142,42.9093],[-112.4154,42.9043],[-112.4097,42.9105],[-112.3968,42.9086],[-112.3968,42.9022],[-112.3883,42.9012],[-112.422,42.8914],[-112.422,42.8842],[-112.398,42.8804],[-112.3979,42.8696],[-112.4077,42.8696],[-112.4076,42.8587],[-112.3979,42.8551],[-112.3995,42.8339],[-112.3958,42.8308],[-112.3999,42.8263],[-112.3821,42.8155],[-112.3935,42.816],[-112.3966,42.8107],[-112.4287,42.8119],[-112.4287,42.8228],[-112.4385,42.8227],[-112.4386,42.8336],[-112.4582,42.8336],[-112.4578,42.819],[-112.4836,42.819],[-112.4925,42.8031],[-112.5041,42.8041],[-112.5168,42.7947],[-112.5155,42.91],[-112.5208,42.912]]]},"properties":{"geoid":"16028","state":"16","district":"28","name":"State House District 28","chamber":"House"}},{"type":"Feature","geometry":{"type":"Polygon","coordinates":[[[-112.5208,42.912],[-112.5155,42.91],[-112.5168,42.7947],[-112.5041,42.8041],[-112.4925,42.8031],[-112.4836,42.819],[-112.4578,42.819],[-112.4582,42.8336],[-112.4386,42.8336],[-112.4385,42.8227],[-112.4287,42.8228],[-112.4287,42.8119],[-112.3966,42.8107],[-112.3935,42.816],[-112.3821,42.8155],[-112.3999,42.8263],[-112.3958,42.8308],[-112.3995,42.8339],[-112.3979,42.8551],[-112.4076,42.8587],[-112.4077,42.8696],[-112.3979,42.8696],[-112.398,42.8804],[-112.422,42.8842],[-112.422,42.8914],[-112.3883,42.9012],[-112.3968,42.9022],[-112.3968,42.9086],[-112.4097,42.9105],[-112.4154,42.9043],[-112.4142,42.9093],[-112.42,42.9132],[-112.423,42.9095],[-112.4445,42.9133],[-112.5208,42.912]]]},"properties":{"geoid":"16029","state":"16","district":"29","name":"State House District 29","chamber":"House"}},{"type":"Feature","geometry":{"type":"Polygon","coordinates":[[[-113.7981,43.5695],[-113.7771,43.5669],[-113.7736,43.5714],[-113.7529,43.5752],[-113.7483,43.5872],[-113.7277,43.5901],[-113.6947,43.5796],[-113.6853,43.5323],[-113.6717,43.5246],[-113.6656,43.5118],[-113.6728,43.5004],[-113.6536,43.4937],[-113.6343,43.4975],[-113.6352,43.3675],[-113.3619,43.3672],[-113.362,43.2847],[-113.0073,43.2848],[-113.0078,42.8631],[-112.8166,42.8632],[-112.8083,42.8818],[-112.7946,42.8775],[-112.7836,42.8875],[-112.7792,42.9138],[-112.7612,42.9236],[-112.7661,42.9343],[-112.7498,42.9527],[-112.7511,42.9634],[-112.7342,42.9755],[-112.7419,42.9813],[-112.7416,42.9889],[-112.7303,42.9925],[-112.7067,42.9907],[-112.7045,42.9977],[-112.6932,42.9997],[-112.6948,43.0081],[-112.6804,43.0123],[-112.6822,43.0187],[-112.6762,43.022],[-112.6656,43.0155],[-112.6566,43.0219],[-112.5927,43.0222],[-111.5895,43.0201],[-111.588,43.2818],[-111.8225,43.2823],[-111.8225,43.366],[-112.0438,43.3667],[-112.0437,43.4101],[-112.1034,43.4103],[-112.1033,43.4251],[-112.52,43.4252],[-112.5199,43.6266],[-112.6971,43.6231],[-112.6952,43.9719],[-112.9943,43.9724],[-112.9951,44.2341],[-113.4165,44.2334],[-113.4163,44.0593],[-113.4578,44.0595],[-113.4582,44.0305],[-113.4515,44.0003],[-113.4556,43.9952],[-113.4457,43.9827],[-113.4438,43.9402],[-113.4473,43.935],[-113.4456,43.9147],[-113.4589,43.8841],[-113.454,43.8739],[-113.4056,43.8564],[-113.3911,43.8396],[-113.3855,43.8247],[-113.3726,43.8213],[-113.3729,43.8165],[-113.3675,43.8147],[-113.3703,43.8106],[-113.3608,43.7968],[-113.3674,43.7954],[-113.3638,43.7979],[-113.3773,43.8096],[-113.3923,43.8079],[-113.4135,43.8169],[-113.4428,43.8087],[-113.448,43.7753],[-113.4852,43.7468],[-113.4869,43.7395],[-113.5105,43.7368],[-113.5281,43.7189],[-113.5434,43.7194],[-113.572,43.7009],[-113.599,43.6954],[-113.6324,43.6765],[-113.6804,43.6601],[-113.7237,43.6291],[-113.7473,43.6285],[-113.76,43.6227],[-113.7693,43.6032],[-113.7815,43.5927],[-113.7846,43.5802],[-113.7981,43.5695]]]},"properties":{"geoid":"16030","state":"16","district":"30","name":"State House District 30","chamber":"House"}},{"type":"Feature","geometry":{"type":"Polygon","coordinates":[[[-114.8202,44.7478],[-114.8029,44.7199],[-114.794,44.7131],[-114.7818,44.714],[-114.7512,44.6882],[-114.7368,44.6699],[-114.7355,44.6619],[-114.7413,44.6528],[-114.7122,44.6504],[-114.7057,44.6566],[-114.6915,44.6553],[-114.6628,44.6622],[-114.6292,44.6529],[-114.6058,44.6353],[-114.5963,44.6221],[-114.5969,44.6071],[-114.6036,44.5963],[-114.5786,44.5861],[-114.5693,44.5762],[-114.5434,44.5806],[-114.5298,44.5968],[-114.5164,44.6041],[-114.4954,44.604],[-114.4889,44.5958],[-114.4774,44.5942],[-114.4691,44.606],[-114.4509,44.6125],[-114.4484,44.6315],[-114.4353,44.6513],[-114.4087,44.6564],[-114.4051,44.6652],[-114.3867,44.6711],[-114.3872,44.6824],[-114.3728,44.7097],[-114.4055,44.7182],[-114.4036,44.73],[-114.4089,44.733],[-114.4042,44.7395],[-114.3979,44.7388],[-114.3928,44.7474],[-114.3798,44.7435],[-114.373,44.7509],[-114.3605,44.752],[-114.351,44.7645],[-114.3534,44.7759],[-114.341,44.786],[-114.3443,44.7938],[-114.3161,44.8015],[-114.3,44.8196],[-114.2782,44.8231],[-114.2645,44.8364],[-114.2672,44.8415],[-114.2623,44.8499],[-114.2436,44.8524],[-114.2389,44.8617],[-114.2249,44.8643],[-114.2215,44.8791],[-114.2117,44.8631],[-114.1954,44.8606],[-114.1989,44.8446],[-114.1917,44.8379],[-114.1989,44.8306],[-114.1896,44.825],[-114.1966,44.8122],[-114.1961,44.8032],[-114.2043,44.8],[-114.2058,44.7817],[-114.2015,44.7783],[-114.2161,44.7623],[-114.2152,44.7455],[-114.1745,44.7456],[-114.1628,44.7405],[-114.1548,44.7453],[-114.1356,44.7303],[-114.1271,44.7406],[-114.1188,44.739],[-114.1058,44.7447],[-114.1078,44.7484],[-114.0926,44.7519],[-114.0959,44.7562],[-114.0849,44.7559],[-114.0838,44.749],[-114.0759,44.7456],[-114.0512,44.7122],[-114.0512,44.6963],[-114.0352,44.6801],[-114.0351,44.6707],[-114.0212,44.6571],[-114.0215,44.6521],[-114.0066,44.6486],[-114.0039,44.6347],[-113.9842,44.6191],[-113.9665,44.6143],[-113.966,44.6075],[-113.9617,44.6077],[-113.9439,44.5862],[-113.9288,44.58],[-113.9203,44.5657],[-113.8995,44.5585],[-113.8525,44.5299],[-113.8162,44.494],[-113.7884,44.4942],[-113.722,44.475],[-113.7067,44.4745],[-113.6651,44.4522],[-113.5817,44.4423],[-113.565,44.4362],[-113.5543,44.4265],[-113.5351,44.4243],[-113.5017,44.4221],[-113.4857,44.4336],[-113.4774,44.448],[-113.4652,44.4549],[-113.4518,44.4549],[-113.437,44.4393],[-113.4358,44.4268],[-113.4254,44.4229],[-113.4145,44.4076],[-113.4035,44.3805],[-113.3619,44.3466],[-113.3564,44.3291],[-113.3396,44.3163],[-113.337,44.2939],[-113.3261,44.2733],[-113.3348,44.2598],[-113.3339,44.2503],[-113.3206,44.2332],[-112.9951,44.2341],[-112.9943,43.9724],[-112.6952,43.9719],[-112.6971,43.6231],[-112.6392,43.6232],[-112.6392,43.6266],[-111.626,43.6268],[-111.6259,43.6552],[-111.7174,43.6553],[-111.7412,43.6676],[-111.7628,43.6675],[-111.7793,43.6767],[-111.8048,43.7026],[-111.8203,43.7042],[-111.8289,43.7161],[-111.8392,43.7139],[-111.8581,43.7186],[-111.8732,43.737],[-111.9021,43.7472],[-111.9009,43.7521],[-111.9082,43.7603],[-111.9181,43.7554],[-111.931,43.7671],[-111.9472,43.7579],[-111.948,43.7502],[-111.9593,43.7522],[-111.9696,43.7478],[-111.9835,43.7538],[-111.9834,43.7973],[-111.9775,43.7972],[-111.9768,43.9274],[-111.8373,43.9272],[-111.8376,43.8983],[-111.698,43.8979],[-111.6978,43.8834],[-111.5588,43.8833],[-111.5579,43.9027],[-111.5407,43.9077],[-111.5317,43.9193],[-111.509,43.9229],[-111.5012,43.9292],[-111.4822,43.9289],[-111.4672,43.9165],[-111.443,43.9128],[-111.4311,43.9156],[-111.4252,43.9104],[-111.4037,43.9185],[-111.3938,43.9277],[-111.3846,43.928],[-111.3545,43.9481],[-111.3482,43.9383],[-111.3333,43.9393],[-111.3252,43.9235],[-111.3179,43.9247],[-111.3088,43.9192],[-111.2808,43.9264],[-111.2713,43.9388],[-111.2541,43.9386],[-111.236,43.9491],[-111.2173,43.9395],[-111.2044,43.9437],[-111.2024,43.9344],[-111.1873,43.9321],[-111.1553,43.9512],[-111.1424,43.9506],[-111.1389,43.9583],[-111.1137,43.9686],[-111.1029,43.9684],[-111.0585,43.9843],[-111.047,43.9835],[-111.049,44.4741],[-111.0748,44.4834],[-111.1072,44.4869],[-111.1274,44.4976],[-111.1386,44.5169],[-111.1314,44.5324],[-111.1506,44.535],[-111.1589,44.5463],[-111.1786,44.5525],[-111.181,44.5692],[-111.2015,44.5759],[-111.2276,44.5767],[-111.2409,44.6145],[-111.2193,44.6225],[-111.2426,44.6434],[-111.2492,44.6441],[-111.2526,44.6512],[-111.2701,44.6468],[-111.2785,44.6513],[-111.2806,44.6552],[-111.2668,44.6675],[-111.2793,44.6822],[-111.2969,44.6914],[-111.2963,44.7023],[-111.3225,44.7188],[-111.3236,44.7291],[-111.3371,44.7332],[-111.353,44.7262],[-111.3745,44.7502],[-111.3848,44.755],[-111.3978,44.7464],[-111.3944,44.7441],[-111.3994,44.7343],[-111.398,44.7236],[-111.4143,44.7107],[-111.4296,44.7201],[-111.4388,44.7205],[-111.4888,44.7056],[-111.4846,44.6876],[-111.4685,44.6792],[-111.4765,44.6737],[-111.4725,44.6662],[-111.4906,44.6497],[-111.4901,44.6425],[-111.501,44.6496],[-111.5049,44.6443],[-111.5163,44.644],[-111.5025,44.6265],[-111.5226,44.6141],[-111.5196,44.612],[-111.5256,44.6043],[-111.5193,44.6018],[-111.5245,44.5976],[-111.5236,44.5922],[-111.5178,44.5822],[-111.5013,44.5725],[-111.5096,44.5662],[-111.5078,44.5623],[-111.4921,44.5608],[-111.4787,44.5534],[-111.4694,44.5577],[-111.4635,44.5414],[-111.468,44.539],[-111.4994,44.542],[-111.5129,44.536],[-111.5236,44.5479],[-111.5471,44.5572],[-111.5628,44.5552],[-111.5857,44.5626],[-111.6139,44.5487],[-111.6468,44.5548],[-111.6593,44.5527],[-111.683,44.5617],[-111.69,44.5562],[-111.7032,44.5601],[-111.7156,44.5434],[-111.7499,44.5396],[-111.7627,44.5258],[-111.7715,44.5309],[-111.7798,44.5238],[-111.8011,44.526],[-111.8082,44.5197],[-111.808,44.5102],[-111.8215,44.5089],[-111.8299,44.52],[-111.8423,44.5262],[-111.8569,44.5491],[-111.8639,44.5515],[-111.8693,44.5666],[-111.8795,44.5604],[-111.8923,44.564],[-111.9029,44.5567],[-111.9478,44.557],[-111.9517,44.5495],[-111.9612,44.5492],[-111.9777,44.5357],[-111.9955,44.535],[-112.0115,44.5435],[-112.0327,44.5466],[-112.0328,44.5284],[-112.0691,44.5372],[-112.0931,44.53],[-112.0965,44.523],[-112.1064,44.5206],[-112.127,44.5289],[-112.1292,44.5362],[-112.1367,44.5399],[-112.1489,44.5368],[-112.1646,44.5415],[-112.1801,44.5328],[-112.2211,44.5433],[-112.2296,44.5495],[-112.229,44.564],[-112.2567,44.5717],[-112.2678,44.5655],[-112.2883,44.5681],[-112.2927,44.5617],[-112.3137,44.553],[-112.315,44.5419],[-112.3195,44.5389],[-112.3525,44.538],[-112.3588,44.5294],[-112.3584,44.4853],[-112.3645,44.4803],[-112.3661,44.467],[-112.3865,44.4473],[-112.4072,44.4575],[-112.4161,44.453],[-112.4341,44.4543],[-112.4335,44.4598],[-112.4415,44.4666],[-112.4552,44.4663],[-112.4603,44.4751],[-112.4731,44.4794],[-112.5006,44.4628],[-112.5113,44.4664],[-112.5139,44.4751],[-112.5358,44.4784],[-112.5417,44.4838],[-112.578,44.4801],[-112.602,44.4907],[-112.625,44.483],[-112.6291,44.4828],[-112.6333,44.4911],[-112.6617,44.486],[-112.685,44.4928],[-112.6927,44.5],[-112.7201,44.5041],[-112.7345,44.4995],[-112.7431,44.4883],[-112.7808,44.4847],[-112.798,44.4663],[-112.798,44.4609],[-112.8276,44.4425],[-112.8269,44.4321],[-112.84,44.4244],[-112.8218,44.4072],[-112.8199,44.4002],[-112.8101,44.3988],[-112.8151,44.3951],[-112.8122,44.3771],[-112.8456,44.3579],[-112.8555,44.3601],[-112.8816,44.3793],[-112.8835,44.4006],[-112.8896,44.4059],[-112.9023,44.399],[-112.9146,44.4027],[-112.9211,44.4109],[-112.9503,44.4169],[-112.952,44.425],[-112.963,44.4233],[-112.9715,44.4276],[-113.0035,44.4513],[-113.0088,44.464],[-113.0061,44.471],[-113.0265,44.4946],[-113.0159,44.5059],[-113.0159,44.516],[-113.0055,44.5198],[-113.0068,44.5262],[-113.0454,44.5443],[-113.0468,44.5536],[-113.0368,44.5604],[-113.0373,44.5648],[-113.0672,44.5791],[-113.0623,44.5862],[-113.0883,44.5997],[-113.0719,44.6159],[-113.0537,44.6217],[-113.0507,44.6345],[-113.0656,44.6493],[-113.0678,44.6788],[-113.0809,44.6831],[-113.0821,44.6917],[-113.0978,44.6989],[-113.1016,44.7295],[-113.1168,44.7325],[-113.1203,44.746],[-113.1348,44.7528],[-113.1377,44.7601],[-113.1313,44.7649],[-113.1315,44.7728],[-113.1579,44.781],[-113.1637,44.7788],[-113.1795,44.7872],[-113.1931,44.8017],[-113.2387,44.8141],[-113.2469,44.823],[-113.3413,44.7847],[-113.3541,44.7918],[-113.3461,44.8006],[-113.3561,44.8198],[-113.3766,44.8305],[-113.3776,44.8352],[-113.4094,44.8408],[-113.422,44.8376],[-113.4291,44.8549],[-113.4396,44.8557],[-113.4551,44.8654],[-113.4612,44.8868],[-113.4786,44.8956],[-113.4718,44.9098],[-113.4907,44.9229],[-113.4988,44.9422],[-113.4947,44.9485],[-113.4658,44.9476],[-113.4439,44.9594],[-113.4498,44.9706],[-113.4449,44.9733],[-113.4469,44.9983],[-113.4379,45.0073],[-113.4487,45.02],[-113.4463,45.0339],[-113.4558,45.0397],[-113.4493,45.0462],[-113.452,45.0592],[-113.4603,45.0649],[-113.4855,45.0636],[-113.4894,45.0765],[-113.5222,45.0914],[-113.506,45.1078],[-113.5112,45.1161],[-113.5497,45.1129],[-113.5699,45.1239],[-113.5767,45.1312],[-113.5657,45.1496],[-113.58,45.1484],[-113.5907,45.1559],[-113.5942,45.1661],[-113.5894,45.1773],[-113.5919,45.1845],[-113.6364,45.2118],[-113.6554,45.24],[-113.685,45.2535],[-113.6929,45.2642],[-113.6919,45.2724],[-113.6803,45.2744],[-113.6803,45.2789],[-113.71,45.301],[-113.7186,45.3168],[-113.7377,45.3279],[-113.7403,45.3454],[-113.729,45.3561],[-113.7389,45.3681],[-113.7329,45.3731],[-113.7329,45.3892],[-113.7492,45.4029],[-113.7759,45.4078],[-113.7772,45.4166],[-113.7597,45.4271],[-113.776,45.4337],[-113.7744,45.4465],[-113.7843,45.4549],[-113.7746,45.463],[-113.7762,45.4709],[-113.7599,45.4804],[-113.7728,45.5133],[-113.766,45.5206],[-113.8348,45.5207],[-113.8174,45.557],[-113.8215,45.5659],[-113.7967,45.5816],[-113.8064,45.6016],[-113.8241,45.6128],[-113.8389,45.6107],[-113.8486,45.6201],[-113.8616,45.6238],[-113.886,45.6174],[-113.9047,45.622],[-113.8994,45.6285],[-113.9024,45.6375],[-113.8953,45.6438],[-113.9199,45.6581],[-113.9206,45.6641],[-113.9314,45.673],[-113.9353,45.6943],[-113.9648,45.69],[-113.9708,45.7029],[-113.9885,45.706],[-113.9968,45.6969],[-114.0159,45.6956],[-114.0192,45.6926],[-114.0144,45.6838],[-114.0283,45.6752],[-114.0155,45.6639],[-114.018,45.6491],[-114.0333,45.6482],[-114.0518,45.6327],[-114.0667,45.6282],[-114.0736,45.6151],[-114.0819,45.6106],[-114.0861,45.5915],[-114.1229,45.5836],[-114.1307,45.5758],[-114.129,45.5654],[-114.1358,45.5571],[-114.1803,45.5512],[-114.1947,45.5362],[-114.2053,45.5359],[-114.2279,45.5461],[-114.2484,45.5458],[-114.2516,45.5375],[-114.2472,45.5247],[-114.2585,45.5112],[-114.2615,45.4949],[-114.27,45.4909],[-114.2699,45.4846],[-114.2951,45.4794],[-114.33,45.4597],[-114.3457,45.4607],[-114.3516,45.471],[-114.3611,45.4744],[-114.3672,45.4919],[-114.3889,45.503],[-114.4247,45.5099],[-114.4306,45.5295],[-114.4505,45.5423],[-114.4639,45.545],[-114.4561,45.5622],[-114.4657,45.5605],[-114.4719,45.5652],[-114.4981,45.5555],[-114.5273,45.5709],[-114.5526,45.557],[-114.565,45.5578],[-114.5879,45.5379],[-114.6188,45.5286],[-114.632,45.5192],[-114.6637,45.471],[-114.6806,45.4739],[-114.6806,45.4841],[-114.6905,45.4908],[-114.7342,45.4899],[-114.7744,45.5136],[-114.7938,45.5083],[-114.798,45.4968],[-114.7932,45.4941],[-114.7946,45.4798],[-114.7986,45.4763],[-114.7877,45.4583],[-114.7932,45.4524],[-114.7932,45.4363],[-114.7691,45.4346],[-114.764,45.4275],[-114.7682,45.4213],[-114.7617,45.4129],[-114.7349,45.3954],[-114.7162,45.3955],[-114.6955,45.3689],[-114.6746,45.3646],[-114.6776,45.3552],[-114.6743,45.3483],[-114.6438,45.3209],[-114.6048,45.2961],[-114.5933,45.2974],[-114.6075,45.2813],[-114.624,45.2748],[-114.6595,45.2486],[-114.6637,45.2374],[-114.6741,45.2342],[-114.681,45.2257],[-114.6852,45.2074],[-114.6988,45.1897],[-114.7148,45.1884],[-114.7225,45.1793],[-114.7236,45.1601],[-114.7323,45.1512],[-114.7278,45.1285],[-114.7215,45.121],[-114.731,45.107],[-114.7332,45.0945],[-114.7193,45.0875],[-114.7289,45.0725],[-114.7229,45.056],[-114.7273,45.0461],[-114.7224,45.0411],[-114.7287,45.0134],[-114.7215,45.0082],[-114.7301,45.0025],[-114.736,44.9749],[-114.7305,44.9691],[-114.7357,44.9498],[-114.7267,44.9475],[-114.7233,44.9344],[-114.736,44.9257],[-114.7292,44.9204],[-114.7329,44.9097],[-114.7266,44.9024],[-114.7322,44.8944],[-114.7233,44.8912],[-114.7318,44.8866],[-114.7346,44.8787],[-114.7507,44.8791],[-114.7524,44.8738],[-114.7689,44.8724],[-114.7698,44.8652],[-114.7608,44.8562],[-114.7713,44.8507],[-114.7664,44.8427],[-114.7836,44.8403],[-114.789,44.8335],[-114.7931,44.8361],[-114.7954,44.8253],[-114.8085,44.8171],[-114.8124,44.8083],[-114.7977,44.7943],[-114.8202,44.7478]]]},"properties":{"geoid":"16031","state":"16","district":"31","name":"State House District 31","chamber":"House"}},{"type":"Feature","geometry":{"type":"Polygon","coordinates":[[[-112.5201,43.5246],[-112.52,43.4252],[-112.1033,43.4251],[-112.1034,43.4103],[-112.0437,43.4101],[-112.0438,43.3667],[-111.9448,43.3687],[-111.9482,43.3853],[-111.9597,43.3857],[-111.9592,43.4038],[-111.9653,43.4095],[-111.964,43.4389],[-111.9442,43.4388],[-111.9442,43.525],[-112.0037,43.526],[-112.004,43.5537],[-112.0432,43.5533],[-112.0576,43.5897],[-112.0509,43.594],[-112.0573,43.6015],[-112.0543,43.6115],[-112.0617,43.6116],[-112.0717,43.626],[-112.5199,43.6266],[-112.5201,43.5246]],[[-112.1029,43.5027],[-112.1029,43.5115],[-112.083,43.5111],[-112.0831,43.5254],[-112.0566,43.5257],[-112.0502,43.5067],[-112.044,43.5112],[-111.984,43.5116],[-111.9842,43.4679],[-112.086,43.4678],[-112.083,43.4824],[-112.0929,43.4824],[-112.0927,43.4967],[-112.1028,43.4966],[-112.1029,43.5027]]]},"properties":{"geoid":"16032","state":"16","district":"32","name":"State House District 32","chamber":"House"}},{"type":"Feature","geometry":{"type":"Polygon","coordinates":[[[-112.1029,43.5036],[-112.1028,43.4966],[-112.0927,43.4967],[-112.0929,43.4824],[-112.083,43.4824],[-112.086,43.4678],[-111.9842,43.4679],[-111.984,43.5116],[-112.044,43.5112],[-112.0502,43.5067],[-112.0566,43.5257],[-112.0831,43.5254],[-112.083,43.5111],[-112.1029,43.5115],[-112.1029,43.5036]]]},"properties":{"geoid":"16033","state":"16","district":"33","name":"State House District 33","chamber":"House"}},{"type":"Feature","geometry":{"type":"Polygon","coordinates":[[[-111.9835,43.754],[-111.9696,43.7478],[-111.9593,43.7522],[-111.948,43.7502],[-111.9472,43.7579],[-111.931,43.7671],[-111.9181,43.7554],[-111.9082,43.7603],[-111.9009,43.7521],[-111.9021,43.7472],[-111.8732,43.737],[-111.8581,43.7186],[-111.8392,43.7139],[-111.8289,43.7161],[-111.8203,43.7042],[-111.8048,43.7026],[-111.7793,43.6767],[-111.7628,43.6675],[-111.7412,43.6676],[-111.7174,43.6553],[-111.6259,43.6552],[-111.626,43.6268],[-111.566,43.6268],[-111.566,43.622],[-111.3998,43.622],[-111.3988,43.9229],[-111.4252,43.9104],[-111.4311,43.9156],[-111.443,43.9128],[-111.4672,43.9165],[-111.4787,43.9279],[-111.4965,43.93],[-111.509,43.9229],[-111.5317,43.9193],[-111.5407,43.9077],[-111.5579,43.9027],[-111.5588,43.8833],[-111.6953,43.8834],[-111.698,43.8979],[-111.8376,43.8983],[-111.8373,43.9272],[-111.9768,43.9274],[-111.9775,43.7972],[-111.9834,43.7973],[-111.9835,43.754]]]},"properties":{"geoid":"16034","state":"16","district":"34","name":"State House District 34","chamber":"House"}},{"type":"Feature","geometry":{"type":"Polygon","coordinates":[[[-112.3017,42.8776],[-112.2951,42.8702],[-112.2802,42.868],[-112.2772,42.8623],[-112.2546,42.8513],[-112.2407,42.8502],[-112.2621,42.8476],[-112.2617,42.8285],[-112.248,42.8152],[-112.2545,42.8015],[-112.2641,42.7984],[-112.2576,42.7961],[-112.2576,42.7906],[-112.2309,42.7823],[-112.2206,42.6945],[-112.1984,42.6146],[-112.1751,42.5543],[-112.1693,42.5035],[-112.1626,42.5035],[-112.1632,42.518],[-112.1004,42.5177],[-112.0998,42.524],[-112.0908,42.5249],[-112.0886,42.5313],[-112.0784,42.5367],[-112.0644,42.5417],[-112.0599,42.531],[-112.0474,42.5433],[-112.0463,42.5264],[-112.0184,42.5316],[-112.0126,42.5182],[-112.0017,42.5144],[-111.9969,42.5181],[-111.9841,42.5094],[-111.9707,42.5077],[-111.9682,42.4982],[-111.9615,42.4938],[-111.9514,42.4972],[-111.9541,42.504],[-111.9473,42.5139],[-111.9289,42.5054],[-111.9232,42.5141],[-111.9105,42.5039],[-111.8952,42.5028],[-111.8951,42.4888],[-111.8854,42.4888],[-111.8852,42.4452],[-111.8755,42.4453],[-111.8756,42.4162],[-111.7384,42.4162],[-111.7345,42.4187],[-111.7385,42.4227],[-111.7338,42.4228],[-111.7373,42.4287],[-111.7282,42.4272],[-111.7337,42.4306],[-111.716,42.4306],[-111.7111,42.4269],[-111.711,42.4159],[-111.5992,42.4154],[-111.6039,42.4112],[-111.5991,42.3908],[-111.5842,42.3942],[-111.5796,42.3818],[-111.5821,42.3758],[-111.5747,42.3676],[-111.559,42.3638],[-111.5522,42.3514],[-111.5727,42.337],[-111.5671,42.3326],[-111.589,42.3248],[-111.5821,42.31],[-111.5863,42.3045],[-111.5833,42.2945],[-111.5875,42.2929],[-111.5865,42.2879],[-111.5784,42.2805],[-111.5622,42.2768],[-111.5912,42.2629],[-111.5972,42.2492],[-111.6099,42.2503],[-111.6145,42.2457],[-111.6136,42.2278],[-111.6262,42.2087],[-111.6257,42.1907],[-111.6158,42.1843],[-111.6106,42.1565],[-111.5872,42.142],[-111.5934,42.1139],[-111.6006,42.107],[-111.5957,42.0942],[-111.581,42.0948],[-111.5724,42.0849],[-111.5578,42.0846],[-111.5398,42.075],[-111.5216,42.0744],[-111.5153,42.0685],[-111.5171,42.0623],[-111.511,42.0569],[-111.5136,42.0465],[-111.5078,42.0382],[-111.5117,42.0338],[-111.5078,41.9996],[-111.0467,42.0017],[-111.0435,42.7476],[-111.0472,43.9835],[-111.0585,43.9843],[-111.1029,43.9684],[-111.1137,43.9686],[-111.1389,43.9583],[-111.1424,43.9506],[-111.1553,43.9512],[-111.1873,43.9321],[-111.2024,43.9344],[-111.2044,43.9437],[-111.2173,43.9395],[-111.236,43.9491],[-111.2541,43.9386],[-111.2713,43.9388],[-111.2808,43.9264],[-111.3088,43.9192],[-111.3179,43.9247],[-111.3252,43.9235],[-111.3333,43.9393],[-111.3482,43.9383],[-111.3545,43.9481],[-111.3754,43.9329],[-111.3974,43.9245],[-111.4008,43.8828],[-111.3998,43.622],[-111.566,43.622],[-111.566,43.6268],[-112.072,43.6261],[-112.0617,43.6116],[-112.0543,43.6115],[-112.0573,43.6015],[-112.0509,43.594],[-112.0576,43.5897],[-112.0432,43.5533],[-112.004,43.5537],[-112.0037,43.526],[-111.9442,43.525],[-111.9442,43.4388],[-111.964,43.4389],[-111.9653,43.4095],[-111.9592,43.4038],[-111.9596,43.3856],[-111.9479,43.3849],[-111.9458,43.3663],[-111.8225,43.366],[-111.8225,43.2823],[-111.588,43.2818],[-111.5895,43.0201],[-112.0628,43.0224],[-112.0659,43.0194],[-112.056,43.008],[-112.0587,43.0036],[-112.0534,43.0005],[-112.0529,42.991],[-112.0638,42.9799],[-112.075,42.9803],[-112.0887,42.9735],[-112.0821,42.9504],[-112.101,42.9521],[-112.1274,42.9445],[-112.1322,42.9278],[-112.1436,42.9177],[-112.1343,42.9136],[-112.1365,42.9058],[-112.3008,42.9058],[-112.3017,42.8776]]]},"properties":{"geoid":"16035","state":"16","district":"35","name":"State House District 35","chamber":"House"}}]}