{"type":"FeatureCollection","features":[{"type":"Feature","geometry":{"type":"Polygon","coordinates":[[[-87.8616,41.8346],[-87.8598,41.8126],[-87.8402,41.8129],[-87.8401,41.7985],[-87.782,41.7997],[-87.7793,41.793],[-87.738,41.7995],[-87.7362,41.7953],[-87.7221,41.8006],[-87.7135,41.797],[-87.7125,41.7715],[-87.7054,41.7716],[-87.7056,41.7789],[-87.6934,41.7791],[-87.6875,41.7847],[-87.6836,41.7988],[-87.6733,41.8012],[-87.6724,41.8158],[-87.6553,41.816],[-87.656,41.8233],[-87.6411,41.8235],[-87.6418,41.8308],[-87.6667,41.8305],[-87.666,41.8237],[-87.6751,41.8231],[-87.6754,41.837],[-87.6801,41.8368],[-87.6846,41.8354],[-87.6851,41.8084],[-87.7139,41.808],[-87.7143,41.8261],[-87.7385,41.818],[-87.7392,41.8367],[-87.7437,41.8367],[-87.7443,41.8514],[-87.7492,41.8513],[-87.7521,41.8658],[-87.7594,41.8657],[-87.7639,41.8511],[-87.7786,41.849],[-87.7784,41.843],[-87.8031,41.8358],[-87.8029,41.8312],[-87.8317,41.8247],[-87.8322,41.8353],[-87.8616,41.8346]]]},"properties":{"geoid":"17001","state":"17","district":"1","name":"State Senate District 1","chamber":"Senate"}},{"type":"Feature","geometry":{"type":"Polygon","coordinates":[[[-87.8067,41.938],[-87.8063,41.924],[-87.7904,41.9236],[-87.7864,41.9166],[-87.746,41.9139],[-87.7459,41.8987],[-87.7385,41.8988],[-87.7384,41.8951],[-87.7225,41.8991],[-87.7224,41.8936],[-87.7187,41.8936],[-87.7183,41.8991],[-87.7134,41.8991],[-87.7127,41.8955],[-87.6818,41.8896],[-87.6695,41.8898],[-87.6673,41.8961],[-87.6675,41.904],[-87.6823,41.9104],[-87.6874,41.9176],[-87.7119,41.9173],[-87.7122,41.9283],[-87.7611,41.924],[-87.7614,41.9332],[-87.7711,41.9312],[-87.7656,41.9477],[-87.796,41.9455],[-87.7994,41.9381],[-87.8067,41.938]]]},"properties":{"geoid":"17002","state":"17","district":"2","name":"State Senate District 2","chamber":"Senate"}},{"type":"Feature","geometry":{"type":"Polygon","coordinates":[[[-87.6935,41.7828],[-87.6932,41.7718],[-87.6882,41.7683],[-87.6471,41.7761],[-87.647,41.7724],[-87.63,41.7727],[-87.6299,41.7691],[-87.6106,41.7712],[-87.5913,41.7537],[-87.5883,41.7569],[-87.5912,41.7733],[-87.6012,41.7872],[-87.6158,41.7857],[-87.6197,41.813],[-87.6129,41.8227],[-87.6172,41.8227],[-87.6179,41.858],[-87.6282,41.8949],[-87.6415,41.8935],[-87.6397,41.8832],[-87.6353,41.8819],[-87.6345,41.8599],[-87.6303,41.8601],[-87.6298,41.8383],[-87.6361,41.8382],[-87.6362,41.8218],[-87.6458,41.8203],[-87.6455,41.8089],[-87.6735,41.8085],[-87.6733,41.8012],[-87.6836,41.7988],[-87.6839,41.7902],[-87.6935,41.7828]]]},"properties":{"geoid":"17003","state":"17","district":"3","name":"State Senate District 3","chamber":"Senate"}},{"type":"Feature","geometry":{"type":"Polygon","coordinates":[[[-87.9578,41.8466],[-87.9528,41.8177],[-87.8991,41.819],[-87.8975,41.7884],[-87.8879,41.7837],[-87.8871,41.7647],[-87.8819,41.7608],[-87.8526,41.764],[-87.8498,41.7674],[-87.858,41.7688],[-87.8586,41.7829],[-87.8682,41.7785],[-87.8644,41.8196],[-87.8685,41.8444],[-87.8326,41.8426],[-87.8329,41.8509],[-87.8038,41.8504],[-87.8041,41.8632],[-87.7399,41.866],[-87.7403,41.8769],[-87.7451,41.8768],[-87.746,41.9139],[-87.7657,41.9166],[-87.7605,41.8911],[-87.7749,41.8874],[-87.7743,41.8691],[-87.8035,41.8686],[-87.8048,41.8814],[-87.8146,41.8831],[-87.8178,41.8883],[-87.8193,41.8793],[-87.8273,41.8792],[-87.8337,41.886],[-87.8296,41.8902],[-87.8346,41.8953],[-87.8319,41.9041],[-87.8349,41.9063],[-87.8399,41.9046],[-87.8396,41.8983],[-87.8446,41.8984],[-87.8443,41.8908],[-87.9204,41.9068],[-87.9206,41.8897],[-87.9303,41.89],[-87.9302,41.8833],[-87.9395,41.8823],[-87.9297,41.8569],[-87.9429,41.8471],[-87.9578,41.8466]]]},"properties":{"geoid":"17004","state":"17","district":"4","name":"State Senate District 4","chamber":"Senate"}},{"type":"Feature","geometry":{"type":"Polygon","coordinates":[[[-87.7459,41.8987],[-87.7392,41.846],[-87.6858,41.8594],[-87.6345,41.8599],[-87.6353,41.8819],[-87.6397,41.8832],[-87.6415,41.8935],[-87.6371,41.8936],[-87.6376,41.9111],[-87.6496,41.9138],[-87.6512,41.9254],[-87.6717,41.9251],[-87.6687,41.9161],[-87.6874,41.9176],[-87.6823,41.9104],[-87.6675,41.904],[-87.6695,41.8898],[-87.7127,41.8955],[-87.7134,41.8991],[-87.7183,41.8991],[-87.7187,41.8936],[-87.7224,41.8936],[-87.7225,41.8991],[-87.7384,41.8951],[-87.7385,41.8988],[-87.7459,41.8987]]]},"properties":{"geoid":"17005","state":"17","district":"5","name":"State Senate District 5","chamber":"Senate"}},{"type":"Feature","geometry":{"type":"Polygon","coordinates":[[[-87.7036,41.9685],[-87.7034,41.9612],[-87.6948,41.9613],[-87.6851,41.9404],[-87.6661,41.9361],[-87.6658,41.9252],[-87.6512,41.9254],[-87.6496,41.9138],[-87.6376,41.9111],[-87.6371,41.8948],[-87.6185,41.9002],[-87.6253,41.9096],[-87.6202,41.9142],[-87.6277,41.9173],[-87.6334,41.9428],[-87.6462,41.962],[-87.6547,41.9618],[-87.6498,41.9585],[-87.6495,41.9491],[-87.6677,41.9488],[-87.6676,41.9561],[-87.6738,41.9542],[-87.6882,41.9661],[-87.7036,41.9685]]]},"properties":{"geoid":"17006","state":"17","district":"6","name":"State Senate District 6","chamber":"Senate"}},{"type":"Feature","geometry":{"type":"Polygon","coordinates":[[[-87.7072,41.9904],[-87.6934,41.9813],[-87.7047,41.9758],[-87.7006,41.968],[-87.6882,41.9661],[-87.6738,41.9542],[-87.6676,41.9561],[-87.6677,41.9488],[-87.6495,41.9491],[-87.6498,41.9585],[-87.6547,41.9618],[-87.6462,41.962],[-87.6442,41.9547],[-87.6418,41.9622],[-87.6315,41.9629],[-87.643,41.9686],[-87.6504,41.9796],[-87.6553,42.0067],[-87.6651,42.023],[-87.6902,42.0195],[-87.6902,42.0123],[-87.6753,42.0065],[-87.6747,41.9908],[-87.665,41.9845],[-87.6892,41.9777],[-87.6895,41.9868],[-87.7072,41.9904]]]},"properties":{"geoid":"17007","state":"17","district":"7","name":"State Senate District 7","chamber":"Senate"}},{"type":"Feature","geometry":{"type":"Polygon","coordinates":[[[-87.8455,42.0291],[-87.8211,42.0295],[-87.8233,42.0186],[-87.8065,42.019],[-87.8067,42.0015],[-87.7939,42.001],[-87.7876,41.9913],[-87.7683,41.985],[-87.7667,41.9887],[-87.7563,41.9799],[-87.7488,41.9795],[-87.755,41.9778],[-87.7479,41.9729],[-87.7465,41.9607],[-87.731,41.9591],[-87.7281,41.9719],[-87.7086,41.9721],[-87.7087,41.9757],[-87.6934,41.9804],[-87.7074,41.9904],[-87.6895,41.9868],[-87.6892,41.9777],[-87.665,41.9845],[-87.6747,41.9908],[-87.6753,42.0065],[-87.6881,42.0105],[-87.6838,42.0051],[-87.6949,42.0031],[-87.6949,42.0194],[-87.709,42.0191],[-87.7099,42.0353],[-87.7473,42.0335],[-87.7465,42.0407],[-87.7569,42.0408],[-87.7644,42.0337],[-87.7642,42.0409],[-87.7751,42.0427],[-87.7752,42.0553],[-87.8118,42.0552],[-87.8068,42.048],[-87.8153,42.0455],[-87.8275,42.0503],[-87.8405,42.0473],[-87.8455,42.0291]]]},"properties":{"geoid":"17008","state":"17","district":"8","name":"State Senate District 8","chamber":"Senate"}},{"type":"Feature","geometry":{"type":"Polygon","coordinates":[[[-87.8683,42.0931],[-87.8673,42.0659],[-87.8545,42.0715],[-87.8489,42.0658],[-87.8294,42.0657],[-87.8287,42.0548],[-87.7752,42.0553],[-87.7751,42.0427],[-87.7642,42.0409],[-87.7644,42.0337],[-87.7569,42.0408],[-87.7465,42.0407],[-87.7473,42.0335],[-87.7099,42.0353],[-87.709,42.0191],[-87.6949,42.0194],[-87.6949,42.0031],[-87.6838,42.0051],[-87.6902,42.0098],[-87.6902,42.0195],[-87.6651,42.023],[-87.6732,42.0479],[-87.6695,42.0597],[-87.6819,42.0748],[-87.6793,42.0772],[-87.7145,42.0982],[-87.7417,42.1285],[-87.7415,42.1193],[-87.772,42.1197],[-87.7707,42.1086],[-87.7564,42.1048],[-87.7518,42.0794],[-87.8002,42.08],[-87.798,42.089],[-87.8024,42.0873],[-87.8065,42.0929],[-87.7983,42.097],[-87.7992,42.1069],[-87.8121,42.1214],[-87.8168,42.1164],[-87.8537,42.1166],[-87.8538,42.1075],[-87.8681,42.1067],[-87.8683,42.0931]]]},"properties":{"geoid":"17009","state":"17","district":"9","name":"State Senate District 9","chamber":"Senate"}},{"type":"Feature","geometry":{"type":"Polygon","coordinates":[[[-87.8908,41.958],[-87.8854,41.9456],[-87.8659,41.9458],[-87.8655,41.9362],[-87.8588,41.9343],[-87.8546,41.9225],[-87.8413,41.9231],[-87.8461,41.9296],[-87.8358,41.9306],[-87.8361,41.9376],[-87.8189,41.9375],[-87.8188,41.9324],[-87.8121,41.9326],[-87.8136,41.9252],[-87.8063,41.924],[-87.8067,41.938],[-87.7994,41.9381],[-87.796,41.9455],[-87.7643,41.9459],[-87.7547,41.9519],[-87.7322,41.9442],[-87.7176,41.9465],[-87.728,41.9682],[-87.7317,41.9678],[-87.731,41.9591],[-87.7465,41.9607],[-87.7479,41.9729],[-87.755,41.9778],[-87.7488,41.9795],[-87.7563,41.9799],[-87.7667,41.9887],[-87.7683,41.985],[-87.7876,41.9913],[-87.7939,42.001],[-87.8067,42.0015],[-87.8065,42.019],[-87.8218,42.0186],[-87.8168,41.9829],[-87.8366,41.9864],[-87.8366,41.9748],[-87.8465,41.9737],[-87.8465,41.9879],[-87.8559,41.9891],[-87.8594,41.9958],[-87.8845,41.9982],[-87.8777,41.9731],[-87.8809,41.9731],[-87.8807,41.9605],[-87.8908,41.958]]]},"properties":{"geoid":"17010","state":"17","district":"10","name":"State Senate District 10","chamber":"Senate"}},{"type":"Feature","geometry":{"type":"Polygon","coordinates":[[[-87.8688,41.7923],[-87.8682,41.7785],[-87.8586,41.7829],[-87.858,41.7688],[-87.8498,41.7674],[-87.8528,41.7637],[-87.8485,41.7662],[-87.8475,41.7472],[-87.8438,41.7473],[-87.8392,41.7621],[-87.8197,41.7623],[-87.8189,41.7422],[-87.8067,41.7406],[-87.8041,41.7352],[-87.7943,41.7354],[-87.7897,41.741],[-87.7605,41.7415],[-87.7511,41.749],[-87.7414,41.7491],[-87.7415,41.7533],[-87.7123,41.7569],[-87.7166,41.7988],[-87.7793,41.793],[-87.782,41.7997],[-87.8297,41.7966],[-87.8401,41.7985],[-87.8402,41.8129],[-87.8598,41.8126],[-87.8616,41.8346],[-87.8322,41.8353],[-87.8317,41.8247],[-87.8029,41.8312],[-87.8031,41.8358],[-87.7784,41.843],[-87.7786,41.849],[-87.7639,41.8511],[-87.7594,41.8657],[-87.8041,41.8632],[-87.8038,41.8504],[-87.8329,41.8509],[-87.8326,41.8426],[-87.8685,41.8444],[-87.8644,41.8196],[-87.8688,41.7923]]]},"properties":{"geoid":"17011","state":"17","district":"11","name":"State Senate District 11","chamber":"Senate"}},{"type":"Feature","geometry":{"type":"Polygon","coordinates":[[[-87.7521,41.8658],[-87.7492,41.8513],[-87.7443,41.8514],[-87.7437,41.8367],[-87.7392,41.8367],[-87.7385,41.818],[-87.7143,41.8261],[-87.7139,41.808],[-87.6851,41.8084],[-87.6846,41.8354],[-87.6754,41.837],[-87.6751,41.8231],[-87.666,41.8237],[-87.6667,41.8305],[-87.6412,41.8308],[-87.6411,41.8235],[-87.656,41.8233],[-87.6553,41.816],[-87.6724,41.8158],[-87.6723,41.8085],[-87.6455,41.8089],[-87.6458,41.8203],[-87.6362,41.8218],[-87.6361,41.8382],[-87.6298,41.8383],[-87.6303,41.8601],[-87.6858,41.8594],[-87.7392,41.846],[-87.7399,41.866],[-87.7521,41.8658]]]},"properties":{"geoid":"17012","state":"17","district":"12","name":"State Senate District 12","chamber":"Senate"}},{"type":"Feature","geometry":{"type":"Polygon","coordinates":[[[-87.6283,41.8991],[-87.6179,41.858],[-87.6172,41.8227],[-87.6129,41.8227],[-87.6197,41.813],[-87.6158,41.7857],[-87.6012,41.7872],[-87.5912,41.7733],[-87.5908,41.7587],[-87.5712,41.7589],[-87.5673,41.7444],[-87.5564,41.7446],[-87.5575,41.7391],[-87.5726,41.7335],[-87.5754,41.7225],[-87.5354,41.7216],[-87.5413,41.6828],[-87.5319,41.6809],[-87.5303,41.6918],[-87.5247,41.6918],[-87.5237,41.7599],[-87.5517,41.76],[-87.5732,41.7792],[-87.5695,41.7814],[-87.576,41.7838],[-87.5796,41.7926],[-87.5752,41.7966],[-87.587,41.8102],[-87.5821,41.8151],[-87.5975,41.8388],[-87.6062,41.8385],[-87.6091,41.8442],[-87.6016,41.8452],[-87.6053,41.8698],[-87.6163,41.8689],[-87.6162,41.8744],[-87.6054,41.8744],[-87.6092,41.8823],[-87.6161,41.8823],[-87.6139,41.8883],[-87.5985,41.8922],[-87.6024,41.8963],[-87.6137,41.8931],[-87.622,41.9042],[-87.6185,41.9002],[-87.6283,41.8991]]]},"properties":{"geoid":"17013","state":"17","district":"13","name":"State Senate District 13","chamber":"Senate"}},{"type":"Feature","geometry":{"type":"Polygon","coordinates":[[[-87.9311,41.6291],[-87.9305,41.6146],[-87.911,41.6149],[-87.9105,41.6003],[-87.8914,41.6007],[-87.891,41.5862],[-87.8474,41.5868],[-87.848,41.6015],[-87.8333,41.6017],[-87.8317,41.558],[-87.8123,41.5583],[-87.8127,41.5729],[-87.803,41.573],[-87.7998,41.5877],[-87.7937,41.5877],[-87.7935,41.5805],[-87.7773,41.5781],[-87.7717,41.5806],[-87.7751,41.588],[-87.7556,41.5903],[-87.7565,41.6176],[-87.7468,41.6177],[-87.747,41.6251],[-87.7348,41.6253],[-87.7351,41.6326],[-87.701,41.6329],[-87.6983,41.6259],[-87.6778,41.6264],[-87.6795,41.6409],[-87.6566,41.6424],[-87.6563,41.6299],[-87.6172,41.6299],[-87.6229,41.6853],[-87.6133,41.6891],[-87.6135,41.6964],[-87.6232,41.6962],[-87.6234,41.7035],[-87.6185,41.7037],[-87.6235,41.7072],[-87.6242,41.7363],[-87.6435,41.7326],[-87.6438,41.7415],[-87.6583,41.7377],[-87.6605,41.7113],[-87.6572,41.7035],[-87.6666,41.6867],[-87.6808,41.6815],[-87.6956,41.6843],[-87.6954,41.677],[-87.7099,41.6768],[-87.7095,41.6622],[-87.7629,41.6613],[-87.7577,41.6468],[-87.7957,41.6462],[-87.7952,41.6316],[-87.8148,41.6312],[-87.8147,41.6258],[-87.8348,41.6224],[-87.8698,41.6228],[-87.8694,41.6301],[-87.9311,41.6291]]]},"properties":{"geoid":"17014","state":"17","district":"14","name":"State Senate District 14","chamber":"Senate"}},{"type":"Feature","geometry":{"type":"Polygon","coordinates":[[[-87.8674,41.2172],[-87.8671,41.2067],[-87.838,41.2068],[-87.8368,41.1628],[-87.8429,41.1618],[-87.8349,41.1485],[-87.8382,41.1481],[-87.8361,41.1333],[-87.7783,41.1341],[-87.7782,41.1195],[-87.7525,41.1205],[-87.7259,41.1383],[-87.7235,41.146],[-87.6938,41.1569],[-87.699,41.1623],[-87.6629,41.1716],[-87.6648,41.2968],[-87.5729,41.2976],[-87.5745,41.4357],[-87.5838,41.5715],[-87.582,41.5778],[-87.5686,41.5792],[-87.5687,41.601],[-87.559,41.601],[-87.5591,41.6209],[-87.5541,41.6209],[-87.5542,41.63],[-87.5592,41.63],[-87.5593,41.6445],[-87.5808,41.6452],[-87.6173,41.6821],[-87.6229,41.6842],[-87.6172,41.6299],[-87.6563,41.6299],[-87.6566,41.6424],[-87.6795,41.6409],[-87.6778,41.6264],[-87.6983,41.6259],[-87.701,41.6329],[-87.7351,41.6326],[-87.7348,41.6253],[-87.747,41.6251],[-87.7468,41.6177],[-87.7565,41.6176],[-87.7556,41.5903],[-87.7751,41.588],[-87.7717,41.5806],[-87.7745,41.5734],[-87.7551,41.5737],[-87.7553,41.581],[-87.7481,41.583],[-87.7476,41.5885],[-87.7254,41.5902],[-87.7149,41.5971],[-87.7139,41.5862],[-87.6811,41.5862],[-87.675,41.5717],[-87.6894,41.5644],[-87.6894,41.5572],[-87.699,41.5572],[-87.6985,41.5498],[-87.7135,41.5498],[-87.7133,41.5279],[-87.6863,41.528],[-87.6982,41.5062],[-87.6743,41.5041],[-87.6745,41.5206],[-87.6648,41.5206],[-87.6648,41.5279],[-87.6567,41.5278],[-87.6627,41.539],[-87.623,41.5353],[-87.6239,41.5425],[-87.612,41.5426],[-87.6199,41.528],[-87.6164,41.5214],[-87.6184,41.4643],[-87.623,41.4643],[-87.6228,41.457],[-87.6333,41.4569],[-87.6319,41.4496],[-87.618,41.4479],[-87.6179,41.4425],[-87.6307,41.4351],[-87.6299,41.4206],[-87.6706,41.4204],[-87.6703,41.3985],[-87.7684,41.3978],[-87.8143,41.3514],[-87.8226,41.3118],[-87.8674,41.2172]]]},"properties":{"geoid":"17015","state":"17","district":"15","name":"State Senate District 15","chamber":"Senate"}},{"type":"Feature","geometry":{"type":"Polygon","coordinates":[[[-87.847,41.718],[-87.8465,41.7082],[-87.8273,41.7111],[-87.827,41.7038],[-87.7899,41.7049],[-87.7688,41.7193],[-87.7703,41.7233],[-87.7118,41.7279],[-87.712,41.735],[-87.6971,41.7353],[-87.6898,41.7427],[-87.6827,41.7428],[-87.6823,41.7282],[-87.6674,41.7285],[-87.6731,41.7356],[-87.6631,41.7358],[-87.6616,41.7414],[-87.6583,41.7377],[-87.6438,41.7415],[-87.6435,41.7326],[-87.635,41.7326],[-87.6342,41.7471],[-87.6253,41.7472],[-87.62,41.7638],[-87.6167,41.7584],[-87.6103,41.7585],[-87.6101,41.7512],[-87.5881,41.7515],[-87.6106,41.7712],[-87.6299,41.7691],[-87.63,41.7727],[-87.6544,41.776],[-87.6543,41.7723],[-87.6882,41.7683],[-87.6934,41.7791],[-87.7056,41.7789],[-87.7054,41.7716],[-87.7127,41.7715],[-87.7123,41.7569],[-87.7415,41.7533],[-87.7414,41.7491],[-87.7511,41.749],[-87.7605,41.7415],[-87.7897,41.741],[-87.7943,41.7354],[-87.8041,41.7352],[-87.8067,41.7406],[-87.8189,41.7422],[-87.8197,41.7623],[-87.8392,41.7621],[-87.8439,41.7486],[-87.8386,41.7473],[-87.8372,41.7182],[-87.847,41.718]]]},"properties":{"geoid":"17016","state":"17","district":"16","name":"State Senate District 16","chamber":"Senate"}},{"type":"Feature","geometry":{"type":"Polygon","coordinates":[[[-87.85,41.0461],[-87.8429,41.0254],[-87.8267,41.0101],[-87.8132,41.0049],[-87.5262,41.0103],[-87.5247,41.6918],[-87.5303,41.6918],[-87.5319,41.6809],[-87.5413,41.6828],[-87.5401,41.7046],[-87.5353,41.7064],[-87.5365,41.7229],[-87.5754,41.7225],[-87.5726,41.7335],[-87.5563,41.741],[-87.5564,41.7446],[-87.5673,41.7444],[-87.5712,41.7589],[-87.5884,41.7587],[-87.5881,41.7515],[-87.6052,41.7495],[-87.62,41.7638],[-87.6253,41.7472],[-87.6342,41.7471],[-87.6343,41.7368],[-87.6242,41.7363],[-87.6235,41.7072],[-87.6185,41.7037],[-87.6234,41.7035],[-87.6232,41.6962],[-87.6135,41.6964],[-87.6133,41.6891],[-87.6229,41.6842],[-87.5808,41.6452],[-87.5593,41.6445],[-87.5592,41.63],[-87.5542,41.63],[-87.5541,41.6209],[-87.5591,41.6209],[-87.559,41.601],[-87.5687,41.601],[-87.5686,41.5792],[-87.582,41.5778],[-87.5838,41.5715],[-87.5745,41.4357],[-87.5729,41.2976],[-87.6648,41.2968],[-87.6629,41.1716],[-87.699,41.1623],[-87.6938,41.1569],[-87.7235,41.146],[-87.7259,41.1383],[-87.7526,41.1205],[-87.7782,41.1195],[-87.7783,41.1341],[-87.8363,41.1333],[-87.8345,41.0916],[-87.8397,41.0826],[-87.8493,41.0776],[-87.8301,41.0773],[-87.8299,41.0628],[-87.85,41.0461]]]},"properties":{"geoid":"17017","state":"17","district":"17","name":"State Senate District 17","chamber":"Senate"}},{"type":"Feature","geometry":{"type":"Polygon","coordinates":[[[-87.9143,41.7119],[-87.9127,41.6657],[-87.8933,41.6661],[-87.8926,41.637],[-87.898,41.6369],[-87.9014,41.6296],[-87.8694,41.6301],[-87.8698,41.6228],[-87.8348,41.6224],[-87.8147,41.6258],[-87.8148,41.6312],[-87.7952,41.6316],[-87.7957,41.6462],[-87.7577,41.6468],[-87.7629,41.6613],[-87.7095,41.6622],[-87.7099,41.6768],[-87.6954,41.677],[-87.6956,41.6843],[-87.6808,41.6815],[-87.6666,41.6867],[-87.6572,41.7035],[-87.6605,41.7113],[-87.657,41.7359],[-87.6616,41.7414],[-87.6631,41.7358],[-87.6731,41.7356],[-87.6674,41.7285],[-87.6823,41.7282],[-87.6827,41.7428],[-87.6898,41.7427],[-87.6971,41.7353],[-87.712,41.735],[-87.7118,41.7279],[-87.7703,41.7233],[-87.7688,41.7193],[-87.7899,41.7049],[-87.827,41.7038],[-87.8273,41.7111],[-87.8465,41.7082],[-87.8525,41.7325],[-87.8865,41.7316],[-87.9143,41.7166],[-87.9143,41.7119]]]},"properties":{"geoid":"17018","state":"17","district":"18","name":"State Senate District 18","chamber":"Senate"}},{"type":"Feature","geometry":{"type":"Polygon","coordinates":[[[-88.0362,41.591],[-88.0261,41.5906],[-88.0236,41.5134],[-87.9661,41.5122],[-87.9644,41.5049],[-87.9414,41.5053],[-87.9412,41.4991],[-87.8883,41.4985],[-87.8872,41.4699],[-87.7223,41.4697],[-87.7224,41.4843],[-87.7129,41.4843],[-87.713,41.4915],[-87.7059,41.4916],[-87.6863,41.528],[-87.7133,41.5279],[-87.7135,41.5498],[-87.6985,41.5498],[-87.699,41.5572],[-87.6894,41.5572],[-87.6894,41.5644],[-87.6749,41.572],[-87.6811,41.5862],[-87.7139,41.5862],[-87.7149,41.5971],[-87.7254,41.5902],[-87.7476,41.5885],[-87.7481,41.583],[-87.7553,41.581],[-87.7551,41.5737],[-87.7745,41.5734],[-87.7748,41.5792],[-87.7935,41.5805],[-87.7937,41.5877],[-87.7998,41.5877],[-87.803,41.573],[-87.8127,41.5729],[-87.8123,41.5583],[-87.8317,41.558],[-87.8333,41.6017],[-87.848,41.6015],[-87.8474,41.5868],[-87.891,41.5862],[-87.8914,41.6007],[-87.9105,41.6003],[-87.911,41.6149],[-87.9305,41.6146],[-87.9311,41.6291],[-87.9444,41.6288],[-87.9466,41.6426],[-87.9508,41.6431],[-88.0277,41.6415],[-88.0263,41.5978],[-88.0362,41.591]]]},"properties":{"geoid":"17019","state":"17","district":"19","name":"State Senate District 19","chamber":"Senate"}},{"type":"Feature","geometry":{"type":"Polygon","coordinates":[[[-87.7712,41.9349],[-87.7711,41.9312],[-87.7614,41.9332],[-87.7611,41.924],[-87.7122,41.9283],[-87.7119,41.9173],[-87.6687,41.9161],[-87.6717,41.9251],[-87.6657,41.9253],[-87.6661,41.9361],[-87.6851,41.9404],[-87.6948,41.9613],[-87.7034,41.9612],[-87.7047,41.9758],[-87.7086,41.9721],[-87.7281,41.9719],[-87.7279,41.9628],[-87.7223,41.9606],[-87.7176,41.9465],[-87.7322,41.9442],[-87.7571,41.9515],[-87.7661,41.9459],[-87.7712,41.9349]]]},"properties":{"geoid":"17020","state":"17","district":"20","name":"State Senate District 20","chamber":"Senate"}},{"type":"Feature","geometry":{"type":"Polygon","coordinates":[[[-88.2179,41.7878],[-88.2057,41.7814],[-88.2059,41.7702],[-88.196,41.7693],[-88.1959,41.7566],[-88.2061,41.7533],[-88.2063,41.7253],[-88.1989,41.7239],[-88.1944,41.7099],[-88.2148,41.7051],[-88.2147,41.6951],[-88.2053,41.6952],[-88.2047,41.6807],[-88.1665,41.6814],[-88.1621,41.6911],[-88.1305,41.6937],[-88.1307,41.7022],[-88.1254,41.703],[-88.128,41.7111],[-88.1367,41.7093],[-88.138,41.7137],[-88.1317,41.72],[-88.138,41.722],[-88.1173,41.7268],[-88.1237,41.7422],[-88.1234,41.7521],[-88.1173,41.7559],[-88.1222,41.7603],[-88.1195,41.7767],[-88.084,41.7854],[-88.0557,41.7859],[-88.0567,41.8],[-88.0527,41.804],[-88.0183,41.8081],[-88.0195,41.8208],[-88.0105,41.8237],[-88.011,41.8354],[-87.9907,41.843],[-87.9931,41.8669],[-87.987,41.8669],[-87.9888,41.8898],[-87.9986,41.8899],[-87.9986,41.895],[-88.018,41.8942],[-88.0179,41.9005],[-88.0277,41.9009],[-88.0326,41.8969],[-88.0331,41.8842],[-88.0516,41.8903],[-88.0842,41.8888],[-88.0804,41.8755],[-88.0964,41.8634],[-88.092,41.8634],[-88.0871,41.815],[-88.079,41.8135],[-88.0811,41.8078],[-88.1125,41.8062],[-88.1103,41.7964],[-88.1291,41.7841],[-88.1563,41.7947],[-88.157,41.7859],[-88.1754,41.7819],[-88.1875,41.7948],[-88.1818,41.8071],[-88.1817,41.813],[-88.1885,41.813],[-88.1847,41.8245],[-88.2088,41.8342],[-88.2127,41.8331],[-88.2133,41.8209],[-88.2038,41.8207],[-88.2057,41.7917],[-88.2134,41.7952],[-88.2179,41.7878]]]},"properties":{"geoid":"17021","state":"17","district":"21","name":"State Senate District 21","chamber":"Senate"}},{"type":"Feature","geometry":{"type":"Polygon","coordinates":[[[-88.3394,42.0231],[-88.3362,42.007],[-88.3209,42.0068],[-88.3151,42.0069],[-88.3121,42.0235],[-88.29,42.0223],[-88.2829,42.024],[-88.2815,42.0296],[-88.2757,42.0228],[-88.2632,42.0228],[-88.2633,42.0291],[-88.2097,42.0104],[-88.2032,42.0118],[-88.203,42.0223],[-88.1983,42.0231],[-88.1834,42.0135],[-88.1866,42.0059],[-88.1742,42.0013],[-88.1741,41.9911],[-88.1451,41.9882],[-88.1386,41.9957],[-88.1294,41.9961],[-88.1289,42.0182],[-88.1192,42.0184],[-88.1192,42.0258],[-88.0916,42.0268],[-88.0918,42.031],[-88.0859,42.0312],[-88.0879,42.0349],[-88.08,42.0346],[-88.0785,42.067],[-88.2382,42.067],[-88.2383,42.1323],[-88.2436,42.1323],[-88.2481,42.1396],[-88.2748,42.1393],[-88.277,42.1273],[-88.2676,42.1228],[-88.2676,42.1139],[-88.258,42.1139],[-88.2616,42.0686],[-88.281,42.0646],[-88.283,42.0585],[-88.3041,42.0586],[-88.3055,42.0525],[-88.312,42.0505],[-88.3119,42.0439],[-88.317,42.0436],[-88.3119,42.0381],[-88.3229,42.0373],[-88.3224,42.0268],[-88.3381,42.0322],[-88.3394,42.0231]]]},"properties":{"geoid":"17022","state":"17","district":"22","name":"State Senate District 22","chamber":"Senate"}},{"type":"Feature","geometry":{"type":"Polygon","coordinates":[[[-88.1456,41.9356],[-88.1303,41.9308],[-88.1262,41.9242],[-88.1304,41.9197],[-88.101,41.917],[-88.102,41.8984],[-88.0569,41.8957],[-88.0511,41.8938],[-88.05,41.8875],[-88.0365,41.8838],[-88.0277,41.9009],[-88.0179,41.9005],[-88.018,41.8942],[-87.9986,41.895],[-87.9986,41.8899],[-87.9888,41.8898],[-87.987,41.8669],[-87.9931,41.8669],[-87.9907,41.843],[-88.011,41.8354],[-88.0105,41.8237],[-88.0196,41.8207],[-88.0183,41.8081],[-87.9872,41.8098],[-87.9848,41.7882],[-87.9943,41.7842],[-87.9939,41.7733],[-87.9745,41.7737],[-87.9743,41.7664],[-87.9549,41.7668],[-87.9552,41.7741],[-87.9358,41.7744],[-87.9364,41.789],[-87.9268,41.791],[-87.9272,41.8031],[-87.9043,41.8084],[-87.9044,41.8188],[-87.9528,41.8177],[-87.9577,41.838],[-87.9578,41.8467],[-87.9429,41.8471],[-87.9297,41.8569],[-87.9395,41.8823],[-87.9302,41.8833],[-87.9303,41.89],[-87.9206,41.8897],[-87.9203,41.9313],[-87.9573,41.9305],[-87.9601,41.9268],[-87.9887,41.9318],[-87.9887,41.9272],[-87.9991,41.9266],[-88.0034,41.9362],[-88.0225,41.9393],[-88.022,41.9464],[-88.0617,41.9569],[-88.0618,41.9475],[-88.0807,41.9469],[-88.0862,41.9377],[-88.1403,41.9399],[-88.1456,41.9356]]]},"properties":{"geoid":"17023","state":"17","district":"23","name":"State Senate District 23","chamber":"Senate"}},{"type":"Feature","geometry":{"type":"Polygon","coordinates":[[[-88.209,41.9292],[-88.2045,41.906],[-88.1781,41.9046],[-88.175,41.8859],[-88.1705,41.886],[-88.1753,41.8714],[-88.1928,41.8615],[-88.1757,41.8569],[-88.1683,41.8314],[-88.1867,41.8209],[-88.1885,41.813],[-88.1817,41.8099],[-88.1873,41.7944],[-88.1754,41.7819],[-88.157,41.7859],[-88.1563,41.7947],[-88.1291,41.7841],[-88.1103,41.7964],[-88.1125,41.8062],[-88.0812,41.8075],[-88.079,41.8135],[-88.0871,41.815],[-88.0873,41.8444],[-88.0921,41.8454],[-88.092,41.8634],[-88.0964,41.8662],[-88.0804,41.8755],[-88.0842,41.8888],[-88.0516,41.8903],[-88.0511,41.8938],[-88.102,41.8984],[-88.101,41.917],[-88.1304,41.9197],[-88.1262,41.9242],[-88.1303,41.9308],[-88.1456,41.9356],[-88.1403,41.9399],[-88.0862,41.9377],[-88.0807,41.9469],[-88.0618,41.9475],[-88.0617,41.9569],[-88.022,41.9464],[-88.0033,41.949],[-87.9813,41.9365],[-87.9662,41.9367],[-87.9597,41.9455],[-87.9595,41.9932],[-87.9795,41.9929],[-87.9792,42.0153],[-87.9858,42.0166],[-88.0031,42.0116],[-88.0187,42.0144],[-88.0187,42.0084],[-88.055,42.0062],[-88.0528,41.9991],[-88.0801,42.0053],[-88.0801,42.0017],[-88.0899,42.0012],[-88.0902,41.9903],[-88.1099,41.9896],[-88.1104,41.9827],[-88.1185,41.9825],[-88.1188,41.9733],[-88.125,41.9745],[-88.1253,41.9676],[-88.1451,41.9665],[-88.1453,41.9519],[-88.155,41.9518],[-88.155,41.941],[-88.1815,41.9439],[-88.1843,41.9563],[-88.1994,41.9585],[-88.2079,41.9479],[-88.209,41.9292]]]},"properties":{"geoid":"17024","state":"17","district":"24","name":"State Senate District 24","chamber":"Senate"}},{"type":"Feature","geometry":{"type":"Polygon","coordinates":[[[-88.3605,41.7733],[-88.3592,41.7605],[-88.3424,41.7601],[-88.3415,41.7474],[-88.3278,41.7445],[-88.3315,41.738],[-88.2979,41.7358],[-88.2906,41.7441],[-88.2912,41.7581],[-88.2713,41.759],[-88.2719,41.7634],[-88.2622,41.7647],[-88.2623,41.7713],[-88.232,41.7767],[-88.2317,41.7815],[-88.2106,41.7814],[-88.2179,41.7878],[-88.2134,41.7952],[-88.2057,41.7917],[-88.2038,41.8207],[-88.2133,41.8209],[-88.2127,41.8331],[-88.1846,41.8233],[-88.1683,41.8302],[-88.1757,41.8569],[-88.1928,41.8615],[-88.1753,41.8714],[-88.1757,41.8787],[-88.1701,41.8789],[-88.1705,41.886],[-88.175,41.8859],[-88.1751,41.9004],[-88.1781,41.9046],[-88.2045,41.906],[-88.2089,41.915],[-88.2083,41.9462],[-88.2053,41.9537],[-88.1938,41.9587],[-88.1843,41.9563],[-88.1815,41.9439],[-88.155,41.941],[-88.155,41.9518],[-88.1453,41.9519],[-88.1451,41.9665],[-88.1581,41.9663],[-88.158,41.9737],[-88.1503,41.9737],[-88.1501,41.9793],[-88.1603,41.9804],[-88.1595,41.9893],[-88.1741,41.9911],[-88.1742,42.0013],[-88.1866,42.0059],[-88.1834,42.0135],[-88.199,42.0231],[-88.203,42.0223],[-88.2032,42.0118],[-88.2097,42.0104],[-88.2633,42.0291],[-88.2632,42.0228],[-88.2757,42.0228],[-88.2792,42.0297],[-88.29,42.0223],[-88.3121,42.0235],[-88.3149,42.01],[-88.2877,42.0122],[-88.2964,42.0038],[-88.2971,41.9943],[-88.2629,41.9936],[-88.2628,41.9747],[-88.2371,41.9681],[-88.238,41.9199],[-88.2626,41.9213],[-88.2625,41.8827],[-88.3039,41.8818],[-88.3103,41.8653],[-88.3095,41.8413],[-88.3401,41.8417],[-88.3404,41.8106],[-88.3494,41.8103],[-88.3498,41.7921],[-88.3592,41.792],[-88.3605,41.7733]]]},"properties":{"geoid":"17025","state":"17","district":"25","name":"State Senate District 25","chamber":"Senate"}},{"type":"Feature","geometry":{"type":"Polygon","coordinates":[[[-88.3358,42.1559],[-88.2577,42.1541],[-88.2576,42.1391],[-88.2481,42.1396],[-88.2436,42.1323],[-88.2383,42.1323],[-88.2382,42.067],[-88.0785,42.067],[-88.0793,42.0639],[-88.0449,42.0597],[-88.044,42.0668],[-88.0625,42.0671],[-88.0647,42.0747],[-88.0826,42.0814],[-88.0543,42.0886],[-88.0438,42.0886],[-88.0439,42.0797],[-88.0309,42.0825],[-88.0298,42.0921],[-88.0202,42.1004],[-88.0336,42.1069],[-88.0341,42.1188],[-88.0241,42.1165],[-88.021,42.1386],[-88.0339,42.1392],[-88.0329,42.1475],[-88.0286,42.1537],[-87.985,42.1536],[-87.9848,42.1682],[-87.9937,42.1682],[-87.9937,42.1718],[-87.9848,42.1791],[-87.975,42.179],[-87.9781,42.1906],[-87.9723,42.1891],[-87.9761,42.2009],[-87.965,42.2045],[-87.965,42.2118],[-87.9747,42.2117],[-87.9746,42.219],[-87.9893,42.219],[-87.9892,42.2335],[-88.0164,42.2492],[-88.0204,42.2547],[-88.0189,42.2752],[-87.9693,42.2696],[-87.9726,42.2864],[-87.9621,42.2881],[-87.9737,42.306],[-87.9601,42.3059],[-87.9637,42.3117],[-87.9607,42.3205],[-88.0046,42.3206],[-88.005,42.2962],[-88.0432,42.2988],[-88.0432,42.3061],[-88.0903,42.3032],[-88.1182,42.3081],[-88.1207,42.3284],[-88.1986,42.3289],[-88.1994,42.203],[-88.2137,42.2059],[-88.2438,42.1918],[-88.2865,42.1901],[-88.2865,42.1829],[-88.3134,42.1828],[-88.3169,42.1804],[-88.316,42.1673],[-88.3356,42.1612],[-88.3358,42.1559]]]},"properties":{"geoid":"17026","state":"17","district":"26","name":"State Senate District 26","chamber":"Senate"}},{"type":"Feature","geometry":{"type":"Polygon","coordinates":[[[-88.0826,42.0814],[-88.0647,42.0747],[-88.0625,42.0671],[-88.044,42.0668],[-88.0449,42.0597],[-88.0109,42.0533],[-87.9599,42.0252],[-87.9606,42.037],[-87.921,42.0375],[-87.9212,42.0487],[-87.9003,42.054],[-87.9007,42.0661],[-87.9077,42.0661],[-87.908,42.0952],[-87.9271,42.1043],[-87.9289,42.1098],[-87.9465,42.1097],[-87.9514,42.1244],[-87.961,42.1244],[-87.9585,42.1416],[-87.9655,42.1422],[-87.9666,42.1536],[-88.0286,42.1537],[-88.0339,42.1392],[-88.021,42.1386],[-88.0243,42.1366],[-88.0231,42.1197],[-88.0241,42.1165],[-88.0341,42.1188],[-88.034,42.1076],[-88.0202,42.1004],[-88.0298,42.0921],[-88.0309,42.0825],[-88.0439,42.0797],[-88.0438,42.0886],[-88.0543,42.0886],[-88.0826,42.0814]]]},"properties":{"geoid":"17027","state":"17","district":"27","name":"State Senate District 27","chamber":"Senate"}},{"type":"Feature","geometry":{"type":"Polygon","coordinates":[[[-88.1603,41.9805],[-88.1501,41.9793],[-88.1503,41.9737],[-88.158,41.9737],[-88.1581,41.9663],[-88.1253,41.9676],[-88.125,41.9745],[-88.1188,41.9733],[-88.1185,41.9825],[-88.1104,41.9827],[-88.1099,41.9896],[-88.0902,41.9903],[-88.0899,42.0012],[-88.0801,42.0017],[-88.0801,42.0053],[-88.0528,41.9991],[-88.055,42.0062],[-88.0187,42.0084],[-88.0187,42.0144],[-88.0031,42.0116],[-87.9858,42.0166],[-87.9792,42.0153],[-87.9795,41.9929],[-87.9399,41.9935],[-87.9403,42.0083],[-87.8906,42.0095],[-87.8906,42.0058],[-87.8847,42.006],[-87.8845,41.9982],[-87.8594,41.9958],[-87.8559,41.9891],[-87.8465,41.9879],[-87.8465,41.9737],[-87.8416,41.9738],[-87.8366,41.9748],[-87.8366,41.9864],[-87.8168,41.9829],[-87.8167,41.997],[-87.8214,41.9969],[-87.8211,42.0295],[-87.8455,42.029],[-87.8405,42.0473],[-87.8068,42.048],[-87.8118,42.0552],[-87.8287,42.0548],[-87.8294,42.0657],[-87.8489,42.0658],[-87.8545,42.0715],[-87.8652,42.0659],[-87.9007,42.0661],[-87.9003,42.054],[-87.9212,42.0487],[-87.921,42.0375],[-87.9606,42.037],[-87.9599,42.0252],[-88.0153,42.055],[-88.0793,42.0639],[-88.08,42.0346],[-88.0879,42.0349],[-88.0859,42.0312],[-88.0918,42.031],[-88.0916,42.0268],[-88.1192,42.0258],[-88.1192,42.0184],[-88.1289,42.0182],[-88.1294,41.9961],[-88.1386,41.9957],[-88.1451,41.9882],[-88.1596,41.9879],[-88.1603,41.9805]]]},"properties":{"geoid":"17028","state":"17","district":"28","name":"State Senate District 28","chamber":"Senate"}},{"type":"Feature","geometry":{"type":"Polygon","coordinates":[[[-87.9677,42.153],[-87.9655,42.1422],[-87.9585,42.1416],[-87.961,42.1244],[-87.9514,42.1244],[-87.9465,42.1097],[-87.9289,42.1098],[-87.9271,42.1043],[-87.908,42.0952],[-87.9077,42.0661],[-87.8673,42.0659],[-87.8681,42.1067],[-87.8538,42.1075],[-87.8537,42.1166],[-87.839,42.1193],[-87.8168,42.1164],[-87.8121,42.1214],[-87.806,42.1154],[-87.7991,42.1067],[-87.7983,42.097],[-87.8065,42.0929],[-87.8024,42.0873],[-87.798,42.089],[-87.8002,42.08],[-87.7518,42.0794],[-87.7564,42.1048],[-87.7707,42.1086],[-87.772,42.1197],[-87.7415,42.1193],[-87.7427,42.1306],[-87.8116,42.2288],[-87.8338,42.2939],[-87.8329,42.309],[-87.8247,42.3073],[-87.8322,42.3222],[-87.8525,42.3194],[-87.8525,42.3088],[-87.8853,42.3089],[-87.8856,42.2798],[-87.9053,42.28],[-87.9116,42.2723],[-87.9055,42.2619],[-87.925,42.262],[-87.9255,42.2157],[-87.9156,42.2112],[-87.915,42.1962],[-87.9063,42.194],[-87.9064,42.1858],[-87.9198,42.1859],[-87.926,42.1812],[-87.9014,42.1314],[-87.9248,42.1311],[-87.9284,42.1393],[-87.9367,42.1392],[-87.9364,42.1531],[-87.9677,42.153]]]},"properties":{"geoid":"17029","state":"17","district":"29","name":"State Senate District 29","chamber":"Senate"}},{"type":"Feature","geometry":{"type":"Polygon","coordinates":[[[-88.0203,42.2548],[-87.9892,42.2335],[-87.9893,42.219],[-87.9746,42.219],[-87.9747,42.2117],[-87.965,42.2118],[-87.965,42.2045],[-87.9761,42.2009],[-87.9723,42.1891],[-87.9781,42.1906],[-87.975,42.179],[-87.9848,42.1791],[-87.9937,42.1718],[-87.9937,42.1682],[-87.9848,42.1682],[-87.985,42.1536],[-87.9364,42.1531],[-87.9367,42.1392],[-87.9284,42.1393],[-87.9248,42.1311],[-87.9014,42.1314],[-87.926,42.1812],[-87.9198,42.1859],[-87.9064,42.1858],[-87.9063,42.194],[-87.915,42.1962],[-87.9156,42.2112],[-87.9255,42.2157],[-87.925,42.262],[-87.9055,42.2619],[-87.9116,42.2723],[-87.9053,42.28],[-87.8856,42.2798],[-87.8853,42.3089],[-87.8525,42.3088],[-87.8525,42.3194],[-87.8307,42.3214],[-87.8258,42.3554],[-87.8206,42.3567],[-87.8241,42.3598],[-87.8199,42.3607],[-87.8205,42.3558],[-87.8197,42.3607],[-87.8133,42.3606],[-87.8242,42.3598],[-87.8236,42.3632],[-87.8106,42.3623],[-87.8127,42.3699],[-87.8017,42.3906],[-87.8029,42.4138],[-87.8208,42.4138],[-87.8221,42.3991],[-87.8427,42.3992],[-87.8504,42.392],[-87.8651,42.392],[-87.865,42.3961],[-87.8699,42.3965],[-87.8749,42.3921],[-87.8988,42.3926],[-87.8985,42.4432],[-87.928,42.4434],[-87.9285,42.4133],[-87.9139,42.3858],[-87.949,42.3857],[-87.9358,42.3565],[-87.9452,42.3434],[-87.9063,42.3468],[-87.9049,42.3116],[-87.9209,42.306],[-87.9249,42.2909],[-87.9376,42.2888],[-87.9335,42.2822],[-87.9391,42.2771],[-87.9388,42.2692],[-87.9505,42.2695],[-87.9492,42.2637],[-87.9613,42.2639],[-87.9659,42.2696],[-87.9839,42.2697],[-87.9838,42.2733],[-87.9961,42.2702],[-88.0189,42.2752],[-88.0203,42.2548]]]},"properties":{"geoid":"17030","state":"17","district":"30","name":"State Senate District 30","chamber":"Senate"}},{"type":"Feature","geometry":{"type":"Polygon","coordinates":[[[-88.1485,42.3623],[-88.1472,42.3578],[-88.1399,42.3577],[-88.1399,42.3505],[-88.1448,42.3504],[-88.145,42.3285],[-88.1207,42.3284],[-88.1182,42.3081],[-88.0903,42.3032],[-88.0432,42.3061],[-88.0432,42.2988],[-88.0042,42.2962],[-88.0046,42.3206],[-87.9607,42.3205],[-87.9637,42.3117],[-87.9601,42.3059],[-87.9737,42.306],[-87.9621,42.2881],[-87.9726,42.2864],[-87.9726,42.2822],[-87.9695,42.2828],[-87.9691,42.2693],[-87.9613,42.2639],[-87.9492,42.2637],[-87.9505,42.2695],[-87.9388,42.2692],[-87.9391,42.2771],[-87.9335,42.2822],[-87.9376,42.2888],[-87.9249,42.2909],[-87.9209,42.306],[-87.9049,42.3116],[-87.9063,42.3468],[-87.9452,42.3434],[-87.9358,42.3565],[-87.949,42.3857],[-87.9139,42.3858],[-87.9285,42.4133],[-87.928,42.4434],[-87.8985,42.4432],[-87.8988,42.3926],[-87.8749,42.3921],[-87.8699,42.3965],[-87.865,42.3961],[-87.8651,42.392],[-87.8504,42.392],[-87.8427,42.3992],[-87.8221,42.3991],[-87.8208,42.4138],[-87.8029,42.4138],[-87.7985,42.4883],[-87.8032,42.4926],[-88.0251,42.4951],[-88.0181,42.4826],[-88.0151,42.4575],[-88.0273,42.4586],[-88.0302,42.4493],[-88.0379,42.4467],[-88.0528,42.4516],[-88.0526,42.459],[-88.0625,42.459],[-88.0624,42.4296],[-88.0517,42.425],[-88.051,42.4154],[-88.0358,42.4106],[-88.0432,42.408],[-88.047,42.3934],[-88.0642,42.3923],[-88.0652,42.3961],[-88.0871,42.398],[-88.0873,42.3899],[-88.0971,42.3864],[-88.0971,42.3936],[-88.1052,42.3965],[-88.1201,42.3865],[-88.1205,42.3795],[-88.1399,42.3784],[-88.1399,42.3629],[-88.1485,42.3623]]]},"properties":{"geoid":"17031","state":"17","district":"31","name":"State Senate District 31","chamber":"Senate"}},{"type":"Feature","geometry":{"type":"Polygon","coordinates":[[[-88.516,42.2551],[-88.5159,42.2407],[-88.3358,42.241],[-88.3358,42.2446],[-88.3198,42.2448],[-88.2963,42.2332],[-88.294,42.1972],[-88.3157,42.1972],[-88.3156,42.1828],[-88.3099,42.1807],[-88.2865,42.1829],[-88.2865,42.1901],[-88.2438,42.1918],[-88.2137,42.2059],[-88.1994,42.203],[-88.1987,42.3287],[-88.145,42.3285],[-88.1448,42.3504],[-88.1399,42.3505],[-88.1399,42.3577],[-88.1472,42.3578],[-88.1485,42.3627],[-88.1399,42.3629],[-88.1399,42.3784],[-88.1205,42.3795],[-88.1201,42.3865],[-88.1057,42.3964],[-88.0971,42.3936],[-88.0971,42.3864],[-88.0873,42.3899],[-88.0871,42.398],[-88.0652,42.3961],[-88.0642,42.3923],[-88.047,42.3934],[-88.0432,42.408],[-88.0358,42.4106],[-88.051,42.4154],[-88.0517,42.425],[-88.0624,42.4296],[-88.0625,42.459],[-88.0526,42.459],[-88.0528,42.4516],[-88.0428,42.4472],[-88.0326,42.4473],[-88.0273,42.4586],[-88.0151,42.4575],[-88.0185,42.4841],[-88.0251,42.4951],[-88.3027,42.4946],[-88.3069,42.4692],[-88.301,42.4147],[-88.3404,42.4146],[-88.3555,42.3901],[-88.3555,42.3763],[-88.37,42.3739],[-88.3701,42.3566],[-88.3985,42.3538],[-88.4139,42.359],[-88.4139,42.3347],[-88.4285,42.3348],[-88.4285,42.3419],[-88.4493,42.3419],[-88.4494,42.3383],[-88.4529,42.34],[-88.4529,42.3273],[-88.5113,42.3275],[-88.5078,42.3093],[-88.5111,42.3057],[-88.5111,42.2551],[-88.516,42.2551]]]},"properties":{"geoid":"17032","state":"17","district":"32","name":"State Senate District 32","chamber":"Senate"}},{"type":"Feature","geometry":{"type":"Polygon","coordinates":[[[-88.4898,42.067],[-88.4885,41.8814],[-88.3904,41.8825],[-88.3965,41.8735],[-88.3778,41.8733],[-88.3756,41.8645],[-88.3713,41.8655],[-88.3404,41.8817],[-88.3209,41.8812],[-88.3327,41.8986],[-88.3593,41.9031],[-88.3602,41.9135],[-88.34,41.9126],[-88.34,41.9173],[-88.3069,41.9148],[-88.2923,41.8984],[-88.291,41.8821],[-88.2625,41.8827],[-88.2626,41.9213],[-88.238,41.9199],[-88.2371,41.9681],[-88.2628,41.9747],[-88.2629,41.9936],[-88.2971,41.9943],[-88.2964,42.0038],[-88.288,42.0123],[-88.3362,42.007],[-88.3394,42.0226],[-88.3381,42.0322],[-88.3224,42.0268],[-88.3229,42.0373],[-88.3119,42.0381],[-88.317,42.0436],[-88.3119,42.0439],[-88.312,42.0505],[-88.3055,42.0525],[-88.3041,42.0586],[-88.2829,42.0585],[-88.281,42.0646],[-88.2631,42.0669],[-88.26,42.0724],[-88.258,42.1139],[-88.2676,42.1139],[-88.2676,42.1228],[-88.277,42.1273],[-88.2748,42.1393],[-88.2578,42.1396],[-88.2577,42.1541],[-88.3358,42.1558],[-88.3356,42.1612],[-88.316,42.1673],[-88.3157,42.1972],[-88.294,42.1972],[-88.2963,42.2332],[-88.3199,42.2449],[-88.3744,42.2408],[-88.3742,42.2264],[-88.3645,42.2271],[-88.3643,42.2045],[-88.3547,42.2045],[-88.3552,42.0724],[-88.3745,42.0776],[-88.3761,42.0669],[-88.4898,42.067]]]},"properties":{"geoid":"17033","state":"17","district":"33","name":"State Senate District 33","chamber":"Senate"}},{"type":"Feature","geometry":{"type":"Polygon","coordinates":[[[-89.1739,42.3244],[-89.1736,42.2663],[-89.1512,42.2603],[-89.1485,42.2573],[-89.1552,42.2569],[-89.1551,42.2445],[-89.1403,42.2428],[-89.1258,42.2246],[-89.1398,42.2085],[-89.173,42.2084],[-89.1725,42.1802],[-89.162,42.1788],[-89.1379,42.1881],[-89.1267,42.1781],[-89.1157,42.1796],[-89.101,42.1688],[-89.0669,42.1653],[-89.067,42.1726],[-89.0239,42.1731],[-89.0233,42.1514],[-88.9397,42.1523],[-88.941,42.2394],[-88.9177,42.2395],[-88.9018,42.2331],[-88.8222,42.2334],[-88.822,42.241],[-88.8034,42.241],[-88.8032,42.2479],[-88.8145,42.2479],[-88.8129,42.2552],[-88.8221,42.2596],[-88.8221,42.277],[-88.9345,42.2752],[-88.9309,42.254],[-88.9498,42.2538],[-88.9474,42.2598],[-88.9598,42.2622],[-88.9649,42.2806],[-88.9799,42.2776],[-88.9799,42.2825],[-88.9996,42.2822],[-88.9996,42.2735],[-89.0193,42.2747],[-89.0142,42.2894],[-88.9997,42.2923],[-88.9995,42.304],[-88.9792,42.3076],[-88.9792,42.3043],[-88.9648,42.3045],[-88.9642,42.3436],[-89.0469,42.3396],[-89.0462,42.3307],[-89.0776,42.3248],[-89.0806,42.3158],[-89.0969,42.3157],[-89.0971,42.3247],[-89.1739,42.3244]]]},"properties":{"geoid":"17034","state":"17","district":"34","name":"State Senate District 34","chamber":"Senate"}},{"type":"Feature","geometry":{"type":"Polygon","coordinates":[[[-89.0193,42.2754],[-88.9996,42.2735],[-88.9996,42.2822],[-88.9799,42.2825],[-88.9799,42.2776],[-88.9649,42.2806],[-88.9598,42.2622],[-88.9474,42.2598],[-88.9498,42.2538],[-88.9309,42.254],[-88.9345,42.2752],[-88.8221,42.277],[-88.8221,42.2596],[-88.8129,42.2552],[-88.8145,42.2479],[-88.8032,42.2479],[-88.8034,42.2407],[-88.7055,42.2408],[-88.7056,42.1535],[-88.5887,42.1536],[-88.5883,42.0665],[-88.7156,42.0664],[-88.7124,41.6305],[-88.6896,41.6332],[-88.6897,41.638],[-88.6509,41.6402],[-88.6522,41.7191],[-88.4438,41.7218],[-88.4422,41.758],[-88.408,41.758],[-88.4065,41.7683],[-88.4149,41.7704],[-88.4065,41.7897],[-88.3954,41.7965],[-88.3957,41.8061],[-88.4044,41.8098],[-88.4029,41.8217],[-88.3976,41.828],[-88.376,41.8245],[-88.3754,41.872],[-88.3965,41.8735],[-88.3904,41.8825],[-88.4885,41.8814],[-88.4898,42.067],[-88.3761,42.0669],[-88.3745,42.0776],[-88.3552,42.0724],[-88.3547,42.2045],[-88.3643,42.2045],[-88.3645,42.2271],[-88.3742,42.2264],[-88.3744,42.2408],[-88.5159,42.2407],[-88.516,42.2551],[-88.5111,42.2551],[-88.5111,42.3057],[-88.5078,42.3091],[-88.5113,42.3275],[-88.4529,42.3273],[-88.4529,42.34],[-88.4494,42.3383],[-88.4493,42.3419],[-88.4285,42.3419],[-88.4285,42.3348],[-88.4139,42.3347],[-88.4139,42.359],[-88.3985,42.3538],[-88.3701,42.3566],[-88.37,42.3739],[-88.3555,42.3763],[-88.3555,42.3901],[-88.3404,42.4146],[-88.301,42.4147],[-88.3069,42.4692],[-88.3027,42.4946],[-88.8199,42.4923],[-88.8222,42.3715],[-88.9404,42.3702],[-88.9406,42.305],[-88.9792,42.3043],[-88.9792,42.3076],[-88.9995,42.304],[-88.9997,42.2923],[-89.0142,42.2894],[-89.0193,42.2754]]]},"properties":{"geoid":"17035","state":"17","district":"35","name":"State Senate District 35","chamber":"Senate"}},{"type":"Feature","geometry":{"type":"Polygon","coordinates":[[[-90.7911,40.4561],[-90.7052,40.4555],[-90.6964,40.4477],[-90.6562,40.4479],[-90.6544,40.4586],[-90.4475,40.4521],[-90.4418,40.8891],[-90.2128,40.8885],[-90.2113,40.9759],[-90.3258,40.9765],[-90.3179,41.5416],[-90.3569,41.5417],[-90.3573,41.5598],[-90.3714,41.5598],[-90.371,41.5784],[-90.4128,41.5653],[-90.4614,41.5235],[-90.5006,41.518],[-90.5409,41.5261],[-90.591,41.5128],[-90.6021,41.506],[-90.6059,41.4942],[-90.6185,41.485],[-90.6558,41.4621],[-90.6662,41.4606],[-90.6677,41.4157],[-90.587,41.4142],[-90.5876,41.371],[-90.5495,41.3702],[-90.5523,41.2397],[-90.5468,41.2397],[-90.5485,41.1513],[-90.6663,41.155],[-90.674,40.5432],[-90.7902,40.5453],[-90.7911,40.4561]]]},"properties":{"geoid":"17036","state":"17","district":"36","name":"State Senate District 36","chamber":"Senate"}},{"type":"Feature","geometry":{"type":"Polygon","coordinates":[[[-90.3713,41.5701],[-90.3714,41.5598],[-90.3573,41.5598],[-90.3569,41.5417],[-90.3179,41.5416],[-90.3179,41.5088],[-90.3047,41.5178],[-90.2501,41.5228],[-90.2258,41.5299],[-90.219,41.5372],[-90.2033,41.5393],[-90.2019,41.4117],[-89.8569,41.4092],[-89.8576,41.2345],[-89.7537,41.234],[-89.7548,40.9536],[-89.7557,40.9411],[-89.7673,40.9376],[-89.7673,40.923],[-89.755,40.9229],[-89.7555,40.842],[-89.7029,40.8421],[-89.6946,40.8311],[-89.65,40.8274],[-89.6498,40.82],[-89.6309,40.8205],[-89.6311,40.7763],[-89.6139,40.7798],[-89.611,40.7755],[-89.6165,40.7721],[-89.6146,40.7688],[-89.6026,40.7684],[-89.6014,40.776],[-89.5829,40.7753],[-89.5829,40.7607],[-89.5643,40.7572],[-89.5566,40.7602],[-89.5534,40.7476],[-89.4671,40.7476],[-89.4468,40.7573],[-89.4471,40.7669],[-89.4424,40.7669],[-89.4422,40.7716],[-89.4469,40.7709],[-89.4471,40.7968],[-89.4523,40.8059],[-89.4667,40.8141],[-89.4667,40.8349],[-89.5033,40.8348],[-89.5035,40.8492],[-89.5281,40.8476],[-89.5238,40.857],[-89.4984,40.8744],[-89.4888,40.8986],[-89.464,40.9266],[-89.5245,40.9223],[-89.5246,41.2336],[-89.5097,41.2339],[-89.51,41.2703],[-89.5054,41.2703],[-89.5051,41.277],[-89.5013,41.2776],[-89.3933,41.2768],[-89.3927,41.3204],[-89.3159,41.324],[-89.3145,41.3336],[-89.3197,41.3355],[-89.3209,41.3494],[-89.3256,41.3494],[-89.3257,41.4078],[-89.1653,41.4084],[-89.1647,41.3669],[-88.8455,41.3683],[-88.8453,41.4558],[-88.8161,41.4561],[-88.8176,41.5877],[-88.7964,41.5893],[-88.7626,41.6091],[-88.7699,41.6092],[-88.7704,41.631],[-88.7801,41.6311],[-88.7812,41.705],[-88.7762,41.7037],[-88.7766,41.7179],[-88.7723,41.7179],[-88.775,41.8636],[-88.7535,41.9029],[-88.7742,41.9029],[-88.773,41.9219],[-88.792,41.9218],[-88.7926,41.9331],[-88.7974,41.9332],[-88.7972,41.9606],[-88.7921,41.9651],[-88.7731,41.9652],[-88.7731,41.9727],[-88.7364,41.9716],[-88.7368,41.98],[-89.1706,41.9764],[-89.1719,42.0305],[-89.2783,42.0299],[-89.2824,41.9312],[-89.3892,41.931],[-89.3844,41.945],[-89.397,41.9452],[-89.3975,41.9309],[-89.5129,41.9309],[-89.5098,42.0268],[-89.5743,42.0263],[-89.5758,41.9873],[-89.5887,41.9862],[-89.5888,41.9812],[-89.6139,41.9724],[-89.6287,41.9609],[-89.6289,41.93],[-90.152,41.9289],[-90.1536,41.9066],[-90.17,41.8764],[-90.173,41.8574],[-90.1838,41.8362],[-90.182,41.8071],[-90.2786,41.7674],[-90.3126,41.7399],[-90.3177,41.7227],[-90.3134,41.6981],[-90.3345,41.6796],[-90.3435,41.647],[-90.3415,41.5906],[-90.371,41.5784],[-90.3713,41.5701]]]},"properties":{"geoid":"17037","state":"17","district":"37","name":"State Senate District 37","chamber":"Senate"}},{"type":"Feature","geometry":{"type":"Polygon","coordinates":[[[-89.3258,41.4066],[-89.3256,41.3494],[-89.3209,41.3494],[-89.3197,41.3355],[-89.3145,41.3336],[-89.3176,41.3242],[-89.2774,41.3257],[-89.2774,41.3167],[-89.2591,41.3225],[-89.2249,41.3131],[-89.1637,41.3102],[-89.1629,41.2359],[-89.0489,41.2363],[-89.0483,41.1924],[-88.8166,41.1937],[-88.817,41.2812],[-88.7044,41.2815],[-88.7054,41.3299],[-88.6545,41.3195],[-88.6334,41.3108],[-88.5945,41.3114],[-88.59,41.3023],[-88.5601,41.3208],[-88.5035,41.3307],[-88.4786,41.3425],[-88.4216,41.3537],[-88.4217,41.3647],[-88.4027,41.376],[-88.4031,41.3963],[-88.3684,41.4157],[-88.2978,41.418],[-88.2982,41.4329],[-88.2509,41.4255],[-88.2543,41.521],[-88.2928,41.52],[-88.2941,41.5493],[-88.3139,41.5489],[-88.315,41.5925],[-88.2573,41.5935],[-88.2591,41.6362],[-88.2515,41.6363],[-88.2521,41.6508],[-88.308,41.65],[-88.3098,41.6907],[-88.314,41.6904],[-88.3159,41.6997],[-88.3325,41.6924],[-88.3431,41.6933],[-88.3496,41.7007],[-88.3515,41.6874],[-88.3702,41.6826],[-88.37,41.6766],[-88.3889,41.6765],[-88.4128,41.6664],[-88.4113,41.6699],[-88.4196,41.6754],[-88.4108,41.6797],[-88.4166,41.684],[-88.4278,41.687],[-88.4459,41.6829],[-88.4484,41.7014],[-88.4438,41.7218],[-88.6522,41.7191],[-88.6509,41.6402],[-88.6897,41.638],[-88.6896,41.6332],[-88.7124,41.6305],[-88.7147,41.98],[-88.7368,41.98],[-88.7364,41.9716],[-88.7731,41.9727],[-88.7731,41.9652],[-88.7967,41.962],[-88.7974,41.9332],[-88.7926,41.9331],[-88.792,41.9218],[-88.773,41.9219],[-88.7742,41.9029],[-88.7535,41.9029],[-88.775,41.8636],[-88.7723,41.7179],[-88.7766,41.7179],[-88.7762,41.7037],[-88.7812,41.705],[-88.7801,41.6311],[-88.7704,41.631],[-88.7699,41.6092],[-88.7626,41.6091],[-88.7964,41.5893],[-88.8176,41.5877],[-88.8161,41.4561],[-88.8453,41.4558],[-88.8455,41.3683],[-89.1647,41.3669],[-89.1653,41.4084],[-89.3258,41.4066]]]},"properties":{"geoid":"17038","state":"17","district":"38","name":"State Senate District 38","chamber":"Senate"}},{"type":"Feature","geometry":{"type":"Polygon","coordinates":[[[-88.0225,41.941],[-88.0034,41.9362],[-87.9991,41.9266],[-87.9887,41.9272],[-87.9887,41.9318],[-87.9601,41.9268],[-87.9573,41.9305],[-87.9203,41.9313],[-87.9204,41.9068],[-87.9082,41.9071],[-87.908,41.903],[-87.8844,41.8973],[-87.8443,41.8908],[-87.8446,41.8984],[-87.8396,41.8983],[-87.8399,41.9046],[-87.8349,41.9063],[-87.8319,41.9041],[-87.8346,41.8953],[-87.8296,41.8902],[-87.833,41.8847],[-87.8273,41.8792],[-87.8193,41.8793],[-87.8196,41.8882],[-87.8146,41.8831],[-87.8062,41.8832],[-87.8035,41.8686],[-87.7743,41.8691],[-87.7749,41.8874],[-87.7605,41.8911],[-87.7657,41.9166],[-87.7864,41.9166],[-87.7904,41.9236],[-87.8136,41.9252],[-87.8121,41.9326],[-87.8238,41.9378],[-87.8361,41.9376],[-87.8358,41.9306],[-87.8461,41.9296],[-87.8413,41.9231],[-87.8546,41.9225],[-87.8588,41.9343],[-87.8655,41.9362],[-87.8659,41.9458],[-87.8854,41.9456],[-87.8908,41.958],[-87.8807,41.9605],[-87.8809,41.9731],[-87.8777,41.9731],[-87.8847,42.006],[-87.8906,42.0058],[-87.8906,42.0095],[-87.9403,42.0083],[-87.9399,41.9935],[-87.9595,41.9932],[-87.9597,41.9455],[-87.9662,41.9367],[-87.9813,41.9365],[-88.0033,41.949],[-88.022,41.9484],[-88.0225,41.941]]]},"properties":{"geoid":"17039","state":"17","district":"39","name":"State Senate District 39","chamber":"Senate"}},{"type":"Feature","geometry":{"type":"Polygon","coordinates":[[[-88.3025,41.2166],[-88.3001,41.1569],[-88.2664,41.1577],[-88.2701,41.1284],[-88.2605,41.1286],[-88.26,41.1141],[-88.2515,41.1142],[-88.2473,40.9946],[-87.8132,41.0049],[-87.8267,41.0101],[-87.8429,41.0254],[-87.8499,41.0447],[-87.8299,41.0628],[-87.8301,41.0773],[-87.8493,41.0776],[-87.8397,41.0826],[-87.8345,41.0916],[-87.8382,41.1481],[-87.8349,41.1485],[-87.8429,41.1618],[-87.8368,41.1628],[-87.838,41.2068],[-87.8671,41.2067],[-87.8665,41.2211],[-87.8226,41.3118],[-87.8143,41.3514],[-87.7684,41.3978],[-87.6703,41.3985],[-87.6706,41.4204],[-87.6299,41.4206],[-87.6307,41.4351],[-87.6249,41.4352],[-87.618,41.4479],[-87.6319,41.4496],[-87.6333,41.4569],[-87.6228,41.457],[-87.623,41.4643],[-87.6184,41.4643],[-87.6164,41.5214],[-87.6199,41.528],[-87.612,41.5426],[-87.6239,41.5425],[-87.623,41.5353],[-87.6627,41.539],[-87.6567,41.5278],[-87.6648,41.5279],[-87.6648,41.5206],[-87.6745,41.5206],[-87.6743,41.5041],[-87.6983,41.5062],[-87.7059,41.4916],[-87.713,41.4915],[-87.7129,41.4843],[-87.7224,41.4843],[-87.7223,41.4697],[-87.8872,41.4699],[-87.8883,41.4985],[-87.9412,41.4991],[-87.9414,41.5053],[-87.9644,41.5049],[-87.9661,41.5122],[-88.0236,41.5134],[-88.019,41.3804],[-88.1928,41.3769],[-88.1891,41.2898],[-88.2088,41.2894],[-88.2082,41.2751],[-88.2368,41.2744],[-88.2364,41.2641],[-88.2458,41.2526],[-88.2457,41.2488],[-88.2356,41.2454],[-88.2354,41.2308],[-88.2801,41.2299],[-88.28,41.2238],[-88.2907,41.2153],[-88.3025,41.2166]]]},"properties":{"geoid":"17040","state":"17","district":"40","name":"State Senate District 40","chamber":"Senate"}},{"type":"Feature","geometry":{"type":"Polygon","coordinates":[[[-88.1239,41.7495],[-88.1231,41.7344],[-88.1176,41.7351],[-88.1164,41.7269],[-88.0634,41.7281],[-88.0602,41.7425],[-88.0482,41.7443],[-88.0436,41.7504],[-88.031,41.7508],[-88.0277,41.6415],[-87.9466,41.6426],[-87.9444,41.6288],[-87.9014,41.6296],[-87.898,41.6369],[-87.8926,41.637],[-87.8933,41.6661],[-87.9127,41.6657],[-87.9143,41.7166],[-87.8865,41.7316],[-87.8772,41.732],[-87.8525,41.7325],[-87.8518,41.7179],[-87.8372,41.7182],[-87.8386,41.7473],[-87.8475,41.7472],[-87.8485,41.7662],[-87.8755,41.761],[-87.8871,41.7647],[-87.8879,41.7837],[-87.8975,41.7884],[-87.8991,41.819],[-87.9044,41.8188],[-87.9043,41.8084],[-87.9272,41.8031],[-87.9268,41.791],[-87.9364,41.789],[-87.9358,41.7744],[-87.9552,41.7741],[-87.9549,41.7668],[-87.9743,41.7664],[-87.9745,41.7737],[-87.9939,41.7733],[-87.9943,41.7842],[-87.9848,41.7882],[-87.9872,41.8098],[-88.033,41.8079],[-88.0565,41.8009],[-88.0557,41.7859],[-88.084,41.7854],[-88.1195,41.7767],[-88.1222,41.7603],[-88.1173,41.7557],[-88.1239,41.7495]]]},"properties":{"geoid":"17041","state":"17","district":"41","name":"State Senate District 41","chamber":"Senate"}},{"type":"Feature","geometry":{"type":"Polygon","coordinates":[[[-88.4484,41.7014],[-88.4459,41.6829],[-88.4278,41.687],[-88.4166,41.684],[-88.4108,41.6797],[-88.4196,41.6754],[-88.4113,41.6699],[-88.4128,41.6664],[-88.3889,41.6765],[-88.37,41.6766],[-88.3702,41.6826],[-88.3515,41.6874],[-88.3496,41.7007],[-88.3431,41.6933],[-88.3325,41.6924],[-88.3159,41.6997],[-88.314,41.6904],[-88.2615,41.6957],[-88.2347,41.7036],[-88.2344,41.6947],[-88.2147,41.6951],[-88.2139,41.7081],[-88.2058,41.7056],[-88.2059,41.7098],[-88.1944,41.7099],[-88.1989,41.7239],[-88.2063,41.7253],[-88.2061,41.7533],[-88.1959,41.7566],[-88.196,41.7693],[-88.2059,41.7702],[-88.2057,41.7814],[-88.2317,41.7815],[-88.232,41.7767],[-88.2623,41.7713],[-88.2622,41.7647],[-88.2719,41.7634],[-88.2713,41.759],[-88.2912,41.7581],[-88.2906,41.7441],[-88.2979,41.7358],[-88.3315,41.738],[-88.3278,41.7445],[-88.3415,41.7474],[-88.3424,41.7601],[-88.3592,41.7605],[-88.3593,41.7918],[-88.3498,41.7921],[-88.3494,41.8103],[-88.3404,41.8106],[-88.3401,41.8417],[-88.3095,41.8413],[-88.3074,41.8756],[-88.3039,41.8818],[-88.291,41.8821],[-88.2893,41.8875],[-88.2928,41.8992],[-88.3069,41.9148],[-88.34,41.9173],[-88.34,41.9126],[-88.3602,41.9135],[-88.3593,41.9031],[-88.3327,41.8986],[-88.3209,41.8812],[-88.3404,41.8817],[-88.3756,41.8645],[-88.376,41.8245],[-88.3976,41.828],[-88.4029,41.8217],[-88.4044,41.8098],[-88.3957,41.8061],[-88.3954,41.7965],[-88.4065,41.7897],[-88.4149,41.7704],[-88.4065,41.7683],[-88.408,41.758],[-88.4434,41.7554],[-88.4484,41.7014]]]},"properties":{"geoid":"17042","state":"17","district":"42","name":"State Senate District 42","chamber":"Senate"}},{"type":"Feature","geometry":{"type":"Polygon","coordinates":[[[-88.2543,41.5207],[-88.2463,41.2675],[-88.241,41.2744],[-88.2082,41.2751],[-88.2088,41.2894],[-88.1891,41.2898],[-88.1928,41.3769],[-88.019,41.3804],[-88.0261,41.5906],[-88.0362,41.5908],[-88.0263,41.5978],[-88.031,41.7508],[-88.0436,41.7504],[-88.0482,41.7443],[-88.0602,41.7425],[-88.0634,41.7281],[-88.1316,41.7265],[-88.138,41.722],[-88.1317,41.72],[-88.138,41.7137],[-88.1357,41.7085],[-88.128,41.7111],[-88.1254,41.7028],[-88.1087,41.7049],[-88.1097,41.69],[-88.0829,41.6909],[-88.0789,41.682],[-88.1453,41.6455],[-88.1448,41.6311],[-88.124,41.6317],[-88.1227,41.5952],[-88.113,41.5955],[-88.1113,41.5642],[-88.0963,41.5643],[-88.0898,41.5598],[-88.087,41.549],[-88.0944,41.5488],[-88.094,41.5325],[-88.1155,41.5319],[-88.1158,41.5374],[-88.1992,41.5361],[-88.1987,41.5215],[-88.2543,41.5207]]]},"properties":{"geoid":"17043","state":"17","district":"43","name":"State Senate District 43","chamber":"Senate"}},{"type":"Feature","geometry":{"type":"Polygon","coordinates":[[[-89.6223,40.6334],[-89.6079,40.6291],[-89.6028,40.3128],[-89.6119,40.3055],[-89.6025,40.2981],[-89.6011,40.0923],[-89.5791,40.0924],[-89.5783,39.9761],[-89.4838,39.9767],[-89.483,39.875],[-89.4442,39.8749],[-89.4447,39.7882],[-89.3681,39.7875],[-89.3679,39.7681],[-89.3597,39.7648],[-89.354,39.7721],[-89.3287,39.7635],[-89.325,39.767],[-89.3288,39.7693],[-89.3031,39.7758],[-89.2925,39.7925],[-89.261,39.8051],[-89.2486,39.8257],[-89.2363,39.8222],[-89.2315,39.8163],[-89.2339,39.8129],[-89.2202,39.8129],[-89.2175,39.8365],[-89.0868,39.8312],[-89.048,39.8374],[-89.0449,39.8594],[-89.0289,39.8754],[-89.0105,39.8755],[-89.0103,39.8599],[-89.0034,39.8579],[-88.9922,39.8614],[-88.9923,39.8655],[-88.9729,39.8656],[-88.973,39.8764],[-88.9606,39.8776],[-88.9646,39.8984],[-88.9553,39.8986],[-88.9553,39.9084],[-88.9178,39.9096],[-88.9175,39.8924],[-88.8839,39.8931],[-88.8838,39.8856],[-88.879,39.8857],[-88.8783,39.8491],[-88.8884,39.8445],[-88.8881,39.8345],[-88.8785,39.8346],[-88.8782,39.82],[-88.9077,39.8199],[-88.9073,39.8125],[-88.9159,39.8127],[-88.9157,39.8085],[-88.925,39.8126],[-88.9253,39.8194],[-88.935,39.8192],[-88.9349,39.8133],[-88.9545,39.8193],[-88.9616,39.8149],[-88.9638,39.8188],[-88.9769,39.7892],[-88.4623,39.7918],[-88.4595,40.6725],[-88.5823,40.6706],[-88.5834,40.7141],[-88.6794,40.7127],[-88.6792,40.6982],[-88.7501,40.6975],[-88.7742,40.6584],[-88.7742,40.6469],[-88.771,40.6469],[-88.7741,40.6397],[-88.7895,40.6397],[-88.8554,40.5931],[-88.8551,40.5753],[-88.8649,40.5755],[-88.8648,40.5605],[-88.8841,40.5608],[-88.884,40.5462],[-88.9031,40.5464],[-88.9027,40.51],[-88.9532,40.5103],[-88.9529,40.4967],[-88.9337,40.4958],[-88.9336,40.4885],[-88.9025,40.4881],[-88.9021,40.4729],[-88.9226,40.4727],[-88.9237,40.4806],[-88.9526,40.48],[-88.9539,40.4682],[-88.9625,40.461],[-89.006,40.4579],[-89.0275,40.4587],[-89.0314,40.4678],[-89.0287,40.4849],[-89.059,40.4877],[-89.0605,40.5318],[-89.1045,40.5563],[-89.1647,40.5999],[-89.1888,40.6105],[-89.2312,40.6103],[-89.2762,40.6227],[-89.4505,40.6213],[-89.4522,40.6435],[-89.4677,40.6507],[-89.4834,40.6505],[-89.5014,40.6602],[-89.5892,40.6606],[-89.6081,40.6513],[-89.6223,40.6334]]]},"properties":{"geoid":"17044","state":"17","district":"44","name":"State Senate District 44","chamber":"Senate"}},{"type":"Feature","geometry":{"type":"Polygon","coordinates":[[[-90.6567,42.4888],[-90.6548,42.4798],[-90.6458,42.4709],[-90.6063,42.4515],[-90.568,42.4404],[-90.5604,42.4329],[-90.555,42.4161],[-90.4773,42.3838],[-90.4626,42.3673],[-90.4439,42.3552],[-90.4159,42.3227],[-90.4309,42.2782],[-90.4193,42.2545],[-90.3911,42.2255],[-90.357,42.2054],[-90.3283,42.201],[-90.2822,42.1788],[-90.2349,42.1654],[-90.2095,42.1527],[-90.1973,42.1282],[-90.1675,42.1225],[-90.1612,42.1064],[-90.1684,42.0758],[-90.1645,42.0421],[-90.1516,42.0306],[-90.1401,42.0033],[-90.1462,41.9813],[-90.1641,41.9562],[-90.1638,41.9449],[-90.152,41.9289],[-89.6289,41.93],[-89.6287,41.9609],[-89.6139,41.9724],[-89.5888,41.9812],[-89.5887,41.9862],[-89.5758,41.9873],[-89.5743,42.0263],[-89.5098,42.0268],[-89.5129,41.9309],[-89.3975,41.9309],[-89.397,41.9452],[-89.3844,41.945],[-89.3892,41.931],[-89.2824,41.9312],[-89.2783,42.0299],[-89.1719,42.0305],[-89.1706,41.9764],[-88.7147,41.98],[-88.7156,42.0664],[-88.5883,42.0665],[-88.5887,42.1536],[-88.7056,42.1535],[-88.7055,42.2408],[-88.822,42.241],[-88.8222,42.2334],[-88.8612,42.2331],[-88.9018,42.2331],[-88.9177,42.2395],[-88.941,42.2394],[-88.9397,42.1523],[-89.0233,42.1514],[-89.0239,42.1731],[-89.067,42.1726],[-89.0669,42.1653],[-89.101,42.1688],[-89.1157,42.1796],[-89.1267,42.1781],[-89.1379,42.1881],[-89.162,42.1788],[-89.1725,42.1802],[-89.173,42.2084],[-89.1398,42.2085],[-89.1258,42.2246],[-89.1403,42.2428],[-89.1551,42.2445],[-89.1552,42.2569],[-89.1485,42.2573],[-89.1512,42.2603],[-89.1736,42.2663],[-89.1739,42.3244],[-89.0971,42.3247],[-89.0969,42.3157],[-89.0806,42.3158],[-89.0776,42.3248],[-89.0462,42.3307],[-89.0469,42.3396],[-88.9642,42.3436],[-88.9648,42.3045],[-88.9406,42.305],[-88.9404,42.3702],[-88.8222,42.3715],[-88.8199,42.4923],[-89.6698,42.505],[-90.6428,42.5085],[-90.6567,42.4888]]]},"properties":{"geoid":"17045","state":"17","district":"45","name":"State Senate District 45","chamber":"Senate"}},{"type":"Feature","geometry":{"type":"Polygon","coordinates":[[[-89.7197,40.638],[-89.7174,40.6239],[-89.6359,40.6231],[-89.6081,40.6513],[-89.5892,40.6606],[-89.5014,40.6602],[-89.4834,40.6505],[-89.4677,40.6507],[-89.4522,40.6435],[-89.4505,40.6213],[-89.2762,40.6227],[-89.2312,40.6103],[-89.1888,40.6105],[-89.1647,40.5999],[-89.1045,40.5563],[-89.0605,40.5318],[-89.059,40.4877],[-89.0287,40.4849],[-89.0314,40.4678],[-89.0275,40.4587],[-88.9639,40.4606],[-88.954,40.468],[-88.9526,40.48],[-88.9237,40.4806],[-88.9226,40.4727],[-88.9021,40.4729],[-88.9025,40.4881],[-88.9336,40.4885],[-88.9337,40.4958],[-88.9529,40.4967],[-88.9516,40.5298],[-88.963,40.5251],[-88.9632,40.532],[-88.9833,40.5317],[-88.9835,40.5387],[-89.003,40.5392],[-88.9987,40.6078],[-89.005,40.6614],[-89.0285,40.68],[-89.0346,40.7369],[-89.1757,40.7356],[-89.2586,40.7251],[-89.2631,40.7229],[-89.263,40.7164],[-89.2588,40.7164],[-89.2604,40.7076],[-89.2724,40.6975],[-89.2839,40.6975],[-89.2839,40.7016],[-89.2922,40.7014],[-89.2917,40.7055],[-89.3939,40.7045],[-89.4115,40.7033],[-89.4387,40.6869],[-89.4626,40.6854],[-89.4741,40.6898],[-89.4741,40.6949],[-89.5028,40.6896],[-89.5028,40.6966],[-89.5218,40.6987],[-89.5216,40.7043],[-89.5076,40.7039],[-89.5077,40.7151],[-89.5471,40.7204],[-89.5566,40.7602],[-89.5643,40.7572],[-89.5829,40.7607],[-89.5829,40.7753],[-89.6014,40.776],[-89.6026,40.7684],[-89.6146,40.7688],[-89.6165,40.7721],[-89.611,40.7755],[-89.6139,40.7798],[-89.6311,40.7763],[-89.6309,40.8205],[-89.6498,40.82],[-89.6497,40.8127],[-89.6693,40.8128],[-89.6698,40.7749],[-89.6891,40.7801],[-89.6892,40.7628],[-89.6887,40.7559],[-89.6748,40.7546],[-89.6748,40.7444],[-89.6678,40.7424],[-89.6714,40.7545],[-89.6507,40.7533],[-89.6536,40.7408],[-89.6504,40.7381],[-89.6549,40.7375],[-89.6563,40.7287],[-89.6514,40.7288],[-89.6514,40.718],[-89.6417,40.7181],[-89.6418,40.7107],[-89.6575,40.7109],[-89.6504,40.6909],[-89.6558,40.6821],[-89.6757,40.6804],[-89.6755,40.6741],[-89.7039,40.6742],[-89.699,40.6524],[-89.7051,40.6522],[-89.7047,40.6453],[-89.7135,40.6455],[-89.7135,40.6383],[-89.7197,40.638]]]},"properties":{"geoid":"17046","state":"17","district":"46","name":"State Senate District 46","chamber":"Senate"}},{"type":"Feature","geometry":{"type":"Polygon","coordinates":[[[-91.513,40.1811],[-91.5082,40.1577],[-91.5106,40.1271],[-91.4173,40.126],[-91.4179,40.1113],[-90.6812,40.1035],[-90.6789,40.1904],[-90.3375,40.1877],[-90.3382,40.1356],[-90.3537,40.1225],[-90.3429,40.1168],[-90.3365,40.1225],[-90.3334,40.1181],[-90.3146,40.1156],[-90.313,40.1035],[-90.3031,40.0922],[-90.301,40.0831],[-90.305,40.0779],[-90.2907,40.069],[-90.2934,40.0638],[-90.2871,40.0634],[-90.2855,40.0555],[-90.2726,40.0548],[-90.2658,40.0621],[-90.2476,40.0566],[-90.2444,40.0613],[-90.2431,40.0578],[-90.2346,40.0611],[-90.2282,40.0517],[-90.2236,40.0551],[-90.2173,40.0509],[-90.2135,40.0591],[-90.211,40.0552],[-90.2071,40.0603],[-90.2042,40.0529],[-90.1949,40.0536],[-90.1863,40.0616],[-90.1892,40.0658],[-90.182,40.0668],[-90.1831,40.0627],[-90.1759,40.06],[-90.1564,40.0612],[-90.1499,40.0676],[-90.1348,40.0623],[-90.1268,40.0766],[-90.1162,40.0808],[-90.1004,40.0777],[-90.0943,40.0814],[-90.0944,40.0771],[-90.0876,40.084],[-90.0807,40.0801],[-90.0811,40.0856],[-90.0702,40.09],[-90.0716,40.0941],[-90.0657,40.0934],[-90.0647,40.1001],[-90.0518,40.099],[-90.0428,40.109],[-90.0392,40.1026],[-90.0317,40.1107],[-90.0319,40.1055],[-90.0129,40.1008],[-90.0033,40.1093],[-90.0001,40.103],[-89.9976,40.1128],[-89.9935,40.108],[-89.9828,40.1139],[-89.9887,40.1178],[-89.9886,40.1236],[-89.9845,40.1239],[-89.9866,40.129],[-89.9736,40.1274],[-89.9766,40.1307],[-89.9714,40.1338],[-89.9748,40.1355],[-89.9662,40.1431],[-89.9589,40.1344],[-89.9546,40.137],[-89.9515,40.1321],[-89.9493,40.1357],[-89.9461,40.1303],[-89.9437,40.1344],[-89.9368,40.1324],[-89.9413,40.1369],[-89.9268,40.1401],[-89.9247,40.1358],[-89.9212,40.1388],[-89.9075,40.1316],[-89.9084,40.1378],[-89.8989,40.1279],[-89.8857,40.128],[-89.8855,40.1348],[-89.8726,40.1374],[-89.866,40.1282],[-89.8534,40.1303],[-89.8433,40.1264],[-89.8394,40.1308],[-89.8321,40.1236],[-89.8272,40.1257],[-89.8233,40.1213],[-89.8179,40.1254],[-89.8101,40.1212],[-89.8099,40.1245],[-89.7944,40.1238],[-89.7919,40.1294],[-89.7809,40.1269],[-89.7734,40.1322],[-89.7494,40.1268],[-89.734,40.1327],[-89.7336,40.138],[-89.73,40.1356],[-89.7282,40.1423],[-89.7192,40.1403],[-89.7094,40.147],[-89.7043,40.1406],[-89.6948,40.1407],[-89.6867,40.1468],[-89.6859,40.1536],[-89.6713,40.1539],[-89.6678,40.1607],[-89.66,40.1556],[-89.6342,40.1534],[-89.6017,40.1224],[-89.6025,40.2981],[-89.6119,40.3055],[-89.6028,40.3128],[-89.6079,40.6291],[-89.6227,40.6349],[-89.6359,40.6231],[-89.7174,40.6239],[-89.7197,40.638],[-89.7135,40.6383],[-89.7135,40.6455],[-89.7047,40.6453],[-89.7051,40.6522],[-89.699,40.6524],[-89.7039,40.6742],[-89.6755,40.6741],[-89.6757,40.6804],[-89.6558,40.6821],[-89.6504,40.6909],[-89.6575,40.7109],[-89.6418,40.7107],[-89.6417,40.7181],[-89.6514,40.718],[-89.6514,40.7288],[-89.6563,40.7287],[-89.6549,40.7375],[-89.6504,40.7381],[-89.6536,40.7408],[-89.6507,40.7533],[-89.6714,40.7545],[-89.6678,40.7424],[-89.6748,40.7444],[-89.6748,40.7546],[-89.6887,40.7559],[-89.6892,40.7631],[-89.6891,40.7801],[-89.6698,40.7749],[-89.6693,40.8128],[-89.6497,40.8127],[-89.6497,40.8272],[-89.6944,40.831],[-89.7029,40.8421],[-89.7555,40.842],[-89.755,40.9229],[-89.7673,40.923],[-89.7673,40.9376],[-89.7557,40.9411],[-89.7548,40.9536],[-89.7537,41.234],[-89.8576,41.2345],[-89.8569,41.4092],[-90.2019,41.4117],[-90.2033,41.5393],[-90.219,41.5372],[-90.2258,41.5299],[-90.2417,41.5248],[-90.3047,41.5178],[-90.3195,41.5097],[-90.3258,40.9765],[-90.2113,40.9759],[-90.2128,40.8885],[-90.4418,40.8891],[-90.4475,40.4521],[-90.6544,40.4586],[-90.6562,40.4479],[-90.6938,40.4477],[-90.6998,40.4478],[-90.6996,40.4538],[-90.7052,40.4555],[-90.7911,40.4561],[-90.7902,40.5453],[-90.674,40.5432],[-90.6663,41.155],[-90.5485,41.1513],[-90.5468,41.2397],[-90.5523,41.2397],[-90.5495,41.3702],[-90.5876,41.371],[-90.587,41.4142],[-90.6677,41.4157],[-90.6662,41.4606],[-90.7459,41.4497],[-90.8466,41.4551],[-90.9293,41.4215],[-90.9829,41.4342],[-91.044,41.4159],[-91.0519,41.3845],[-91.0662,41.3664],[-91.0748,41.3056],[-91.092,41.2869],[-91.1142,41.25],[-91.1137,41.2414],[-91.073,41.2072],[-91.0416,41.1662],[-91.0076,41.1662],[-90.995,41.1606],[-90.9466,41.0966],[-90.9494,41.0728],[-90.9423,41.0347],[-90.9459,41.0065],[-90.9581,40.9798],[-90.9522,40.954],[-90.9626,40.9258],[-91.0095,40.9006],[-91.0216,40.884],[-91.0447,40.8684],[-91.0564,40.8484],[-91.093,40.8211],[-91.0976,40.8056],[-91.0917,40.7797],[-91.1104,40.7455],[-91.1157,40.7252],[-91.1119,40.697],[-91.1239,40.6692],[-91.187,40.6373],[-91.2531,40.638],[-91.3066,40.6262],[-91.3397,40.6135],[-91.3599,40.6018],[-91.3798,40.5745],[-91.4052,40.5546],[-91.4041,40.5391],[-91.3845,40.5309],[-91.3642,40.5],[-91.3665,40.4789],[-91.3818,40.4426],[-91.3728,40.4143],[-91.3729,40.3991],[-91.3842,40.3864],[-91.4151,40.3817],[-91.4416,40.3654],[-91.464,40.3396],[-91.4927,40.2782],[-91.4905,40.2595],[-91.5058,40.2388],[-91.5045,40.1983],[-91.513,40.1811]]]},"properties":{"geoid":"17047","state":"17","district":"47","name":"State Senate District 47","chamber":"Senate"}},{"type":"Feature","geometry":{"type":"Polygon","coordinates":[[[-89.777,39.7708],[-89.7766,39.7562],[-89.7719,39.7563],[-89.771,39.698],[-89.724,39.6981],[-89.7284,39.6882],[-89.72,39.6836],[-89.7186,39.669],[-89.7072,39.6664],[-89.7111,39.6582],[-89.6953,39.6548],[-89.6936,39.6694],[-89.6671,39.6657],[-89.6646,39.676],[-89.6541,39.6803],[-89.6542,39.6851],[-89.6412,39.6961],[-89.6329,39.6893],[-89.6183,39.6965],[-89.6122,39.6924],[-89.6091,39.6986],[-89.5998,39.6963],[-89.5929,39.7051],[-89.5921,39.7005],[-89.5361,39.6997],[-89.5343,39.5754],[-89.4782,39.5754],[-89.4778,39.5682],[-89.3858,39.5672],[-89.386,39.5825],[-89.3953,39.5826],[-89.3953,39.5899],[-89.4046,39.5899],[-89.4051,39.6114],[-89.1385,39.6114],[-89.1405,39.7282],[-89.0275,39.7279],[-89.0288,39.8176],[-88.9648,39.8182],[-88.9667,39.8148],[-88.9638,39.8188],[-88.9614,39.8149],[-88.9545,39.8193],[-88.9349,39.8133],[-88.935,39.8192],[-88.9253,39.8194],[-88.925,39.8126],[-88.9157,39.8085],[-88.9159,39.8127],[-88.9073,39.8125],[-88.9077,39.8199],[-88.8782,39.82],[-88.8785,39.8346],[-88.8881,39.8345],[-88.8884,39.8445],[-88.8783,39.8491],[-88.879,39.8857],[-88.8838,39.8856],[-88.8839,39.8931],[-88.9175,39.8924],[-88.9178,39.9096],[-88.9553,39.9084],[-88.9553,39.8986],[-88.9646,39.8984],[-88.9606,39.8776],[-88.973,39.8764],[-88.9729,39.8656],[-88.9923,39.8655],[-88.9922,39.8614],[-89.0034,39.8579],[-89.0103,39.8599],[-89.0105,39.8755],[-89.0289,39.8754],[-89.0449,39.8594],[-89.048,39.8374],[-89.0835,39.8314],[-89.2175,39.8365],[-89.2175,39.8132],[-89.2339,39.8129],[-89.2315,39.8163],[-89.2363,39.8222],[-89.2486,39.8257],[-89.261,39.8051],[-89.2925,39.7925],[-89.3031,39.7758],[-89.3288,39.7693],[-89.325,39.767],[-89.3287,39.7635],[-89.354,39.7721],[-89.3597,39.7648],[-89.3679,39.7681],[-89.3681,39.7875],[-89.4447,39.7882],[-89.4444,39.8389],[-89.526,39.8378],[-89.5432,39.8304],[-89.5498,39.8479],[-89.5582,39.8491],[-89.555,39.8565],[-89.5627,39.862],[-89.5591,39.8672],[-89.5637,39.8743],[-89.7117,39.8731],[-89.7138,39.8098],[-89.7369,39.8084],[-89.7361,39.8012],[-89.7581,39.8011],[-89.7543,39.7866],[-89.7361,39.7818],[-89.7474,39.7707],[-89.777,39.7708]]]},"properties":{"geoid":"17048","state":"17","district":"48","name":"State Senate District 48","chamber":"Senate"}},{"type":"Feature","geometry":{"type":"Polygon","coordinates":[[[-88.315,41.5925],[-88.3139,41.5489],[-88.2941,41.5493],[-88.2928,41.52],[-88.1987,41.5215],[-88.1992,41.5361],[-88.1158,41.5374],[-88.1155,41.5319],[-88.094,41.5325],[-88.0944,41.5488],[-88.087,41.549],[-88.0898,41.5598],[-88.0963,41.5643],[-88.1113,41.5642],[-88.113,41.5955],[-88.1227,41.5952],[-88.124,41.6317],[-88.1448,41.6311],[-88.1453,41.6455],[-88.0789,41.682],[-88.0829,41.6909],[-88.1097,41.69],[-88.1087,41.7049],[-88.1307,41.7022],[-88.1305,41.6937],[-88.1385,41.6905],[-88.1524,41.6907],[-88.1531,41.694],[-88.1623,41.691],[-88.1665,41.6814],[-88.2047,41.6807],[-88.2053,41.6952],[-88.2344,41.6947],[-88.2347,41.7036],[-88.2634,41.6954],[-88.3092,41.692],[-88.308,41.65],[-88.2521,41.6508],[-88.2515,41.6363],[-88.2591,41.6362],[-88.2573,41.5935],[-88.315,41.5925]]]},"properties":{"geoid":"17049","state":"17","district":"49","name":"State Senate District 49","chamber":"Senate"}},{"type":"Feature","geometry":{"type":"Polygon","coordinates":[[[-91.5106,40.1269],[-91.4896,40.0574],[-91.4949,40.0365],[-91.4653,39.984],[-91.4194,39.9277],[-91.4209,39.9149],[-91.4435,39.8936],[-91.4469,39.883],[-91.4365,39.8471],[-91.4285,39.8376],[-91.3765,39.81],[-91.3624,39.7905],[-91.37,39.745],[-91.3684,39.7297],[-91.3473,39.7105],[-91.2761,39.6658],[-91.2293,39.6209],[-91.1819,39.6027],[-91.1747,39.5933],[-91.1684,39.5649],[-91.1536,39.5482],[-91.1003,39.5387],[-91.0798,39.5077],[-91.0643,39.4946],[-91.0594,39.4689],[-91.0383,39.4484],[-90.9938,39.423],[-90.9408,39.404],[-90.9287,39.3875],[-90.9049,39.3794],[-90.8938,39.3673],[-90.8475,39.3453],[-90.8169,39.3205],[-90.7935,39.3095],[-90.7516,39.2654],[-90.7286,39.2541],[-90.7171,39.2139],[-90.7079,39.1509],[-90.6861,39.1178],[-90.6811,39.1006],[-90.6827,39.0883],[-90.7125,39.0571],[-90.7127,39.0497],[-90.6782,38.9919],[-90.6759,38.9621],[-90.663,38.9263],[-90.637,38.9051],[-90.6247,38.8882],[-90.5823,38.8688],[-90.5489,38.8729],[-90.4997,38.9106],[-90.4871,38.9259],[-90.4831,38.9431],[-90.4721,38.9588],[-90.4508,38.9678],[-90.3958,38.96],[-90.3095,38.9241],[-90.254,38.9205],[-90.217,38.9031],[-90.2163,38.9146],[-90.206,38.9151],[-90.2057,38.92],[-90.2054,38.9344],[-90.2138,38.9436],[-90.2151,38.9587],[-90.1909,38.9588],[-90.1908,38.9509],[-90.1811,38.9509],[-90.1697,38.9369],[-90.1572,38.9371],[-90.1496,38.9251],[-90.1374,38.9301],[-90.1374,38.9237],[-90.1327,38.9229],[-90.1051,38.927],[-90.104,38.9233],[-90.041,38.9239],[-90.0406,38.9082],[-90.0207,38.9063],[-90.0206,38.8916],[-90.0114,38.8913],[-90.0109,38.8768],[-89.9786,38.8767],[-89.9738,38.862],[-89.9597,38.8654],[-89.9576,38.8615],[-89.9276,38.8613],[-89.927,38.9988],[-89.9225,38.9987],[-89.924,39.5587],[-89.9847,39.7181],[-89.9856,39.7854],[-89.9935,39.7854],[-89.9963,40.1125],[-90.0001,40.103],[-90.0044,40.1093],[-90.0122,40.1008],[-90.0319,40.1055],[-90.0317,40.1107],[-90.0392,40.1026],[-90.0434,40.1088],[-90.0518,40.099],[-90.0647,40.1001],[-90.0657,40.0934],[-90.0716,40.0941],[-90.0702,40.09],[-90.0811,40.0856],[-90.0807,40.0801],[-90.088,40.084],[-90.0876,40.0798],[-90.0944,40.0771],[-90.0943,40.0814],[-90.1262,40.077],[-90.1348,40.0623],[-90.1499,40.0676],[-90.1564,40.0612],[-90.1759,40.06],[-90.1833,40.067],[-90.1894,40.0657],[-90.1863,40.0616],[-90.1951,40.0535],[-90.2042,40.0529],[-90.2071,40.0603],[-90.211,40.0552],[-90.2135,40.0591],[-90.2171,40.0509],[-90.2236,40.0551],[-90.2282,40.0517],[-90.2346,40.0611],[-90.2431,40.0578],[-90.2444,40.0613],[-90.2476,40.0566],[-90.2658,40.0621],[-90.2726,40.0548],[-90.2852,40.0554],[-90.2871,40.0634],[-90.2934,40.0638],[-90.2907,40.069],[-90.305,40.0779],[-90.301,40.0831],[-90.3031,40.0922],[-90.313,40.1035],[-90.3146,40.1156],[-90.3334,40.1181],[-90.3365,40.1225],[-90.3424,40.1168],[-90.3488,40.1179],[-90.3545,40.1242],[-90.3382,40.1356],[-90.3375,40.1877],[-90.5656,40.1908],[-90.6789,40.1904],[-90.6812,40.1035],[-91.4179,40.1113],[-91.4173,40.126],[-91.5106,40.1269]]]},"properties":{"geoid":"17050","state":"17","district":"50","name":"State Senate District 50","chamber":"Senate"}},{"type":"Feature","geometry":{"type":"Polygon","coordinates":[[[-88.4921,39.7919],[-88.4909,39.6513],[-88.4862,39.6514],[-88.4862,39.6333],[-88.4719,39.6332],[-88.4708,39.3745],[-88.3784,39.3742],[-88.3782,39.2727],[-88.434,39.2729],[-88.4336,39.1714],[-88.4162,39.1713],[-88.4175,39.0895],[-88.4675,39.0894],[-88.4684,39.0011],[-88.3628,39.0012],[-88.3618,38.8521],[-88.1851,38.8469],[-87.9081,38.8501],[-87.9123,38.5701],[-87.6515,38.5682],[-87.6389,38.5749],[-87.6376,38.5927],[-87.6229,38.5862],[-87.6131,38.5883],[-87.6113,38.5936],[-87.6234,38.5962],[-87.6274,38.606],[-87.6156,38.625],[-87.6192,38.6408],[-87.6058,38.6465],[-87.6002,38.6625],[-87.5937,38.6674],[-87.5312,38.684],[-87.5196,38.6972],[-87.5195,38.7105],[-87.5062,38.7337],[-87.4958,38.7407],[-87.504,38.7485],[-87.4969,38.7668],[-87.5149,38.7705],[-87.4986,38.7765],[-87.4955,38.7846],[-87.5273,38.8181],[-87.5217,38.8266],[-87.5267,38.8504],[-87.5534,38.8624],[-87.5426,38.8653],[-87.5471,38.876],[-87.5349,38.8789],[-87.5443,38.889],[-87.5441,38.8951],[-87.5391,38.8961],[-87.536,38.887],[-87.5337,38.901],[-87.5168,38.9037],[-87.5276,38.9077],[-87.5277,38.9192],[-87.5188,38.9232],[-87.5167,38.9335],[-87.5218,38.9411],[-87.5122,38.9544],[-87.5295,38.9719],[-87.5783,38.9888],[-87.5604,38.9924],[-87.5791,39.0016],[-87.5697,39.0194],[-87.5804,39.0407],[-87.5723,39.0506],[-87.5726,39.0573],[-87.5964,39.0796],[-87.6203,39.0866],[-87.6157,39.1033],[-87.6528,39.1068],[-87.6521,39.1155],[-87.6408,39.1144],[-87.635,39.1221],[-87.6587,39.136],[-87.6528,39.1494],[-87.6422,39.1571],[-87.6277,39.1549],[-87.6415,39.1605],[-87.6404,39.1667],[-87.6196,39.171],[-87.6204,39.1852],[-87.6079,39.1845],[-87.6016,39.1925],[-87.5886,39.1978],[-87.5746,39.2184],[-87.5793,39.2436],[-87.5716,39.2523],[-87.5807,39.2552],[-87.5947,39.2487],[-87.6055,39.2611],[-87.6014,39.2744],[-87.6101,39.2822],[-87.5979,39.2995],[-87.6053,39.3032],[-87.6178,39.3013],[-87.6206,39.307],[-87.6059,39.3111],[-87.5891,39.3338],[-87.5783,39.3403],[-87.5544,39.3405],[-87.544,39.3529],[-87.5316,39.3479],[-87.5322,40.0588],[-87.6012,40.0581],[-87.6002,40.0282],[-87.605,40.0281],[-87.6049,40.0209],[-87.6568,40.0207],[-87.6581,40.087],[-87.6676,40.0872],[-87.6679,40.1017],[-87.7155,40.1016],[-87.7312,40.1116],[-87.7393,40.1089],[-87.7395,40.0944],[-87.7494,40.0933],[-87.7535,40.0983],[-87.7534,40.0874],[-87.9396,40.0836],[-87.9401,40.1202],[-88.1247,40.1206],[-88.1235,40.0113],[-88.3496,40.0111],[-88.3509,40.1422],[-88.2873,40.1429],[-88.3011,40.1536],[-88.296,40.1614],[-88.2967,40.2236],[-88.2316,40.224],[-88.2331,40.3408],[-88.1174,40.3416],[-88.1175,40.3122],[-88.0789,40.3125],[-88.0785,40.2689],[-87.6428,40.2705],[-87.6421,40.256],[-87.6326,40.2561],[-87.6318,40.249],[-87.6038,40.2496],[-87.6033,40.2273],[-87.5557,40.2281],[-87.5555,40.2356],[-87.5303,40.236],[-87.5264,40.4912],[-87.9725,40.4857],[-88.0789,40.4881],[-88.0788,40.4297],[-88.3469,40.4279],[-88.347,40.4423],[-88.4595,40.4427],[-88.4636,40.2183],[-88.4623,39.7918],[-88.4921,39.7919]]]},"properties":{"geoid":"17051","state":"17","district":"51","name":"State Senate District 51","chamber":"Senate"}},{"type":"Feature","geometry":{"type":"Polygon","coordinates":[[[-88.3509,40.1422],[-88.3496,40.0111],[-88.1235,40.0113],[-88.1247,40.1206],[-87.9401,40.1202],[-87.9396,40.0836],[-87.7534,40.0874],[-87.7535,40.0983],[-87.7494,40.0933],[-87.7395,40.0944],[-87.7393,40.1089],[-87.7312,40.1116],[-87.7155,40.1016],[-87.6679,40.1017],[-87.6676,40.0872],[-87.6581,40.087],[-87.6568,40.0207],[-87.6051,40.0208],[-87.605,40.0281],[-87.6002,40.0282],[-87.6012,40.0581],[-87.5322,40.0588],[-87.5303,40.236],[-87.5555,40.2356],[-87.5557,40.2281],[-87.6033,40.2273],[-87.6038,40.2496],[-87.6318,40.249],[-87.6326,40.2561],[-87.6421,40.256],[-87.6428,40.2705],[-88.0785,40.2689],[-88.0789,40.3125],[-88.1175,40.3122],[-88.1174,40.3416],[-88.2331,40.3408],[-88.2316,40.224],[-88.2967,40.2236],[-88.296,40.1614],[-88.3011,40.1536],[-88.2873,40.1429],[-88.3509,40.1422]]]},"properties":{"geoid":"17052","state":"17","district":"52","name":"State Senate District 52","chamber":"Senate"}},{"type":"Feature","geometry":{"type":"Polygon","coordinates":[[[-89.5534,40.7476],[-89.5471,40.7204],[-89.5077,40.7151],[-89.5076,40.7039],[-89.5216,40.7043],[-89.5218,40.6987],[-89.5028,40.6966],[-89.5028,40.6896],[-89.4741,40.6949],[-89.4741,40.6898],[-89.4601,40.6851],[-89.4364,40.6875],[-89.4115,40.7033],[-89.2917,40.7055],[-89.2922,40.7014],[-89.2839,40.7016],[-89.2839,40.6975],[-89.2724,40.6975],[-89.2604,40.7076],[-89.2609,40.7244],[-89.1771,40.7355],[-89.0346,40.7369],[-89.0285,40.68],[-89.005,40.6614],[-88.9987,40.6078],[-89.003,40.5392],[-88.9835,40.5387],[-88.9833,40.5317],[-88.9632,40.532],[-88.963,40.5251],[-88.9516,40.5298],[-88.9532,40.5103],[-88.9027,40.51],[-88.9031,40.5464],[-88.884,40.5462],[-88.8841,40.5608],[-88.8648,40.5605],[-88.8649,40.5755],[-88.8551,40.5753],[-88.8554,40.5931],[-88.7895,40.6397],[-88.7741,40.6397],[-88.771,40.6469],[-88.7742,40.6469],[-88.7742,40.6584],[-88.7501,40.6975],[-88.6792,40.6982],[-88.6794,40.7127],[-88.5834,40.7141],[-88.5823,40.6706],[-88.4595,40.6725],[-88.4595,40.4427],[-88.347,40.4423],[-88.3469,40.4279],[-88.0788,40.4297],[-88.0789,40.4881],[-87.9725,40.4857],[-87.5264,40.4912],[-87.5262,41.0103],[-88.2473,40.9946],[-88.2515,41.1142],[-88.26,41.1141],[-88.2605,41.1286],[-88.2701,41.1284],[-88.2664,41.1577],[-88.3001,41.1575],[-88.3021,41.2185],[-88.2907,41.2153],[-88.28,41.2238],[-88.2801,41.2299],[-88.2354,41.2308],[-88.2356,41.2454],[-88.2457,41.2488],[-88.2456,41.2567],[-88.2364,41.2647],[-88.2368,41.2744],[-88.2463,41.2675],[-88.2509,41.4255],[-88.2703,41.4259],[-88.2705,41.4313],[-88.2982,41.4329],[-88.2978,41.418],[-88.3735,41.4137],[-88.4031,41.3963],[-88.4027,41.376],[-88.4217,41.3647],[-88.4216,41.3537],[-88.4786,41.3425],[-88.5035,41.3307],[-88.5601,41.3208],[-88.59,41.3023],[-88.5945,41.3114],[-88.6334,41.3108],[-88.6545,41.3195],[-88.7054,41.3299],[-88.7044,41.2815],[-88.817,41.2812],[-88.8166,41.1937],[-89.0483,41.1924],[-89.0489,41.2363],[-89.1629,41.2359],[-89.1637,41.3102],[-89.2249,41.3131],[-89.2591,41.3225],[-89.2774,41.3167],[-89.2774,41.3257],[-89.3927,41.3204],[-89.3933,41.2768],[-89.5051,41.277],[-89.5054,41.2703],[-89.51,41.2703],[-89.5097,41.2339],[-89.5246,41.2338],[-89.5245,40.9223],[-89.464,40.9266],[-89.4888,40.8986],[-89.4984,40.8744],[-89.5238,40.857],[-89.5281,40.8476],[-89.5035,40.8492],[-89.5033,40.8348],[-89.4667,40.8349],[-89.4667,40.8141],[-89.4566,40.8113],[-89.4472,40.7971],[-89.4469,40.7709],[-89.4422,40.772],[-89.4424,40.7669],[-89.4471,40.7669],[-89.4468,40.7573],[-89.4671,40.7476],[-89.5534,40.7476]]]},"properties":{"geoid":"17053","state":"17","district":"53","name":"State Senate District 53","chamber":"Senate"}},{"type":"Feature","geometry":{"type":"Polygon","coordinates":[[[-89.9951,40.1048],[-89.9935,39.7854],[-89.9856,39.7854],[-89.9847,39.7181],[-89.924,39.5587],[-89.9225,38.9987],[-89.5861,38.9995],[-89.5863,39.0283],[-89.3618,39.0277],[-89.364,39.2022],[-89.335,39.21],[-89.3105,39.2104],[-89.3072,39.2067],[-89.2881,39.2066],[-89.2881,39.203],[-89.2694,39.2029],[-89.2694,39.2176],[-89.1399,39.2179],[-88.8053,39.2163],[-88.8062,38.9989],[-88.6207,39.0032],[-88.4684,39.0011],[-88.4675,39.0894],[-88.4175,39.0895],[-88.4162,39.1713],[-88.4336,39.1714],[-88.434,39.2729],[-88.3782,39.2727],[-88.3784,39.3742],[-88.4708,39.3745],[-88.4719,39.6332],[-88.4862,39.6333],[-88.4862,39.6514],[-88.4909,39.6513],[-88.4921,39.7919],[-88.9769,39.7892],[-88.9648,39.8182],[-89.0288,39.8176],[-89.0275,39.7279],[-89.1405,39.7282],[-89.1385,39.6114],[-89.4051,39.6114],[-89.4046,39.5899],[-89.3953,39.5899],[-89.3953,39.5826],[-89.386,39.5825],[-89.3858,39.5672],[-89.4778,39.5682],[-89.4782,39.5754],[-89.5343,39.5754],[-89.5361,39.6997],[-89.5921,39.7005],[-89.5929,39.7051],[-89.5998,39.6963],[-89.6091,39.6986],[-89.6122,39.6924],[-89.6183,39.6965],[-89.6329,39.6893],[-89.6412,39.6961],[-89.6542,39.6851],[-89.6541,39.6803],[-89.6646,39.676],[-89.6671,39.6657],[-89.6936,39.6694],[-89.6953,39.6548],[-89.7043,39.6547],[-89.7043,39.6583],[-89.7112,39.6582],[-89.7072,39.6664],[-89.7186,39.669],[-89.72,39.6836],[-89.7284,39.6882],[-89.724,39.6981],[-89.771,39.698],[-89.7719,39.7563],[-89.7766,39.7562],[-89.777,39.7708],[-89.7474,39.7707],[-89.7361,39.7818],[-89.7543,39.7866],[-89.7581,39.8011],[-89.7361,39.8012],[-89.7369,39.8084],[-89.7138,39.8098],[-89.7117,39.8731],[-89.5637,39.8743],[-89.5591,39.8672],[-89.5627,39.862],[-89.555,39.8565],[-89.5582,39.8491],[-89.5498,39.8479],[-89.5432,39.8304],[-89.526,39.8378],[-89.4444,39.8389],[-89.4442,39.8749],[-89.483,39.875],[-89.4838,39.9767],[-89.5783,39.9761],[-89.5791,40.0924],[-89.6011,40.0923],[-89.6017,40.1224],[-89.6342,40.1534],[-89.66,40.1556],[-89.6684,40.1607],[-89.6713,40.1539],[-89.6859,40.1536],[-89.6867,40.1468],[-89.6948,40.1407],[-89.7043,40.1406],[-89.7094,40.147],[-89.7192,40.1403],[-89.7282,40.1423],[-89.73,40.1356],[-89.7336,40.138],[-89.734,40.1327],[-89.7494,40.1268],[-89.7734,40.1322],[-89.7809,40.1269],[-89.7919,40.1294],[-89.7944,40.1238],[-89.8099,40.1245],[-89.8101,40.1212],[-89.8179,40.1254],[-89.8233,40.1213],[-89.8272,40.1257],[-89.8321,40.1236],[-89.8394,40.1308],[-89.8433,40.1264],[-89.8534,40.1303],[-89.866,40.1282],[-89.8726,40.1374],[-89.8855,40.1348],[-89.8857,40.128],[-89.8989,40.1279],[-89.9084,40.1378],[-89.9075,40.1316],[-89.9212,40.1388],[-89.9247,40.1358],[-89.9268,40.1401],[-89.9413,40.1369],[-89.9368,40.1324],[-89.9437,40.1344],[-89.9461,40.1303],[-89.9493,40.1357],[-89.9515,40.1321],[-89.9546,40.137],[-89.9589,40.1344],[-89.9662,40.1431],[-89.9748,40.1355],[-89.9714,40.1338],[-89.9766,40.1307],[-89.9736,40.1274],[-89.9869,40.1288],[-89.9845,40.1239],[-89.9886,40.1236],[-89.9887,40.1178],[-89.9826,40.1144],[-89.9927,40.1117],[-89.9951,40.1048]]]},"properties":{"geoid":"17054","state":"17","district":"54","name":"State Senate District 54","chamber":"Senate"}},{"type":"Feature","geometry":{"type":"Polygon","coordinates":[[[-89.9739,38.8504],[-89.9633,38.839],[-89.9671,38.8326],[-89.928,38.8321],[-89.9287,38.745],[-89.9471,38.745],[-89.9474,38.7382],[-89.9349,38.7379],[-89.9352,38.731],[-89.9527,38.7238],[-89.9589,38.708],[-89.9469,38.7098],[-89.9477,38.6982],[-89.9574,38.6985],[-89.9515,38.6936],[-89.9529,38.6761],[-89.9287,38.6688],[-89.9282,38.6228],[-89.9136,38.6291],[-89.9108,38.6142],[-89.8924,38.6141],[-89.8925,38.5993],[-89.874,38.5994],[-89.8741,38.6104],[-89.8694,38.6102],[-89.8702,38.6058],[-89.8647,38.6047],[-89.8694,38.5925],[-89.8279,38.5943],[-89.8206,38.5984],[-89.8279,38.6011],[-89.8277,38.6124],[-89.8192,38.6124],[-89.8186,38.6199],[-89.8076,38.619],[-89.8088,38.6557],[-89.7903,38.6556],[-89.7902,38.6513],[-89.7609,38.6553],[-89.7608,38.6119],[-89.7798,38.6119],[-89.7798,38.583],[-89.7614,38.5828],[-89.7615,38.5682],[-89.7056,38.5679],[-89.7041,38.3928],[-89.7224,38.392],[-89.7225,38.3429],[-89.7602,38.3436],[-89.7608,38.3062],[-89.1463,38.3005],[-89.1444,38.4739],[-88.8103,38.4758],[-88.8098,38.5202],[-88.699,38.5198],[-88.6985,38.6061],[-88.1482,38.598],[-88.1477,38.569],[-87.9124,38.5699],[-87.9103,38.5751],[-87.9081,38.8501],[-88.1851,38.8469],[-88.3618,38.8521],[-88.3628,39.0012],[-88.6207,39.0032],[-88.8062,38.9989],[-88.8059,39.2164],[-89.2694,39.2176],[-89.2694,39.2029],[-89.3072,39.2067],[-89.3072,39.2104],[-89.3545,39.2053],[-89.364,39.202],[-89.3618,39.0277],[-89.5863,39.0283],[-89.5861,38.9995],[-89.927,38.9988],[-89.9276,38.8613],[-89.9576,38.8615],[-89.96,38.8654],[-89.962,38.8618],[-89.9738,38.862],[-89.9739,38.8504]]]},"properties":{"geoid":"17055","state":"17","district":"55","name":"State Senate District 55","chamber":"Senate"}},{"type":"Feature","geometry":{"type":"Polygon","coordinates":[[[-90.2166,38.9086],[-90.217,38.9031],[-90.1976,38.8876],[-90.1664,38.8763],[-90.1133,38.8493],[-90.1094,38.8435],[-90.1194,38.8018],[-90.1664,38.7727],[-90.1763,38.7545],[-90.2099,38.726],[-90.212,38.7118],[-90.2022,38.6935],[-90.1973,38.6894],[-90.1716,38.6877],[-90.1669,38.6936],[-90.1484,38.6922],[-90.1473,38.6602],[-90.0801,38.6592],[-90.0798,38.6369],[-90.0572,38.6369],[-90.0659,38.6306],[-90.0672,38.6227],[-90.037,38.6104],[-90.0366,38.5952],[-90.0069,38.5929],[-90.0035,38.5867],[-89.9848,38.5855],[-89.9848,38.571],[-89.9661,38.5708],[-89.9645,38.5659],[-89.9383,38.5706],[-89.9358,38.5524],[-89.929,38.5533],[-89.929,38.5795],[-89.9399,38.5876],[-89.9385,38.5946],[-89.9475,38.5966],[-89.9476,38.6143],[-89.9365,38.6134],[-89.9278,38.6233],[-89.9287,38.6688],[-89.9529,38.6761],[-89.9515,38.6936],[-89.9574,38.6985],[-89.9477,38.6982],[-89.9469,38.7098],[-89.9589,38.708],[-89.9527,38.7238],[-89.9352,38.731],[-89.9349,38.7379],[-89.9474,38.7382],[-89.9471,38.745],[-89.9287,38.745],[-89.928,38.8321],[-89.9671,38.8326],[-89.9633,38.839],[-89.9738,38.8474],[-89.9739,38.8673],[-89.9783,38.8677],[-89.9786,38.8767],[-90.0109,38.8768],[-90.0114,38.8913],[-90.0206,38.8916],[-90.0207,38.9063],[-90.0406,38.9082],[-90.041,38.9239],[-90.104,38.9233],[-90.1051,38.927],[-90.1327,38.9229],[-90.1374,38.9237],[-90.1374,38.9301],[-90.1496,38.9251],[-90.1572,38.9371],[-90.1697,38.9369],[-90.1811,38.9509],[-90.1908,38.9509],[-90.1909,38.9588],[-90.2151,38.9587],[-90.2138,38.9436],[-90.2054,38.9344],[-90.2057,38.92],[-90.206,38.9151],[-90.2163,38.9146],[-90.2166,38.9086]]]},"properties":{"geoid":"17056","state":"17","district":"56","name":"State Senate District 56","chamber":"Senate"}},{"type":"Feature","geometry":{"type":"Polygon","coordinates":[[[-90.2641,38.521],[-90.1454,38.4267],[-90.1456,38.4121],[-90.0361,38.3235],[-90.0361,38.3089],[-89.7608,38.3062],[-89.7602,38.3436],[-89.7225,38.3429],[-89.7224,38.392],[-89.7041,38.3928],[-89.7056,38.5679],[-89.7615,38.5682],[-89.7614,38.5828],[-89.7798,38.583],[-89.7798,38.6119],[-89.7608,38.6119],[-89.7609,38.6553],[-89.7902,38.6513],[-89.7903,38.6556],[-89.8088,38.6557],[-89.8076,38.619],[-89.8186,38.6199],[-89.8192,38.6124],[-89.8277,38.6124],[-89.8279,38.6011],[-89.8206,38.5984],[-89.8279,38.5943],[-89.8694,38.5925],[-89.8647,38.6047],[-89.8702,38.6058],[-89.8694,38.6102],[-89.8741,38.6104],[-89.874,38.5994],[-89.8925,38.5993],[-89.8924,38.6141],[-89.9108,38.6142],[-89.9136,38.6291],[-89.9211,38.629],[-89.9365,38.6134],[-89.9476,38.6143],[-89.9475,38.5966],[-89.9385,38.5946],[-89.9399,38.5876],[-89.929,38.5795],[-89.929,38.5533],[-89.9358,38.5524],[-89.9383,38.5706],[-89.9645,38.5659],[-89.9661,38.5708],[-89.9848,38.571],[-89.9848,38.5855],[-90.0035,38.5867],[-90.0069,38.5929],[-90.0366,38.5952],[-90.037,38.6104],[-90.0672,38.6227],[-90.0659,38.6306],[-90.0572,38.6369],[-90.0798,38.6369],[-90.0801,38.6592],[-90.1473,38.6602],[-90.1484,38.6922],[-90.1669,38.6936],[-90.1716,38.6877],[-90.1973,38.6894],[-90.1864,38.6748],[-90.1777,38.6428],[-90.1845,38.6116],[-90.196,38.5945],[-90.2242,38.5751],[-90.2641,38.521]]]},"properties":{"geoid":"17057","state":"17","district":"57","name":"State Senate District 57","chamber":"Senate"}},{"type":"Feature","geometry":{"type":"Polygon","coordinates":[[[-90.3727,38.291],[-90.3651,38.2407],[-90.3534,38.2132],[-90.3272,38.1843],[-90.2906,38.1704],[-90.2748,38.1576],[-90.2379,38.1082],[-90.176,38.0707],[-90.1583,38.075],[-90.1308,38.0623],[-90.1262,38.0407],[-90.1142,38.0291],[-90.0883,38.0158],[-90.0573,38.0144],[-90.0519,38.0054],[-90.0318,37.9951],[-90.0001,37.9646],[-89.9822,37.9621],[-89.9407,37.9709],[-89.9359,37.9596],[-89.9246,37.9598],[-89.9313,37.9483],[-89.9473,37.9403],[-89.9598,37.9401],[-89.9621,37.9339],[-89.9748,37.9265],[-89.953,37.884],[-89.9386,37.8743],[-89.8988,37.8708],[-89.8797,37.8807],[-89.8619,37.8977],[-89.8426,37.9052],[-89.7993,37.8815],[-89.7975,37.8621],[-89.7863,37.8517],[-89.782,37.8551],[-89.7541,37.8464],[-89.7399,37.8469],[-89.7174,37.8257],[-89.6696,37.7999],[-89.6604,37.7863],[-89.668,37.7595],[-89.6634,37.7501],[-89.6495,37.7455],[-89.6173,37.7497],[-89.6157,37.7427],[-89.5975,37.7335],[-89.5816,37.7123],[-89.5314,37.7003],[-89.5166,37.6927],[-89.3219,37.6872],[-89.3215,37.7519],[-89.3054,37.7422],[-89.3039,37.7465],[-89.2918,37.7469],[-89.293,37.7519],[-89.2884,37.7548],[-89.2932,37.7618],[-89.2843,37.7718],[-89.2666,37.7628],[-89.2623,37.9505],[-88.8924,37.9506],[-88.8869,37.9601],[-88.8829,37.9589],[-88.8778,37.9675],[-88.8704,37.9699],[-88.8706,37.9819],[-88.8603,37.9883],[-88.8524,37.9861],[-88.8493,37.9937],[-88.8456,37.9931],[-88.8456,38.0048],[-88.8308,38.0105],[-88.8165,38.0254],[-88.8164,38.0375],[-88.188,38.0396],[-88.197,38.0597],[-88.1865,38.0628],[-88.1526,38.0593],[-88.1423,38.0755],[-88.1541,38.0909],[-88.1463,38.0974],[-88.1298,38.0971],[-88.1306,38.106],[-88.1042,38.1265],[-88.0313,38.125],[-88.0311,38.1285],[-87.9713,38.1282],[-87.9559,38.1329],[-87.9455,38.1266],[-87.9351,38.1394],[-87.9266,38.1425],[-87.9279,38.1516],[-87.9137,38.1592],[-87.9108,38.1677],[-87.917,38.1741],[-87.9229,38.1733],[-87.926,38.1593],[-87.9343,38.1565],[-87.9372,38.1722],[-87.9775,38.1998],[-87.9856,38.218],[-87.9798,38.2417],[-87.9876,38.2574],[-87.9723,38.247],[-87.969,38.2374],[-87.9602,38.2371],[-87.9576,38.25],[-87.943,38.2578],[-87.9521,38.2738],[-87.9403,38.2811],[-87.9348,38.2951],[-87.9214,38.2993],[-87.9095,38.2961],[-87.9085,38.291],[-87.9195,38.2745],[-87.9101,38.2681],[-87.8878,38.2853],[-87.8794,38.3065],[-87.8705,38.3122],[-87.8605,38.3054],[-87.8662,38.29],[-87.863,38.2802],[-87.8566,38.2755],[-87.8434,38.2782],[-87.8315,38.2967],[-87.8327,38.3249],[-87.8227,38.3469],[-87.8061,38.3631],[-87.78,38.3708],[-87.7453,38.409],[-87.741,38.4356],[-87.7301,38.4465],[-87.7357,38.453],[-87.7559,38.4559],[-87.75,38.4714],[-87.74,38.4792],[-87.714,38.4799],[-87.6932,38.488],[-87.6719,38.5076],[-87.6538,38.5026],[-87.6451,38.5126],[-87.6558,38.5212],[-87.6701,38.5441],[-87.6507,38.5562],[-87.6515,38.5682],[-88.1477,38.569],[-88.1482,38.598],[-88.6985,38.6061],[-88.699,38.5198],[-88.8098,38.5202],[-88.8103,38.4758],[-89.1444,38.4739],[-89.1463,38.3005],[-90.0361,38.3089],[-90.0361,38.3235],[-90.1456,38.4121],[-90.1454,38.4267],[-90.2641,38.5207],[-90.2911,38.4309],[-90.3415,38.3883],[-90.3674,38.3411],[-90.3727,38.291]]]},"properties":{"geoid":"17058","state":"17","district":"58","name":"State Senate District 58","chamber":"Senate"}},{"type":"Feature","geometry":{"type":"Polygon","coordinates":[[[-89.522,37.5634],[-89.5164,37.5356],[-89.4755,37.4713],[-89.4398,37.4372],[-89.4205,37.388],[-89.4328,37.3471],[-89.489,37.3334],[-89.5108,37.3127],[-89.5177,37.2832],[-89.4899,37.2513],[-89.4705,37.2534],[-89.4588,37.2487],[-89.4676,37.2182],[-89.4561,37.1881],[-89.4256,37.1382],[-89.4117,37.1225],[-89.388,37.1075],[-89.3771,37.0908],[-89.3757,37.0805],[-89.3854,37.0562],[-89.3816,37.043],[-89.3624,37.0302],[-89.323,37.0161],[-89.2921,36.9922],[-89.2786,36.9887],[-89.2696,36.9934],[-89.2576,37.0155],[-89.2663,37.0287],[-89.3048,37.0476],[-89.3108,37.0579],[-89.3077,37.0697],[-89.2599,37.0641],[-89.2549,37.072],[-89.2341,37.0373],[-89.2008,37.0162],[-89.1921,36.98],[-89.1855,36.9735],[-89.17,36.9703],[-89.1329,36.9821],[-89.1702,37.0071],[-89.1794,37.0218],[-89.1825,37.0392],[-89.1738,37.0663],[-89.1557,37.0877],[-89.1461,37.091],[-89.1506,37.0937],[-89.1482,37.0984],[-89.1258,37.1085],[-89.1095,37.1231],[-89.0928,37.1568],[-89.0765,37.1747],[-89.0295,37.2113],[-89.0001,37.2248],[-88.9774,37.2294],[-88.9162,37.224],[-88.8036,37.1882],[-88.733,37.1441],[-88.6926,37.1411],[-88.6155,37.1154],[-88.5899,37.0998],[-88.5665,37.0754],[-88.5203,37.0656],[-88.4728,37.0698],[-88.4599,37.0746],[-88.4456,37.0933],[-88.443,37.1119],[-88.4246,37.1518],[-88.4331,37.1626],[-88.448,37.2036],[-88.4722,37.2203],[-88.4874,37.2443],[-88.5114,37.2615],[-88.5039,37.2648],[-88.5159,37.284],[-88.4866,37.3405],[-88.476,37.3887],[-88.4671,37.3998],[-88.4497,37.4124],[-88.4092,37.4253],[-88.3645,37.4017],[-88.3236,37.434],[-88.2816,37.4527],[-88.1965,37.4607],[-88.1352,37.4718],[-88.0855,37.4716],[-88.0654,37.4888],[-88.0611,37.5046],[-88.0695,37.5261],[-88.0894,37.5364],[-88.1057,37.5566],[-88.1365,37.5773],[-88.1419,37.6033],[-88.1571,37.6333],[-88.16,37.6597],[-88.125,37.7073],[-88.0696,37.7337],[-88.042,37.7684],[-88.0363,37.7912],[-88.028,37.7992],[-88.0308,37.8073],[-88.0399,37.8097],[-88.0689,37.801],[-88.0918,37.8221],[-88.0795,37.831],[-88.061,37.823],[-88.0419,37.8219],[-88.0287,37.8271],[-88.0274,37.8371],[-88.065,37.8532],[-88.0785,37.8791],[-88.095,37.8937],[-88.0978,37.904],[-88.0862,37.9057],[-88.0554,37.8912],[-88.0313,37.893],[-88.0203,37.8881],[-88.0144,37.8919],[-88.0208,37.9138],[-88.0622,37.9179],[-88.0695,37.9257],[-88.0571,37.9342],[-88.045,37.9251],[-88.0341,37.9262],[-88.0303,37.931],[-88.0368,37.9568],[-88.0209,37.9594],[-88.0129,37.9665],[-88.0126,37.9771],[-88.0258,38.0072],[-88.021,38.0193],[-88.0079,38.0308],[-88.0176,38.0347],[-88.0341,38.032],[-88.0415,38.0373],[-88.0421,38.0463],[-88.03,38.0521],[-88.0013,38.0515],[-87.9672,38.0671],[-87.9567,38.0862],[-87.9602,38.0999],[-88.0047,38.084],[-88.0121,38.0853],[-88.0162,38.0939],[-88.0099,38.1051],[-87.9753,38.1101],[-87.9713,38.1282],[-88.1042,38.1265],[-88.1306,38.106],[-88.1298,38.0971],[-88.1463,38.0974],[-88.1541,38.0909],[-88.1423,38.0755],[-88.1526,38.0593],[-88.1865,38.0628],[-88.197,38.0597],[-88.188,38.0396],[-88.8164,38.0375],[-88.8165,38.0254],[-88.8308,38.0105],[-88.8456,38.0048],[-88.8456,37.9931],[-88.8493,37.9937],[-88.8524,37.9861],[-88.8603,37.9883],[-88.8706,37.9819],[-88.8704,37.9699],[-88.8778,37.9675],[-88.8829,37.9589],[-88.8869,37.9601],[-88.8924,37.9506],[-89.2623,37.9505],[-89.2666,37.7628],[-89.2843,37.7718],[-89.2932,37.7618],[-89.2884,37.7548],[-89.293,37.7519],[-89.2918,37.7469],[-89.3039,37.7465],[-89.3054,37.7422],[-89.3215,37.7519],[-89.3242,37.7303],[-89.3199,37.6875],[-89.5166,37.6927],[-89.512,37.681],[-89.5177,37.6412],[-89.4784,37.5989],[-89.476,37.5902],[-89.4891,37.5803],[-89.518,37.584],[-89.522,37.5634]]]},"properties":{"geoid":"17059","state":"17","district":"59","name":"State Senate District 59","chamber":"Senate"}},{"type":"Feature","geometry":{"type":"Polygon","coordinates":[[[-87.8344,42.301],[-87.8269,42.2655],[-87.7953,42.2005],[-87.7262,42.1092],[-87.7033,42.0899],[-87.6793,42.0772],[-87.6819,42.0748],[-87.6695,42.0597],[-87.6732,42.0479],[-87.6687,42.029],[-87.6553,42.0067],[-87.6504,41.9796],[-87.6425,41.9682],[-87.632,41.9652],[-87.6365,41.9597],[-87.6409,41.9604],[-87.6361,41.9628],[-87.6423,41.9612],[-87.6277,41.9175],[-87.6202,41.9142],[-87.6252,41.91],[-87.6242,41.9046],[-87.6137,41.8931],[-87.6024,41.8963],[-87.5985,41.8922],[-87.6095,41.891],[-87.6161,41.8823],[-87.6092,41.8823],[-87.6054,41.8744],[-87.6162,41.8744],[-87.6154,41.8682],[-87.6053,41.8698],[-87.6016,41.8452],[-87.6088,41.8453],[-87.6081,41.8414],[-87.5975,41.8388],[-87.5821,41.8151],[-87.587,41.8102],[-87.5752,41.7966],[-87.5796,41.7928],[-87.5769,41.7855],[-87.5594,41.7693],[-87.5595,41.7644],[-87.5407,41.7574],[-87.2078,41.761],[-87.15,42],[-87.0199,42.4935],[-87.8006,42.4919],[-87.7972,42.4691],[-87.8045,42.4302],[-87.8017,42.3906],[-87.8127,42.3699],[-87.8106,42.3623],[-87.8241,42.3618],[-87.8133,42.3606],[-87.8197,42.3607],[-87.8205,42.3558],[-87.8199,42.3607],[-87.8241,42.3598],[-87.8206,42.3567],[-87.8258,42.3555],[-87.832,42.3257],[-87.8247,42.3073],[-87.8317,42.3102],[-87.8344,42.301]]]},"properties":{"geoid":"17ZZZ","state":"17","district":"State Senate Districts not defined","name":"State Senate Districts not defined","chamber":"Senate"}}]}