{"type":"FeatureCollection","features":[{"type":"Feature","geometry":{"type":"Polygon","coordinates":[[[-87.5253,41.5815],[-87.5171,41.5714],[-87.4978,41.5707],[-87.491,41.5662],[-87.4616,41.5697],[-87.4616,41.6142],[-87.4697,41.6177],[-87.4803,41.6142],[-87.4859,41.6185],[-87.4903,41.6163],[-87.4904,41.62],[-87.4905,41.6576],[-87.481,41.6575],[-87.4764,41.6684],[-87.4622,41.6683],[-87.4625,41.6853],[-87.5018,41.7004],[-87.5207,41.7188],[-87.5242,41.717],[-87.5253,41.5815]]]},"properties":{"geoid":"18001","state":"18","district":"1","name":"State House District 1","chamber":"House"}},{"type":"Feature","geometry":{"type":"Polygon","coordinates":[[[-87.4905,41.6296],[-87.4903,41.6163],[-87.4616,41.6142],[-87.4616,41.5697],[-87.4131,41.5663],[-87.4131,41.5496],[-87.3558,41.5485],[-87.357,41.5953],[-87.3496,41.5952],[-87.3497,41.6038],[-87.357,41.602],[-87.3576,41.6071],[-87.3492,41.6084],[-87.352,41.6149],[-87.4172,41.6347],[-87.3997,41.6486],[-87.4116,41.6488],[-87.4239,41.6554],[-87.3999,41.6768],[-87.4179,41.6897],[-87.4306,41.6931],[-87.4546,41.6822],[-87.4625,41.6853],[-87.4622,41.6683],[-87.4764,41.6684],[-87.481,41.6575],[-87.4905,41.6576],[-87.4905,41.6296]]]},"properties":{"geoid":"18002","state":"18","district":"2","name":"State House District 2","chamber":"House"}},{"type":"Feature","geometry":{"type":"Polygon","coordinates":[[[-87.5243,41.7183],[-87.4873,41.6924],[-87.4546,41.6822],[-87.4306,41.6931],[-87.4,41.6774],[-87.4239,41.6554],[-87.4116,41.6488],[-87.3997,41.6486],[-87.4172,41.6347],[-87.3523,41.6154],[-87.3492,41.6084],[-87.3576,41.6071],[-87.357,41.602],[-87.3497,41.6038],[-87.3496,41.5952],[-87.357,41.5953],[-87.3561,41.566],[-87.3379,41.5604],[-87.3189,41.5732],[-87.2978,41.5714],[-87.2979,41.5656],[-87.3041,41.5656],[-87.3172,41.5516],[-87.3167,41.484],[-87.2746,41.4879],[-87.278,41.5073],[-87.2202,41.5071],[-87.221,41.7609],[-87.5237,41.7599],[-87.5243,41.7183]]]},"properties":{"geoid":"18003","state":"18","district":"3","name":"State House District 3","chamber":"House"}},{"type":"Feature","geometry":{"type":"Polygon","coordinates":[[[-87.167,41.4702],[-87.1619,41.4562],[-87.1618,41.4346],[-87.0851,41.4346],[-87.0848,41.3913],[-87.0656,41.3912],[-87.0655,41.3475],[-87.1427,41.3474],[-87.1422,41.3181],[-87.0844,41.3185],[-87.0841,41.3038],[-87.1031,41.3037],[-87.1023,41.281],[-87.0597,41.2695],[-86.9771,41.2216],[-86.9681,41.2197],[-86.9301,41.2368],[-86.9298,41.519],[-87.1531,41.5214],[-87.1532,41.5027],[-87.158,41.5038],[-87.1576,41.4703],[-87.167,41.4702]]]},"properties":{"geoid":"18004","state":"18","district":"4","name":"State House District 4","chamber":"House"}},{"type":"Feature","geometry":{"type":"Polygon","coordinates":[[[-86.1966,41.6947],[-86.1964,41.6576],[-86.186,41.6577],[-86.1806,41.6508],[-86.1504,41.6513],[-86.1505,41.66],[-86.1434,41.6604],[-86.1434,41.665],[-86.1481,41.6649],[-86.1452,41.6661],[-86.1309,41.6588],[-86.0998,41.6619],[-86.0999,41.6748],[-86.0935,41.6743],[-86.0901,41.6593],[-86.0739,41.6592],[-86.0609,41.6534],[-86.0626,41.7605],[-86.1787,41.7605],[-86.1775,41.695],[-86.1966,41.6947]]]},"properties":{"geoid":"18005","state":"18","district":"5","name":"State House District 5","chamber":"House"}},{"type":"Feature","geometry":{"type":"Polygon","coordinates":[[[-86.3245,41.6711],[-86.3221,41.6645],[-86.3153,41.6646],[-86.3102,41.6719],[-86.2833,41.6721],[-86.283,41.6588],[-86.2623,41.659],[-86.2635,41.6505],[-86.2513,41.6506],[-86.252,41.6341],[-86.2449,41.6291],[-86.2156,41.6295],[-86.2158,41.6512],[-86.1872,41.6445],[-86.1704,41.6478],[-86.1715,41.6524],[-86.1806,41.6508],[-86.186,41.6577],[-86.1964,41.6576],[-86.1965,41.6803],[-86.2492,41.6791],[-86.2475,41.687],[-86.2631,41.6933],[-86.2556,41.7039],[-86.2642,41.7032],[-86.2674,41.7084],[-86.2665,41.704],[-86.273,41.6994],[-86.278,41.7047],[-86.2863,41.7045],[-86.2864,41.7083],[-86.2938,41.7082],[-86.2936,41.7009],[-86.3079,41.7009],[-86.3078,41.6832],[-86.3227,41.6851],[-86.3245,41.6711]]]},"properties":{"geoid":"18006","state":"18","district":"6","name":"State House District 6","chamber":"House"}},{"type":"Feature","geometry":{"type":"Polygon","coordinates":[[[-86.5836,41.7095],[-86.5836,41.6945],[-86.5254,41.6946],[-86.5267,41.6504],[-86.4876,41.6493],[-86.4864,41.5705],[-86.4982,41.5611],[-86.5003,41.521],[-86.5249,41.5197],[-86.5247,41.4329],[-86.4666,41.433],[-86.4671,41.4765],[-86.349,41.4778],[-86.3483,41.4344],[-86.3125,41.4332],[-86.3129,41.4263],[-86.3116,41.4313],[-86.2955,41.4309],[-86.2955,41.4386],[-86.2859,41.4387],[-86.2862,41.457],[-86.2765,41.4569],[-86.2767,41.4642],[-86.2815,41.4642],[-86.2817,41.4787],[-86.0595,41.4792],[-86.0605,41.5865],[-86.1184,41.5866],[-86.1193,41.6248],[-86.1188,41.6299],[-86.1141,41.629],[-86.1142,41.6518],[-86.1704,41.6512],[-86.1768,41.644],[-86.2158,41.6512],[-86.2156,41.6295],[-86.2449,41.6291],[-86.252,41.6341],[-86.2513,41.6506],[-86.2635,41.6505],[-86.2623,41.659],[-86.283,41.6588],[-86.2833,41.6721],[-86.3102,41.6719],[-86.3124,41.6655],[-86.3221,41.6645],[-86.3227,41.6851],[-86.3078,41.6832],[-86.3104,41.6936],[-86.3802,41.6937],[-86.3803,41.6901],[-86.3946,41.6902],[-86.395,41.6866],[-86.414,41.6866],[-86.4146,41.7597],[-86.5833,41.7595],[-86.5836,41.7095]]]},"properties":{"geoid":"18007","state":"18","district":"7","name":"State House District 7","chamber":"House"}},{"type":"Feature","geometry":{"type":"Polygon","coordinates":[[[-86.4146,41.7597],[-86.414,41.6866],[-86.395,41.6866],[-86.3946,41.6902],[-86.3803,41.6901],[-86.3802,41.6937],[-86.3079,41.6936],[-86.3079,41.7009],[-86.2936,41.7009],[-86.2938,41.7082],[-86.278,41.7047],[-86.2754,41.6994],[-86.2665,41.704],[-86.268,41.7084],[-86.2642,41.7032],[-86.2563,41.7044],[-86.2631,41.6933],[-86.2475,41.687],[-86.2492,41.6791],[-86.1965,41.6803],[-86.1966,41.6947],[-86.1775,41.695],[-86.1787,41.7605],[-86.4146,41.7597]]]},"properties":{"geoid":"18008","state":"18","district":"8","name":"State House District 8","chamber":"House"}},{"type":"Feature","geometry":{"type":"Polygon","coordinates":[[[-87.0736,41.6139],[-87.0677,41.6128],[-87.0665,41.5645],[-87.0279,41.5644],[-87.0269,41.5211],[-86.9298,41.519],[-86.932,41.607],[-86.8175,41.607],[-86.8164,41.6798],[-86.6999,41.6795],[-86.7001,41.6939],[-86.5836,41.6945],[-86.5833,41.7595],[-86.9333,41.761],[-86.9327,41.7102],[-87.0675,41.6616],[-87.0672,41.6171],[-87.0736,41.6139]]]},"properties":{"geoid":"18009","state":"18","district":"9","name":"State House District 9","chamber":"House"}},{"type":"Feature","geometry":{"type":"Polygon","coordinates":[[[-87.2229,41.6326],[-87.2206,41.5216],[-87.0269,41.5211],[-87.0279,41.5644],[-87.0665,41.5645],[-87.0677,41.6128],[-87.0737,41.6138],[-87.0672,41.6171],[-87.0675,41.6616],[-86.9327,41.7102],[-86.9333,41.761],[-87.221,41.7609],[-87.2229,41.6326]]]},"properties":{"geoid":"18010","state":"18","district":"10","name":"State House District 10","chamber":"House"}},{"type":"Feature","geometry":{"type":"Polygon","coordinates":[[[-87.5268,41.3083],[-87.5257,40.8172],[-87.5168,40.8237],[-87.4854,40.815],[-87.4728,40.816],[-87.4718,40.821],[-87.4645,40.8174],[-87.4624,40.8226],[-87.4457,40.8163],[-87.4435,40.8202],[-87.4386,40.8185],[-87.4369,40.8254],[-87.4316,40.8243],[-87.429,40.8312],[-87.4057,40.8289],[-87.3832,40.8381],[-87.3823,40.8221],[-87.2678,40.8223],[-87.269,40.9115],[-87.2764,40.9115],[-87.2757,41.1299],[-87.1604,41.1296],[-87.1597,41.1731],[-87.0454,41.1726],[-87.0448,41.2608],[-87.0597,41.2695],[-87.1023,41.281],[-87.1031,41.3037],[-87.0841,41.3038],[-87.0844,41.3185],[-87.1422,41.3181],[-87.1427,41.3474],[-87.2198,41.3473],[-87.2203,41.3333],[-87.2772,41.3329],[-87.2774,41.3401],[-87.3354,41.3404],[-87.3355,41.3477],[-87.4119,41.3479],[-87.4085,41.3554],[-87.4119,41.3697],[-87.4016,41.3697],[-87.4015,41.3769],[-87.4168,41.3771],[-87.4164,41.3916],[-87.47,41.392],[-87.4701,41.4029],[-87.4751,41.4066],[-87.4825,41.4066],[-87.4893,41.392],[-87.5081,41.3921],[-87.5082,41.3994],[-87.5261,41.3993],[-87.5268,41.3083]]]},"properties":{"geoid":"18011","state":"18","district":"11","name":"State House District 11","chamber":"House"}},{"type":"Feature","geometry":{"type":"Polygon","coordinates":[[[-87.5256,41.5283],[-87.5256,41.5227],[-87.4518,41.5229],[-87.4519,41.5078],[-87.4325,41.5077],[-87.4322,41.4942],[-87.4176,41.4929],[-87.4175,41.4859],[-87.403,41.4861],[-87.4029,41.4753],[-87.3932,41.4735],[-87.3939,41.5226],[-87.4131,41.5226],[-87.4131,41.5663],[-87.4561,41.5705],[-87.491,41.5662],[-87.4978,41.5707],[-87.5171,41.5714],[-87.5253,41.5814],[-87.5256,41.5283]]]},"properties":{"geoid":"18012","state":"18","district":"12","name":"State House District 12","chamber":"House"}},{"type":"Feature","geometry":{"type":"Polygon","coordinates":[[[-87.5314,40.1481],[-87.4905,40.1484],[-87.4904,40.1274],[-87.4067,40.1275],[-87.4174,40.0587],[-87.4315,40.0477],[-87.4242,40.0399],[-87.4349,40.0264],[-87.2996,40.0261],[-87.2998,40.0391],[-87.2808,40.0392],[-87.2811,40.0681],[-87.2054,40.0683],[-87.2041,39.9533],[-87.09,39.953],[-87.0919,40.1275],[-86.9231,40.1276],[-86.9233,40.2149],[-86.8665,40.2149],[-86.8658,40.3015],[-86.8089,40.3015],[-86.8096,40.374],[-86.8481,40.3748],[-86.8502,40.3669],[-86.8667,40.3671],[-86.8667,40.3749],[-86.9237,40.3743],[-86.924,40.3985],[-86.9442,40.3943],[-86.9608,40.4041],[-86.9849,40.4023],[-87.0259,40.4155],[-87.0683,40.4036],[-87.0922,40.3666],[-87.0928,40.4678],[-87.0251,40.4679],[-86.9993,40.4582],[-87.0011,40.4903],[-86.9247,40.4895],[-86.925,40.5042],[-86.8686,40.504],[-86.869,40.5617],[-86.9815,40.562],[-86.9842,40.6486],[-87.0973,40.6495],[-87.0996,40.823],[-87.3823,40.8221],[-87.3832,40.8381],[-87.4057,40.8289],[-87.429,40.8312],[-87.4316,40.8243],[-87.4369,40.8254],[-87.4386,40.8185],[-87.4435,40.8202],[-87.4457,40.8163],[-87.4624,40.8226],[-87.4645,40.8174],[-87.4718,40.821],[-87.4728,40.816],[-87.4854,40.815],[-87.5168,40.8237],[-87.5257,40.8172],[-87.5314,40.1481]]]},"properties":{"geoid":"18013","state":"18","district":"13","name":"State House District 13","chamber":"House"}},{"type":"Feature","geometry":{"type":"Polygon","coordinates":[[[-87.4334,41.4368],[-87.3548,41.4349],[-87.3502,41.4494],[-87.3163,41.4492],[-87.3172,41.5516],[-87.3041,41.5656],[-87.2979,41.5656],[-87.2978,41.5714],[-87.3189,41.5732],[-87.3379,41.5604],[-87.3561,41.566],[-87.3558,41.5485],[-87.4131,41.5496],[-87.4131,41.5226],[-87.3939,41.5226],[-87.3932,41.4735],[-87.4029,41.4753],[-87.4067,41.4642],[-87.4158,41.4661],[-87.4122,41.4605],[-87.428,41.4642],[-87.4275,41.4606],[-87.4121,41.4569],[-87.412,41.4509],[-87.4265,41.4497],[-87.4263,41.4361],[-87.4334,41.4368]]]},"properties":{"geoid":"18014","state":"18","district":"14","name":"State House District 14","chamber":"House"}},{"type":"Feature","geometry":{"type":"Polygon","coordinates":[[[-87.5262,41.4082],[-87.5261,41.3993],[-87.5082,41.3994],[-87.5081,41.3921],[-87.4893,41.392],[-87.4825,41.4066],[-87.4701,41.4029],[-87.47,41.392],[-87.4312,41.3917],[-87.4334,41.4368],[-87.4263,41.4361],[-87.4265,41.4497],[-87.412,41.4512],[-87.4121,41.4569],[-87.4275,41.4606],[-87.428,41.4642],[-87.4171,41.4642],[-87.4171,41.4605],[-87.4122,41.4605],[-87.4158,41.4661],[-87.4067,41.4642],[-87.403,41.4861],[-87.4175,41.4859],[-87.4176,41.4929],[-87.4322,41.4942],[-87.4325,41.5077],[-87.4519,41.5078],[-87.4518,41.5229],[-87.5256,41.5227],[-87.5262,41.4082]]]},"properties":{"geoid":"18015","state":"18","district":"15","name":"State House District 15","chamber":"House"}},{"type":"Feature","geometry":{"type":"Polygon","coordinates":[[[-87.2766,40.926],[-87.2764,40.9115],[-87.269,40.9115],[-87.2678,40.8223],[-87.0996,40.823],[-87.0973,40.6495],[-86.9842,40.6486],[-86.9815,40.562],[-86.7713,40.5621],[-86.7742,40.664],[-86.7583,40.6643],[-86.7423,40.6796],[-86.7622,40.6795],[-86.7487,40.6884],[-86.7619,40.7001],[-86.7587,40.7102],[-86.7473,40.7171],[-86.7575,40.7238],[-86.7527,40.7339],[-86.7478,40.7375],[-86.5817,40.7358],[-86.5837,41.0241],[-86.5727,41.0412],[-86.5543,41.0413],[-86.5543,41.0844],[-86.5834,41.0846],[-86.5828,41.172],[-86.467,41.1714],[-86.4665,41.3022],[-86.5628,41.3061],[-86.563,41.288],[-86.5822,41.2881],[-86.5823,41.346],[-86.6985,41.3462],[-86.6984,41.2591],[-86.8146,41.2591],[-86.8147,41.2735],[-86.8391,41.272],[-86.8972,41.2546],[-86.9205,41.245],[-86.9381,41.23],[-86.969,41.2196],[-87.0448,41.2608],[-87.0454,41.1726],[-87.1597,41.1731],[-87.1604,41.1296],[-87.2757,41.1299],[-87.2766,40.926]]]},"properties":{"geoid":"18016","state":"18","district":"16","name":"State House District 16","chamber":"House"}},{"type":"Feature","geometry":{"type":"Polygon","coordinates":[[[-86.5839,40.9197],[-86.5839,40.911],[-86.169,40.9098],[-86.1685,40.9961],[-85.9454,40.9993],[-85.9456,41.0429],[-86.0187,41.0419],[-86.0184,41.0861],[-86.0759,41.0849],[-86.0776,41.1729],[-86.054,41.1731],[-86.0595,41.4792],[-86.2817,41.4787],[-86.2815,41.4642],[-86.2767,41.4642],[-86.2765,41.4569],[-86.2862,41.457],[-86.2859,41.4387],[-86.2955,41.4386],[-86.2955,41.4309],[-86.3116,41.4313],[-86.3129,41.4263],[-86.3125,41.4332],[-86.3483,41.4344],[-86.349,41.4778],[-86.4671,41.4765],[-86.467,41.1714],[-86.5828,41.172],[-86.5834,41.0846],[-86.5543,41.0844],[-86.5543,41.0413],[-86.5727,41.0412],[-86.5837,41.0241],[-86.5839,40.9197]]]},"properties":{"geoid":"18017","state":"18","district":"17","name":"State House District 17","chamber":"House"}},{"type":"Feature","geometry":{"type":"Polygon","coordinates":[[[-85.8859,41.4935],[-85.8858,41.4356],[-85.7687,41.4357],[-85.7657,41.264],[-85.6512,41.2658],[-85.6526,41.1861],[-85.5971,41.1696],[-85.5681,41.1672],[-85.5683,41.1777],[-85.4532,41.1781],[-85.453,41.1642],[-85.4443,41.1615],[-85.4442,41.1543],[-85.4489,41.1542],[-85.4504,41.1484],[-85.4528,41.1507],[-85.4519,41.0892],[-85.337,41.0897],[-85.3383,41.1791],[-85.3098,41.1789],[-85.3078,41.2642],[-85.1921,41.2642],[-85.193,41.3511],[-85.3094,41.3516],[-85.3085,41.5262],[-85.7702,41.5228],[-85.7704,41.5374],[-85.8255,41.5371],[-85.8284,41.5225],[-85.8858,41.5223],[-85.8859,41.4935]]]},"properties":{"geoid":"18018","state":"18","district":"18","name":"State House District 18","chamber":"House"}},{"type":"Feature","geometry":{"type":"Polygon","coordinates":[[[-87.4312,41.3931],[-87.4164,41.3916],[-87.4168,41.3771],[-87.4015,41.3769],[-87.4016,41.3697],[-87.4119,41.3697],[-87.4085,41.3554],[-87.4119,41.3479],[-87.3355,41.3477],[-87.3354,41.3404],[-87.2774,41.3401],[-87.2772,41.3329],[-87.2203,41.3333],[-87.2198,41.3473],[-87.0655,41.3475],[-87.0656,41.3912],[-87.0848,41.3913],[-87.0851,41.4346],[-87.1618,41.4346],[-87.167,41.4704],[-87.1576,41.4703],[-87.158,41.5038],[-87.1532,41.5027],[-87.1531,41.5214],[-87.2206,41.5216],[-87.2202,41.5071],[-87.278,41.5073],[-87.2746,41.4879],[-87.3167,41.484],[-87.3163,41.4492],[-87.3502,41.4494],[-87.3548,41.4349],[-87.4312,41.4353],[-87.4312,41.3931]]]},"properties":{"geoid":"18019","state":"18","district":"19","name":"State House District 19","chamber":"House"}},{"type":"Feature","geometry":{"type":"Polygon","coordinates":[[[-86.932,41.607],[-86.9301,41.2368],[-86.8972,41.2546],[-86.8391,41.272],[-86.8147,41.2735],[-86.8146,41.2591],[-86.6984,41.2591],[-86.6985,41.3462],[-86.5823,41.346],[-86.5822,41.2881],[-86.563,41.288],[-86.5628,41.3061],[-86.4665,41.3022],[-86.4666,41.433],[-86.5247,41.4329],[-86.5249,41.5197],[-86.5003,41.521],[-86.4982,41.5611],[-86.4864,41.5705],[-86.4863,41.5889],[-86.4876,41.6493],[-86.5267,41.6504],[-86.5254,41.6946],[-86.7001,41.6939],[-86.6999,41.6795],[-86.8164,41.6798],[-86.8175,41.607],[-86.932,41.607]]]},"properties":{"geoid":"18020","state":"18","district":"20","name":"State House District 20","chamber":"House"}},{"type":"Feature","geometry":{"type":"Polygon","coordinates":[[[-86.1505,41.66],[-86.1504,41.6513],[-86.1142,41.6518],[-86.1141,41.629],[-86.1188,41.6299],[-86.1193,41.6248],[-86.1184,41.5866],[-86.0605,41.5865],[-86.0592,41.4358],[-85.8858,41.4356],[-85.8872,41.6087],[-85.8695,41.6099],[-85.8824,41.6184],[-85.8857,41.6156],[-85.8847,41.6224],[-85.9022,41.6248],[-85.9042,41.6382],[-85.9093,41.6384],[-85.9077,41.6443],[-85.9131,41.6455],[-85.9092,41.6488],[-85.9206,41.6552],[-85.9165,41.6574],[-85.918,41.6665],[-85.9348,41.6613],[-85.9343,41.6654],[-85.9465,41.6676],[-85.9437,41.6717],[-85.9516,41.68],[-85.9563,41.6768],[-85.9725,41.6802],[-85.9764,41.6866],[-85.9818,41.6812],[-85.9902,41.6867],[-86.003,41.6867],[-86.0037,41.6744],[-86.0613,41.6786],[-86.0609,41.6534],[-86.0739,41.6592],[-86.0901,41.6593],[-86.0964,41.6747],[-86.0999,41.6748],[-86.0998,41.6619],[-86.1309,41.6588],[-86.1452,41.6661],[-86.1481,41.6649],[-86.1434,41.665],[-86.1434,41.6604],[-86.1505,41.66]]]},"properties":{"geoid":"18021","state":"18","district":"21","name":"State House District 21","chamber":"House"}},{"type":"Feature","geometry":{"type":"Polygon","coordinates":[[[-86.0776,41.1729],[-86.0759,41.0849],[-86.0184,41.0861],[-86.0187,41.0419],[-85.9456,41.0429],[-85.9447,40.9428],[-85.7935,40.9418],[-85.7958,41.0436],[-85.6842,41.0467],[-85.6866,41.1784],[-85.6527,41.1785],[-85.6512,41.2658],[-85.7657,41.264],[-85.7687,41.4357],[-86.0592,41.4358],[-86.054,41.1731],[-86.0776,41.1729]]]},"properties":{"geoid":"18022","state":"18","district":"22","name":"State House District 22","chamber":"House"}},{"type":"Feature","geometry":{"type":"Polygon","coordinates":[[[-86.5816,40.7499],[-86.5817,40.7358],[-86.5251,40.7354],[-86.5252,40.6924],[-86.3735,40.6925],[-86.3736,40.6488],[-86.1659,40.6496],[-86.165,40.5626],[-85.9388,40.5648],[-85.9464,40.9992],[-86.1685,40.9961],[-86.169,40.9098],[-86.5815,40.9109],[-86.5816,40.7499]]]},"properties":{"geoid":"18023","state":"18","district":"23","name":"State House District 23","chamber":"House"}},{"type":"Feature","geometry":{"type":"Polygon","coordinates":[[[-86.3566,40.12],[-86.3559,40.0398],[-86.3367,40.0401],[-86.3366,40.0263],[-86.3178,40.0267],[-86.3176,39.9976],[-86.2411,39.9988],[-86.2407,39.9261],[-86.2223,39.9263],[-86.2224,39.941],[-86.1841,39.9415],[-86.184,39.9559],[-86.1788,39.956],[-86.1835,40.0072],[-86.1785,40.0075],[-86.1785,40.0137],[-86.1274,40.0147],[-86.1275,40.022],[-86.0898,40.022],[-86.0903,40.1013],[-86.1281,40.1014],[-86.1282,40.2172],[-86.2427,40.2158],[-86.2424,40.1808],[-86.3563,40.1786],[-86.3566,40.12]]]},"properties":{"geoid":"18024","state":"18","district":"24","name":"State House District 24","chamber":"House"}},{"type":"Feature","geometry":{"type":"Polygon","coordinates":[[[-86.479,40.0972],[-86.4747,40.0747],[-86.4725,40.0828],[-86.4603,40.0787],[-86.4585,40.0828],[-86.4463,40.0828],[-86.4552,40.0755],[-86.4498,40.0564],[-86.4536,40.0484],[-86.4506,40.0424],[-86.4556,40.0392],[-86.4394,40.0321],[-86.4413,40.0254],[-86.447,40.0252],[-86.4711,40.0337],[-86.4777,40.0173],[-86.4688,40.0071],[-86.4646,40.0216],[-86.4509,40.0179],[-86.4509,40.0104],[-86.4413,40.0106],[-86.4414,40.0034],[-86.4319,39.9994],[-86.4413,39.9963],[-86.446,39.9779],[-86.4509,39.9779],[-86.4499,39.9233],[-86.4309,39.9235],[-86.4301,39.8651],[-86.4397,39.8649],[-86.4395,39.8574],[-86.4255,39.8563],[-86.4159,39.85],[-86.4152,39.8536],[-86.4078,39.8466],[-86.4064,39.8498],[-86.4028,39.8448],[-86.3516,39.8283],[-86.3463,39.8255],[-86.3457,39.8004],[-86.3268,39.8006],[-86.3263,39.924],[-86.2407,39.9261],[-86.2411,39.9988],[-86.3176,39.9976],[-86.3178,40.0267],[-86.3366,40.0263],[-86.3367,40.0401],[-86.3559,40.0398],[-86.3564,40.0983],[-86.479,40.0972]]]},"properties":{"geoid":"18025","state":"18","district":"25","name":"State House District 25","chamber":"House"}},{"type":"Feature","geometry":{"type":"Polygon","coordinates":[[[-87.093,40.4027],[-87.0922,40.3666],[-87.0698,40.402],[-87.057,40.4097],[-87.0448,40.4086],[-87.0259,40.4155],[-86.9849,40.4023],[-86.9608,40.4041],[-86.941,40.394],[-86.9098,40.4043],[-86.8968,40.421],[-86.894,40.4514],[-86.8842,40.4706],[-86.8691,40.4765],[-86.8756,40.4775],[-86.8665,40.4896],[-86.8683,40.4975],[-86.8732,40.4988],[-86.8702,40.504],[-86.925,40.5042],[-86.9247,40.4895],[-87.0011,40.4903],[-86.9993,40.4582],[-87.0251,40.4679],[-87.0928,40.4678],[-87.093,40.4027]]]},"properties":{"geoid":"18026","state":"18","district":"26","name":"State House District 26","chamber":"House"}},{"type":"Feature","geometry":{"type":"Polygon","coordinates":[[[-86.9241,40.3878],[-86.9237,40.3743],[-86.8667,40.3749],[-86.8667,40.3671],[-86.8483,40.367],[-86.8481,40.3748],[-86.8096,40.374],[-86.8106,40.4747],[-86.8547,40.4709],[-86.87,40.4762],[-86.8833,40.4714],[-86.894,40.4514],[-86.8968,40.421],[-86.9098,40.4043],[-86.924,40.3985],[-86.9241,40.3878]]]},"properties":{"geoid":"18027","state":"18","district":"27","name":"State House District 27","chamber":"House"}},{"type":"Feature","geometry":{"type":"Polygon","coordinates":[[[-86.8099,40.1076],[-86.809,39.8652],[-86.6868,39.8648],[-86.6874,39.6304],[-86.6416,39.6301],[-86.645,39.6275],[-86.6432,39.6177],[-86.6567,39.6014],[-86.4656,39.6008],[-86.4659,39.63],[-86.4371,39.6303],[-86.4371,39.6515],[-86.4181,39.656],[-86.4183,39.6743],[-86.4114,39.6744],[-86.4137,39.6804],[-86.4184,39.6804],[-86.4187,39.6974],[-86.4377,39.691],[-86.438,39.7182],[-86.4571,39.7179],[-86.457,39.7984],[-86.3457,39.8004],[-86.3463,39.8255],[-86.4028,39.8448],[-86.4064,39.8498],[-86.4078,39.8466],[-86.4152,39.8536],[-86.4159,39.85],[-86.4255,39.8563],[-86.4395,39.8574],[-86.4397,39.8649],[-86.4301,39.8651],[-86.4309,39.9235],[-86.4499,39.9233],[-86.4509,39.9779],[-86.446,39.9779],[-86.4462,39.9888],[-86.4509,39.9887],[-86.451,39.9962],[-86.5302,39.9955],[-86.5303,39.9846],[-86.5446,39.981],[-86.5494,39.9956],[-86.5542,39.9956],[-86.5542,40.0081],[-86.5588,40.01],[-86.6958,40.0106],[-86.6957,40.1435],[-86.7218,40.1418],[-86.7512,40.1272],[-86.7578,40.1305],[-86.8097,40.1278],[-86.8099,40.1076]]]},"properties":{"geoid":"18028","state":"18","district":"28","name":"State House District 28","chamber":"House"}},{"type":"Feature","geometry":{"type":"Polygon","coordinates":[[[-86.0904,40.0876],[-86.0896,40.0002],[-85.9945,40.0009],[-85.9943,39.9865],[-85.9809,39.9832],[-85.9821,40.001],[-85.9567,40.0011],[-85.9586,40.1025],[-86.0903,40.1013],[-86.0904,40.0876]]]},"properties":{"geoid":"18029","state":"18","district":"29","name":"State House District 29","chamber":"House"}},{"type":"Feature","geometry":{"type":"Polygon","coordinates":[[[-86.1843,40.4477],[-86.1841,40.4386],[-86.1785,40.4384],[-86.1787,40.4327],[-86.146,40.433],[-86.1461,40.4185],[-86.1366,40.4187],[-86.1366,40.4114],[-86.1271,40.4108],[-86.1271,40.4043],[-85.8621,40.4069],[-85.863,40.4787],[-85.787,40.4795],[-85.7877,40.5665],[-86.1274,40.5631],[-86.127,40.529],[-86.1446,40.5255],[-86.1445,40.5197],[-86.1792,40.5194],[-86.1841,40.5157],[-86.1841,40.4976],[-86.1751,40.4977],[-86.1724,40.505],[-86.1724,40.4977],[-86.1649,40.4979],[-86.165,40.4877],[-86.1684,40.4877],[-86.165,40.4797],[-86.1554,40.4797],[-86.1555,40.4763],[-86.184,40.4753],[-86.1843,40.4477]]]},"properties":{"geoid":"18030","state":"18","district":"30","name":"State House District 30","chamber":"House"}},{"type":"Feature","geometry":{"type":"Polygon","coordinates":[[[-85.8648,40.6517],[-85.8636,40.5655],[-85.7877,40.5649],[-85.787,40.4795],[-85.863,40.4787],[-85.8604,40.2915],[-85.7856,40.2921],[-85.7856,40.3063],[-85.577,40.3064],[-85.5786,40.3795],[-85.4443,40.3791],[-85.4488,40.6536],[-85.8648,40.6517]]]},"properties":{"geoid":"18031","state":"18","district":"31","name":"State House District 31","chamber":"House"}},{"type":"Feature","geometry":{"type":"Polygon","coordinates":[[[-86.2224,39.941],[-86.2223,39.9263],[-86.1507,39.9271],[-86.1459,39.9235],[-86.1458,39.9125],[-86.1049,39.9102],[-86.0984,39.9146],[-86.093,39.9087],[-86.0884,39.9165],[-86.0746,39.9204],[-86.0762,39.927],[-85.995,39.927],[-85.9942,39.9717],[-85.9708,39.9828],[-85.9943,39.9865],[-85.9945,40.0009],[-86.0232,40.0002],[-86.031,39.9907],[-86.0468,39.9864],[-86.0468,39.9819],[-86.0333,39.9782],[-86.0468,39.9701],[-86.0528,39.9585],[-86.1386,39.9565],[-86.1387,39.9637],[-86.1436,39.9637],[-86.1451,39.9564],[-86.1552,39.9563],[-86.1576,39.949],[-86.1624,39.9561],[-86.184,39.9559],[-86.1841,39.9415],[-86.2224,39.941]]]},"properties":{"geoid":"18032","state":"18","district":"32","name":"State House District 32","chamber":"House"}},{"type":"Feature","geometry":{"type":"Polygon","coordinates":[[[-85.447,40.5669],[-85.4443,40.3787],[-85.3317,40.3788],[-85.3299,40.2007],[-85.3209,40.2008],[-85.3208,40.1952],[-85.3297,40.1933],[-85.3293,40.1493],[-85.4429,40.1494],[-85.4425,40.0767],[-85.3088,40.0767],[-85.3073,40.019],[-85.2136,40.019],[-85.2135,40.0044],[-84.8108,40.0051],[-84.8031,40.4847],[-85.2009,40.4795],[-85.2011,40.5672],[-85.447,40.5669]]]},"properties":{"geoid":"18033","state":"18","district":"33","name":"State House District 33","chamber":"House"}},{"type":"Feature","geometry":{"type":"Polygon","coordinates":[[[-85.443,40.2627],[-85.4429,40.1494],[-85.3293,40.1493],[-85.3297,40.1933],[-85.3208,40.1952],[-85.3209,40.2008],[-85.3299,40.2007],[-85.3306,40.2337],[-85.3848,40.2335],[-85.3866,40.2625],[-85.443,40.2627]]]},"properties":{"geoid":"18034","state":"18","district":"34","name":"State House District 34","chamber":"House"}},{"type":"Feature","geometry":{"type":"Polygon","coordinates":[[[-85.8636,40.133],[-85.8624,40.0316],[-85.787,40.0317],[-85.787,40.0462],[-85.7489,40.0465],[-85.7487,40.135],[-85.6325,40.1352],[-85.6259,40.1395],[-85.6279,40.1352],[-85.5759,40.1349],[-85.5762,40.0771],[-85.4425,40.0767],[-85.443,40.2627],[-85.3866,40.2625],[-85.3848,40.2335],[-85.3306,40.2337],[-85.3317,40.3788],[-85.5786,40.3795],[-85.577,40.3064],[-85.7856,40.3063],[-85.7856,40.2921],[-85.8604,40.2915],[-85.8636,40.133]]]},"properties":{"geoid":"18035","state":"18","district":"35","name":"State House District 35","chamber":"House"}},{"type":"Feature","geometry":{"type":"Polygon","coordinates":[[[-85.7492,40.0584],[-85.748,40.0463],[-85.6732,40.0471],[-85.6731,39.9455],[-85.5762,39.9458],[-85.5759,40.1349],[-85.6279,40.1352],[-85.6259,40.1395],[-85.6325,40.1352],[-85.7487,40.135],[-85.7492,40.0584]]]},"properties":{"geoid":"18036","state":"18","district":"36","name":"State House District 36","chamber":"House"}},{"type":"Feature","geometry":{"type":"Polygon","coordinates":[[[-86.1282,40.129],[-86.1281,40.1014],[-85.9586,40.1025],[-85.9567,40.0011],[-85.9821,40.001],[-85.9802,39.9828],[-85.9708,39.9824],[-85.9942,39.9717],[-85.995,39.9415],[-85.951,39.9403],[-85.9436,39.9465],[-85.9423,39.9576],[-85.9352,39.9578],[-85.8937,39.9526],[-85.8673,39.9551],[-85.8625,39.9436],[-85.8619,40.2189],[-86.1282,40.2172],[-86.1282,40.129]]]},"properties":{"geoid":"18037","state":"18","district":"37","name":"State House District 37","chamber":"House"}},{"type":"Feature","geometry":{"type":"Polygon","coordinates":[[[-86.8756,40.4776],[-86.8547,40.4709],[-86.8432,40.4745],[-86.6948,40.4751],[-86.6947,40.4322],[-86.5635,40.4314],[-86.5621,40.3587],[-86.4684,40.3584],[-86.4682,40.3007],[-86.432,40.3009],[-86.432,40.2573],[-86.3562,40.258],[-86.3562,40.2724],[-86.2426,40.2737],[-86.2427,40.2158],[-85.8619,40.2189],[-85.8621,40.4069],[-86.1271,40.4043],[-86.1271,40.4108],[-86.1366,40.4114],[-86.1366,40.4187],[-86.1461,40.4185],[-86.146,40.433],[-86.1787,40.4327],[-86.1785,40.4384],[-86.1841,40.4386],[-86.184,40.4753],[-86.1555,40.4763],[-86.1554,40.4797],[-86.165,40.4797],[-86.1684,40.4877],[-86.165,40.4877],[-86.1649,40.4979],[-86.1724,40.4977],[-86.1724,40.505],[-86.1751,40.4977],[-86.1841,40.4976],[-86.1841,40.5157],[-86.1792,40.5194],[-86.1445,40.5197],[-86.1446,40.5255],[-86.1298,40.5272],[-86.1266,40.5322],[-86.1274,40.5631],[-86.165,40.5626],[-86.1659,40.6496],[-86.3736,40.6488],[-86.3735,40.6925],[-86.5252,40.6924],[-86.5251,40.7354],[-86.7478,40.7375],[-86.7577,40.7251],[-86.7473,40.7171],[-86.7587,40.7102],[-86.7619,40.7001],[-86.7487,40.6884],[-86.7622,40.6799],[-86.7512,40.6775],[-86.7442,40.6825],[-86.7427,40.6784],[-86.7583,40.6643],[-86.7742,40.664],[-86.7713,40.5621],[-86.869,40.5617],[-86.8686,40.504],[-86.8732,40.4988],[-86.8683,40.4975],[-86.8665,40.4896],[-86.8756,40.4776]]]},"properties":{"geoid":"18038","state":"18","district":"38","name":"State House District 38","chamber":"House"}},{"type":"Feature","geometry":{"type":"Polygon","coordinates":[[[-86.1836,39.9835],[-86.1835,39.9776],[-86.1791,39.9776],[-86.1788,39.956],[-86.1624,39.9561],[-86.1603,39.9489],[-86.1552,39.9563],[-86.1451,39.9564],[-86.1436,39.9637],[-86.1387,39.9637],[-86.1386,39.9565],[-86.0649,39.9561],[-86.0519,39.9589],[-86.0468,39.9701],[-86.0342,39.9763],[-86.0333,39.981],[-86.046,39.9815],[-86.0473,39.9855],[-86.0276,39.9927],[-86.0232,40.0002],[-86.0896,40.0002],[-86.0898,40.022],[-86.1274,40.022],[-86.1274,40.0147],[-86.1785,40.0137],[-86.1785,40.0075],[-86.1835,40.0072],[-86.1836,39.9835]]]},"properties":{"geoid":"18039","state":"18","district":"39","name":"State House District 39","chamber":"House"}},{"type":"Feature","geometry":{"type":"Polygon","coordinates":[[[-86.4576,39.7763],[-86.4571,39.7179],[-86.438,39.7182],[-86.4377,39.691],[-86.4065,39.7017],[-86.3993,39.6931],[-86.3823,39.697],[-86.3807,39.7152],[-86.3662,39.7192],[-86.3266,39.7195],[-86.3268,39.8006],[-86.457,39.7984],[-86.4576,39.7763]]]},"properties":{"geoid":"18040","state":"18","district":"40","name":"State House District 40","chamber":"House"}},{"type":"Feature","geometry":{"type":"Polygon","coordinates":[[[-86.8664,40.2222],[-86.8665,40.2149],[-86.8095,40.2149],[-86.8097,40.1278],[-86.7578,40.1305],[-86.7512,40.1272],[-86.7218,40.1418],[-86.6957,40.1435],[-86.6958,40.0106],[-86.5588,40.01],[-86.5542,40.0081],[-86.5493,39.9865],[-86.5445,39.9864],[-86.5446,39.981],[-86.535,39.981],[-86.5303,39.9846],[-86.5302,39.9955],[-86.451,39.9962],[-86.4509,39.9887],[-86.4414,39.9889],[-86.4413,39.9963],[-86.4319,39.9963],[-86.4414,40.0034],[-86.4413,40.0106],[-86.4509,40.0104],[-86.4509,40.0179],[-86.4646,40.0216],[-86.4688,40.0071],[-86.4777,40.0173],[-86.4711,40.0337],[-86.447,40.0252],[-86.4413,40.0254],[-86.4394,40.0321],[-86.4556,40.0392],[-86.4506,40.0424],[-86.4536,40.0484],[-86.4498,40.0564],[-86.4552,40.0755],[-86.4463,40.0828],[-86.4585,40.0828],[-86.4603,40.0787],[-86.4725,40.0828],[-86.4747,40.0747],[-86.479,40.0972],[-86.3564,40.0983],[-86.3563,40.1786],[-86.2424,40.1808],[-86.2426,40.2737],[-86.3562,40.2724],[-86.3562,40.258],[-86.432,40.2573],[-86.432,40.3009],[-86.4682,40.3007],[-86.4684,40.3584],[-86.5621,40.3587],[-86.5635,40.4314],[-86.6947,40.4322],[-86.6948,40.4751],[-86.8106,40.4747],[-86.8089,40.3015],[-86.8658,40.3015],[-86.8664,40.2222]]]},"properties":{"geoid":"18041","state":"18","district":"41","name":"State House District 41","chamber":"House"}},{"type":"Feature","geometry":{"type":"Polygon","coordinates":[[[-87.5333,39.861],[-87.5319,39.5204],[-87.4185,39.5204],[-87.4169,39.5627],[-87.3971,39.5662],[-87.3938,39.5567],[-87.3882,39.5554],[-87.3917,39.5541],[-87.3838,39.5371],[-87.3769,39.5318],[-87.3635,39.5279],[-87.3559,39.5353],[-87.3438,39.5354],[-87.3508,39.5207],[-87.2671,39.5208],[-87.2673,39.5042],[-87.2953,39.5062],[-87.2952,39.4881],[-87.2672,39.4943],[-87.2674,39.4699],[-87.2581,39.4697],[-87.2582,39.4626],[-87.2888,39.4628],[-87.2768,39.4551],[-87.277,39.4337],[-86.9418,39.4293],[-86.94,39.4733],[-87.0147,39.4738],[-87.0095,39.8667],[-87.0915,39.8673],[-87.091,39.953],[-87.2041,39.9533],[-87.2054,40.0683],[-87.2811,40.0681],[-87.2808,40.0392],[-87.2998,40.0391],[-87.2996,40.0261],[-87.4349,40.0264],[-87.4242,40.0399],[-87.4315,40.0477],[-87.4174,40.0587],[-87.4067,40.1275],[-87.4904,40.1274],[-87.4905,40.1484],[-87.5314,40.1481],[-87.5333,39.861]]]},"properties":{"geoid":"18042","state":"18","district":"42","name":"State House District 42","chamber":"House"}},{"type":"Feature","geometry":{"type":"Polygon","coordinates":[[[-87.5319,39.5204],[-87.5316,39.3479],[-87.5248,39.3614],[-87.5297,39.375],[-87.5263,39.3799],[-87.4917,39.3886],[-87.488,39.3928],[-87.4951,39.4001],[-87.4903,39.4055],[-87.4697,39.4088],[-87.4696,39.4029],[-87.4605,39.403],[-87.4605,39.4215],[-87.4369,39.4262],[-87.4301,39.4338],[-87.277,39.4337],[-87.2768,39.4551],[-87.2888,39.4628],[-87.2582,39.4626],[-87.2581,39.4697],[-87.2674,39.47],[-87.2672,39.4943],[-87.2952,39.4881],[-87.2953,39.5062],[-87.2673,39.5042],[-87.2671,39.5208],[-87.3508,39.5207],[-87.3438,39.5354],[-87.3559,39.5353],[-87.3635,39.5279],[-87.3769,39.5318],[-87.3838,39.5371],[-87.3917,39.5541],[-87.3882,39.5554],[-87.3938,39.5567],[-87.3971,39.5662],[-87.4169,39.5627],[-87.4185,39.5204],[-87.5319,39.5204]]]},"properties":{"geoid":"18043","state":"18","district":"43","name":"State House District 43","chamber":"House"}},{"type":"Feature","geometry":{"type":"Polygon","coordinates":[[[-87.0921,40.0409],[-87.0915,39.8673],[-87.0095,39.8667],[-87.0147,39.4738],[-86.6857,39.4701],[-86.6876,39.5219],[-86.6729,39.5295],[-86.6727,39.5354],[-86.6633,39.5394],[-86.661,39.547],[-86.6514,39.55],[-86.6533,39.5594],[-86.6483,39.5659],[-86.6542,39.565],[-86.6596,39.5792],[-86.652,39.5944],[-86.657,39.6007],[-86.6432,39.6177],[-86.645,39.6275],[-86.6416,39.6301],[-86.6874,39.6304],[-86.6868,39.8648],[-86.809,39.8652],[-86.8095,40.2149],[-86.9233,40.2149],[-86.9231,40.1276],[-87.0919,40.1275],[-87.0921,40.0409]]]},"properties":{"geoid":"18044","state":"18","district":"44","name":"State House District 44","chamber":"House"}},{"type":"Feature","geometry":{"type":"Polygon","coordinates":[[[-87.6587,39.137],[-87.635,39.1221],[-87.6408,39.1144],[-87.6521,39.1155],[-87.6528,39.1068],[-87.6157,39.1033],[-87.6203,39.0866],[-87.5964,39.0796],[-87.5726,39.0573],[-87.5723,39.0506],[-87.5804,39.0407],[-87.5697,39.0194],[-87.5791,39.0016],[-87.5604,38.9924],[-87.5783,38.9888],[-87.5295,38.9719],[-87.5122,38.9544],[-87.5218,38.9411],[-87.5167,38.9335],[-87.5188,38.9232],[-87.5277,38.9192],[-87.5276,38.9077],[-87.5168,38.9037],[-87.5337,38.901],[-87.536,38.887],[-87.5391,38.8961],[-87.5441,38.8951],[-87.5443,38.889],[-87.5349,38.8789],[-87.5471,38.876],[-87.5426,38.8653],[-87.5534,38.8624],[-87.5267,38.8504],[-87.5217,38.8266],[-87.5273,38.8181],[-87.4955,38.7846],[-87.4986,38.7765],[-87.5149,38.7705],[-87.4969,38.7668],[-87.504,38.7485],[-87.4958,38.7407],[-87.5062,38.7335],[-87.463,38.7334],[-87.4629,38.7287],[-87.2633,38.7288],[-87.2598,38.734],[-87.25,38.7256],[-87.247,38.7289],[-87.2545,38.7357],[-87.248,38.7422],[-87.2381,38.7423],[-87.253,38.7568],[-87.2479,38.7582],[-87.2439,38.75],[-87.239,38.7499],[-87.2446,38.7582],[-87.2392,38.7661],[-87.2432,38.7688],[-87.2546,38.7649],[-87.2578,38.7707],[-87.2556,38.7787],[-87.2401,38.7821],[-87.2409,38.8015],[-87.2466,38.8077],[-87.2423,38.8161],[-87.2389,38.8196],[-87.2338,38.8161],[-87.238,38.8112],[-87.2273,38.813],[-87.2273,38.8042],[-87.2156,38.8118],[-87.2161,38.8236],[-87.211,38.8209],[-87.2127,38.8075],[-87.2031,38.8151],[-87.2037,38.8256],[-87.1979,38.8243],[-87.1922,38.8147],[-87.1898,38.8232],[-87.1972,38.8266],[-87.1963,38.8307],[-87.188,38.8252],[-87.186,38.8346],[-87.1715,38.8311],[-87.175,38.8413],[-87.186,38.8446],[-87.1836,38.8474],[-87.16,38.8447],[-87.1493,38.8384],[-87.1406,38.8435],[-87.1419,38.848],[-87.1303,38.8478],[-87.1301,38.8183],[-86.9042,38.8175],[-86.9043,38.9042],[-86.6829,38.9047],[-86.683,39.1657],[-87.2407,39.1718],[-87.2404,39.2591],[-87.3513,39.2592],[-87.3509,39.3469],[-87.4603,39.3468],[-87.4605,39.403],[-87.4696,39.4029],[-87.4697,39.4088],[-87.4917,39.4048],[-87.4947,39.3974],[-87.4877,39.3915],[-87.4977,39.3855],[-87.5263,39.3799],[-87.5286,39.3489],[-87.544,39.3529],[-87.5544,39.3405],[-87.5783,39.3403],[-87.5891,39.3338],[-87.6059,39.3111],[-87.6206,39.307],[-87.6178,39.3013],[-87.6053,39.3032],[-87.5979,39.2995],[-87.6101,39.2822],[-87.6014,39.2744],[-87.6055,39.2611],[-87.5947,39.2487],[-87.5807,39.2552],[-87.5716,39.2523],[-87.5793,39.2436],[-87.5746,39.2184],[-87.5886,39.1978],[-87.6016,39.1925],[-87.6079,39.1845],[-87.6204,39.1852],[-87.6196,39.171],[-87.6404,39.1667],[-87.6415,39.1605],[-87.6283,39.1542],[-87.6422,39.1571],[-87.6528,39.1494],[-87.6587,39.137]]]},"properties":{"geoid":"18045","state":"18","district":"45","name":"State House District 45","chamber":"House"}},{"type":"Feature","geometry":{"type":"Polygon","coordinates":[[[-87.4605,39.4215],[-87.4603,39.3468],[-87.3509,39.3469],[-87.3513,39.2592],[-87.2404,39.2591],[-87.2407,39.1718],[-86.5735,39.1646],[-86.5743,39.3397],[-86.6308,39.3408],[-86.6322,39.4702],[-86.94,39.4733],[-86.9418,39.4293],[-87.4284,39.4338],[-87.4369,39.4262],[-87.4605,39.4215]]]},"properties":{"geoid":"18046","state":"18","district":"46","name":"State House District 46","chamber":"House"}},{"type":"Feature","geometry":{"type":"Polygon","coordinates":[[[-86.2517,39.3454],[-86.2517,39.3417],[-86.1868,39.3422],[-85.8575,39.3493],[-85.8614,39.3586],[-85.8462,39.3674],[-85.8505,39.3709],[-85.8468,39.3751],[-85.8448,39.4382],[-85.8367,39.4383],[-85.8373,39.5545],[-85.7038,39.555],[-85.7058,39.6259],[-85.7341,39.626],[-85.7355,39.6988],[-85.9517,39.6971],[-85.9519,39.5379],[-86.1393,39.5343],[-86.1399,39.5927],[-86.1591,39.5925],[-86.159,39.5777],[-86.1683,39.5775],[-86.1681,39.5628],[-86.1775,39.5625],[-86.1774,39.5479],[-86.1966,39.5477],[-86.1963,39.5183],[-86.2516,39.5167],[-86.2517,39.3454]]]},"properties":{"geoid":"18047","state":"18","district":"47","name":"State House District 47","chamber":"House"}},{"type":"Feature","geometry":{"type":"Polygon","coordinates":[[[-86.0626,41.7605],[-86.0613,41.6786],[-86.0037,41.6744],[-86.0034,41.6867],[-85.9902,41.6867],[-85.9818,41.6812],[-85.9764,41.6866],[-85.9725,41.6802],[-85.9563,41.6768],[-85.9516,41.68],[-85.9437,41.6717],[-85.9465,41.6676],[-85.9343,41.6654],[-85.9348,41.6613],[-85.9196,41.6672],[-85.9163,41.6595],[-85.8879,41.6597],[-85.8884,41.6954],[-85.7733,41.696],[-85.774,41.7591],[-86.0626,41.7605]]]},"properties":{"geoid":"18048","state":"18","district":"48","name":"State House District 48","chamber":"House"}},{"type":"Feature","geometry":{"type":"Polygon","coordinates":[[[-85.9206,41.6555],[-85.9092,41.6488],[-85.9131,41.6455],[-85.9077,41.6443],[-85.9093,41.6384],[-85.9042,41.6382],[-85.902,41.6247],[-85.8847,41.6224],[-85.8857,41.6156],[-85.8824,41.6184],[-85.8695,41.6099],[-85.8872,41.6087],[-85.8858,41.5223],[-85.8284,41.5225],[-85.8281,41.5369],[-85.7704,41.5374],[-85.7702,41.5228],[-85.6547,41.5233],[-85.6598,41.7591],[-85.774,41.7591],[-85.7733,41.696],[-85.8884,41.6954],[-85.8879,41.6597],[-85.9163,41.6595],[-85.9206,41.6555]]]},"properties":{"geoid":"18049","state":"18","district":"49","name":"State House District 49","chamber":"House"}},{"type":"Feature","geometry":{"type":"Polygon","coordinates":[[[-85.9447,40.9428],[-85.9388,40.5648],[-85.8636,40.5655],[-85.8648,40.6517],[-85.6232,40.6532],[-85.4488,40.6536],[-85.447,40.5669],[-85.3337,40.5673],[-85.3356,41.0053],[-85.6832,41.0019],[-85.6842,41.0467],[-85.7958,41.0436],[-85.7935,40.9418],[-85.9447,40.9428]]]},"properties":{"geoid":"18050","state":"18","district":"50","name":"State House District 50","chamber":"House"}},{"type":"Feature","geometry":{"type":"Polygon","coordinates":[[[-85.6598,41.7557],[-85.6547,41.5233],[-85.0808,41.527],[-85.0824,41.6128],[-84.8764,41.6149],[-84.8787,41.7018],[-84.8059,41.7027],[-84.8059,41.7602],[-85.6477,41.7592],[-85.6598,41.7591],[-85.6598,41.7557]]]},"properties":{"geoid":"18051","state":"18","district":"51","name":"State House District 51","chamber":"House"}},{"type":"Feature","geometry":{"type":"Polygon","coordinates":[[[-85.3094,41.3526],[-85.193,41.3511],[-85.1921,41.2642],[-84.8036,41.2709],[-84.8059,41.7027],[-84.8787,41.7018],[-84.8764,41.6149],[-85.0824,41.6128],[-85.0808,41.527],[-85.3085,41.5262],[-85.3094,41.3526]]]},"properties":{"geoid":"18052","state":"18","district":"52","name":"State House District 52","chamber":"House"}},{"type":"Feature","geometry":{"type":"Polygon","coordinates":[[[-85.9524,39.7767],[-85.9517,39.6971],[-85.7254,39.6989],[-85.7269,39.7853],[-85.5969,39.7865],[-85.5967,39.8729],[-85.5768,39.8728],[-85.5762,39.9458],[-85.6731,39.9455],[-85.6732,40.0471],[-85.787,40.0462],[-85.7867,39.9447],[-85.8057,39.9446],[-85.8052,39.8716],[-85.7909,39.8717],[-85.7903,39.8429],[-85.77,39.8431],[-85.7703,39.8278],[-85.7898,39.8248],[-85.794,39.8282],[-85.7953,39.8229],[-85.7962,39.8281],[-85.805,39.8283],[-85.803,39.8207],[-85.8782,39.8198],[-85.8778,39.7835],[-85.9524,39.7827],[-85.9524,39.7767]]]},"properties":{"geoid":"18053","state":"18","district":"53","name":"State House District 53","chamber":"House"}},{"type":"Feature","geometry":{"type":"Polygon","coordinates":[[[-85.7355,39.6987],[-85.7341,39.626],[-85.6328,39.6257],[-85.6293,39.4528],[-85.4046,39.4531],[-85.4055,39.5251],[-85.2981,39.5255],[-85.3016,39.7876],[-85.2211,39.7884],[-85.2207,39.8736],[-85.2713,39.8731],[-85.2713,39.9026],[-85.2522,39.9027],[-85.2521,39.9171],[-85.2713,39.9174],[-85.2712,39.9605],[-85.2008,39.9607],[-85.2015,40.0045],[-85.2135,40.0044],[-85.2136,40.019],[-85.3073,40.019],[-85.3088,40.0767],[-85.5762,40.0771],[-85.5768,39.8729],[-85.5967,39.8729],[-85.5969,39.7865],[-85.7269,39.7853],[-85.7253,39.699],[-85.7355,39.6987]]]},"properties":{"geoid":"18054","state":"18","district":"54","name":"State House District 54","chamber":"House"}},{"type":"Feature","geometry":{"type":"Polygon","coordinates":[[[-85.5081,39.3807],[-85.4607,39.3808],[-85.4604,39.3958],[-85.4231,39.396],[-85.4232,39.3666],[-85.3855,39.367],[-85.3855,39.2636],[-85.3334,39.2646],[-85.3342,39.249],[-85.3152,39.2587],[-85.3153,39.2208],[-85.0819,39.2223],[-85.0656,39.3072],[-84.8195,39.3052],[-84.8144,39.7266],[-85.0344,39.7293],[-85.0346,39.7148],[-85.1851,39.7155],[-85.1835,39.7884],[-85.3016,39.7876],[-85.2981,39.5255],[-85.4055,39.5251],[-85.4046,39.4531],[-85.5071,39.4528],[-85.5081,39.3807]]]},"properties":{"geoid":"18055","state":"18","district":"55","name":"State House District 55","chamber":"House"}},{"type":"Feature","geometry":{"type":"Polygon","coordinates":[[[-85.2713,39.884],[-85.2713,39.8731],[-85.2207,39.8736],[-85.2211,39.7884],[-85.1835,39.7884],[-85.1851,39.7155],[-85.0346,39.7148],[-85.0344,39.7293],[-84.8144,39.7266],[-84.8108,40.0051],[-85.2015,40.0045],[-85.2008,39.9607],[-85.2712,39.9605],[-85.2713,39.9174],[-85.2521,39.9174],[-85.2521,39.914],[-85.2522,39.9027],[-85.2713,39.9026],[-85.2713,39.884]]]},"properties":{"geoid":"18056","state":"18","district":"56","name":"State House District 56","chamber":"House"}},{"type":"Feature","geometry":{"type":"Polygon","coordinates":[[[-86.4371,39.6515],[-86.4371,39.6303],[-86.4179,39.6305],[-86.4176,39.5568],[-86.3846,39.5577],[-86.3813,39.5506],[-86.3607,39.5512],[-86.3607,39.5588],[-86.3358,39.5592],[-86.336,39.5959],[-86.3169,39.5963],[-86.3169,39.5889],[-86.2857,39.5896],[-86.2777,39.5971],[-86.2698,39.5971],[-86.2696,39.5677],[-86.2559,39.5669],[-86.2571,39.5933],[-86.2484,39.5874],[-86.1399,39.5927],[-86.1394,39.6242],[-86.1585,39.6228],[-86.1584,39.6351],[-86.3263,39.6322],[-86.3266,39.7195],[-86.3807,39.7152],[-86.3823,39.697],[-86.3961,39.6968],[-86.3963,39.6932],[-86.4065,39.7017],[-86.4187,39.6974],[-86.4184,39.6804],[-86.4114,39.6752],[-86.4183,39.6743],[-86.4181,39.656],[-86.4371,39.6515]]]},"properties":{"geoid":"18057","state":"18","district":"57","name":"State House District 57","chamber":"House"}},{"type":"Feature","geometry":{"type":"Polygon","coordinates":[[[-86.1585,39.6235],[-86.1394,39.6242],[-86.1393,39.5343],[-85.9519,39.5379],[-85.9521,39.6383],[-86.1584,39.6351],[-86.1585,39.6235]]]},"properties":{"geoid":"18058","state":"18","district":"58","name":"State House District 58","chamber":"House"}},{"type":"Feature","geometry":{"type":"Polygon","coordinates":[[[-86.0856,39.3442],[-86.0798,39.0359],[-85.9056,39.0404],[-85.9544,39.1121],[-85.9479,39.1122],[-85.9478,39.1196],[-85.8837,39.1211],[-85.8795,39.1172],[-85.8819,39.129],[-85.8897,39.1258],[-85.8943,39.1302],[-85.8929,39.1366],[-85.9001,39.1421],[-85.8966,39.1475],[-85.9062,39.1574],[-85.8184,39.1584],[-85.8196,39.1879],[-85.8567,39.1873],[-85.8573,39.2605],[-85.9222,39.2595],[-85.9198,39.2618],[-85.9237,39.2635],[-85.9087,39.2803],[-85.9017,39.3051],[-85.8931,39.3103],[-85.8945,39.3184],[-85.8888,39.3249],[-85.8642,39.3228],[-85.8589,39.3307],[-85.8642,39.3329],[-85.86,39.339],[-85.8644,39.3462],[-85.8575,39.3493],[-86.0856,39.3442]]]},"properties":{"geoid":"18059","state":"18","district":"59","name":"State House District 59","chamber":"House"}},{"type":"Feature","geometry":{"type":"Polygon","coordinates":[[[-86.6876,39.507],[-86.6869,39.4707],[-86.6322,39.4702],[-86.6308,39.3408],[-86.5743,39.3397],[-86.5741,39.2758],[-86.567,39.2752],[-86.5696,39.2665],[-86.5574,39.2685],[-86.5591,39.2648],[-86.5521,39.2597],[-86.5568,39.2594],[-86.5549,39.2516],[-86.464,39.2509],[-86.4633,39.21],[-86.4304,39.2308],[-86.3971,39.2319],[-86.385,39.2408],[-86.3722,39.2383],[-86.3724,39.2509],[-86.3799,39.2511],[-86.3814,39.3398],[-86.2517,39.3417],[-86.2516,39.5167],[-86.1963,39.5183],[-86.1966,39.5477],[-86.1774,39.5479],[-86.1775,39.5625],[-86.1681,39.5628],[-86.1683,39.5775],[-86.159,39.5777],[-86.1591,39.5925],[-86.2484,39.5874],[-86.2576,39.5932],[-86.2559,39.5669],[-86.2696,39.5677],[-86.2698,39.5971],[-86.2777,39.5971],[-86.2857,39.5896],[-86.3169,39.5889],[-86.3169,39.5963],[-86.336,39.5959],[-86.3358,39.5592],[-86.3607,39.5588],[-86.3607,39.5512],[-86.3844,39.5505],[-86.3846,39.5577],[-86.4176,39.5568],[-86.4179,39.6305],[-86.4659,39.63],[-86.4656,39.6008],[-86.6567,39.6014],[-86.652,39.5944],[-86.6596,39.5792],[-86.6542,39.565],[-86.6483,39.5659],[-86.6533,39.5594],[-86.6514,39.55],[-86.661,39.547],[-86.6633,39.5394],[-86.6727,39.5354],[-86.6729,39.5295],[-86.6876,39.5219],[-86.6876,39.507]]]},"properties":{"geoid":"18060","state":"18","district":"60","name":"State House District 60","chamber":"House"}},{"type":"Feature","geometry":{"type":"Polygon","coordinates":[[[-86.5736,39.1723],[-86.5724,39.1342],[-86.5531,39.144],[-86.5451,39.14],[-86.5367,39.1466],[-86.5351,39.136],[-86.5176,39.1307],[-86.5159,39.136],[-86.5082,39.1365],[-86.5084,39.1505],[-86.5038,39.1505],[-86.4995,39.1405],[-86.497,39.1451],[-86.4712,39.1503],[-86.4722,39.1768],[-86.4771,39.1722],[-86.476,39.1767],[-86.4899,39.177],[-86.491,39.1861],[-86.5005,39.1934],[-86.5006,39.2043],[-86.5135,39.2004],[-86.51,39.208],[-86.5473,39.2065],[-86.5492,39.2214],[-86.5575,39.1816],[-86.5736,39.1723]]]},"properties":{"geoid":"18061","state":"18","district":"61","name":"State House District 61","chamber":"House"}},{"type":"Feature","geometry":{"type":"Polygon","coordinates":[[[-86.683,39.1657],[-86.6823,38.9924],[-86.2804,38.991],[-86.2771,38.8596],[-86.1315,38.862],[-86.1342,38.9628],[-86.0954,38.9635],[-86.0961,38.9924],[-86.0608,38.9927],[-86.0617,39.036],[-86.0799,39.0361],[-86.0856,39.3442],[-86.3814,39.3398],[-86.3799,39.2511],[-86.3724,39.2509],[-86.3722,39.2383],[-86.385,39.2408],[-86.3971,39.2319],[-86.4304,39.2308],[-86.4633,39.21],[-86.464,39.2509],[-86.5549,39.2516],[-86.5568,39.2594],[-86.5521,39.2597],[-86.5591,39.2648],[-86.5574,39.2685],[-86.5694,39.2663],[-86.567,39.2752],[-86.5732,39.2764],[-86.5735,39.1734],[-86.5575,39.1816],[-86.5492,39.2214],[-86.5473,39.2065],[-86.51,39.208],[-86.5135,39.2004],[-86.5006,39.2043],[-86.5005,39.1934],[-86.491,39.1861],[-86.4899,39.177],[-86.476,39.1767],[-86.4771,39.1722],[-86.4722,39.1768],[-86.4712,39.1503],[-86.497,39.1451],[-86.4995,39.1405],[-86.5038,39.1505],[-86.5084,39.1505],[-86.5082,39.1365],[-86.5159,39.136],[-86.5174,39.1308],[-86.5351,39.136],[-86.5367,39.1466],[-86.5451,39.14],[-86.5531,39.144],[-86.5724,39.1342],[-86.5733,39.1646],[-86.683,39.1657]]]},"properties":{"geoid":"18062","state":"18","district":"62","name":"State House District 62","chamber":"House"}},{"type":"Feature","geometry":{"type":"Polygon","coordinates":[[[-87.2794,38.6931],[-87.2611,38.6867],[-87.2735,38.6819],[-87.2606,38.667],[-87.257,38.666],[-87.25,38.6789],[-87.246,38.6779],[-87.2585,38.662],[-87.2553,38.6548],[-87.2389,38.6596],[-87.2392,38.6477],[-87.2485,38.6529],[-87.2523,38.6504],[-87.2359,38.6357],[-87.2528,38.6324],[-87.2386,38.6145],[-87.2407,38.6096],[-87.2496,38.6151],[-87.2553,38.6124],[-87.2391,38.6035],[-87.2486,38.5996],[-87.2451,38.5956],[-87.2494,38.5869],[-87.238,38.5819],[-87.2397,38.5735],[-87.2479,38.57],[-87.2373,38.5631],[-87.2482,38.5581],[-87.2374,38.5524],[-87.2421,38.5449],[-87.2231,38.5391],[-87.2297,38.5271],[-87.2519,38.5125],[-87.2623,38.4904],[-87.2718,38.4902],[-87.2673,38.466],[-87.2494,38.4527],[-87.24,38.4218],[-87.0732,38.4224],[-87.0731,38.2038],[-86.9984,38.2034],[-86.9982,38.2326],[-86.9748,38.2325],[-86.9727,38.2473],[-86.9795,38.2472],[-86.9796,38.262],[-86.9635,38.2621],[-86.9612,38.2724],[-86.9669,38.273],[-86.9644,38.2789],[-86.9702,38.2806],[-86.962,38.2826],[-86.9632,38.2866],[-86.9702,38.2839],[-86.9665,38.2912],[-86.9888,38.2915],[-86.9889,38.2983],[-86.9766,38.3012],[-86.9841,38.3134],[-86.9795,38.323],[-86.9515,38.3245],[-86.9509,38.3352],[-86.8859,38.3364],[-86.8859,38.3507],[-86.7928,38.3511],[-86.7932,38.526],[-86.6824,38.5264],[-86.6829,38.9047],[-86.9043,38.9042],[-86.9042,38.8175],[-87.1301,38.8183],[-87.1303,38.8478],[-87.1419,38.848],[-87.1406,38.8435],[-87.1493,38.8384],[-87.16,38.8447],[-87.1836,38.8474],[-87.186,38.8446],[-87.175,38.8413],[-87.1715,38.8311],[-87.186,38.8346],[-87.188,38.8252],[-87.1963,38.8307],[-87.1972,38.8266],[-87.1898,38.8232],[-87.1922,38.8147],[-87.1979,38.8243],[-87.2037,38.8256],[-87.2031,38.8151],[-87.2127,38.8075],[-87.211,38.8209],[-87.2161,38.8236],[-87.2156,38.8118],[-87.2273,38.8042],[-87.2273,38.813],[-87.2372,38.8109],[-87.2339,38.8166],[-87.2415,38.8175],[-87.2466,38.8077],[-87.2409,38.8015],[-87.2401,38.7821],[-87.2556,38.7787],[-87.2578,38.7695],[-87.2546,38.7649],[-87.2397,38.7673],[-87.2446,38.7582],[-87.239,38.7499],[-87.2439,38.75],[-87.2479,38.7582],[-87.253,38.7553],[-87.2381,38.7423],[-87.248,38.7422],[-87.2545,38.7357],[-87.2474,38.7298],[-87.2487,38.7261],[-87.2617,38.7331],[-87.257,38.7189],[-87.2696,38.7084],[-87.2674,38.7003],[-87.2794,38.6931]]]},"properties":{"geoid":"18063","state":"18","district":"63","name":"State House District 63","chamber":"House"}},{"type":"Feature","geometry":{"type":"Polygon","coordinates":[[[-87.9881,38.2565],[-87.9798,38.2417],[-87.9837,38.2304],[-87.7992,38.2286],[-87.7997,38.2019],[-87.6882,38.201],[-87.6889,38.1247],[-87.6968,38.1248],[-87.6974,38.0803],[-87.6346,38.0804],[-87.6346,38.0948],[-87.6251,38.0948],[-87.5978,38.0944],[-87.598,38.0801],[-87.4725,38.0782],[-87.4721,38.1217],[-87.4679,38.1217],[-87.4655,38.2891],[-87.4096,38.2894],[-87.4079,38.3048],[-87.4073,38.4363],[-87.4445,38.4361],[-87.4445,38.4655],[-87.4625,38.4656],[-87.4629,38.5335],[-87.436,38.5284],[-87.4318,38.5383],[-87.4255,38.5407],[-87.4203,38.5289],[-87.4113,38.5265],[-87.4062,38.5404],[-87.3856,38.5384],[-87.3801,38.5339],[-87.3814,38.5179],[-87.3725,38.5122],[-87.3617,38.5217],[-87.3701,38.538],[-87.3642,38.5437],[-87.3518,38.5422],[-87.324,38.524],[-87.3093,38.5199],[-87.3023,38.5104],[-87.2879,38.5118],[-87.2555,38.5269],[-87.2531,38.5382],[-87.2374,38.5524],[-87.2483,38.5595],[-87.2381,38.5606],[-87.2479,38.57],[-87.2397,38.5735],[-87.2376,38.581],[-87.2494,38.5869],[-87.2451,38.5956],[-87.2486,38.5996],[-87.2393,38.6045],[-87.2454,38.6037],[-87.2553,38.6124],[-87.2496,38.6151],[-87.2388,38.6105],[-87.253,38.6315],[-87.2491,38.6357],[-87.2406,38.6321],[-87.236,38.6351],[-87.2522,38.6477],[-87.2497,38.653],[-87.2392,38.6477],[-87.2387,38.6589],[-87.2553,38.6548],[-87.2585,38.662],[-87.246,38.6779],[-87.2523,38.6769],[-87.2589,38.6662],[-87.2734,38.6811],[-87.2611,38.6867],[-87.2794,38.6926],[-87.2674,38.7003],[-87.2696,38.7084],[-87.2571,38.7218],[-87.2625,38.7289],[-87.4629,38.7287],[-87.463,38.7334],[-87.5062,38.7335],[-87.5195,38.7105],[-87.5196,38.6972],[-87.5312,38.684],[-87.5937,38.6674],[-87.6002,38.6625],[-87.6058,38.6465],[-87.6201,38.6395],[-87.6156,38.625],[-87.6273,38.6054],[-87.6241,38.597],[-87.6124,38.5946],[-87.612,38.5892],[-87.6229,38.5862],[-87.6384,38.5922],[-87.6382,38.5763],[-87.6511,38.569],[-87.6507,38.5562],[-87.6701,38.5452],[-87.6561,38.5217],[-87.6454,38.5138],[-87.6467,38.5078],[-87.6582,38.5017],[-87.6719,38.5076],[-87.6932,38.488],[-87.714,38.4799],[-87.74,38.4792],[-87.75,38.4714],[-87.7559,38.4559],[-87.7357,38.453],[-87.7301,38.4465],[-87.741,38.4356],[-87.7453,38.409],[-87.78,38.3708],[-87.8061,38.3631],[-87.8227,38.3469],[-87.8327,38.3249],[-87.8315,38.2967],[-87.841,38.2801],[-87.8511,38.2751],[-87.8618,38.2786],[-87.8662,38.29],[-87.8605,38.3054],[-87.8705,38.3122],[-87.8794,38.3065],[-87.8878,38.2853],[-87.9101,38.2681],[-87.9195,38.2745],[-87.9085,38.291],[-87.9095,38.2961],[-87.9214,38.2993],[-87.9348,38.2951],[-87.9403,38.2811],[-87.9521,38.2738],[-87.943,38.2578],[-87.9576,38.25],[-87.9602,38.2371],[-87.969,38.2374],[-87.9723,38.247],[-87.9819,38.2564],[-87.9881,38.2565]]]},"properties":{"geoid":"18064","state":"18","district":"64","name":"State House District 64","chamber":"House"}},{"type":"Feature","geometry":{"type":"Polygon","coordinates":[[[-86.684,38.7615],[-86.6822,38.4971],[-86.4568,38.4981],[-86.4567,38.3964],[-86.3089,38.3941],[-86.3084,38.4704],[-86.2344,38.4705],[-86.2334,38.5566],[-86.1967,38.5568],[-86.1975,38.6439],[-86.1601,38.6443],[-86.1612,38.6735],[-86.1243,38.6742],[-86.1282,38.7638],[-86.1667,38.7734],[-86.1691,38.7783],[-86.1598,38.7758],[-86.1634,38.7898],[-86.1506,38.793],[-86.1663,38.8011],[-86.1524,38.8097],[-86.1606,38.8149],[-86.154,38.8184],[-86.1476,38.8146],[-86.1451,38.8223],[-86.1514,38.8254],[-86.1461,38.8297],[-86.1407,38.8247],[-86.1326,38.8299],[-86.1325,38.8356],[-86.1252,38.8374],[-86.1314,38.8413],[-86.1315,38.862],[-86.2771,38.8596],[-86.2804,38.991],[-86.6823,38.9924],[-86.684,38.7615]]]},"properties":{"geoid":"18065","state":"18","district":"65","name":"State House District 65","chamber":"House"}},{"type":"Feature","geometry":{"type":"Polygon","coordinates":[[[-85.8846,38.5081],[-85.8848,38.5035],[-85.8665,38.5039],[-85.8669,38.489],[-85.8329,38.4889],[-85.8219,38.4945],[-85.8113,38.483],[-85.8217,38.4767],[-85.803,38.4569],[-85.8152,38.4506],[-85.8028,38.4482],[-85.8031,38.4522],[-85.7975,38.4518],[-85.7962,38.4448],[-85.7904,38.4455],[-85.7816,38.4374],[-85.774,38.4389],[-85.7696,38.4336],[-85.7935,38.4197],[-85.7898,38.4154],[-85.8076,38.4052],[-85.8082,38.4007],[-85.761,38.3503],[-85.764,38.3485],[-85.7578,38.3477],[-85.747,38.359],[-85.7356,38.3561],[-85.7298,38.3637],[-85.7319,38.3761],[-85.7211,38.3713],[-85.7337,38.384],[-85.7244,38.3799],[-85.7196,38.3908],[-85.695,38.4044],[-85.6895,38.3981],[-85.6792,38.4036],[-85.6773,38.3982],[-85.6851,38.3976],[-85.6836,38.3856],[-85.7005,38.3582],[-85.685,38.357],[-85.6909,38.3536],[-85.6865,38.3547],[-85.688,38.3499],[-85.6818,38.3484],[-85.6827,38.3446],[-85.6677,38.3423],[-85.668,38.3378],[-85.6623,38.3368],[-85.6705,38.3305],[-85.6697,38.3262],[-85.6593,38.3197],[-85.6442,38.3467],[-85.6318,38.3984],[-85.6203,38.4234],[-85.607,38.4386],[-85.5836,38.4508],[-85.5253,38.4575],[-85.5,38.4677],[-85.4697,38.508],[-85.4342,38.5233],[-85.4179,38.5377],[-85.4158,38.564],[-85.4383,38.6055],[-85.4386,38.6589],[-85.4567,38.6864],[-85.4521,38.7096],[-85.4432,38.7189],[-85.4429,38.7382],[-85.5168,38.7379],[-85.5165,38.7163],[-85.5351,38.7158],[-85.5377,38.6793],[-85.6082,38.6787],[-85.6087,38.7079],[-85.6735,38.7064],[-85.6827,38.7043],[-85.6825,38.6935],[-85.7566,38.6933],[-85.7909,38.7234],[-85.8333,38.7269],[-85.8273,38.7224],[-85.8231,38.6487],[-85.8128,38.6486],[-85.8122,38.5756],[-85.8215,38.5754],[-85.8212,38.5614],[-85.8479,38.5613],[-85.8476,38.5471],[-85.8663,38.5471],[-85.8663,38.5184],[-85.8847,38.5182],[-85.8846,38.5081]]]},"properties":{"geoid":"18066","state":"18","district":"66","name":"State House District 66","chamber":"House"}},{"type":"Feature","geometry":{"type":"Polygon","coordinates":[[[-85.7981,39.0277],[-85.7954,38.8075],[-85.7834,38.8071],[-85.7762,38.813],[-85.7718,38.8094],[-85.7677,38.8154],[-85.7576,38.8148],[-85.7539,38.8208],[-85.747,38.8154],[-85.7467,38.8229],[-85.7423,38.8187],[-85.7309,38.8246],[-85.7332,38.8318],[-85.7232,38.823],[-85.7126,38.8285],[-85.7033,38.8166],[-85.6838,38.8154],[-85.6833,38.7367],[-85.6644,38.7369],[-85.6643,38.73],[-85.6462,38.7299],[-85.6458,38.708],[-85.6087,38.7079],[-85.6082,38.6787],[-85.5348,38.6794],[-85.5351,38.7158],[-85.5165,38.7163],[-85.5168,38.7379],[-85.4429,38.7382],[-85.4432,38.7189],[-85.4359,38.7287],[-85.416,38.7366],[-85.3636,38.7305],[-85.2959,38.7421],[-85.2955,38.8256],[-85.2031,38.8257],[-85.2028,38.9285],[-85.1358,38.9296],[-85.0819,39.2223],[-85.3153,39.2208],[-85.3152,39.2587],[-85.3342,39.249],[-85.3334,39.2646],[-85.3855,39.2636],[-85.3857,39.2931],[-85.5175,39.292],[-85.5174,39.1904],[-85.5457,39.1909],[-85.5457,39.1979],[-85.6039,39.1974],[-85.6026,39.132],[-85.6498,39.1315],[-85.6497,39.0291],[-85.7981,39.0277]]]},"properties":{"geoid":"18067","state":"18","district":"67","name":"State House District 67","chamber":"House"}},{"type":"Feature","geometry":{"type":"Polygon","coordinates":[[[-85.2959,38.7424],[-85.257,38.7371],[-85.2465,38.7317],[-85.2149,38.6965],[-85.1889,38.6876],[-85.1732,38.688],[-85.1374,38.6999],[-85.102,38.7263],[-84.9919,38.7783],[-84.9411,38.7757],[-84.8874,38.7948],[-84.8289,38.7833],[-84.813,38.7859],[-84.814,38.8002],[-84.83,38.8301],[-84.8236,38.8389],[-84.7915,38.86],[-84.7853,38.8804],[-84.8122,38.895],[-84.8666,38.8988],[-84.8772,38.9094],[-84.8769,38.9217],[-84.8343,38.9588],[-84.83,38.9726],[-84.8386,38.9899],[-84.8858,39.0377],[-84.8974,39.0574],[-84.8891,39.0661],[-84.8624,39.0771],[-84.8202,39.1054],[-84.8195,39.3052],[-85.0656,39.3072],[-85.1358,38.9296],[-85.2028,38.9285],[-85.2031,38.8257],[-85.2955,38.8256],[-85.2959,38.7424]]]},"properties":{"geoid":"18068","state":"18","district":"68","name":"State House District 68","chamber":"House"}},{"type":"Feature","geometry":{"type":"Polygon","coordinates":[[[-86.1975,38.6439],[-86.1967,38.5568],[-85.8212,38.5614],[-85.8215,38.5754],[-85.8122,38.5756],[-85.8128,38.6486],[-85.8231,38.6487],[-85.8273,38.7224],[-85.8333,38.7269],[-85.7909,38.7234],[-85.7566,38.6933],[-85.6825,38.6935],[-85.6827,38.7043],[-85.6458,38.708],[-85.6462,38.7299],[-85.6643,38.73],[-85.6644,38.7369],[-85.6833,38.7367],[-85.6838,38.8154],[-85.7033,38.8166],[-85.7126,38.8285],[-85.7232,38.823],[-85.7332,38.8318],[-85.7309,38.8246],[-85.7423,38.8187],[-85.7467,38.8229],[-85.747,38.8154],[-85.7539,38.8208],[-85.7576,38.8148],[-85.7677,38.8154],[-85.7718,38.8094],[-85.7762,38.813],[-85.7834,38.8071],[-85.7954,38.8075],[-85.7988,39.0685],[-85.8229,39.0697],[-85.8283,39.0636],[-85.842,39.063],[-85.8472,39.0565],[-85.8557,39.0662],[-85.8545,39.0757],[-85.8603,39.0788],[-85.8589,39.0942],[-85.8693,39.0944],[-85.8664,39.1033],[-85.8811,39.1138],[-85.8815,39.1203],[-85.9478,39.1196],[-85.9479,39.1122],[-85.9544,39.1121],[-85.9056,39.0404],[-86.0617,39.036],[-86.0608,38.9927],[-86.0961,38.9924],[-86.0954,38.9635],[-86.1342,38.9628],[-86.1315,38.8424],[-86.1248,38.8383],[-86.1407,38.8247],[-86.1461,38.8297],[-86.1514,38.8254],[-86.1451,38.8223],[-86.1476,38.8146],[-86.154,38.8184],[-86.1606,38.8149],[-86.1524,38.8097],[-86.1663,38.8011],[-86.1506,38.793],[-86.1634,38.7898],[-86.1598,38.7758],[-86.1691,38.7783],[-86.1667,38.7734],[-86.1282,38.7638],[-86.1243,38.6742],[-86.1612,38.6735],[-86.1601,38.6443],[-86.1975,38.6439]]]},"properties":{"geoid":"18069","state":"18","district":"69","name":"State House District 69","chamber":"House"}},{"type":"Feature","geometry":{"type":"Polygon","coordinates":[[[-86.3296,38.1818],[-86.2914,38.1615],[-86.2718,38.1389],[-86.2786,38.0864],[-86.2678,38.0571],[-86.2333,38.0396],[-86.2202,38.028],[-86.1782,38.0106],[-86.1253,38.0162],[-86.0946,38.0088],[-86.0739,37.9955],[-86.0773,37.9974],[-86.0511,37.9613],[-86.0389,37.959],[-86.0341,37.9654],[-86.035,37.9843],[-86.0304,37.9921],[-86.0095,37.9984],[-85.9471,38.0051],[-85.9284,38.0185],[-85.9207,38.0323],[-85.9151,38.0676],[-85.9044,38.0972],[-85.9091,38.1426],[-85.9001,38.1855],[-85.958,38.1859],[-85.9552,38.2577],[-85.9738,38.2581],[-85.9737,38.2728],[-85.9924,38.2728],[-85.9953,38.3018],[-86.0142,38.3018],[-86.0143,38.331],[-85.9017,38.3318],[-85.898,38.3262],[-85.8989,38.3347],[-85.9059,38.3395],[-85.9021,38.3423],[-85.9074,38.3401],[-85.9132,38.3423],[-85.9113,38.3455],[-85.9026,38.3506],[-85.8799,38.3515],[-85.8738,38.3591],[-85.8615,38.3573],[-85.8502,38.3678],[-85.8292,38.3661],[-85.828,38.4043],[-85.8077,38.4043],[-85.7898,38.4154],[-85.7935,38.4197],[-85.7694,38.4335],[-85.774,38.4389],[-85.7816,38.4374],[-85.7904,38.4455],[-85.7962,38.4448],[-85.7972,38.4517],[-85.8031,38.4522],[-85.8028,38.4482],[-85.8152,38.4506],[-85.803,38.4569],[-85.8217,38.4767],[-85.8113,38.483],[-85.8219,38.4945],[-85.8329,38.4889],[-85.8669,38.489],[-85.8665,38.5039],[-85.8848,38.5035],[-85.8847,38.5182],[-85.8663,38.5184],[-85.8663,38.5471],[-85.8476,38.5471],[-85.8479,38.5616],[-86.2334,38.5566],[-86.2344,38.4705],[-86.3084,38.4704],[-86.3087,38.4229],[-86.255,38.4227],[-86.2648,38.4109],[-86.2517,38.4061],[-86.2514,38.3956],[-86.2599,38.3982],[-86.2613,38.3944],[-86.2455,38.388],[-86.2517,38.3831],[-86.259,38.3894],[-86.2612,38.381],[-86.258,38.3668],[-86.2481,38.3633],[-86.2528,38.3557],[-86.247,38.3498],[-86.2508,38.3485],[-86.2656,38.3622],[-86.2817,38.3498],[-86.2751,38.3495],[-86.2715,38.342],[-86.2766,38.3394],[-86.2733,38.3217],[-86.2808,38.3225],[-86.2853,38.332],[-86.2832,38.3242],[-86.2897,38.3161],[-86.2762,38.3085],[-86.2758,38.3004],[-86.2696,38.3079],[-86.2593,38.3061],[-86.2648,38.3032],[-86.2649,38.2952],[-86.2551,38.2965],[-86.2531,38.2919],[-86.2575,38.2837],[-86.2659,38.2861],[-86.2693,38.2785],[-86.2771,38.2865],[-86.2805,38.2846],[-86.2748,38.28],[-86.277,38.2271],[-86.2843,38.2207],[-86.2933,38.2246],[-86.2981,38.2209],[-86.2886,38.2136],[-86.2951,38.2091],[-86.2897,38.202],[-86.3076,38.2016],[-86.3106,38.1893],[-86.3182,38.1881],[-86.31,38.1818],[-86.3128,38.1781],[-86.3296,38.1818]]]},"properties":{"geoid":"18070","state":"18","district":"70","name":"State House District 70","chamber":"House"}},{"type":"Feature","geometry":{"type":"Polygon","coordinates":[[[-85.8071,38.2927],[-85.8024,38.2847],[-85.7869,38.2885],[-85.7731,38.2858],[-85.7613,38.2721],[-85.7441,38.2672],[-85.6738,38.3022],[-85.6593,38.3197],[-85.6705,38.3305],[-85.6624,38.337],[-85.668,38.3378],[-85.6677,38.3423],[-85.6827,38.3446],[-85.6818,38.3484],[-85.688,38.3499],[-85.6865,38.3547],[-85.6909,38.3536],[-85.685,38.357],[-85.7007,38.3598],[-85.6836,38.3856],[-85.6851,38.3976],[-85.677,38.4014],[-85.6895,38.3981],[-85.695,38.4044],[-85.7196,38.3908],[-85.7244,38.3799],[-85.7337,38.384],[-85.7208,38.3717],[-85.732,38.376],[-85.7298,38.3637],[-85.7372,38.3548],[-85.747,38.359],[-85.7589,38.3471],[-85.7899,38.3399],[-85.7829,38.3322],[-85.7971,38.3316],[-85.7944,38.3251],[-85.7831,38.3205],[-85.7937,38.3146],[-85.7876,38.3091],[-85.796,38.3066],[-85.7915,38.3007],[-85.8071,38.2927]]]},"properties":{"geoid":"18071","state":"18","district":"71","name":"State House District 71","chamber":"House"}},{"type":"Feature","geometry":{"type":"Polygon","coordinates":[[[-86.0144,38.3176],[-86.0142,38.3018],[-85.9953,38.3018],[-85.9924,38.2728],[-85.9737,38.2728],[-85.9738,38.2581],[-85.9552,38.2577],[-85.958,38.1859],[-85.9001,38.1855],[-85.8996,38.1804],[-85.8775,38.2057],[-85.844,38.2316],[-85.8389,38.2403],[-85.8366,38.2641],[-85.8291,38.2766],[-85.8024,38.2847],[-85.8072,38.2927],[-85.7915,38.3007],[-85.796,38.3066],[-85.7876,38.3091],[-85.7937,38.3146],[-85.7829,38.3208],[-85.7944,38.3251],[-85.797,38.3329],[-85.7833,38.3319],[-85.7899,38.3399],[-85.783,38.3389],[-85.761,38.3503],[-85.8077,38.4043],[-85.828,38.4043],[-85.8272,38.3675],[-85.8502,38.3678],[-85.8615,38.3573],[-85.8737,38.3592],[-85.8799,38.3515],[-85.9041,38.3501],[-85.9132,38.3423],[-85.9022,38.3424],[-85.9059,38.3395],[-85.8989,38.3347],[-85.898,38.3262],[-85.9017,38.3318],[-86.0143,38.331],[-86.0144,38.3176]]]},"properties":{"geoid":"18072","state":"18","district":"72","name":"State House District 72","chamber":"House"}},{"type":"Feature","geometry":{"type":"Polygon","coordinates":[[[-85.9237,39.2637],[-85.9198,39.2618],[-85.9222,39.2595],[-85.8573,39.2605],[-85.8567,39.1873],[-85.8196,39.1879],[-85.8184,39.1584],[-85.9062,39.1574],[-85.8966,39.1475],[-85.9001,39.1421],[-85.8929,39.1366],[-85.8943,39.1302],[-85.8897,39.1258],[-85.8819,39.129],[-85.8772,39.1206],[-85.8811,39.1138],[-85.8674,39.1053],[-85.8693,39.0944],[-85.8591,39.0946],[-85.8603,39.0788],[-85.8545,39.0757],[-85.8577,39.0725],[-85.8492,39.0574],[-85.8416,39.0633],[-85.8283,39.0636],[-85.8229,39.0697],[-85.7988,39.0685],[-85.7981,39.0277],[-85.6497,39.0291],[-85.6498,39.1315],[-85.6026,39.132],[-85.6039,39.1974],[-85.5457,39.1979],[-85.5457,39.1909],[-85.5174,39.1904],[-85.5175,39.292],[-85.3857,39.2931],[-85.3855,39.367],[-85.4232,39.3666],[-85.4231,39.396],[-85.4604,39.3958],[-85.4607,39.3808],[-85.5081,39.3804],[-85.5071,39.4528],[-85.6293,39.4528],[-85.6328,39.6257],[-85.7058,39.6259],[-85.7038,39.555],[-85.8373,39.5545],[-85.8367,39.4383],[-85.8448,39.4382],[-85.8468,39.3751],[-85.8505,39.3709],[-85.8464,39.3668],[-85.8614,39.3586],[-85.8575,39.3491],[-85.8644,39.3462],[-85.86,39.339],[-85.8642,39.3329],[-85.8591,39.3294],[-85.8686,39.3215],[-85.8757,39.3265],[-85.8888,39.3249],[-85.8945,39.3184],[-85.8931,39.3103],[-85.9017,39.3051],[-85.9087,39.2803],[-85.9237,39.2637]]]},"properties":{"geoid":"18073","state":"18","district":"73","name":"State House District 73","chamber":"House"}},{"type":"Feature","geometry":{"type":"Polygon","coordinates":[[[-87.2684,37.8792],[-87.2203,37.849],[-87.1617,37.8398],[-87.1411,37.8155],[-87.129,37.7857],[-87.1138,37.7823],[-87.0972,37.7849],[-87.0775,37.795],[-87.0632,37.8115],[-87.0431,37.8689],[-87.0459,37.8926],[-87.0342,37.9063],[-86.9762,37.9311],[-86.9189,37.9368],[-86.902,37.9464],[-86.8609,37.9844],[-86.8197,37.9994],[-86.795,37.9892],[-86.7778,37.9517],[-86.7325,37.8948],[-86.7174,37.8935],[-86.6808,37.915],[-86.6504,37.9109],[-86.6443,37.8965],[-86.6614,37.8622],[-86.6603,37.8468],[-86.6435,37.8419],[-86.6121,37.8538],[-86.5976,37.8684],[-86.6001,37.9052],[-86.5887,37.9211],[-86.5338,37.9172],[-86.5069,37.9302],[-86.5093,37.9423],[-86.5249,37.9665],[-86.5217,38.0396],[-86.5088,38.045],[-86.4539,38.0501],[-86.4361,38.0629],[-86.4306,38.0753],[-86.434,38.0864],[-86.4628,38.0994],[-86.4666,38.1121],[-86.4615,38.1207],[-86.449,38.1273],[-86.4323,38.1263],[-86.4019,38.1043],[-86.3808,38.129],[-86.3387,38.1279],[-86.3251,38.1363],[-86.3211,38.1466],[-86.3259,38.154],[-86.3723,38.1646],[-86.3779,38.1732],[-86.3776,38.1872],[-86.3721,38.195],[-86.3577,38.1988],[-86.3312,38.1824],[-86.3128,38.1781],[-86.31,38.1818],[-86.3182,38.1881],[-86.3106,38.1893],[-86.3076,38.2016],[-86.2897,38.202],[-86.2951,38.2091],[-86.2886,38.2136],[-86.2981,38.2209],[-86.2933,38.2246],[-86.2843,38.2207],[-86.277,38.2271],[-86.2748,38.28],[-86.2805,38.2846],[-86.2771,38.2865],[-86.2693,38.2785],[-86.2655,38.2862],[-86.257,38.284],[-86.2528,38.293],[-86.2551,38.2965],[-86.2649,38.2952],[-86.2648,38.3032],[-86.2593,38.3061],[-86.2696,38.3079],[-86.2767,38.3007],[-86.2762,38.3085],[-86.2897,38.3165],[-86.2832,38.3242],[-86.2853,38.332],[-86.2808,38.3225],[-86.2735,38.3211],[-86.2766,38.3394],[-86.2715,38.342],[-86.2751,38.3495],[-86.2818,38.3491],[-86.2711,38.3611],[-86.265,38.362],[-86.2508,38.3485],[-86.247,38.3498],[-86.2528,38.3557],[-86.2481,38.3633],[-86.258,38.3668],[-86.2612,38.381],[-86.259,38.3894],[-86.2517,38.3831],[-86.2455,38.388],[-86.2613,38.3944],[-86.2599,38.3982],[-86.2514,38.3956],[-86.2517,38.4061],[-86.2648,38.4109],[-86.255,38.4227],[-86.3087,38.4229],[-86.3089,38.3941],[-86.4567,38.3964],[-86.4568,38.4981],[-86.6822,38.4971],[-86.6824,38.5264],[-86.7932,38.526],[-86.7928,38.3511],[-86.8859,38.3507],[-86.8859,38.3364],[-86.9509,38.3352],[-86.9515,38.3245],[-86.9795,38.323],[-86.9841,38.3134],[-86.9766,38.3012],[-86.9889,38.2983],[-86.9888,38.2915],[-86.9665,38.2912],[-86.9702,38.2839],[-86.9632,38.2866],[-86.962,38.2826],[-86.9702,38.2806],[-86.9644,38.2789],[-86.9669,38.273],[-86.9612,38.2723],[-86.9635,38.2621],[-86.9796,38.262],[-86.9795,38.2472],[-86.9727,38.2473],[-86.9748,38.2325],[-86.9982,38.2326],[-86.9984,38.2034],[-87.0175,38.2036],[-87.0175,38.1183],[-87.0723,38.1183],[-87.0747,38.0971],[-87.0888,38.0841],[-87.0979,38.0593],[-87.0884,38.0527],[-87.0896,38.0489],[-87.125,38.0439],[-87.133,38.055],[-87.1488,38.0586],[-87.1566,38.0406],[-87.1541,38.0322],[-87.1663,38.0301],[-87.1539,38.0254],[-87.1536,38.0195],[-87.1692,38.0182],[-87.1728,38.0098],[-87.183,38.0106],[-87.1757,38.0069],[-87.1759,38.0027],[-87.1833,38.0026],[-87.1962,37.9875],[-87.2263,37.9712],[-87.2315,37.9484],[-87.2409,37.9523],[-87.268,37.9252],[-87.2684,37.8792]]]},"properties":{"geoid":"18074","state":"18","district":"74","name":"State House District 74","chamber":"House"}},{"type":"Feature","geometry":{"type":"Polygon","coordinates":[[[-87.4732,38.0423],[-87.473,38.0349],[-87.4499,38.0352],[-87.4499,37.9912],[-87.4138,37.9911],[-87.414,37.9694],[-87.4049,37.9693],[-87.404,37.9512],[-87.392,37.9513],[-87.4042,37.9429],[-87.3717,37.9312],[-87.3444,37.911],[-87.3188,37.9053],[-87.269,37.878],[-87.268,37.9252],[-87.2409,37.9523],[-87.2315,37.9484],[-87.2263,37.9712],[-87.1962,37.9875],[-87.1833,38.0026],[-87.1759,38.0027],[-87.1757,38.0069],[-87.183,38.0106],[-87.1728,38.0098],[-87.1692,38.0182],[-87.1536,38.0195],[-87.1539,38.0254],[-87.1663,38.0301],[-87.1541,38.0322],[-87.1566,38.0406],[-87.1488,38.0586],[-87.133,38.055],[-87.125,38.0439],[-87.0896,38.0489],[-87.0884,38.0527],[-87.0979,38.0593],[-87.0888,38.0841],[-87.0747,38.0971],[-87.0723,38.1183],[-87.0175,38.1183],[-87.0175,38.2036],[-87.0731,38.2038],[-87.0732,38.4224],[-87.24,38.4218],[-87.2492,38.4523],[-87.267,38.4656],[-87.2682,38.4822],[-87.2731,38.4871],[-87.2623,38.4904],[-87.2519,38.5125],[-87.2297,38.5271],[-87.2231,38.5391],[-87.2376,38.5455],[-87.2476,38.5436],[-87.2559,38.5266],[-87.2879,38.5118],[-87.3012,38.5103],[-87.3093,38.5199],[-87.3586,38.5442],[-87.3699,38.5392],[-87.3614,38.5231],[-87.3697,38.5122],[-87.3814,38.5179],[-87.3801,38.5339],[-87.3856,38.5384],[-87.4062,38.5404],[-87.4113,38.5265],[-87.4203,38.5289],[-87.4255,38.5407],[-87.4318,38.5383],[-87.436,38.5284],[-87.4629,38.5335],[-87.4625,38.4656],[-87.4445,38.4655],[-87.4445,38.4361],[-87.4073,38.4363],[-87.4079,38.3048],[-87.4096,38.2894],[-87.4655,38.2891],[-87.4732,38.0423]]]},"properties":{"geoid":"18075","state":"18","district":"75","name":"State House District 75","chamber":"House"}},{"type":"Feature","geometry":{"type":"Polygon","coordinates":[[[-88.0978,37.904],[-88.095,37.8937],[-88.0785,37.8791],[-88.065,37.8532],[-88.0314,37.8412],[-88.0259,37.8327],[-88.0315,37.8251],[-88.0438,37.8215],[-88.0819,37.8307],[-88.0915,37.8232],[-88.0887,37.8155],[-88.0669,37.8006],[-88.0376,37.8099],[-88.0298,37.8063],[-88.028,37.7992],[-88.0047,37.8001],[-87.9537,37.7718],[-87.9455,37.7739],[-87.9341,37.7964],[-87.9078,37.8068],[-87.9044,37.8125],[-87.91,37.843],[-87.9369,37.8687],[-87.9407,37.8845],[-87.9086,37.9217],[-87.8969,37.9279],[-87.875,37.9229],[-87.8397,37.8808],[-87.8298,37.8764],[-87.7914,37.8757],[-87.7592,37.8917],[-87.7182,37.8926],[-87.6844,37.9037],[-87.675,37.9016],[-87.664,37.8875],[-87.6817,37.8563],[-87.6777,37.8342],[-87.6703,37.828],[-87.6538,37.8261],[-87.621,37.8301],[-87.5975,37.848],[-87.5837,37.8781],[-87.5929,37.8898],[-87.6204,37.9074],[-87.6273,37.9204],[-87.6174,37.9383],[-87.6224,37.9362],[-87.6106,37.9445],[-87.6097,37.981],[-87.6048,37.9809],[-87.6049,37.9879],[-87.6147,37.9905],[-87.6182,37.9989],[-87.6097,37.9969],[-87.6102,38.0032],[-87.6,38.0007],[-87.5926,38.0057],[-87.591,38.0002],[-87.5837,38.003],[-87.5746,37.9954],[-87.5743,38.0098],[-87.5651,38.0105],[-87.5651,38.014],[-87.555,38.0079],[-87.5501,38.0105],[-87.5417,38.0392],[-87.5601,38.0337],[-87.5718,38.0412],[-87.5821,38.036],[-87.599,38.0368],[-87.5978,38.0944],[-87.6346,38.0948],[-87.6346,38.0804],[-87.6974,38.0803],[-87.6968,38.1248],[-87.6889,38.1247],[-87.6882,38.201],[-87.7997,38.2019],[-87.7992,38.2286],[-87.9837,38.2304],[-87.9828,38.2067],[-87.9699,38.1918],[-87.9372,38.1722],[-87.9346,38.1567],[-87.926,38.1593],[-87.9217,38.1738],[-87.9131,38.1715],[-87.911,38.1622],[-87.9279,38.1516],[-87.9258,38.1436],[-87.9455,38.1266],[-87.9549,38.1326],[-87.9664,38.1325],[-87.973,38.125],[-87.9761,38.1096],[-87.9982,38.1086],[-88.0151,38.1014],[-88.0141,38.0888],[-88.0067,38.0839],[-87.9602,38.0999],[-87.9567,38.0862],[-87.9672,38.0671],[-88.0013,38.0515],[-88.03,38.0521],[-88.0421,38.0463],[-88.0415,38.0373],[-88.0341,38.032],[-88.0176,38.0347],[-88.0079,38.0308],[-88.021,38.0193],[-88.0258,38.0072],[-88.0126,37.9771],[-88.0129,37.9665],[-88.0209,37.9594],[-88.0368,37.9568],[-88.0303,37.931],[-88.0341,37.9262],[-88.045,37.9251],[-88.0571,37.9342],[-88.0695,37.9257],[-88.0622,37.9179],[-88.0208,37.9138],[-88.0152,37.8908],[-88.0554,37.8912],[-88.0862,37.9057],[-88.0978,37.904]]]},"properties":{"geoid":"18076","state":"18","district":"76","name":"State House District 76","chamber":"House"}},{"type":"Feature","geometry":{"type":"Polygon","coordinates":[[[-87.6182,37.9978],[-87.6147,37.9905],[-87.6049,37.9878],[-87.6048,37.9809],[-87.6097,37.981],[-87.6106,37.9445],[-87.6014,37.9713],[-87.5849,37.9745],[-87.575,37.9659],[-87.5775,37.9517],[-87.5736,37.9517],[-87.5609,37.9321],[-87.511,37.9062],[-87.4512,37.9408],[-87.4507,37.9478],[-87.4717,37.9477],[-87.4714,37.9548],[-87.4928,37.955],[-87.4927,37.968],[-87.4743,37.9694],[-87.4741,37.9767],[-87.4926,37.9768],[-87.4927,37.9848],[-87.5018,37.9893],[-87.5201,37.9858],[-87.5292,37.9887],[-87.5385,37.9816],[-87.5383,37.9918],[-87.5563,37.9939],[-87.5709,37.9885],[-87.5786,38.0014],[-87.591,38.0002],[-87.5926,38.0057],[-87.6,38.0007],[-87.6102,38.0032],[-87.6097,37.9969],[-87.6182,37.9978]]]},"properties":{"geoid":"18077","state":"18","district":"77","name":"State House District 77","chamber":"House"}},{"type":"Feature","geometry":{"type":"Polygon","coordinates":[[[-87.599,38.0375],[-87.5821,38.036],[-87.5718,38.0412],[-87.5601,38.0337],[-87.5424,38.0401],[-87.5501,38.0105],[-87.555,38.0079],[-87.5651,38.014],[-87.5651,38.0105],[-87.5743,38.0098],[-87.5747,37.9913],[-87.5657,37.9884],[-87.5563,37.9939],[-87.5383,37.9918],[-87.5385,37.9816],[-87.5292,37.9887],[-87.5201,37.9858],[-87.5018,37.9893],[-87.4927,37.9848],[-87.4926,37.9768],[-87.4741,37.9767],[-87.4743,37.9694],[-87.4927,37.968],[-87.4928,37.955],[-87.4714,37.9548],[-87.4717,37.9477],[-87.4507,37.9478],[-87.4512,37.9408],[-87.4283,37.9449],[-87.4042,37.9429],[-87.3919,37.949],[-87.404,37.9512],[-87.4049,37.9693],[-87.414,37.9694],[-87.4138,37.9911],[-87.4499,37.9912],[-87.4499,38.0352],[-87.473,38.0349],[-87.4725,38.0782],[-87.598,38.0801],[-87.599,38.0375]]]},"properties":{"geoid":"18078","state":"18","district":"78","name":"State House District 78","chamber":"House"}},{"type":"Feature","geometry":{"type":"Polygon","coordinates":[[[-85.336,40.9171],[-85.3337,40.5673],[-85.2011,40.5672],[-85.2009,40.4795],[-84.8031,40.4847],[-84.8029,40.9226],[-85.336,40.9171]]]},"properties":{"geoid":"18079","state":"18","district":"79","name":"State House District 79","chamber":"House"}},{"type":"Feature","geometry":{"type":"Polygon","coordinates":[[[-85.2207,41.0403],[-85.2178,41.0335],[-85.1942,41.0416],[-85.194,41.0359],[-85.1892,41.0359],[-85.1887,41.0165],[-85.2073,41.0142],[-85.2072,41.0021],[-85.2011,41.002],[-85.201,40.9964],[-85.207,40.9964],[-85.207,40.9891],[-85.1975,40.9878],[-85.1975,40.9818],[-85.2069,40.9784],[-85.2019,40.9746],[-85.2101,40.9683],[-85.2058,40.9651],[-85.1943,40.9745],[-85.1787,40.9746],[-85.1788,40.9819],[-85.1729,40.9819],[-85.173,40.9892],[-85.1684,40.9892],[-85.1689,41.0022],[-85.1595,41.0022],[-85.1596,41.0094],[-85.1512,41.0048],[-85.1481,41.0173],[-85.1264,41.0135],[-85.1262,41.0031],[-85.1054,41.0104],[-85.0863,41.0108],[-85.0863,41.018],[-85.0731,41.0183],[-85.0795,41.0327],[-85.0865,41.0327],[-85.0869,41.0435],[-85.078,41.0472],[-85.0726,41.0473],[-85.0722,41.0328],[-85.0393,41.0336],[-85.0446,41.0403],[-85.0631,41.0478],[-85.0635,41.0621],[-85.0778,41.0617],[-85.0783,41.0534],[-85.0998,41.0614],[-85.0967,41.0542],[-85.1089,41.0538],[-85.1092,41.0609],[-85.1524,41.0641],[-85.1497,41.0587],[-85.1612,41.0609],[-85.1866,41.0456],[-85.2146,41.0448],[-85.2207,41.0403]]]},"properties":{"geoid":"18080","state":"18","district":"80","name":"State House District 80","chamber":"House"}},{"type":"Feature","geometry":{"type":"Polygon","coordinates":[[[-85.3383,41.1791],[-85.337,41.0897],[-85.1706,41.0886],[-85.1732,41.0962],[-85.164,41.1033],[-85.1685,41.107],[-85.1687,41.1177],[-85.1155,41.1171],[-85.1171,41.1332],[-85.1214,41.1331],[-85.1169,41.1477],[-85.1194,41.1785],[-85.1476,41.1779],[-85.1475,41.196],[-85.1328,41.1998],[-85.1334,41.2143],[-85.1135,41.2146],[-85.1238,41.2071],[-85.1224,41.2036],[-85.1143,41.2047],[-85.1142,41.2001],[-85.0761,41.2004],[-85.0778,41.2656],[-85.3078,41.2642],[-85.3098,41.1789],[-85.3383,41.1791]]]},"properties":{"geoid":"18081","state":"18","district":"81","name":"State House District 81","chamber":"House"}},{"type":"Feature","geometry":{"type":"Polygon","coordinates":[[[-85.1949,41.0784],[-85.1949,41.0746],[-85.1869,41.0746],[-85.1897,41.0456],[-85.1612,41.0609],[-85.1497,41.0587],[-85.1524,41.0641],[-85.1092,41.0609],[-85.1089,41.0538],[-85.0967,41.0542],[-85.0998,41.0614],[-85.0783,41.0534],[-85.0778,41.0746],[-85.0613,41.0754],[-85.0455,41.087],[-85.0273,41.0795],[-85.0261,41.0925],[-85.0526,41.0917],[-85.0537,41.0981],[-85.0792,41.0928],[-85.0817,41.1343],[-85.0996,41.1337],[-85.1002,41.1265],[-85.0907,41.1268],[-85.0904,41.1195],[-85.0999,41.119],[-85.0994,41.1096],[-85.118,41.1187],[-85.1687,41.1177],[-85.1685,41.107],[-85.164,41.1033],[-85.1732,41.0962],[-85.1706,41.0886],[-85.1901,41.0884],[-85.1898,41.0841],[-85.1796,41.0849],[-85.1793,41.0748],[-85.1949,41.0784]]]},"properties":{"geoid":"18082","state":"18","district":"82","name":"State House District 82","chamber":"House"}},{"type":"Feature","geometry":{"type":"Polygon","coordinates":[[[-85.6866,41.1784],[-85.6832,41.0019],[-85.3356,41.0053],[-85.3357,41.0016],[-85.2839,41.0018],[-85.2364,41.0089],[-85.2367,41.0163],[-85.2267,41.0163],[-85.227,41.0439],[-85.2169,41.051],[-85.2145,41.043],[-85.1897,41.0456],[-85.1869,41.0746],[-85.1949,41.0746],[-85.1949,41.0784],[-85.1792,41.0749],[-85.1796,41.0849],[-85.1898,41.0841],[-85.1901,41.0884],[-85.4519,41.0892],[-85.4528,41.1507],[-85.4504,41.1484],[-85.4489,41.1542],[-85.4442,41.1543],[-85.4443,41.1615],[-85.453,41.1642],[-85.4535,41.1782],[-85.5683,41.1777],[-85.5681,41.1672],[-85.5971,41.1696],[-85.6526,41.1861],[-85.6527,41.1785],[-85.6866,41.1784]]]},"properties":{"geoid":"18083","state":"18","district":"83","name":"State House District 83","chamber":"House"}},{"type":"Feature","geometry":{"type":"Polygon","coordinates":[[[-85.1479,41.185],[-85.1476,41.1779],[-85.1194,41.1785],[-85.1169,41.1477],[-85.1214,41.1331],[-85.1166,41.1317],[-85.1162,41.1147],[-85.0994,41.1096],[-85.0999,41.119],[-85.0904,41.1195],[-85.0907,41.1268],[-85.1002,41.1265],[-85.0996,41.1337],[-85.0817,41.1343],[-85.0792,41.0928],[-85.052,41.097],[-85.0466,41.1137],[-85.0226,41.1143],[-85.0182,41.1217],[-85.0231,41.1211],[-85.0239,41.1359],[-85.0048,41.1369],[-85.0069,41.1812],[-85.0755,41.1798],[-85.0761,41.2004],[-85.1142,41.2001],[-85.1143,41.2047],[-85.1237,41.2047],[-85.1135,41.2146],[-85.1334,41.2143],[-85.1328,41.1998],[-85.1475,41.196],[-85.1479,41.185]]]},"properties":{"geoid":"18084","state":"18","district":"84","name":"State House District 84","chamber":"House"}},{"type":"Feature","geometry":{"type":"Polygon","coordinates":[[[-85.3361,40.9228],[-85.336,40.9171],[-85.1812,40.9164],[-84.8029,40.9226],[-84.8036,41.2709],[-85.0778,41.2656],[-85.0755,41.1798],[-85.0069,41.1812],[-85.0048,41.1369],[-85.0239,41.1359],[-85.0199,41.1176],[-85.0466,41.1137],[-85.0461,41.1064],[-85.0509,41.1061],[-85.054,41.0956],[-85.0526,41.0917],[-85.0261,41.0925],[-85.0266,41.08],[-85.0455,41.087],[-85.0613,41.0754],[-85.0778,41.0746],[-85.0777,41.0617],[-85.0635,41.0621],[-85.0631,41.0478],[-85.0446,41.0403],[-85.0393,41.0336],[-85.0722,41.0328],[-85.0726,41.0473],[-85.078,41.0472],[-85.0869,41.0435],[-85.0865,41.0327],[-85.0795,41.0327],[-85.0731,41.0183],[-85.0863,41.018],[-85.0863,41.0108],[-85.1054,41.0104],[-85.1262,41.0031],[-85.1264,41.0135],[-85.1481,41.0173],[-85.1512,41.0048],[-85.1596,41.0094],[-85.1595,41.0022],[-85.1689,41.0022],[-85.1684,40.9892],[-85.173,40.9892],[-85.1729,40.9819],[-85.1788,40.9819],[-85.1787,40.9746],[-85.1943,40.9745],[-85.2058,40.9651],[-85.2101,40.9683],[-85.2019,40.9746],[-85.2069,40.9784],[-85.1975,40.9818],[-85.1975,40.9878],[-85.207,40.9891],[-85.207,40.9964],[-85.201,40.9964],[-85.2011,41.002],[-85.2072,41.0021],[-85.2073,41.0142],[-85.1887,41.0165],[-85.1892,41.0359],[-85.194,41.0359],[-85.1942,41.0416],[-85.2178,41.0335],[-85.2207,41.0438],[-85.2145,41.0448],[-85.2146,41.051],[-85.2192,41.0503],[-85.227,41.0439],[-85.2267,41.0163],[-85.2367,41.0163],[-85.2364,41.0089],[-85.2839,41.0018],[-85.3357,41.0016],[-85.3361,40.9228]]]},"properties":{"geoid":"18085","state":"18","district":"85","name":"State House District 85","chamber":"House"}},{"type":"Feature","geometry":{"type":"Polygon","coordinates":[[[-86.3264,39.921],[-86.3259,39.8823],[-86.3046,39.89],[-86.2805,39.8669],[-86.2599,39.8672],[-86.2598,39.8817],[-86.2363,39.8824],[-86.2365,39.8968],[-86.2179,39.8971],[-86.216,39.8831],[-86.2031,39.8863],[-86.203,39.9055],[-86.1939,39.9056],[-86.1865,39.8977],[-86.1935,39.8974],[-86.1935,39.8854],[-86.1887,39.8853],[-86.1887,39.8803],[-86.165,39.8784],[-86.165,39.8683],[-86.1598,39.8684],[-86.1651,39.851],[-86.1595,39.8504],[-86.1642,39.8427],[-86.1593,39.8337],[-86.1403,39.8324],[-86.1457,39.845],[-86.1405,39.8451],[-86.1399,39.859],[-86.1174,39.8587],[-86.1221,39.8832],[-86.132,39.8793],[-86.1334,39.8712],[-86.146,39.879],[-86.1395,39.8857],[-86.141,39.9052],[-86.1363,39.9125],[-86.1458,39.9125],[-86.1459,39.9235],[-86.1507,39.9271],[-86.3214,39.9242],[-86.3264,39.921]]]},"properties":{"geoid":"18086","state":"18","district":"86","name":"State House District 86","chamber":"House"}},{"type":"Feature","geometry":{"type":"Polygon","coordinates":[[[-86.1459,39.8791],[-86.1334,39.8712],[-86.132,39.8793],[-86.1221,39.8832],[-86.1222,39.8723],[-86.1174,39.8722],[-86.1174,39.8587],[-86.1399,39.859],[-86.1405,39.847],[-86.1221,39.8514],[-86.122,39.8436],[-86.1127,39.855],[-86.0965,39.855],[-86.0843,39.8687],[-86.059,39.8684],[-86.0553,39.8723],[-86.0538,39.8681],[-86.0371,39.8688],[-86.0326,39.855],[-86.0271,39.8549],[-86.0272,39.8475],[-86.0206,39.8442],[-85.9898,39.8602],[-85.9913,39.8736],[-85.9663,39.8751],[-85.9659,39.8815],[-85.9678,39.8862],[-85.9761,39.8874],[-85.9761,39.8983],[-86.0113,39.9032],[-86.0067,39.9101],[-86.0064,39.9271],[-86.0762,39.927],[-86.0746,39.9204],[-86.0884,39.9165],[-86.093,39.9087],[-86.0984,39.9146],[-86.1049,39.9102],[-86.1363,39.9125],[-86.141,39.9052],[-86.1395,39.8857],[-86.1459,39.8791]]]},"properties":{"geoid":"18087","state":"18","district":"87","name":"State House District 87","chamber":"House"}},{"type":"Feature","geometry":{"type":"Polygon","coordinates":[[[-86.0115,39.9036],[-85.9761,39.8983],[-85.9761,39.891],[-85.9381,39.8914],[-85.9381,39.8698],[-85.954,39.8696],[-85.9524,39.7827],[-85.8778,39.7835],[-85.8782,39.8198],[-85.803,39.8207],[-85.805,39.8283],[-85.7962,39.8281],[-85.7953,39.8229],[-85.794,39.8282],[-85.7898,39.8248],[-85.771,39.8269],[-85.77,39.8431],[-85.7903,39.8429],[-85.7909,39.8717],[-85.8052,39.8716],[-85.8057,39.9446],[-85.7867,39.9447],[-85.787,40.0317],[-85.8624,40.0316],[-85.8625,39.9436],[-85.8673,39.9551],[-85.8937,39.9526],[-85.9423,39.9576],[-85.9436,39.9465],[-85.9507,39.9404],[-85.995,39.9415],[-85.995,39.927],[-86.0064,39.9271],[-86.0067,39.9101],[-86.0115,39.9036]]]},"properties":{"geoid":"18088","state":"18","district":"88","name":"State House District 88","chamber":"House"}},{"type":"Feature","geometry":{"type":"Polygon","coordinates":[[[-86.1395,39.7227],[-86.136,39.7157],[-86.1301,39.7157],[-86.1301,39.7083],[-86.1025,39.7087],[-86.0996,39.7193],[-86.0827,39.7165],[-86.0826,39.7236],[-86.0736,39.724],[-86.0523,39.7098],[-86.0303,39.7103],[-86.0304,39.7164],[-86.0177,39.7091],[-86.0178,39.7136],[-86.0019,39.7097],[-85.9895,39.7155],[-85.9896,39.7258],[-85.9517,39.7264],[-85.9526,39.7974],[-86.0215,39.7966],[-86.0261,39.7892],[-86.034,39.7895],[-86.0304,39.7728],[-86.05,39.7719],[-86.0547,39.7688],[-86.0546,39.7612],[-86.0628,39.761],[-86.0639,39.7554],[-86.1019,39.7527],[-86.1018,39.738],[-86.1209,39.7377],[-86.1209,39.7329],[-86.1273,39.7316],[-86.1304,39.7376],[-86.1375,39.7376],[-86.1329,39.723],[-86.1395,39.7227]]]},"properties":{"geoid":"18089","state":"18","district":"89","name":"State House District 89","chamber":"House"}},{"type":"Feature","geometry":{"type":"Polygon","coordinates":[[[-86.1142,39.6433],[-86.1112,39.6357],[-85.9521,39.6383],[-85.9517,39.7264],[-85.9896,39.7258],[-85.9895,39.7155],[-86.0019,39.7097],[-86.0083,39.7141],[-86.0178,39.7136],[-86.0177,39.7091],[-86.0304,39.7164],[-86.0303,39.7103],[-86.0587,39.7109],[-86.0636,39.7073],[-86.0494,39.7001],[-86.0492,39.6953],[-86.0968,39.6943],[-86.0968,39.6707],[-86.1011,39.6801],[-86.1048,39.68],[-86.1016,39.6734],[-86.111,39.6726],[-86.1111,39.6662],[-86.1011,39.6664],[-86.1047,39.6653],[-86.1055,39.6505],[-86.1118,39.6504],[-86.1142,39.6433]]]},"properties":{"geoid":"18090","state":"18","district":"90","name":"State House District 90","chamber":"House"}},{"type":"Feature","geometry":{"type":"Polygon","coordinates":[[[-86.3266,39.6856],[-86.3263,39.6322],[-86.1584,39.6351],[-86.1585,39.6643],[-86.1807,39.6639],[-86.1775,39.7222],[-86.2503,39.7208],[-86.2502,39.7473],[-86.2698,39.7425],[-86.2699,39.7501],[-86.2859,39.7497],[-86.2865,39.7537],[-86.289,39.7496],[-86.3135,39.7493],[-86.3195,39.7326],[-86.3265,39.7294],[-86.3266,39.6856]]]},"properties":{"geoid":"18091","state":"18","district":"91","name":"State House District 91","chamber":"House"}},{"type":"Feature","geometry":{"type":"Polygon","coordinates":[[[-86.3281,39.8661],[-86.3265,39.7294],[-86.3195,39.7326],[-86.3135,39.7493],[-86.289,39.7496],[-86.289,39.7607],[-86.2503,39.7616],[-86.2506,39.7782],[-86.2341,39.7759],[-86.2341,39.7802],[-86.2252,39.781],[-86.2258,39.8096],[-86.27,39.8108],[-86.2755,39.8088],[-86.2698,39.7942],[-86.2887,39.7939],[-86.2889,39.8047],[-86.3046,39.8093],[-86.2996,39.8176],[-86.2876,39.8159],[-86.2904,39.8266],[-86.2834,39.828],[-86.2897,39.8379],[-86.2899,39.8525],[-86.2633,39.853],[-86.2719,39.8644],[-86.2805,39.8669],[-86.3046,39.89],[-86.326,39.8823],[-86.3281,39.8661]]]},"properties":{"geoid":"18092","state":"18","district":"92","name":"State House District 92","chamber":"House"}},{"type":"Feature","geometry":{"type":"Polygon","coordinates":[[[-86.1807,39.6639],[-86.1585,39.6643],[-86.1584,39.6351],[-86.1112,39.6357],[-86.1142,39.6433],[-86.1118,39.6504],[-86.1055,39.6505],[-86.1047,39.6653],[-86.1011,39.6664],[-86.1111,39.6662],[-86.111,39.6726],[-86.1016,39.6734],[-86.1048,39.68],[-86.1011,39.6801],[-86.0968,39.6707],[-86.0968,39.6942],[-86.0492,39.6953],[-86.0494,39.7002],[-86.0636,39.7059],[-86.0587,39.7109],[-86.0523,39.7098],[-86.0736,39.724],[-86.0826,39.7236],[-86.0827,39.7165],[-86.0996,39.7193],[-86.1025,39.7087],[-86.1301,39.7083],[-86.1488,39.6993],[-86.1583,39.7013],[-86.1585,39.7078],[-86.1772,39.7075],[-86.1807,39.6639]]]},"properties":{"geoid":"18093","state":"18","district":"93","name":"State House District 93","chamber":"House"}},{"type":"Feature","geometry":{"type":"Polygon","coordinates":[[[-86.2904,39.8266],[-86.2899,39.8232],[-86.2164,39.8238],[-86.2171,39.8679],[-86.165,39.872],[-86.165,39.8784],[-86.1887,39.8803],[-86.1887,39.8853],[-86.1935,39.8854],[-86.1935,39.8974],[-86.1865,39.8977],[-86.1939,39.9056],[-86.203,39.9055],[-86.2031,39.8863],[-86.216,39.8831],[-86.2179,39.8971],[-86.2365,39.8968],[-86.2363,39.8824],[-86.2598,39.8817],[-86.2599,39.8672],[-86.2771,39.8669],[-86.2633,39.853],[-86.2899,39.8525],[-86.2897,39.8379],[-86.2834,39.828],[-86.2904,39.8266]]]},"properties":{"geoid":"18094","state":"18","district":"94","name":"State House District 94","chamber":"House"}},{"type":"Feature","geometry":{"type":"Polygon","coordinates":[[[-86.1095,39.8492],[-86.084,39.852],[-86.0838,39.8294],[-86.0541,39.8271],[-86.046,39.8331],[-86.0492,39.8257],[-85.9754,39.8265],[-85.9722,39.8338],[-85.9533,39.8341],[-85.954,39.8696],[-85.9381,39.8698],[-85.9381,39.8914],[-85.9761,39.891],[-85.9758,39.8871],[-85.9667,39.885],[-85.9661,39.8752],[-85.9912,39.8737],[-85.9898,39.8602],[-86.0206,39.8442],[-86.0272,39.8475],[-86.0271,39.8549],[-86.0326,39.855],[-86.0371,39.8688],[-86.0538,39.8681],[-86.0553,39.8723],[-86.059,39.8684],[-86.0843,39.8687],[-86.0965,39.855],[-86.1046,39.855],[-86.1095,39.8492]]]},"properties":{"geoid":"18095","state":"18","district":"95","name":"State House District 95","chamber":"House"}},{"type":"Feature","geometry":{"type":"Polygon","coordinates":[[[-86.203,39.8715],[-86.1839,39.8312],[-86.1875,39.8247],[-86.1809,39.8248],[-86.1734,39.8092],[-86.1449,39.8087],[-86.1629,39.8012],[-86.1646,39.795],[-86.1524,39.7958],[-86.1522,39.7884],[-86.1614,39.7883],[-86.1613,39.7794],[-86.1335,39.7732],[-86.1269,39.7744],[-86.1269,39.7813],[-86.1124,39.7814],[-86.1125,39.7866],[-86.1197,39.788],[-86.1166,39.7951],[-86.131,39.7966],[-86.1311,39.8071],[-86.1026,39.8108],[-86.098,39.8254],[-86.0838,39.8255],[-86.084,39.852],[-86.1103,39.8482],[-86.1046,39.855],[-86.1127,39.855],[-86.122,39.8436],[-86.1221,39.8514],[-86.1316,39.8513],[-86.1316,39.8476],[-86.1457,39.845],[-86.1403,39.8324],[-86.1593,39.8337],[-86.1642,39.8427],[-86.1595,39.8504],[-86.1651,39.851],[-86.1598,39.8684],[-86.165,39.8683],[-86.165,39.872],[-86.203,39.8715]]]},"properties":{"geoid":"18096","state":"18","district":"96","name":"State House District 96","chamber":"House"}},{"type":"Feature","geometry":{"type":"Polygon","coordinates":[[[-86.289,39.7607],[-86.2859,39.7497],[-86.2699,39.7501],[-86.2698,39.7425],[-86.2502,39.7473],[-86.2503,39.7208],[-86.1775,39.7222],[-86.1772,39.7075],[-86.1585,39.7078],[-86.1583,39.7013],[-86.1488,39.6993],[-86.1412,39.7055],[-86.13,39.7065],[-86.1301,39.7157],[-86.1395,39.7187],[-86.1395,39.7227],[-86.1329,39.723],[-86.1375,39.7376],[-86.1494,39.7411],[-86.1495,39.7563],[-86.145,39.757],[-86.149,39.7669],[-86.1563,39.767],[-86.1522,39.7779],[-86.1612,39.781],[-86.1904,39.7806],[-86.1894,39.7748],[-86.1969,39.7747],[-86.1969,39.7712],[-86.216,39.7805],[-86.2341,39.7802],[-86.2341,39.7759],[-86.2393,39.7755],[-86.2506,39.7782],[-86.2503,39.7616],[-86.289,39.7607]]]},"properties":{"geoid":"18097","state":"18","district":"97","name":"State House District 97","chamber":"House"}},{"type":"Feature","geometry":{"type":"Polygon","coordinates":[[[-86.1311,39.8071],[-86.131,39.7966],[-86.1166,39.7951],[-86.1197,39.788],[-86.1125,39.7866],[-86.1124,39.7814],[-86.0964,39.7814],[-86.0962,39.7748],[-86.0831,39.7749],[-86.0833,39.7962],[-85.9526,39.7974],[-85.9533,39.8341],[-85.9722,39.8338],[-85.9754,39.8265],[-86.0492,39.8257],[-86.046,39.8331],[-86.0541,39.8271],[-86.0838,39.8294],[-86.0838,39.8255],[-86.098,39.8254],[-86.1026,39.8108],[-86.1311,39.8071]]]},"properties":{"geoid":"18098","state":"18","district":"98","name":"State House District 98","chamber":"House"}},{"type":"Feature","geometry":{"type":"Polygon","coordinates":[[[-86.3052,39.8131],[-86.3046,39.8093],[-86.2889,39.8047],[-86.2887,39.7939],[-86.2698,39.7942],[-86.2755,39.8088],[-86.27,39.8108],[-86.2258,39.8096],[-86.2254,39.7804],[-86.216,39.7805],[-86.1969,39.7712],[-86.1969,39.7747],[-86.1894,39.7748],[-86.1904,39.7806],[-86.1612,39.781],[-86.1614,39.7883],[-86.1522,39.7884],[-86.1524,39.7958],[-86.1646,39.795],[-86.1629,39.8012],[-86.1448,39.8075],[-86.1734,39.8092],[-86.1809,39.8248],[-86.1875,39.8247],[-86.1839,39.8312],[-86.2017,39.8681],[-86.2171,39.8679],[-86.2164,39.8238],[-86.2876,39.8233],[-86.2876,39.8159],[-86.2996,39.8176],[-86.3052,39.8131]]]},"properties":{"geoid":"18099","state":"18","district":"99","name":"State House District 99","chamber":"House"}},{"type":"Feature","geometry":{"type":"Polygon","coordinates":[[[-86.1563,39.7676],[-86.149,39.7669],[-86.145,39.757],[-86.1495,39.7563],[-86.1494,39.7411],[-86.1304,39.7376],[-86.1265,39.7316],[-86.1209,39.7329],[-86.1209,39.7377],[-86.1018,39.738],[-86.1019,39.7527],[-86.0639,39.7554],[-86.0628,39.761],[-86.0546,39.7612],[-86.0547,39.7688],[-86.05,39.7719],[-86.0304,39.7728],[-86.034,39.7895],[-86.0261,39.7892],[-86.0215,39.7966],[-86.0833,39.7962],[-86.0831,39.7749],[-86.0962,39.7748],[-86.0964,39.7814],[-86.1269,39.7813],[-86.1269,39.7744],[-86.156,39.7755],[-86.1563,39.7676]]]},"properties":{"geoid":"18100","state":"18","district":"100","name":"State House District 100","chamber":"House"}}]}