{"type":"FeatureCollection","features":[{"type":"Feature","geometry":{"type":"Polygon","coordinates":[[[-87.5259,41.4452],[-87.5259,41.4262],[-87.5021,41.4212],[-87.4989,41.4268],[-87.498,41.4139],[-87.4941,41.4139],[-87.4939,41.4254],[-87.4894,41.4254],[-87.4894,41.4212],[-87.4773,41.4212],[-87.4758,41.4248],[-87.4749,41.4212],[-87.4545,41.4211],[-87.4586,41.4284],[-87.4657,41.4284],[-87.4658,41.4352],[-87.4555,41.4322],[-87.4506,41.4353],[-87.4506,41.4174],[-87.4409,41.4137],[-87.4409,41.4201],[-87.4312,41.42],[-87.4312,41.4261],[-87.4249,41.426],[-87.4287,41.4353],[-87.3924,41.4351],[-87.3927,41.4497],[-87.3743,41.4494],[-87.3746,41.4539],[-87.3697,41.454],[-87.3648,41.4494],[-87.3358,41.4493],[-87.3407,41.4856],[-87.3934,41.4861],[-87.3939,41.5226],[-87.3458,41.5222],[-87.3459,41.5332],[-87.3556,41.5333],[-87.3558,41.5485],[-87.4131,41.5496],[-87.4131,41.5663],[-87.4616,41.5697],[-87.4628,41.5543],[-87.4714,41.556],[-87.471,41.5632],[-87.4811,41.5676],[-87.4807,41.5231],[-87.5256,41.5227],[-87.5259,41.4452]]]},"properties":{"geoid":"18001","state":"18","district":"1","name":"State Senate District 1","chamber":"Senate"}},{"type":"Feature","geometry":{"type":"Polygon","coordinates":[[[-87.5256,41.5283],[-87.5256,41.5227],[-87.4807,41.5231],[-87.4811,41.5676],[-87.471,41.5632],[-87.4714,41.556],[-87.4628,41.5543],[-87.4616,41.5697],[-87.4325,41.5666],[-87.4334,41.6508],[-87.4,41.6774],[-87.4306,41.6931],[-87.4546,41.6822],[-87.4873,41.6924],[-87.5207,41.7188],[-87.5242,41.717],[-87.5256,41.5283]]]},"properties":{"geoid":"18002","state":"18","district":"2","name":"State Senate District 2","chamber":"Senate"}},{"type":"Feature","geometry":{"type":"Polygon","coordinates":[[[-87.5243,41.7183],[-87.4873,41.6924],[-87.4546,41.6822],[-87.4306,41.6931],[-87.4,41.6774],[-87.4334,41.6508],[-87.4325,41.5664],[-87.4131,41.5663],[-87.4131,41.5496],[-87.3558,41.5485],[-87.3556,41.5333],[-87.3459,41.5332],[-87.3458,41.5222],[-87.3939,41.5226],[-87.3934,41.4861],[-87.3407,41.4856],[-87.3407,41.471],[-87.336,41.4711],[-87.3355,41.4348],[-87.2196,41.4346],[-87.221,41.7609],[-87.5237,41.7599],[-87.5243,41.7183]]]},"properties":{"geoid":"18003","state":"18","district":"3","name":"State Senate District 3","chamber":"Senate"}},{"type":"Feature","geometry":{"type":"Polygon","coordinates":[[[-87.2229,41.6326],[-87.2206,41.5216],[-86.8168,41.5176],[-86.8175,41.607],[-86.852,41.6073],[-86.8524,41.6176],[-86.8506,41.6501],[-86.8431,41.6618],[-86.846,41.6745],[-86.8164,41.6852],[-86.8161,41.7603],[-87.221,41.7609],[-87.2229,41.6326]]]},"properties":{"geoid":"18004","state":"18","district":"4","name":"State Senate District 4","chamber":"Senate"}},{"type":"Feature","geometry":{"type":"Polygon","coordinates":[[[-87.2206,41.5216],[-87.219,41.2429],[-87.1927,41.2651],[-87.1606,41.276],[-87.1604,41.1296],[-87.1417,41.1296],[-87.1418,40.9917],[-87.1322,40.9917],[-87.1323,40.9844],[-87.1224,40.9846],[-87.1178,40.97],[-87.1129,40.97],[-87.113,40.9555],[-87.0457,40.9559],[-87.0431,40.8958],[-87.1007,40.8958],[-87.0954,40.5629],[-86.7713,40.5621],[-86.7742,40.664],[-86.7583,40.6643],[-86.7423,40.6796],[-86.7622,40.6795],[-86.7487,40.6884],[-86.7619,40.7001],[-86.7587,40.7102],[-86.7473,40.7171],[-86.7575,40.7238],[-86.7527,40.7339],[-86.7478,40.7375],[-86.5817,40.7358],[-86.5815,40.9109],[-86.4685,40.9099],[-86.467,41.1714],[-86.9302,41.1723],[-86.9298,41.519],[-87.2206,41.5216]]]},"properties":{"geoid":"18005","state":"18","district":"5","name":"State Senate District 5","chamber":"Senate"}},{"type":"Feature","geometry":{"type":"Polygon","coordinates":[[[-87.5268,41.3083],[-87.5266,40.4769],[-87.0937,40.4757],[-87.1007,40.8958],[-87.0431,40.8958],[-87.0457,40.9559],[-87.113,40.9555],[-87.1129,40.97],[-87.1178,40.97],[-87.1224,40.9846],[-87.1323,40.9844],[-87.1322,40.9917],[-87.1418,40.9917],[-87.1417,41.1296],[-87.1604,41.1296],[-87.1606,41.276],[-87.1927,41.2651],[-87.219,41.2429],[-87.2196,41.4346],[-87.3355,41.4348],[-87.3358,41.4493],[-87.3648,41.4494],[-87.3649,41.453],[-87.3746,41.4539],[-87.3743,41.4494],[-87.3927,41.4497],[-87.3924,41.4351],[-87.4287,41.4353],[-87.4249,41.426],[-87.4312,41.4261],[-87.4312,41.42],[-87.4409,41.4201],[-87.4409,41.4137],[-87.4506,41.4174],[-87.4506,41.4353],[-87.4555,41.4322],[-87.4658,41.4352],[-87.4657,41.4284],[-87.4586,41.4284],[-87.4545,41.4211],[-87.4749,41.4212],[-87.4758,41.4248],[-87.4773,41.4212],[-87.4894,41.4212],[-87.4894,41.4254],[-87.4939,41.4254],[-87.4941,41.4139],[-87.498,41.4139],[-87.4989,41.4268],[-87.5021,41.4212],[-87.5259,41.4262],[-87.5268,41.3083]]]},"properties":{"geoid":"18006","state":"18","district":"6","name":"State Senate District 6","chamber":"Senate"}},{"type":"Feature","geometry":{"type":"Polygon","coordinates":[[[-87.0102,39.9678],[-86.9971,39.967],[-86.997,39.9525],[-86.9214,39.9524],[-86.9216,39.8661],[-86.6868,39.8648],[-86.6868,39.8197],[-86.5766,39.8195],[-86.5767,39.8344],[-86.5055,39.8344],[-86.5053,39.805],[-86.457,39.8058],[-86.457,39.7984],[-86.4383,39.7987],[-86.4395,39.8574],[-86.328,39.8593],[-86.3263,39.924],[-86.3214,39.9242],[-86.3214,39.941],[-86.3167,39.9496],[-86.3356,39.9495],[-86.3365,39.9683],[-86.3175,39.9686],[-86.3176,39.9976],[-86.2411,39.9988],[-86.243,40.3737],[-86.2808,40.3737],[-86.2808,40.3883],[-86.3093,40.3884],[-86.3092,40.4317],[-86.6947,40.4322],[-86.6956,40.2144],[-86.9233,40.2149],[-86.9231,40.1276],[-86.9793,40.1277],[-86.9795,40.0392],[-86.9632,40.0368],[-86.9728,40.0339],[-86.9728,40.0087],[-86.9833,40.008],[-86.9896,40.0016],[-86.9914,39.9891],[-87.0091,39.9775],[-87.0102,39.9678]]]},"properties":{"geoid":"18007","state":"18","district":"7","name":"State Senate District 7","chamber":"Senate"}},{"type":"Feature","geometry":{"type":"Polygon","coordinates":[[[-86.9308,41.3397],[-86.9301,41.1723],[-86.054,41.1731],[-86.0586,41.3756],[-86.1939,41.3767],[-86.194,41.3913],[-86.2325,41.3916],[-86.2336,41.4789],[-86.185,41.4788],[-86.1856,41.5427],[-86.1956,41.5428],[-86.1958,41.5501],[-86.2054,41.55],[-86.2054,41.5573],[-86.2151,41.5572],[-86.2152,41.5645],[-86.4951,41.5634],[-86.4864,41.5705],[-86.4876,41.6493],[-86.5267,41.6504],[-86.5242,41.7597],[-86.8161,41.7603],[-86.8164,41.6852],[-86.846,41.6745],[-86.8431,41.6618],[-86.8506,41.6501],[-86.8524,41.6176],[-86.852,41.6073],[-86.8175,41.607],[-86.8168,41.5176],[-86.9298,41.519],[-86.9308,41.3397]]]},"properties":{"geoid":"18008","state":"18","district":"8","name":"State Senate District 8","chamber":"Senate"}},{"type":"Feature","geometry":{"type":"Polygon","coordinates":[[[-86.2336,41.4789],[-86.2325,41.3916],[-86.194,41.3913],[-86.1939,41.3767],[-86.0586,41.3756],[-86.0551,41.2249],[-86.0468,41.2361],[-86.0501,41.2393],[-86.0471,41.2486],[-86.0315,41.259],[-86.0172,41.2554],[-86.0146,41.2455],[-86.0035,41.2446],[-85.998,41.2454],[-85.9983,41.2604],[-85.8619,41.2628],[-85.865,41.2456],[-85.8838,41.248],[-85.8775,41.2444],[-85.8913,41.2419],[-85.8857,41.2189],[-85.8649,41.2193],[-85.8669,41.212],[-85.8605,41.2049],[-85.8506,41.2052],[-85.8562,41.2158],[-85.8328,41.2165],[-85.8282,41.2128],[-85.8354,41.2107],[-85.828,41.2056],[-85.8067,41.2035],[-85.8073,41.2154],[-85.7943,41.2119],[-85.7943,41.206],[-85.7797,41.2062],[-85.7797,41.2134],[-85.7879,41.2133],[-85.7895,41.2206],[-85.8055,41.2277],[-85.7654,41.2171],[-85.7657,41.264],[-85.6512,41.2658],[-85.6547,41.5233],[-86.0594,41.5215],[-86.0615,41.6866],[-86.0702,41.677],[-86.1096,41.6758],[-86.1365,41.6638],[-86.1511,41.6664],[-86.1577,41.6739],[-86.1813,41.6698],[-86.1814,41.6804],[-86.1965,41.6803],[-86.1965,41.6605],[-86.2158,41.6614],[-86.2151,41.5572],[-86.2054,41.5573],[-86.2054,41.55],[-86.1958,41.5501],[-86.1956,41.5428],[-86.1856,41.5427],[-86.185,41.4788],[-86.2336,41.4789]]]},"properties":{"geoid":"18009","state":"18","district":"9","name":"State Senate District 9","chamber":"Senate"}},{"type":"Feature","geometry":{"type":"Polygon","coordinates":[[[-86.5265,41.6577],[-86.5267,41.6504],[-86.4876,41.6493],[-86.4864,41.5705],[-86.4951,41.5634],[-86.2152,41.5645],[-86.2158,41.6614],[-86.1965,41.6605],[-86.1966,41.6947],[-86.2355,41.6942],[-86.2357,41.7088],[-86.268,41.7084],[-86.2684,41.7292],[-86.2736,41.7366],[-86.2725,41.7604],[-86.5242,41.7597],[-86.5265,41.6577]]]},"properties":{"geoid":"18010","state":"18","district":"10","name":"State Senate District 10","chamber":"Senate"}},{"type":"Feature","geometry":{"type":"Polygon","coordinates":[[[-86.2736,41.7366],[-86.2684,41.7292],[-86.268,41.7084],[-86.2357,41.7088],[-86.2355,41.6942],[-86.1966,41.6947],[-86.1965,41.6803],[-86.1814,41.6804],[-86.1813,41.6698],[-86.1577,41.6739],[-86.1511,41.6664],[-86.1365,41.6638],[-86.1096,41.6758],[-86.0702,41.677],[-86.0651,41.6866],[-86.0615,41.6866],[-86.0614,41.6805],[-86.0424,41.6836],[-86.0362,41.6791],[-86.0323,41.6809],[-86.037,41.6844],[-86.0344,41.6885],[-86.0262,41.6855],[-86.0254,41.6771],[-86.009,41.6771],[-86.0033,41.6792],[-86.0036,41.6954],[-85.9171,41.6946],[-85.8977,41.699],[-85.8956,41.7047],[-85.8886,41.7065],[-85.8884,41.6954],[-85.6586,41.6969],[-85.6598,41.7591],[-86.2725,41.7604],[-86.2736,41.7366]]]},"properties":{"geoid":"18011","state":"18","district":"11","name":"State Senate District 11","chamber":"Senate"}},{"type":"Feature","geometry":{"type":"Polygon","coordinates":[[[-86.0614,41.6805],[-86.0594,41.5215],[-85.6547,41.5233],[-85.6586,41.6969],[-85.8884,41.6954],[-85.8886,41.7065],[-85.8956,41.7047],[-85.8977,41.699],[-85.9171,41.6946],[-86.0036,41.6954],[-86.0033,41.6792],[-86.009,41.6771],[-86.0254,41.6771],[-86.0262,41.6855],[-86.0344,41.6885],[-86.0375,41.6864],[-86.0333,41.6796],[-86.0424,41.6836],[-86.0614,41.6805]]]},"properties":{"geoid":"18012","state":"18","district":"12","name":"State Senate District 12","chamber":"Senate"}},{"type":"Feature","geometry":{"type":"Polygon","coordinates":[[[-85.6598,41.7557],[-85.6519,41.2948],[-85.5363,41.2952],[-85.5372,41.2662],[-85.0778,41.2656],[-85.0808,41.527],[-84.8047,41.5301],[-84.8059,41.7602],[-85.6477,41.7592],[-85.6598,41.7591],[-85.6598,41.7557]]]},"properties":{"geoid":"18013","state":"18","district":"13","name":"State Senate District 13","chamber":"Senate"}},{"type":"Feature","geometry":{"type":"Polygon","coordinates":[[[-85.1424,41.0551],[-85.1422,41.0501],[-85.1374,41.0501],[-85.1344,41.0135],[-85.1264,41.0135],[-85.1262,41.0031],[-85.1119,41.0066],[-85.1097,40.9173],[-84.8029,40.9226],[-84.8047,41.5301],[-85.0808,41.527],[-85.0755,41.1798],[-85.0069,41.1812],[-85.0024,41.0934],[-85.1075,41.0898],[-85.1071,41.0831],[-85.1149,41.0819],[-85.1192,41.086],[-85.1333,41.0817],[-85.1292,41.0714],[-85.1383,41.0713],[-85.1379,41.0622],[-85.1331,41.0613],[-85.1424,41.0551]]]},"properties":{"geoid":"18014","state":"18","district":"14","name":"State Senate District 14","chamber":"Senate"}},{"type":"Feature","geometry":{"type":"Polygon","coordinates":[[[-85.1921,41.2642],[-85.19,41.1775],[-85.1661,41.1777],[-85.1645,41.1467],[-85.1748,41.1467],[-85.1744,41.1323],[-85.136,41.1327],[-85.1353,41.1183],[-85.1157,41.1176],[-85.1192,41.1014],[-85.1157,41.1015],[-85.1149,41.0819],[-85.1071,41.0831],[-85.1075,41.0898],[-85.0792,41.0928],[-85.0024,41.0934],[-85.0069,41.1812],[-85.0755,41.1798],[-85.0778,41.2656],[-85.1921,41.2642]]]},"properties":{"geoid":"18015","state":"18","district":"15","name":"State Senate District 15","chamber":"Senate"}},{"type":"Feature","geometry":{"type":"Polygon","coordinates":[[[-85.6866,41.1784],[-85.6832,41.0019],[-85.3356,41.0053],[-85.3357,41.0016],[-85.2839,41.0018],[-85.2364,41.0089],[-85.2367,41.0163],[-85.2267,41.0163],[-85.227,41.0439],[-85.2192,41.0503],[-85.2146,41.051],[-85.2145,41.043],[-85.1866,41.0456],[-85.1612,41.0609],[-85.1624,41.0714],[-85.1292,41.0714],[-85.1333,41.0817],[-85.1192,41.086],[-85.1159,41.0831],[-85.1157,41.1015],[-85.1192,41.1014],[-85.1157,41.1176],[-85.1353,41.1183],[-85.136,41.1327],[-85.1744,41.1323],[-85.1748,41.1467],[-85.1645,41.1467],[-85.1661,41.1777],[-85.19,41.1775],[-85.1921,41.2642],[-85.5372,41.2662],[-85.5363,41.2952],[-85.6519,41.2948],[-85.6527,41.1785],[-85.6866,41.1784]]]},"properties":{"geoid":"18016","state":"18","district":"16","name":"State Senate District 16","chamber":"Senate"}},{"type":"Feature","geometry":{"type":"Polygon","coordinates":[[[-85.9464,40.9992],[-85.9395,40.651],[-85.8648,40.6517],[-85.8623,40.3784],[-85.4443,40.3791],[-85.4488,40.6536],[-85.3347,40.6544],[-85.3356,41.0053],[-85.6832,41.0019],[-85.6842,41.0467],[-85.9456,41.0429],[-85.9464,40.9992]]]},"properties":{"geoid":"18017","state":"18","district":"17","name":"State Senate District 17","chamber":"Senate"}},{"type":"Feature","geometry":{"type":"Polygon","coordinates":[[[-86.5816,40.7499],[-86.5817,40.7358],[-86.5251,40.7354],[-86.5252,40.6924],[-86.3735,40.6925],[-86.3758,40.4319],[-86.2429,40.432],[-86.2429,40.4683],[-86.2156,40.471],[-86.2124,40.4825],[-86.2027,40.4825],[-86.1987,40.4714],[-86.184,40.4753],[-86.1841,40.4976],[-86.1751,40.4977],[-86.1724,40.505],[-86.1724,40.4977],[-86.1577,40.4979],[-86.1577,40.5024],[-86.144,40.5063],[-86.1446,40.5255],[-86.1298,40.5272],[-86.1252,40.5344],[-86.1174,40.5346],[-86.1173,40.5202],[-86.0887,40.5203],[-86.0887,40.5063],[-86.084,40.5062],[-86.0883,40.5055],[-86.0852,40.4842],[-86.0699,40.4843],[-86.0699,40.477],[-86.0608,40.4771],[-86.0605,40.4705],[-86.0508,40.4706],[-86.0509,40.4772],[-86.0129,40.4777],[-86.0128,40.4494],[-85.9945,40.4495],[-85.9944,40.4415],[-85.985,40.4415],[-85.9849,40.4351],[-85.9754,40.4351],[-85.9755,40.4062],[-85.8621,40.4069],[-85.8648,40.6517],[-85.9395,40.651],[-85.9456,41.0429],[-85.6842,41.0467],[-85.6866,41.1784],[-85.6527,41.1785],[-85.6512,41.2658],[-85.7657,41.264],[-85.7654,41.2171],[-85.8055,41.2277],[-85.7895,41.2206],[-85.7879,41.2133],[-85.7797,41.2134],[-85.7797,41.2062],[-85.7943,41.206],[-85.7943,41.2119],[-85.8073,41.2154],[-85.8067,41.2035],[-85.828,41.2056],[-85.8354,41.2107],[-85.8282,41.2128],[-85.8328,41.2165],[-85.8562,41.2158],[-85.8506,41.2052],[-85.8605,41.2049],[-85.8669,41.212],[-85.8649,41.2193],[-85.8857,41.2189],[-85.8913,41.2419],[-85.8775,41.2444],[-85.8838,41.248],[-85.865,41.2456],[-85.8619,41.2628],[-85.9983,41.2604],[-85.998,41.2454],[-86.0035,41.2446],[-86.0146,41.2455],[-86.0172,41.2554],[-86.0315,41.259],[-86.0471,41.2487],[-86.0501,41.2396],[-86.0468,41.2361],[-86.055,41.2283],[-86.054,41.1731],[-86.467,41.1714],[-86.4685,40.9099],[-86.5815,40.9109],[-86.5816,40.7499]]]},"properties":{"geoid":"18018","state":"18","district":"18","name":"State Senate District 18","chamber":"Senate"}},{"type":"Feature","geometry":{"type":"Polygon","coordinates":[[[-85.449,40.6513],[-85.4443,40.3787],[-85.22,40.3792],[-85.2188,40.3067],[-84.8037,40.3101],[-84.8029,40.9226],[-85.1097,40.9173],[-85.1119,41.0066],[-85.1262,41.0031],[-85.1264,41.0135],[-85.1361,41.0166],[-85.1374,41.0501],[-85.1422,41.0501],[-85.1424,41.0551],[-85.1331,41.0613],[-85.1379,41.0622],[-85.1383,41.0716],[-85.1624,41.0714],[-85.1612,41.0609],[-85.1866,41.0456],[-85.2145,41.043],[-85.2146,41.051],[-85.2192,41.0503],[-85.227,41.0439],[-85.2267,41.0163],[-85.2367,41.0163],[-85.2364,41.0089],[-85.2839,41.0018],[-85.3357,41.0016],[-85.3347,40.6544],[-85.449,40.6513]]]},"properties":{"geoid":"18019","state":"18","district":"19","name":"State Senate District 19","chamber":"Senate"}},{"type":"Feature","geometry":{"type":"Polygon","coordinates":[[[-86.1459,39.9422],[-86.1459,39.9272],[-86.0762,39.927],[-86.0727,39.9384],[-86.0657,39.9427],[-86.0671,39.9543],[-86.0522,39.959],[-86.0469,39.9703],[-86.0338,39.9767],[-86.0333,39.981],[-86.046,39.9815],[-86.0468,39.9864],[-86.031,39.9907],[-86.0232,40.0002],[-85.8622,40.0023],[-85.8633,40.1039],[-85.995,40.1017],[-85.9958,40.1762],[-86.0223,40.1758],[-86.0207,40.1613],[-86.1281,40.1602],[-86.1281,40.1014],[-86.0903,40.1013],[-86.0896,40.0002],[-86.1366,39.9999],[-86.1365,39.9927],[-86.1458,39.9925],[-86.1457,39.9853],[-86.1408,39.9839],[-86.1458,39.9781],[-86.1411,39.9782],[-86.141,39.968],[-86.1297,39.9706],[-86.1311,39.9618],[-86.1269,39.9614],[-86.1267,39.9563],[-86.1268,39.9488],[-86.1459,39.9491],[-86.1459,39.9422]]]},"properties":{"geoid":"18020","state":"18","district":"20","name":"State Senate District 20","chamber":"Senate"}},{"type":"Feature","geometry":{"type":"Polygon","coordinates":[[[-86.3094,40.4173],[-86.3093,40.3884],[-86.2808,40.3883],[-86.2808,40.3737],[-86.243,40.3737],[-86.2411,39.9988],[-86.0896,40.0002],[-86.0903,40.1013],[-86.1281,40.1014],[-86.1282,40.2172],[-85.8619,40.2189],[-85.8621,40.4069],[-85.9755,40.4062],[-85.9754,40.4351],[-85.9849,40.4351],[-85.985,40.4415],[-85.9944,40.4415],[-85.9945,40.4495],[-86.0128,40.4494],[-86.0129,40.4777],[-86.0509,40.4772],[-86.0508,40.4706],[-86.0605,40.4705],[-86.0608,40.4771],[-86.0699,40.477],[-86.0699,40.4843],[-86.0852,40.4842],[-86.0883,40.5055],[-86.084,40.5062],[-86.0887,40.5063],[-86.0887,40.5203],[-86.1173,40.5202],[-86.1174,40.5346],[-86.1252,40.5344],[-86.1298,40.5272],[-86.1446,40.5255],[-86.144,40.5063],[-86.1577,40.5024],[-86.1577,40.4979],[-86.1724,40.4977],[-86.1724,40.505],[-86.1751,40.4977],[-86.1841,40.4976],[-86.184,40.4753],[-86.1987,40.4714],[-86.2027,40.4825],[-86.2124,40.4825],[-86.2156,40.471],[-86.2429,40.4683],[-86.2429,40.432],[-86.3092,40.4317],[-86.3094,40.4173]]]},"properties":{"geoid":"18021","state":"18","district":"21","name":"State Senate District 21","chamber":"Senate"}},{"type":"Feature","geometry":{"type":"Polygon","coordinates":[[[-86.944,40.5615],[-86.9437,40.5044],[-86.925,40.5042],[-86.9247,40.4895],[-86.9064,40.4896],[-86.9062,40.4751],[-86.8867,40.4748],[-86.8908,40.472],[-86.8856,40.4675],[-86.894,40.4514],[-86.8968,40.421],[-86.9098,40.4043],[-86.924,40.3985],[-86.9233,40.3013],[-86.8658,40.3015],[-86.8665,40.2149],[-86.6956,40.2144],[-86.6947,40.4322],[-86.3758,40.4319],[-86.3735,40.6925],[-86.5252,40.6924],[-86.5251,40.7354],[-86.7478,40.7375],[-86.7577,40.7251],[-86.7473,40.7171],[-86.7587,40.7102],[-86.7619,40.7001],[-86.7487,40.6884],[-86.7622,40.6799],[-86.7512,40.6775],[-86.7442,40.6825],[-86.7427,40.6784],[-86.7583,40.6643],[-86.7742,40.664],[-86.7713,40.5621],[-86.944,40.5615]]]},"properties":{"geoid":"18022","state":"18","district":"22","name":"State Senate District 22","chamber":"Senate"}},{"type":"Feature","geometry":{"type":"Polygon","coordinates":[[[-87.5333,39.861],[-87.5322,39.6073],[-87.0131,39.6048],[-87.0095,39.8667],[-86.9216,39.8661],[-86.9214,39.9524],[-86.997,39.9525],[-86.9971,39.967],[-87.0112,39.9674],[-87.0091,39.9775],[-86.9914,39.9891],[-86.9896,40.0016],[-86.9833,40.008],[-86.9728,40.0087],[-86.9728,40.0339],[-86.9632,40.0368],[-86.9795,40.0392],[-86.9793,40.1277],[-86.9231,40.1276],[-86.9233,40.2149],[-86.8665,40.2149],[-86.8658,40.3015],[-86.9233,40.3013],[-86.924,40.3985],[-86.9098,40.4043],[-86.8968,40.421],[-86.894,40.4514],[-86.8856,40.4675],[-86.8908,40.472],[-86.8867,40.4748],[-86.9062,40.4751],[-86.9064,40.4896],[-86.9247,40.4895],[-86.925,40.5042],[-86.9437,40.5044],[-86.944,40.5615],[-87.0954,40.5629],[-87.0937,40.4757],[-87.5266,40.4769],[-87.5333,39.861]]]},"properties":{"geoid":"18023","state":"18","district":"23","name":"State Senate District 23","chamber":"Senate"}},{"type":"Feature","geometry":{"type":"Polygon","coordinates":[[[-87.0131,39.6052],[-86.6881,39.6014],[-86.6874,39.6304],[-86.6619,39.6303],[-86.6416,39.6301],[-86.645,39.6275],[-86.6432,39.6177],[-86.6567,39.6014],[-86.5598,39.6009],[-86.5608,39.7167],[-86.3266,39.7195],[-86.328,39.8593],[-86.4395,39.8574],[-86.4383,39.7987],[-86.457,39.7984],[-86.457,39.8058],[-86.5053,39.805],[-86.5055,39.8344],[-86.5767,39.8344],[-86.5766,39.8195],[-86.6868,39.8197],[-86.6868,39.8648],[-87.0095,39.8667],[-87.0131,39.6052]]]},"properties":{"geoid":"18024","state":"18","district":"24","name":"State Senate District 24","chamber":"Senate"}},{"type":"Feature","geometry":{"type":"Polygon","coordinates":[[[-86.1283,40.2048],[-86.1281,40.1602],[-86.0207,40.1613],[-86.0223,40.1758],[-85.9958,40.1762],[-85.995,40.1017],[-85.8633,40.1039],[-85.8625,39.9436],[-85.5762,39.9458],[-85.5786,40.3795],[-85.8623,40.3784],[-85.8619,40.2189],[-86.1282,40.2172],[-86.1283,40.2048]]]},"properties":{"geoid":"18025","state":"18","district":"25","name":"State Senate District 25","chamber":"Senate"}},{"type":"Feature","geometry":{"type":"Polygon","coordinates":[[[-85.5789,40.3719],[-85.5762,40.0771],[-85.2144,40.0769],[-85.2135,40.0044],[-84.8108,40.0051],[-84.8037,40.3101],[-85.2188,40.3067],[-85.22,40.3792],[-85.5786,40.3795],[-85.5789,40.3719]]]},"properties":{"geoid":"18026","state":"18","district":"26","name":"State Senate District 26","chamber":"Senate"}},{"type":"Feature","geometry":{"type":"Polygon","coordinates":[[[-85.5969,39.8287],[-85.5969,39.7865],[-85.1835,39.7884],[-85.1851,39.7155],[-85.0346,39.7148],[-85.0361,39.5262],[-85.0225,39.5261],[-85.0344,39.4685],[-85.0923,39.4689],[-85.095,39.3979],[-85.0761,39.3978],[-85.0763,39.31],[-84.8195,39.3052],[-84.8108,40.0051],[-85.2135,40.0044],[-85.2144,40.0769],[-85.5762,40.0771],[-85.5768,39.8729],[-85.5967,39.8729],[-85.5969,39.8287]]]},"properties":{"geoid":"18027","state":"18","district":"27","name":"State Senate District 27","chamber":"Senate"}},{"type":"Feature","geometry":{"type":"Polygon","coordinates":[[[-86.0358,39.794],[-86.0304,39.7728],[-85.9712,39.7758],[-85.971,39.7553],[-85.9522,39.7556],[-85.9517,39.5231],[-85.8363,39.5251],[-85.8369,39.4968],[-85.7035,39.4971],[-85.7058,39.6259],[-85.7341,39.626],[-85.7355,39.6988],[-85.6332,39.6985],[-85.6335,39.7862],[-85.5969,39.7865],[-85.5967,39.8729],[-85.5768,39.8728],[-85.5762,39.9458],[-85.8625,39.9436],[-85.8624,39.9289],[-85.9381,39.927],[-85.9381,39.8698],[-85.954,39.8696],[-85.9529,39.8067],[-85.9906,39.8018],[-85.9959,39.7969],[-86.0358,39.794]]]},"properties":{"geoid":"18028","state":"18","district":"28","name":"State Senate District 28","chamber":"Senate"}},{"type":"Feature","geometry":{"type":"Polygon","coordinates":[[[-86.3366,39.9544],[-86.3356,39.9495],[-86.3167,39.9496],[-86.3214,39.941],[-86.3214,39.9242],[-86.3263,39.924],[-86.3267,39.7598],[-86.26,39.7614],[-86.2697,39.7719],[-86.2698,39.801],[-86.2754,39.8012],[-86.2757,39.8161],[-86.2701,39.8162],[-86.2654,39.8304],[-86.2705,39.8326],[-86.2708,39.8455],[-86.26,39.8457],[-86.2788,39.8686],[-86.2741,39.8959],[-86.2699,39.896],[-86.2682,39.9249],[-86.1459,39.9272],[-86.1459,39.9491],[-86.1268,39.9488],[-86.1267,39.9566],[-86.1311,39.9618],[-86.1297,39.9706],[-86.141,39.968],[-86.1411,39.9782],[-86.1458,39.9781],[-86.1408,39.9838],[-86.1457,39.9853],[-86.1458,39.9925],[-86.1365,39.9927],[-86.1366,39.9999],[-86.3176,39.9976],[-86.3175,39.9686],[-86.3365,39.9683],[-86.3366,39.9544]]]},"properties":{"geoid":"18029","state":"18","district":"29","name":"State Senate District 29","chamber":"Senate"}},{"type":"Feature","geometry":{"type":"Polygon","coordinates":[[[-86.2788,39.8759],[-86.2788,39.8686],[-86.271,39.8613],[-86.2607,39.861],[-86.2586,39.8672],[-86.2466,39.8673],[-86.2467,39.8636],[-86.2346,39.8607],[-86.2317,39.8676],[-86.2017,39.8681],[-86.1956,39.8555],[-86.1786,39.8576],[-86.1785,39.8504],[-86.1623,39.8534],[-86.1502,39.8622],[-86.1363,39.8588],[-86.1363,39.8623],[-86.0965,39.8624],[-86.094,39.8584],[-86.0843,39.8687],[-86.059,39.8684],[-86.0553,39.8723],[-86.0538,39.8681],[-86.0427,39.8673],[-86.0242,39.889],[-86.033,39.8907],[-86.033,39.9125],[-86.0221,39.9126],[-86.0193,39.9273],[-86.2682,39.9249],[-86.2699,39.896],[-86.2741,39.8959],[-86.2741,39.8789],[-86.2788,39.8759]]]},"properties":{"geoid":"18030","state":"18","district":"30","name":"State Senate District 30","chamber":"Senate"}},{"type":"Feature","geometry":{"type":"Polygon","coordinates":[[[-86.0763,39.9284],[-86.0193,39.9273],[-86.0221,39.9126],[-86.033,39.9125],[-86.033,39.8907],[-86.0144,39.8921],[-86.0028,39.8875],[-85.9996,39.8918],[-85.9904,39.891],[-85.9902,39.8874],[-86.0001,39.8837],[-86,39.8729],[-85.9732,39.8741],[-85.9728,39.8691],[-85.9381,39.8872],[-85.9381,39.927],[-85.8624,39.9289],[-85.8622,40.0023],[-86.0232,40.0002],[-86.031,39.9907],[-86.0468,39.9864],[-86.046,39.9815],[-86.0333,39.981],[-86.0338,39.9767],[-86.0469,39.9703],[-86.0522,39.959],[-86.0671,39.9543],[-86.0657,39.9427],[-86.0727,39.9384],[-86.0763,39.9284]]]},"properties":{"geoid":"18031","state":"18","district":"31","name":"State Senate District 31","chamber":"Senate"}},{"type":"Feature","geometry":{"type":"Polygon","coordinates":[[[-86.14,39.6007],[-86.1396,39.5637],[-86.1254,39.5639],[-86.1255,39.5712],[-86.116,39.5732],[-86.116,39.5785],[-86.122,39.5785],[-86.1221,39.5859],[-86.1008,39.5866],[-86.0956,39.5719],[-86.0865,39.5721],[-86.0922,39.5868],[-86.0634,39.5877],[-86.0692,39.6023],[-86.0453,39.6026],[-86.0452,39.5358],[-85.9519,39.5379],[-85.9522,39.7556],[-85.971,39.7553],[-85.9712,39.7758],[-86.05,39.7719],[-86.0547,39.7688],[-86.0546,39.7612],[-86.0628,39.761],[-86.0639,39.753],[-86.0598,39.7499],[-86.0639,39.7499],[-86.0637,39.739],[-86.1209,39.7377],[-86.1208,39.7232],[-86.1113,39.7233],[-86.1112,39.7159],[-86.1004,39.7158],[-86.1015,39.7061],[-86.0951,39.7048],[-86.099,39.6954],[-86.0824,39.6943],[-86.0827,39.6364],[-86.1112,39.6357],[-86.108,39.6275],[-86.114,39.6264],[-86.1073,39.6064],[-86.1399,39.6061],[-86.14,39.6007]]]},"properties":{"geoid":"18032","state":"18","district":"32","name":"State Senate District 32","chamber":"Senate"}},{"type":"Feature","geometry":{"type":"Polygon","coordinates":[[[-86.271,39.8613],[-86.26,39.8457],[-86.2708,39.8455],[-86.2705,39.8326],[-86.2654,39.8304],[-86.2701,39.8162],[-86.256,39.8165],[-86.2558,39.8096],[-86.2343,39.8094],[-86.2328,39.8022],[-86.2257,39.8023],[-86.2254,39.7804],[-86.216,39.7805],[-86.1969,39.7712],[-86.1969,39.7747],[-86.1894,39.7748],[-86.1904,39.7806],[-86.1612,39.781],[-86.1614,39.7883],[-86.1401,39.7885],[-86.1358,39.8161],[-86.1174,39.8402],[-86.1219,39.8403],[-86.1222,39.8587],[-86.1175,39.8624],[-86.1363,39.8623],[-86.1363,39.8588],[-86.1502,39.8622],[-86.1623,39.8534],[-86.1785,39.8504],[-86.1786,39.8576],[-86.1956,39.8555],[-86.2017,39.8681],[-86.2317,39.8676],[-86.2346,39.8607],[-86.2467,39.8636],[-86.2466,39.8673],[-86.2586,39.8672],[-86.2607,39.861],[-86.271,39.8613]]]},"properties":{"geoid":"18033","state":"18","district":"33","name":"State Senate District 33","chamber":"Senate"}},{"type":"Feature","geometry":{"type":"Polygon","coordinates":[[[-86.1401,39.8001],[-86.131,39.8014],[-86.131,39.7966],[-86.1166,39.794],[-86.0894,39.8022],[-86.0645,39.8032],[-86.0611,39.7963],[-85.9959,39.7969],[-85.9906,39.8018],[-85.9529,39.8067],[-85.954,39.8696],[-85.9381,39.8698],[-85.9381,39.8872],[-85.9728,39.8691],[-85.9732,39.8741],[-86,39.8729],[-86.0001,39.8837],[-85.9902,39.8874],[-85.9904,39.891],[-85.9996,39.8918],[-86.0028,39.8875],[-86.0168,39.892],[-86.0244,39.8908],[-86.0424,39.8674],[-86.0538,39.8681],[-86.0553,39.8723],[-86.059,39.8684],[-86.0843,39.8687],[-86.094,39.8584],[-86.0965,39.8624],[-86.1175,39.8624],[-86.1222,39.8587],[-86.1219,39.8403],[-86.1174,39.8402],[-86.1315,39.8255],[-86.1401,39.8001]]]},"properties":{"geoid":"18034","state":"18","district":"34","name":"State Senate District 34","chamber":"Senate"}},{"type":"Feature","geometry":{"type":"Polygon","coordinates":[[[-86.5608,39.7102],[-86.5598,39.6009],[-86.4656,39.6008],[-86.4659,39.63],[-86.2342,39.6339],[-86.2391,39.6371],[-86.243,39.6341],[-86.2464,39.6391],[-86.2388,39.6393],[-86.236,39.6692],[-86.224,39.6752],[-86.2351,39.6879],[-86.2236,39.6869],[-86.223,39.6973],[-86.2142,39.7048],[-86.2171,39.7116],[-86.2064,39.709],[-86.2051,39.7131],[-86.1964,39.7083],[-86.1918,39.7125],[-86.1998,39.7142],[-86.1894,39.7205],[-86.1966,39.7216],[-86.1968,39.7562],[-86.2161,39.7557],[-86.2216,39.7651],[-86.2161,39.7653],[-86.2161,39.7704],[-86.2341,39.776],[-86.2341,39.7802],[-86.2252,39.781],[-86.2257,39.8023],[-86.2328,39.8022],[-86.2343,39.8094],[-86.2558,39.8096],[-86.256,39.8165],[-86.2754,39.8161],[-86.2754,39.8012],[-86.2698,39.801],[-86.2697,39.7719],[-86.26,39.7614],[-86.3267,39.7598],[-86.3266,39.7195],[-86.5608,39.7167],[-86.5608,39.7102]]]},"properties":{"geoid":"18035","state":"18","district":"35","name":"State Senate District 35","chamber":"Senate"}},{"type":"Feature","geometry":{"type":"Polygon","coordinates":[[[-86.2464,39.6391],[-86.2422,39.634],[-86.2391,39.6371],[-86.1964,39.6344],[-86.1972,39.6052],[-86.1073,39.6064],[-86.114,39.6264],[-86.108,39.6275],[-86.1112,39.6357],[-86.0827,39.6364],[-86.0824,39.6943],[-86.099,39.6954],[-86.0951,39.7048],[-86.1015,39.7061],[-86.1004,39.7158],[-86.1112,39.7159],[-86.1113,39.7233],[-86.154,39.7225],[-86.1536,39.7078],[-86.1772,39.7075],[-86.1775,39.7222],[-86.1895,39.7218],[-86.1998,39.7142],[-86.1918,39.7125],[-86.1964,39.7083],[-86.2051,39.7131],[-86.2064,39.709],[-86.2171,39.7116],[-86.2142,39.7048],[-86.223,39.6973],[-86.2236,39.6869],[-86.2349,39.6881],[-86.224,39.6752],[-86.236,39.6692],[-86.2388,39.6393],[-86.2464,39.6391]]]},"properties":{"geoid":"18036","state":"18","district":"36","name":"State Senate District 36","chamber":"Senate"}},{"type":"Feature","geometry":{"type":"Polygon","coordinates":[[[-87.0147,39.4756],[-86.94,39.4733],[-86.9426,39.3269],[-86.8334,39.3257],[-86.8335,39.3043],[-86.7878,39.29],[-86.7966,39.2898],[-86.7965,39.2828],[-86.78,39.2816],[-86.7833,39.2756],[-86.7782,39.2756],[-86.7744,39.2858],[-86.7557,39.2786],[-86.7557,39.2842],[-86.7485,39.2882],[-86.722,39.2822],[-86.6848,39.2815],[-86.6856,39.336],[-86.667,39.3293],[-86.6638,39.3341],[-86.6564,39.3306],[-86.6587,39.3495],[-86.6516,39.3556],[-86.6308,39.3469],[-86.6308,39.3408],[-86.6072,39.3401],[-86.1396,39.3431],[-86.1399,39.6061],[-86.1972,39.6052],[-86.1964,39.6344],[-86.4659,39.63],[-86.4656,39.6008],[-86.6567,39.6014],[-86.6432,39.6177],[-86.645,39.6275],[-86.6416,39.6301],[-86.6619,39.6303],[-86.6874,39.6304],[-86.6881,39.6014],[-87.0131,39.6048],[-87.0147,39.4756]]]},"properties":{"geoid":"18037","state":"18","district":"37","name":"State Senate District 37","chamber":"Senate"}},{"type":"Feature","geometry":{"type":"Polygon","coordinates":[[[-87.6212,39.3047],[-87.5979,39.2995],[-87.6098,39.2847],[-87.6085,39.2772],[-87.6014,39.2744],[-87.6041,39.2595],[-87.4606,39.2593],[-87.4612,39.1719],[-87.3156,39.1718],[-87.3127,39.1427],[-87.2408,39.1426],[-87.2407,39.1718],[-87.0546,39.1681],[-87.0536,39.3426],[-86.9425,39.342],[-86.94,39.4733],[-87.0147,39.4738],[-87.0131,39.6048],[-87.5322,39.6073],[-87.5316,39.3479],[-87.544,39.3529],[-87.5544,39.3405],[-87.5849,39.3373],[-87.6059,39.3111],[-87.6212,39.3047]]]},"properties":{"geoid":"18038","state":"18","district":"38","name":"State Senate District 38","chamber":"Senate"}},{"type":"Feature","geometry":{"type":"Polygon","coordinates":[[[-87.7567,38.4603],[-87.7548,38.4552],[-87.7405,38.4547],[-87.7304,38.4479],[-87.7307,38.4429],[-87.741,38.4356],[-87.7437,38.4144],[-87.7126,38.4177],[-87.6822,38.4315],[-87.6642,38.4309],[-87.6621,38.4367],[-87.6715,38.4404],[-87.6735,38.4465],[-87.6641,38.4492],[-87.6568,38.4586],[-87.6507,38.4571],[-87.6557,38.4524],[-87.6528,38.4492],[-87.6393,38.4555],[-87.6352,38.4422],[-87.6253,38.4496],[-87.6119,38.4466],[-87.5993,38.4507],[-87.5801,38.4836],[-87.587,38.4924],[-87.5846,38.4987],[-87.5807,38.5],[-87.57,38.4906],[-87.5402,38.4928],[-87.5495,38.5116],[-87.5452,38.5173],[-87.53,38.5144],[-87.5315,38.4989],[-87.5161,38.5038],[-87.4958,38.4941],[-87.4918,38.5053],[-87.4738,38.5128],[-87.4722,38.5203],[-87.4792,38.5275],[-87.47,38.5204],[-87.4662,38.5329],[-87.436,38.5284],[-87.4318,38.5383],[-87.4255,38.5407],[-87.4159,38.5268],[-87.4099,38.5271],[-87.4062,38.5404],[-87.3838,38.5378],[-87.3797,38.5319],[-87.3814,38.5179],[-87.3697,38.5122],[-87.3614,38.5231],[-87.3699,38.5392],[-87.3551,38.5435],[-87.324,38.524],[-87.3093,38.5199],[-87.3012,38.5103],[-87.2879,38.5118],[-87.2559,38.5266],[-87.2476,38.5436],[-87.2376,38.5455],[-87.2209,38.5388],[-87.2017,38.5521],[-87.1755,38.544],[-87.1715,38.5328],[-87.1547,38.5274],[-87.1562,38.5189],[-87.1515,38.5159],[-87.1354,38.5192],[-87.1391,38.5263],[-87.1355,38.5319],[-87.1232,38.5251],[-87.1183,38.5352],[-87.1077,38.5377],[-87.0925,38.5226],[-87.0818,38.5207],[-87.0867,38.5128],[-87.0704,38.5139],[-87.0626,38.5011],[-87.0451,38.5109],[-87.0332,38.5122],[-87.0234,38.5072],[-87.0123,38.5123],[-87.0024,38.5085],[-86.9952,38.5136],[-86.978,38.5024],[-86.9562,38.5034],[-86.956,38.4922],[-86.95,38.4904],[-86.9406,38.4941],[-86.9391,38.5019],[-86.933,38.5054],[-86.9234,38.5053],[-86.9157,38.4962],[-86.9006,38.5013],[-86.8789,38.4949],[-86.8707,38.5058],[-86.8442,38.5152],[-86.8375,38.5265],[-86.6824,38.5264],[-86.6848,39.2815],[-86.722,39.2822],[-86.7485,39.2882],[-86.7557,39.2842],[-86.7557,39.2786],[-86.7744,39.2858],[-86.7782,39.2756],[-86.7833,39.2756],[-86.78,39.2816],[-86.7965,39.2828],[-86.7966,39.2898],[-86.7878,39.29],[-86.8335,39.3043],[-86.8334,39.3257],[-86.9426,39.3269],[-86.9425,39.342],[-87.0536,39.3426],[-87.0546,39.1681],[-87.2407,39.1718],[-87.2408,39.1426],[-87.3156,39.1427],[-87.3156,39.1718],[-87.4612,39.1719],[-87.4606,39.2593],[-87.6041,39.2595],[-87.5924,39.2471],[-87.5824,39.2548],[-87.5724,39.2537],[-87.5721,39.2478],[-87.5793,39.2436],[-87.5756,39.2138],[-87.6063,39.1851],[-87.6196,39.186],[-87.6196,39.171],[-87.6404,39.1667],[-87.6415,39.1605],[-87.6277,39.1549],[-87.6422,39.1571],[-87.6528,39.1494],[-87.6587,39.136],[-87.635,39.1201],[-87.6408,39.1144],[-87.651,39.1164],[-87.655,39.1109],[-87.6471,39.1043],[-87.6157,39.1033],[-87.6203,39.0866],[-87.5964,39.0796],[-87.5726,39.0573],[-87.5723,39.0506],[-87.5804,39.0407],[-87.5697,39.0194],[-87.5791,39.0016],[-87.5604,38.9924],[-87.564,38.9888],[-87.577,38.9913],[-87.5765,38.9867],[-87.5295,38.9719],[-87.5122,38.9544],[-87.5218,38.9411],[-87.5167,38.9335],[-87.5188,38.9232],[-87.5277,38.9192],[-87.5276,38.9077],[-87.5168,38.9037],[-87.5337,38.901],[-87.536,38.887],[-87.5391,38.8961],[-87.5441,38.8951],[-87.5443,38.889],[-87.5349,38.8789],[-87.5471,38.876],[-87.5426,38.8653],[-87.5534,38.8624],[-87.5267,38.8504],[-87.5217,38.8266],[-87.5273,38.8181],[-87.4955,38.7846],[-87.4986,38.7765],[-87.5149,38.7705],[-87.4969,38.7668],[-87.504,38.7485],[-87.4958,38.7407],[-87.5062,38.7337],[-87.5195,38.7105],[-87.5196,38.6972],[-87.5312,38.684],[-87.5937,38.6674],[-87.6002,38.6625],[-87.6058,38.6465],[-87.6201,38.6395],[-87.6156,38.625],[-87.6273,38.6054],[-87.6241,38.597],[-87.6124,38.5946],[-87.612,38.5892],[-87.6229,38.5862],[-87.6384,38.5922],[-87.6382,38.5763],[-87.6511,38.569],[-87.6507,38.5562],[-87.6701,38.5452],[-87.6561,38.5217],[-87.6454,38.5138],[-87.6467,38.5078],[-87.6582,38.5017],[-87.6719,38.5076],[-87.6823,38.4946],[-87.6977,38.4861],[-87.714,38.4799],[-87.7446,38.4773],[-87.7567,38.4603]]]},"properties":{"geoid":"18039","state":"18","district":"39","name":"State Senate District 39","chamber":"Senate"}},{"type":"Feature","geometry":{"type":"Polygon","coordinates":[[[-86.6857,39.3212],[-86.6823,38.9924],[-86.5735,38.9921],[-86.5734,39.0208],[-86.5628,39.0162],[-86.5625,39.0219],[-86.5474,39.022],[-86.5292,39.0121],[-86.5236,39.0133],[-86.5206,39.0341],[-86.5079,39.0499],[-86.5078,39.0696],[-86.5361,39.0709],[-86.5366,39.0785],[-86.4616,39.0783],[-86.4632,39.2101],[-86.4304,39.2308],[-86.3971,39.2319],[-86.385,39.2408],[-86.3722,39.2383],[-86.3724,39.2509],[-86.3799,39.2511],[-86.3814,39.3398],[-86.6308,39.3408],[-86.6308,39.3469],[-86.6505,39.3557],[-86.6587,39.3495],[-86.6555,39.3315],[-86.6638,39.3341],[-86.6663,39.3291],[-86.6856,39.336],[-86.6857,39.3212]]]},"properties":{"geoid":"18040","state":"18","district":"40","name":"State Senate District 40","chamber":"Senate"}},{"type":"Feature","geometry":{"type":"Polygon","coordinates":[[[-86.1396,39.5633],[-86.1396,39.3431],[-86.0856,39.3442],[-86.0798,39.0359],[-85.8605,39.0409],[-85.8624,39.0489],[-85.8473,39.0552],[-85.8416,39.0633],[-85.8283,39.0636],[-85.817,39.0709],[-85.7988,39.0685],[-85.7998,39.1289],[-85.6868,39.1309],[-85.6845,39.35],[-85.952,39.3474],[-85.9519,39.5379],[-86.0452,39.5358],[-86.0453,39.6026],[-86.0692,39.6023],[-86.0634,39.5877],[-86.0922,39.5868],[-86.0865,39.5721],[-86.0956,39.5719],[-86.1008,39.5866],[-86.1221,39.5859],[-86.122,39.5785],[-86.116,39.5785],[-86.116,39.5732],[-86.1255,39.5712],[-86.1254,39.5639],[-86.1396,39.5633]]]},"properties":{"geoid":"18041","state":"18","district":"41","name":"State Senate District 41","chamber":"Senate"}},{"type":"Feature","geometry":{"type":"Polygon","coordinates":[[[-85.9532,39.3835],[-85.952,39.3474],[-85.6845,39.35],[-85.6867,39.1309],[-85.7998,39.1289],[-85.7981,39.0277],[-85.659,39.0291],[-85.659,39.0217],[-85.6494,39.0216],[-85.6479,39.0079],[-85.6516,39.006],[-85.6428,39.0043],[-85.6457,38.9995],[-85.6637,38.9995],[-85.6638,38.9923],[-85.6496,38.9923],[-85.6495,38.9854],[-85.6303,38.9868],[-85.6282,38.9811],[-85.627,38.9921],[-85.6113,38.9918],[-85.6107,38.9996],[-85.4447,39.0007],[-85.4449,38.913],[-85.2027,38.9138],[-85.2028,38.9285],[-85.1358,38.9296],[-85.0651,39.3101],[-85.0763,39.31],[-85.0761,39.3978],[-85.095,39.3979],[-85.0923,39.4689],[-85.0344,39.4685],[-85.0225,39.5261],[-85.0361,39.5262],[-85.0346,39.7148],[-85.1851,39.7155],[-85.1835,39.7884],[-85.6335,39.7862],[-85.6332,39.6985],[-85.7355,39.6988],[-85.7341,39.626],[-85.7058,39.6259],[-85.7035,39.4971],[-85.8369,39.4968],[-85.8363,39.5251],[-85.9514,39.5231],[-85.9532,39.3835]]]},"properties":{"geoid":"18042","state":"18","district":"42","name":"State Senate District 42","chamber":"Senate"}},{"type":"Feature","geometry":{"type":"Polygon","coordinates":[[[-85.8884,38.7327],[-85.8856,38.5754],[-85.8486,38.5763],[-85.8479,38.5613],[-85.8212,38.5614],[-85.8215,38.5754],[-85.8122,38.5756],[-85.8123,38.5829],[-85.803,38.583],[-85.8031,38.5903],[-85.7936,38.5903],[-85.7936,38.6048],[-85.4967,38.6067],[-85.4965,38.5922],[-85.4787,38.5924],[-85.4788,38.5862],[-85.4279,38.5862],[-85.4384,38.6061],[-85.4386,38.6589],[-85.4547,38.6807],[-85.4568,38.6923],[-85.4518,38.7101],[-85.4372,38.7276],[-85.416,38.7366],[-85.3644,38.7304],[-85.302,38.742],[-85.2671,38.7398],[-85.2465,38.7317],[-85.2131,38.6955],[-85.1889,38.6876],[-85.1732,38.688],[-85.1374,38.6999],[-85.102,38.7263],[-84.9919,38.7783],[-84.9411,38.7757],[-84.8874,38.7948],[-84.8289,38.7833],[-84.8147,38.7845],[-84.814,38.8002],[-84.8276,38.8196],[-84.8299,38.8308],[-84.7915,38.86],[-84.7853,38.8804],[-84.8122,38.895],[-84.8666,38.8988],[-84.8772,38.9094],[-84.8769,38.9217],[-84.8343,38.9588],[-84.83,38.9726],[-84.8386,38.9899],[-84.8858,39.0377],[-84.8974,39.0574],[-84.8891,39.0661],[-84.8624,39.0771],[-84.8202,39.1054],[-84.8195,39.3052],[-85.0656,39.3072],[-85.1358,38.9296],[-85.2028,38.9285],[-85.2027,38.9138],[-85.4449,38.913],[-85.4447,39.0007],[-85.6107,38.9996],[-85.6113,38.9918],[-85.627,38.9921],[-85.6282,38.9811],[-85.6303,38.9868],[-85.6495,38.9854],[-85.6496,38.9923],[-85.6638,38.9923],[-85.6637,38.9995],[-85.6457,38.9995],[-85.6428,39.0043],[-85.6516,39.006],[-85.6479,39.0079],[-85.6494,39.0216],[-85.659,39.0217],[-85.659,39.0291],[-85.7981,39.0277],[-85.7954,38.8075],[-85.8073,38.7894],[-85.8046,38.7799],[-85.8194,38.7765],[-85.8298,38.7642],[-85.8323,38.7518],[-85.843,38.7453],[-85.8416,38.7405],[-85.8475,38.7349],[-85.8709,38.7295],[-85.8696,38.7262],[-85.8796,38.7294],[-85.8807,38.725],[-85.8877,38.7318],[-85.8857,38.7348],[-85.8884,38.7327]]]},"properties":{"geoid":"18043","state":"18","district":"43","name":"State Senate District 43","chamber":"Senate"}},{"type":"Feature","geometry":{"type":"Polygon","coordinates":[[[-86.684,38.7615],[-86.6814,38.3948],[-86.3089,38.3941],[-86.3101,38.7331],[-86.3022,38.7358],[-86.3001,38.7296],[-86.2985,38.7349],[-86.2907,38.7358],[-86.2834,38.7663],[-86.2788,38.7629],[-86.2641,38.7649],[-86.2563,38.772],[-86.2544,38.763],[-86.249,38.768],[-86.2391,38.7666],[-86.2241,38.7791],[-86.2174,38.7711],[-86.2143,38.7792],[-86.1977,38.7738],[-86.2055,38.7818],[-86.1899,38.7766],[-86.1841,38.7836],[-86.1736,38.7734],[-86.1636,38.7748],[-86.1349,38.7624],[-86.1024,38.7658],[-86.0982,38.7805],[-86.0925,38.7835],[-86.0743,38.7744],[-86.0624,38.7783],[-86.0422,38.7617],[-86.0318,38.7613],[-86.0268,38.7557],[-86.0211,38.7675],[-86.0155,38.7654],[-86.0167,38.758],[-86.0109,38.7567],[-85.9978,38.7609],[-85.9933,38.7673],[-85.9836,38.768],[-85.9856,38.7582],[-85.9798,38.7587],[-85.9766,38.7524],[-85.9679,38.7551],[-85.9617,38.764],[-85.9504,38.7608],[-85.9484,38.7536],[-85.9369,38.7629],[-85.9361,38.7554],[-85.9272,38.756],[-85.928,38.7507],[-85.9167,38.7457],[-85.9186,38.7542],[-85.9118,38.7473],[-85.9112,38.7572],[-85.9089,38.7512],[-85.9006,38.7538],[-85.8962,38.7501],[-85.9004,38.7422],[-85.8918,38.7362],[-85.8942,38.7302],[-85.886,38.735],[-85.8814,38.725],[-85.8796,38.7294],[-85.8696,38.7262],[-85.8709,38.7295],[-85.8475,38.7349],[-85.8416,38.7405],[-85.843,38.7453],[-85.8323,38.7518],[-85.8298,38.7642],[-85.8194,38.7765],[-85.8046,38.7799],[-85.8073,38.7894],[-85.7954,38.8075],[-85.7988,39.0685],[-85.817,39.0709],[-85.8283,39.0636],[-85.8416,39.0633],[-85.8473,39.0552],[-85.8624,39.0489],[-85.8606,39.0409],[-86.0798,39.0359],[-86.0856,39.3442],[-86.3814,39.3398],[-86.3799,39.2511],[-86.3724,39.2509],[-86.3722,39.2383],[-86.385,39.2408],[-86.3971,39.2319],[-86.4304,39.2308],[-86.4633,39.2099],[-86.4616,39.0783],[-86.5366,39.0785],[-86.5361,39.0709],[-86.5082,39.0711],[-86.5079,39.0498],[-86.5206,39.0341],[-86.5236,39.0133],[-86.5292,39.0121],[-86.5474,39.022],[-86.5625,39.0219],[-86.5628,39.0162],[-86.5734,39.0208],[-86.5735,38.9921],[-86.6823,38.9924],[-86.684,38.7615]]]},"properties":{"geoid":"18044","state":"18","district":"44","name":"State Senate District 44","chamber":"Senate"}},{"type":"Feature","geometry":{"type":"Polygon","coordinates":[[[-85.9947,38.4269],[-85.9946,38.4109],[-85.9669,38.4109],[-85.9667,38.4037],[-85.8077,38.4043],[-85.8073,38.3784],[-85.8128,38.37],[-85.8184,38.3321],[-85.8081,38.3329],[-85.805,38.3292],[-85.8092,38.3268],[-85.7995,38.3115],[-85.7916,38.3166],[-85.7938,38.3133],[-85.7876,38.3087],[-85.796,38.3066],[-85.7908,38.2982],[-85.7923,38.2875],[-85.7731,38.2858],[-85.7613,38.2721],[-85.7416,38.2677],[-85.68,38.2976],[-85.6555,38.3237],[-85.6394,38.3611],[-85.6318,38.3984],[-85.6203,38.4234],[-85.607,38.4386],[-85.5836,38.4508],[-85.5253,38.4575],[-85.4981,38.4688],[-85.4697,38.508],[-85.4342,38.5233],[-85.4195,38.5353],[-85.4158,38.5639],[-85.4279,38.5862],[-85.4788,38.5862],[-85.4787,38.5924],[-85.4965,38.5922],[-85.4967,38.6067],[-85.7936,38.6048],[-85.7936,38.5903],[-85.8031,38.5903],[-85.803,38.583],[-85.8123,38.5829],[-85.8122,38.5756],[-85.8215,38.5754],[-85.8212,38.5614],[-85.8479,38.5613],[-85.8476,38.5471],[-85.8663,38.5471],[-85.8663,38.5184],[-85.8847,38.5182],[-85.8848,38.5035],[-85.9571,38.5019],[-85.9562,38.489],[-85.9933,38.4885],[-85.9947,38.4269]]]},"properties":{"geoid":"18045","state":"18","district":"45","name":"State Senate District 45","chamber":"Senate"}},{"type":"Feature","geometry":{"type":"Polygon","coordinates":[[[-86.2341,39.7782],[-86.2161,39.7704],[-86.2161,39.7653],[-86.2216,39.7651],[-86.2161,39.7557],[-86.1968,39.7562],[-86.1966,39.7216],[-86.1775,39.7222],[-86.1772,39.7075],[-86.1536,39.7078],[-86.154,39.7225],[-86.1208,39.7232],[-86.1209,39.7377],[-86.0637,39.739],[-86.0639,39.7499],[-86.0598,39.7499],[-86.0639,39.753],[-86.0628,39.761],[-86.0546,39.7612],[-86.0547,39.7688],[-86.05,39.7719],[-86.0304,39.7728],[-86.0354,39.7964],[-86.0611,39.7963],[-86.0645,39.8032],[-86.0894,39.8022],[-86.1166,39.794],[-86.1355,39.8014],[-86.1401,39.7995],[-86.1426,39.7867],[-86.1614,39.7883],[-86.1612,39.781],[-86.1904,39.7806],[-86.1894,39.7748],[-86.1969,39.7747],[-86.1969,39.7712],[-86.216,39.7805],[-86.2341,39.7782]]]},"properties":{"geoid":"18046","state":"18","district":"46","name":"State Senate District 46","chamber":"Senate"}},{"type":"Feature","geometry":{"type":"Polygon","coordinates":[[[-86.3296,38.1818],[-86.2914,38.1615],[-86.2718,38.1389],[-86.2786,38.0864],[-86.268,38.0574],[-86.2333,38.0396],[-86.2202,38.028],[-86.1789,38.0108],[-86.1253,38.0162],[-86.0999,38.011],[-86.0772,37.9986],[-86.0608,37.9708],[-86.042,37.9581],[-86.0346,37.964],[-86.035,37.9843],[-86.0304,37.9921],[-86.0095,37.9984],[-85.9465,38.0052],[-85.9257,38.0218],[-85.9139,38.0719],[-85.9051,38.09],[-85.9091,38.1423],[-85.9034,38.1742],[-85.8819,38.2016],[-85.8436,38.2322],[-85.8366,38.2641],[-85.8291,38.2766],[-85.7923,38.2875],[-85.7908,38.2982],[-85.796,38.3066],[-85.7876,38.3087],[-85.7938,38.3133],[-85.7916,38.3166],[-85.7995,38.3115],[-85.8043,38.3166],[-85.8081,38.3329],[-85.8184,38.3321],[-85.8128,38.37],[-85.8073,38.3784],[-85.8077,38.4043],[-85.9667,38.4037],[-85.9669,38.4109],[-85.9946,38.4109],[-85.9933,38.4885],[-85.9562,38.489],[-85.9571,38.5019],[-85.8848,38.5035],[-85.8847,38.5182],[-85.8663,38.5184],[-85.8663,38.5471],[-85.8476,38.5471],[-85.8486,38.5763],[-85.8856,38.5754],[-85.8883,38.7344],[-85.8942,38.7302],[-85.8918,38.7362],[-85.9004,38.7422],[-85.8962,38.7497],[-85.8999,38.7534],[-85.9089,38.7512],[-85.9112,38.7572],[-85.9118,38.7473],[-85.9186,38.7542],[-85.9167,38.7457],[-85.928,38.7507],[-85.9272,38.756],[-85.9361,38.7554],[-85.9366,38.7628],[-85.9484,38.7536],[-85.9504,38.7608],[-85.9609,38.7642],[-85.9679,38.7551],[-85.9766,38.7524],[-85.9798,38.7587],[-85.9856,38.7582],[-85.9843,38.7681],[-86.0109,38.7567],[-86.0167,38.758],[-86.0155,38.7654],[-86.0211,38.7675],[-86.0268,38.7557],[-86.0318,38.7613],[-86.0422,38.7617],[-86.0624,38.7783],[-86.0743,38.7744],[-86.0925,38.7835],[-86.0982,38.7805],[-86.1024,38.7658],[-86.1349,38.7624],[-86.1636,38.7748],[-86.1736,38.7734],[-86.1841,38.7836],[-86.1899,38.7766],[-86.2055,38.7818],[-86.1977,38.7738],[-86.2143,38.7792],[-86.2174,38.7711],[-86.2241,38.7791],[-86.2391,38.7666],[-86.249,38.768],[-86.2544,38.763],[-86.2563,38.772],[-86.2641,38.7649],[-86.2788,38.7629],[-86.2834,38.7663],[-86.2907,38.7358],[-86.2985,38.7349],[-86.3001,38.7296],[-86.3022,38.7358],[-86.3101,38.7331],[-86.3087,38.4229],[-86.255,38.4227],[-86.2648,38.4109],[-86.2521,38.4069],[-86.2506,38.3971],[-86.2618,38.3952],[-86.2455,38.3877],[-86.2517,38.3831],[-86.259,38.3894],[-86.2612,38.381],[-86.258,38.3668],[-86.2481,38.3633],[-86.2528,38.3557],[-86.2472,38.3495],[-86.265,38.362],[-86.2708,38.3613],[-86.2818,38.3491],[-86.2751,38.3495],[-86.2715,38.342],[-86.2766,38.3394],[-86.2735,38.3211],[-86.2808,38.3225],[-86.2838,38.3315],[-86.2874,38.3295],[-86.2832,38.3242],[-86.2897,38.3161],[-86.2762,38.3085],[-86.2777,38.3014],[-86.2644,38.3084],[-86.2588,38.3054],[-86.2648,38.3032],[-86.2647,38.2949],[-86.2528,38.2938],[-86.257,38.284],[-86.2655,38.2862],[-86.2693,38.2785],[-86.2771,38.2865],[-86.2805,38.2846],[-86.2748,38.28],[-86.277,38.2271],[-86.2843,38.2207],[-86.2929,38.2246],[-86.2978,38.2215],[-86.2886,38.2136],[-86.2951,38.2091],[-86.2897,38.202],[-86.3076,38.2016],[-86.3106,38.1893],[-86.3182,38.1881],[-86.3107,38.1795],[-86.3296,38.1818]]]},"properties":{"geoid":"18047","state":"18","district":"47","name":"State Senate District 47","chamber":"Senate"}},{"type":"Feature","geometry":{"type":"Polygon","coordinates":[[[-87.9881,38.2565],[-87.9798,38.2417],[-87.9837,38.2304],[-87.7992,38.2286],[-87.7997,38.2019],[-87.6882,38.201],[-87.6884,38.1684],[-87.4673,38.1654],[-87.4667,38.2013],[-87.317,38.2018],[-87.3169,38.2461],[-87.2983,38.246],[-87.2984,38.2317],[-87.0731,38.2326],[-87.0731,38.2038],[-87.0175,38.2036],[-87.0175,38.1183],[-87.0723,38.1183],[-87.0747,38.0971],[-87.0888,38.0841],[-87.0979,38.0593],[-87.0885,38.0497],[-87.125,38.0439],[-87.133,38.055],[-87.1485,38.0588],[-87.1566,38.0406],[-87.1541,38.0322],[-87.1663,38.0301],[-87.1539,38.0254],[-87.1536,38.0195],[-87.1692,38.0182],[-87.1728,38.0098],[-87.183,38.0106],[-87.1757,38.0069],[-87.1759,38.0027],[-87.1833,38.0026],[-87.1962,37.9875],[-87.2263,37.9712],[-87.2315,37.9484],[-87.2409,37.9523],[-87.268,37.9252],[-87.269,37.878],[-87.2197,37.8488],[-87.1617,37.8398],[-87.1411,37.8155],[-87.1301,37.7868],[-87.1107,37.7824],[-87.0893,37.7879],[-87.0654,37.8076],[-87.0432,37.8684],[-87.0459,37.8926],[-87.0342,37.9063],[-86.9762,37.9311],[-86.9189,37.9368],[-86.902,37.9464],[-86.8609,37.9844],[-86.8212,37.9993],[-86.795,37.9892],[-86.7778,37.9517],[-86.7325,37.8948],[-86.7174,37.8935],[-86.6808,37.915],[-86.6471,37.9087],[-86.6445,37.8957],[-86.6625,37.8571],[-86.6575,37.8437],[-86.6361,37.8432],[-86.605,37.858],[-86.5973,37.8703],[-86.5996,37.9074],[-86.5887,37.9211],[-86.5338,37.9172],[-86.5069,37.9302],[-86.5093,37.9423],[-86.5249,37.9665],[-86.5217,38.0396],[-86.5088,38.045],[-86.4539,38.0501],[-86.4361,38.0629],[-86.4306,38.0753],[-86.434,38.0864],[-86.4628,38.0994],[-86.4666,38.1121],[-86.4615,38.1207],[-86.449,38.1273],[-86.4323,38.1263],[-86.4019,38.1043],[-86.3808,38.129],[-86.3387,38.1279],[-86.3251,38.1363],[-86.3211,38.1466],[-86.3259,38.154],[-86.3723,38.1646],[-86.3779,38.1732],[-86.3775,38.1875],[-86.371,38.1956],[-86.3572,38.1987],[-86.3312,38.1824],[-86.3128,38.1781],[-86.31,38.1818],[-86.3182,38.1881],[-86.3106,38.1893],[-86.3076,38.2016],[-86.2897,38.202],[-86.2951,38.2091],[-86.2886,38.2136],[-86.2981,38.2209],[-86.2933,38.2246],[-86.2843,38.2207],[-86.277,38.2271],[-86.2748,38.28],[-86.2805,38.2846],[-86.2771,38.2865],[-86.2693,38.2785],[-86.2655,38.2862],[-86.257,38.284],[-86.2528,38.2938],[-86.2647,38.2949],[-86.2648,38.3032],[-86.2588,38.3054],[-86.2644,38.3084],[-86.2777,38.3014],[-86.2762,38.3085],[-86.2897,38.3161],[-86.2832,38.3242],[-86.2873,38.3298],[-86.2838,38.3315],[-86.2808,38.3225],[-86.2735,38.3211],[-86.2766,38.3394],[-86.2715,38.342],[-86.2751,38.3495],[-86.2818,38.3491],[-86.2708,38.3613],[-86.265,38.362],[-86.2472,38.3495],[-86.2528,38.3557],[-86.2481,38.3633],[-86.258,38.3668],[-86.2612,38.381],[-86.259,38.3894],[-86.2517,38.3831],[-86.2455,38.388],[-86.2618,38.3952],[-86.2506,38.3971],[-86.2521,38.4069],[-86.2648,38.4109],[-86.255,38.4227],[-86.3087,38.4229],[-86.3089,38.3941],[-86.6814,38.3948],[-86.6824,38.5264],[-86.8375,38.5265],[-86.8442,38.5152],[-86.8707,38.5058],[-86.8789,38.4949],[-86.9006,38.5013],[-86.9157,38.4962],[-86.9234,38.5053],[-86.933,38.5054],[-86.9391,38.5019],[-86.9406,38.4941],[-86.95,38.4904],[-86.956,38.4922],[-86.9562,38.5034],[-86.978,38.5024],[-86.9952,38.5136],[-87.0024,38.5085],[-87.0123,38.5123],[-87.0234,38.5072],[-87.0332,38.5122],[-87.0451,38.5109],[-87.0626,38.5011],[-87.0704,38.5139],[-87.0867,38.5128],[-87.0818,38.5207],[-87.0925,38.5226],[-87.1077,38.5377],[-87.1183,38.5352],[-87.1232,38.5251],[-87.1355,38.5319],[-87.1391,38.5263],[-87.1354,38.5192],[-87.1515,38.5159],[-87.1562,38.5189],[-87.1547,38.5274],[-87.1715,38.5328],[-87.1755,38.544],[-87.2017,38.5521],[-87.2209,38.5388],[-87.2376,38.5455],[-87.2476,38.5436],[-87.2559,38.5266],[-87.2879,38.5118],[-87.3012,38.5103],[-87.3093,38.5199],[-87.324,38.524],[-87.3551,38.5435],[-87.3699,38.5392],[-87.3614,38.5231],[-87.3697,38.5122],[-87.3814,38.5179],[-87.3797,38.5319],[-87.3838,38.5378],[-87.4062,38.5404],[-87.4099,38.5271],[-87.4159,38.5268],[-87.4255,38.5407],[-87.4318,38.5383],[-87.436,38.5284],[-87.4662,38.5329],[-87.47,38.5204],[-87.4792,38.5275],[-87.4722,38.5203],[-87.4738,38.5128],[-87.4918,38.5053],[-87.4958,38.4941],[-87.5161,38.5038],[-87.5315,38.4989],[-87.53,38.5144],[-87.5452,38.5173],[-87.5495,38.5116],[-87.5402,38.4928],[-87.57,38.4906],[-87.5807,38.5],[-87.5846,38.4987],[-87.587,38.4924],[-87.5801,38.4836],[-87.5993,38.4507],[-87.6119,38.4466],[-87.6253,38.4496],[-87.6352,38.4422],[-87.6393,38.4555],[-87.6528,38.4492],[-87.6557,38.4524],[-87.6507,38.4571],[-87.6568,38.4586],[-87.6641,38.4492],[-87.6735,38.4465],[-87.6715,38.4404],[-87.6621,38.4367],[-87.6642,38.4309],[-87.6808,38.4318],[-87.7087,38.4187],[-87.7437,38.4144],[-87.779,38.3716],[-87.8061,38.3631],[-87.8227,38.3469],[-87.8327,38.3249],[-87.8315,38.2967],[-87.8459,38.2767],[-87.8566,38.2755],[-87.863,38.2802],[-87.8662,38.29],[-87.8605,38.3054],[-87.8705,38.3122],[-87.8794,38.3065],[-87.8878,38.2853],[-87.9101,38.2681],[-87.9195,38.2745],[-87.9085,38.291],[-87.9095,38.2961],[-87.9214,38.2993],[-87.9348,38.2951],[-87.9403,38.2811],[-87.9521,38.2738],[-87.943,38.2578],[-87.9576,38.25],[-87.9602,38.2371],[-87.969,38.2374],[-87.9723,38.247],[-87.9819,38.2564],[-87.9881,38.2565]]]},"properties":{"geoid":"18048","state":"18","district":"48","name":"State Senate District 48","chamber":"Senate"}},{"type":"Feature","geometry":{"type":"Polygon","coordinates":[[[-88.0978,37.904],[-88.095,37.8937],[-88.0785,37.8791],[-88.065,37.8532],[-88.0314,37.8412],[-88.0259,37.8327],[-88.0315,37.8251],[-88.0438,37.8215],[-88.0819,37.8307],[-88.0915,37.8232],[-88.0887,37.8155],[-88.0669,37.8006],[-88.0376,37.8099],[-88.0298,37.8063],[-88.028,37.7992],[-88.0047,37.8001],[-87.9537,37.7718],[-87.9455,37.7739],[-87.9341,37.7964],[-87.9078,37.8068],[-87.9044,37.8125],[-87.91,37.843],[-87.9369,37.8687],[-87.9407,37.8845],[-87.9086,37.9217],[-87.8969,37.9279],[-87.875,37.9229],[-87.8397,37.8808],[-87.8298,37.8764],[-87.7914,37.8757],[-87.7592,37.8917],[-87.7182,37.8926],[-87.6844,37.9037],[-87.675,37.9016],[-87.664,37.8875],[-87.6817,37.8563],[-87.6777,37.8342],[-87.6703,37.828],[-87.6531,37.826],[-87.6153,37.8319],[-87.5903,37.8586],[-87.5837,37.8781],[-87.5929,37.8898],[-87.6204,37.9074],[-87.6264,37.9279],[-87.6058,37.9496],[-87.6014,37.9713],[-87.5932,37.9753],[-87.5769,37.9691],[-87.5775,37.9517],[-87.556,37.9282],[-87.5485,37.9239],[-87.5482,37.9408],[-87.5348,37.9361],[-87.5344,37.9457],[-87.5299,37.9445],[-87.5298,37.9553],[-87.5246,37.9613],[-87.5245,37.9662],[-87.5325,37.9663],[-87.5324,37.9699],[-87.5244,37.9699],[-87.5294,37.9735],[-87.5271,38.0002],[-87.551,38.0097],[-87.5412,38.0409],[-87.5547,38.0794],[-87.4725,38.0782],[-87.4673,38.1654],[-87.6884,38.1684],[-87.6882,38.201],[-87.7997,38.2019],[-87.7992,38.2286],[-87.9837,38.2304],[-87.9828,38.2067],[-87.9699,38.1918],[-87.9372,38.1722],[-87.9346,38.1567],[-87.926,38.1593],[-87.9217,38.1738],[-87.9131,38.1715],[-87.911,38.1622],[-87.9279,38.1516],[-87.9258,38.1436],[-87.9455,38.1266],[-87.9549,38.1326],[-87.9664,38.1325],[-87.973,38.125],[-87.9761,38.1096],[-87.9982,38.1086],[-88.0151,38.1014],[-88.0141,38.0888],[-88.0067,38.0839],[-87.9602,38.0999],[-87.9567,38.0862],[-87.9672,38.0671],[-88.0013,38.0515],[-88.03,38.0521],[-88.0421,38.0463],[-88.0415,38.0373],[-88.0341,38.032],[-88.0176,38.0347],[-88.0079,38.0308],[-88.021,38.0193],[-88.0258,38.0072],[-88.0126,37.9771],[-88.0129,37.9665],[-88.0209,37.9594],[-88.0368,37.9568],[-88.0303,37.931],[-88.0341,37.9262],[-88.045,37.9251],[-88.0571,37.9342],[-88.0695,37.9257],[-88.0622,37.9179],[-88.0208,37.9138],[-88.0152,37.8908],[-88.0554,37.8912],[-88.0862,37.9057],[-88.0978,37.904]]]},"properties":{"geoid":"18049","state":"18","district":"49","name":"State Senate District 49","chamber":"Senate"}},{"type":"Feature","geometry":{"type":"Polygon","coordinates":[[[-87.5546,38.0794],[-87.5412,38.0409],[-87.551,38.0097],[-87.5275,38.0008],[-87.5294,37.9735],[-87.5244,37.9727],[-87.5324,37.9699],[-87.5325,37.9663],[-87.5245,37.9662],[-87.5299,37.9445],[-87.5344,37.9457],[-87.5348,37.9361],[-87.5482,37.9408],[-87.5485,37.9239],[-87.5097,37.906],[-87.4491,37.9419],[-87.412,37.9445],[-87.3717,37.9312],[-87.3444,37.911],[-87.3188,37.9053],[-87.269,37.878],[-87.268,37.9252],[-87.2409,37.9523],[-87.2315,37.9484],[-87.2263,37.9712],[-87.1962,37.9875],[-87.1833,38.0026],[-87.1759,38.0027],[-87.1757,38.0069],[-87.183,38.0106],[-87.1728,38.0098],[-87.1692,38.0182],[-87.1536,38.0195],[-87.1539,38.0254],[-87.1663,38.0301],[-87.1541,38.0322],[-87.1566,38.0406],[-87.1488,38.0586],[-87.133,38.055],[-87.125,38.0439],[-87.0896,38.0489],[-87.0884,38.0527],[-87.0979,38.0593],[-87.0888,38.0841],[-87.0747,38.0971],[-87.0723,38.1183],[-87.0175,38.1183],[-87.0175,38.2036],[-87.0731,38.2038],[-87.0731,38.2326],[-87.2984,38.2317],[-87.2983,38.246],[-87.3169,38.2461],[-87.317,38.2018],[-87.4667,38.2013],[-87.4725,38.0782],[-87.5546,38.0794]]]},"properties":{"geoid":"18050","state":"18","district":"50","name":"State Senate District 50","chamber":"Senate"}}]}