{"type":"FeatureCollection","features":[{"type":"Feature","geometry":{"type":"Polygon","coordinates":[[[-95.3776,37.0319],[-95.3773,36.9994],[-94.618,36.9989],[-94.6177,37.3384],[-95.0752,37.3399],[-95.0742,37.2083],[-95.1583,37.2079],[-95.1575,37.1209],[-95.3773,37.1199],[-95.3776,37.0319]]]},"properties":{"geoid":"20001","state":"20","district":"1","name":"State House District 1","chamber":"House"}},{"type":"Feature","geometry":{"type":"Polygon","coordinates":[[[-95.5259,37.6748],[-95.5258,37.6602],[-95.4795,37.6599],[-95.4795,37.682],[-95.4441,37.6819],[-95.4435,37.6602],[-95.4527,37.6601],[-95.4525,37.6162],[-95.3795,37.6164],[-95.3793,37.384],[-95.075,37.3838],[-95.0752,37.3399],[-94.7779,37.3391],[-94.7783,37.455],[-94.7332,37.4551],[-94.7359,37.4663],[-94.7298,37.4551],[-94.7234,37.4552],[-94.7233,37.4415],[-94.713,37.4426],[-94.7118,37.4553],[-94.7095,37.4442],[-94.7014,37.4441],[-94.7013,37.4404],[-94.6775,37.4402],[-94.6774,37.4498],[-94.666,37.4548],[-94.6171,37.4548],[-94.6178,37.6731],[-95.088,37.6745],[-95.0881,37.7325],[-95.1607,37.7342],[-95.5255,37.7328],[-95.5259,37.6748]]]},"properties":{"geoid":"20002","state":"20","district":"2","name":"State House District 2","chamber":"House"}},{"type":"Feature","geometry":{"type":"Polygon","coordinates":[[[-94.7785,37.4389],[-94.7779,37.3391],[-94.6177,37.3384],[-94.6171,37.4548],[-94.666,37.4548],[-94.6774,37.4498],[-94.6775,37.4402],[-94.6841,37.4402],[-94.7095,37.4442],[-94.7142,37.4553],[-94.713,37.4426],[-94.7233,37.4415],[-94.7234,37.4552],[-94.7298,37.4551],[-94.7359,37.4663],[-94.7332,37.4551],[-94.7783,37.455],[-94.7785,37.4389]]]},"properties":{"geoid":"20003","state":"20","district":"3","name":"State House District 3","chamber":"House"}},{"type":"Feature","geometry":{"type":"Polygon","coordinates":[[[-95.0881,37.7441],[-95.088,37.6745],[-94.6178,37.6731],[-94.6132,38.3887],[-94.9181,38.3891],[-94.918,38.273],[-95.0653,38.2732],[-95.0651,38.2586],[-95.0755,38.2587],[-95.0796,37.8204],[-95.0879,37.8197],[-95.0881,37.7441]]]},"properties":{"geoid":"20004","state":"20","district":"4","name":"State House District 4","chamber":"House"}},{"type":"Feature","geometry":{"type":"Polygon","coordinates":[[[-95.501,38.7439],[-95.5007,38.7388],[-95.1675,38.7385],[-95.1677,38.695],[-95.1742,38.695],[-95.1745,38.6522],[-95.0652,38.6517],[-95.0659,38.4033],[-94.9468,38.4684],[-94.9438,38.4833],[-94.9509,38.4853],[-94.9497,38.4946],[-94.9553,38.5037],[-94.9556,38.5784],[-94.9369,38.5782],[-94.9372,38.6324],[-94.9201,38.6369],[-94.9186,38.6501],[-94.9142,38.6479],[-94.8968,38.6598],[-94.906,38.674],[-94.8947,38.6752],[-94.8964,38.6826],[-94.8886,38.6808],[-94.8915,38.6873],[-94.8815,38.6955],[-94.8771,38.7134],[-94.87,38.7138],[-94.8667,38.7165],[-94.8731,38.7135],[-94.8697,38.7191],[-94.8618,38.7238],[-94.8344,38.7238],[-94.8394,38.7513],[-94.8253,38.7719],[-94.8251,38.7966],[-94.8533,38.7965],[-94.8533,38.8255],[-94.8713,38.8268],[-94.8864,38.8157],[-94.9089,38.8113],[-94.9089,38.8056],[-94.8967,38.8038],[-94.9495,38.7674],[-95.1121,38.7678],[-95.1118,38.8407],[-95.205,38.8406],[-95.2051,38.8259],[-95.2382,38.8261],[-95.2447,38.8333],[-95.2689,38.8333],[-95.2558,38.8699],[-95.5007,38.8703],[-95.501,38.7439]]]},"properties":{"geoid":"20005","state":"20","district":"5","name":"State House District 5","chamber":"House"}},{"type":"Feature","geometry":{"type":"Polygon","coordinates":[[[-94.9556,38.5722],[-94.9553,38.5037],[-94.9497,38.4946],[-94.9509,38.4853],[-94.9458,38.4837],[-94.9281,38.4982],[-94.8543,38.4979],[-94.854,38.4946],[-94.8343,38.5048],[-94.8295,38.4907],[-94.77,38.4913],[-94.7699,38.4767],[-94.613,38.4757],[-94.6091,38.7381],[-94.816,38.7384],[-94.8152,38.7274],[-94.8252,38.7274],[-94.8252,38.7166],[-94.8344,38.7166],[-94.8344,38.7238],[-94.8664,38.7222],[-94.8731,38.7136],[-94.8668,38.7164],[-94.8809,38.7096],[-94.8766,38.7084],[-94.8815,38.6955],[-94.8915,38.6873],[-94.8886,38.6808],[-94.8964,38.6826],[-94.8947,38.6752],[-94.906,38.674],[-94.8968,38.6598],[-94.9142,38.6479],[-94.9186,38.6501],[-94.9201,38.6369],[-94.937,38.6328],[-94.9369,38.5782],[-94.9556,38.5784],[-94.9556,38.5722]]]},"properties":{"geoid":"20006","state":"20","district":"6","name":"State House District 6","chamber":"House"}},{"type":"Feature","geometry":{"type":"Polygon","coordinates":[[[-95.5261,37.6299],[-95.5256,37.384],[-95.5211,37.384],[-95.518,37.266],[-95.5224,36.9993],[-95.3773,36.9994],[-95.3773,37.1199],[-95.1575,37.1209],[-95.1583,37.2079],[-95.0742,37.2083],[-95.075,37.3838],[-95.3793,37.384],[-95.3795,37.6164],[-95.4525,37.6162],[-95.4527,37.6601],[-95.4435,37.6602],[-95.4441,37.6819],[-95.4795,37.682],[-95.4795,37.6599],[-95.5258,37.6602],[-95.5261,37.6299]]]},"properties":{"geoid":"20007","state":"20","district":"7","name":"State House District 7","chamber":"House"}},{"type":"Feature","geometry":{"type":"Polygon","coordinates":[[[-94.7424,38.8413],[-94.7237,38.8402],[-94.7238,38.8257],[-94.6864,38.8255],[-94.6863,38.8401],[-94.6825,38.8401],[-94.6789,38.8529],[-94.6864,38.8546],[-94.6864,38.8594],[-94.7051,38.8611],[-94.7005,38.8683],[-94.701,38.8922],[-94.7237,38.8937],[-94.7237,38.8837],[-94.7332,38.8837],[-94.7333,38.8769],[-94.7424,38.877],[-94.7424,38.8413]]]},"properties":{"geoid":"20008","state":"20","district":"8","name":"State House District 8","chamber":"House"}},{"type":"Feature","geometry":{"type":"Polygon","coordinates":[[[-95.5255,37.7332],[-95.0881,37.7325],[-95.0879,37.8197],[-95.0796,37.8204],[-95.0755,38.2587],[-95.0651,38.2586],[-95.0653,38.2732],[-94.918,38.273],[-94.9181,38.3891],[-94.6132,38.3887],[-94.613,38.4757],[-94.7699,38.4767],[-94.77,38.4913],[-94.8295,38.4907],[-94.8343,38.5048],[-94.854,38.4946],[-94.8543,38.4979],[-94.9281,38.4982],[-94.9455,38.4838],[-94.9499,38.4648],[-95.0659,38.4033],[-95.0658,38.3899],[-95.5083,38.3903],[-95.5075,38.2592],[-95.5168,38.2593],[-95.5191,37.8278],[-95.5193,37.8203],[-95.5249,37.8203],[-95.5255,37.7332]]]},"properties":{"geoid":"20009","state":"20","district":"9","name":"State House District 9","chamber":"House"}},{"type":"Feature","geometry":{"type":"Polygon","coordinates":[[[-95.2794,38.9281],[-95.2787,38.9224],[-95.2604,38.9212],[-95.2604,38.911],[-95.2443,38.9096],[-95.2317,38.9154],[-95.2316,38.9114],[-95.2236,38.9109],[-95.2204,38.9208],[-95.205,38.9209],[-95.2042,38.9497],[-95.2142,38.95],[-95.2138,38.957],[-95.2383,38.957],[-95.2454,38.9501],[-95.2605,38.95],[-95.2605,38.9387],[-95.2794,38.9281]]]},"properties":{"geoid":"20010","state":"20","district":"10","name":"State House District 10","chamber":"House"}},{"type":"Feature","geometry":{"type":"Polygon","coordinates":[[[-95.8196,37.2569],[-95.7261,37.2546],[-95.7261,37.2509],[-95.7063,37.2471],[-95.7066,37.2277],[-95.7245,37.2234],[-95.7249,37.2146],[-95.7334,37.2146],[-95.7334,37.211],[-95.747,37.2109],[-95.7468,37.1124],[-95.7501,37.1095],[-95.7468,37.1088],[-95.7465,36.9992],[-95.5224,36.9993],[-95.518,37.2569],[-95.5211,37.384],[-95.8195,37.3858],[-95.8196,37.2569]]]},"properties":{"geoid":"20011","state":"20","district":"11","name":"State House District 11","chamber":"House"}},{"type":"Feature","geometry":{"type":"Polygon","coordinates":[[[-97.0399,37.0328],[-97.0397,36.999],[-95.7465,36.9992],[-95.7468,37.1088],[-95.7501,37.1095],[-95.7468,37.1124],[-95.747,37.2109],[-95.7334,37.211],[-95.7334,37.2146],[-95.7249,37.2146],[-95.7245,37.2234],[-95.7066,37.2277],[-95.7063,37.2471],[-95.7261,37.2509],[-95.7261,37.2546],[-95.8196,37.2552],[-95.8195,37.3858],[-95.9616,37.3866],[-95.961,37.6038],[-96.5253,37.607],[-96.5257,37.8251],[-96.7161,37.825],[-96.7159,37.7372],[-96.9346,37.7376],[-96.9353,37.6066],[-96.9901,37.6068],[-96.9897,37.548],[-96.9975,37.5341],[-96.9903,37.5341],[-96.9901,37.5123],[-96.9767,37.5122],[-96.9749,37.508],[-96.9823,37.5062],[-96.9897,37.4871],[-96.9992,37.4789],[-96.9972,37.4757],[-96.935,37.4748],[-96.9312,37.3895],[-96.9337,37.3098],[-96.9422,37.3023],[-96.9159,37.3025],[-96.9146,37.1214],[-96.9329,37.1212],[-96.9327,37.0995],[-96.9867,37.0997],[-96.9831,37.0563],[-96.9691,37.0559],[-96.9669,37.0489],[-96.9321,37.0487],[-96.932,37.0288],[-96.9619,37.0349],[-96.9674,37.0415],[-96.9951,37.0499],[-96.9998,37.0498],[-97.0035,37.0371],[-97.0104,37.0319],[-97.0266,37.0396],[-97.0391,37.0389],[-97.0399,37.0328]]]},"properties":{"geoid":"20012","state":"20","district":"12","name":"State House District 12","chamber":"House"}},{"type":"Feature","geometry":{"type":"Polygon","coordinates":[[[-96.8412,38.2531],[-96.8408,38.0856],[-96.5228,38.0864],[-96.5253,37.607],[-95.961,37.6038],[-95.9616,37.3866],[-95.5256,37.384],[-95.5251,37.8056],[-95.5249,37.8203],[-95.5193,37.8203],[-95.5191,37.8278],[-95.519,38.0382],[-95.959,38.0402],[-95.9589,38.1709],[-96.1568,38.1722],[-96.1562,38.255],[-96.1713,38.2578],[-96.1744,38.265],[-96.1713,38.2672],[-96.171,38.3468],[-96.1803,38.3469],[-96.1802,38.4013],[-96.247,38.4016],[-96.2541,38.3917],[-96.2472,38.4016],[-96.3547,38.4056],[-96.3538,38.5217],[-96.8195,38.5224],[-96.8195,38.3485],[-96.8377,38.3486],[-96.837,38.2621],[-96.8409,38.2613],[-96.8412,38.2531]]]},"properties":{"geoid":"20013","state":"20","district":"13","name":"State House District 13","chamber":"House"}},{"type":"Feature","geometry":{"type":"Polygon","coordinates":[[[-94.8994,38.9127],[-94.8994,38.9054],[-94.8809,38.9054],[-94.8808,38.9128],[-94.8523,38.9127],[-94.8385,38.8971],[-94.7973,38.8982],[-94.7974,38.9127],[-94.7796,38.9129],[-94.7795,38.9168],[-94.7889,38.9164],[-94.7888,38.9273],[-94.7935,38.9273],[-94.7934,38.9345],[-94.7841,38.9346],[-94.7888,38.9415],[-94.865,38.9416],[-94.8857,38.9475],[-94.8994,38.9376],[-94.8994,38.9127]]]},"properties":{"geoid":"20014","state":"20","district":"14","name":"State House District 14","chamber":"House"}},{"type":"Feature","geometry":{"type":"Polygon","coordinates":[[[-94.8716,38.8683],[-94.8713,38.8255],[-94.8533,38.8255],[-94.8533,38.7965],[-94.8251,38.7966],[-94.8247,38.8077],[-94.8162,38.8167],[-94.8158,38.855],[-94.7952,38.8723],[-94.7757,38.8691],[-94.7764,38.8738],[-94.7692,38.8793],[-94.7729,38.8836],[-94.7973,38.8837],[-94.7973,38.8982],[-94.8184,38.8982],[-94.8207,38.8835],[-94.8345,38.8837],[-94.8345,38.8777],[-94.8419,38.8769],[-94.8401,38.8691],[-94.8716,38.8683]]]},"properties":{"geoid":"20015","state":"20","district":"15","name":"State House District 15","chamber":"House"}},{"type":"Feature","geometry":{"type":"Polygon","coordinates":[[[-94.7425,38.9151],[-94.7424,38.8921],[-94.7052,38.8948],[-94.7051,38.9128],[-94.6988,38.9129],[-94.7048,38.9237],[-94.705,38.9566],[-94.7236,38.9565],[-94.7236,38.9367],[-94.7284,38.9366],[-94.7236,38.9353],[-94.7235,38.9274],[-94.7421,38.9274],[-94.7425,38.9151]]]},"properties":{"geoid":"20016","state":"20","district":"16","name":"State House District 16","chamber":"House"}},{"type":"Feature","geometry":{"type":"Polygon","coordinates":[[[-94.8542,38.9785],[-94.8256,38.9778],[-94.813,38.9708],[-94.7423,38.9711],[-94.7424,39.0138],[-94.7652,39.0081],[-94.8395,39.0081],[-94.8396,38.9991],[-94.8514,38.9969],[-94.8542,38.9785]]]},"properties":{"geoid":"20017","state":"20","district":"17","name":"State House District 17","chamber":"House"}},{"type":"Feature","geometry":{"type":"Polygon","coordinates":[[[-94.7571,39.0437],[-94.7425,39.0235],[-94.7424,38.9953],[-94.7237,38.9928],[-94.7238,39.0001],[-94.7051,39.0039],[-94.7053,39.0223],[-94.6982,39.0222],[-94.6982,39.044],[-94.7571,39.0437]]]},"properties":{"geoid":"20018","state":"20","district":"18","name":"State House District 18","chamber":"House"}},{"type":"Feature","geometry":{"type":"Polygon","coordinates":[[[-94.6677,38.9713],[-94.6675,38.9418],[-94.6302,38.9422],[-94.6304,38.9568],[-94.6081,38.9567],[-94.6082,38.9843],[-94.6211,38.984],[-94.6257,38.9787],[-94.6677,38.9785],[-94.6677,38.9713]]]},"properties":{"geoid":"20019","state":"20","district":"19","name":"State House District 19","chamber":"House"}},{"type":"Feature","geometry":{"type":"Polygon","coordinates":[[[-94.6698,38.9129],[-94.6678,38.9056],[-94.6555,38.9055],[-94.6492,38.8983],[-94.6305,38.8983],[-94.6306,38.8838],[-94.608,38.8838],[-94.6081,38.9567],[-94.6304,38.9568],[-94.6302,38.9422],[-94.6675,38.9418],[-94.6698,38.9129]]]},"properties":{"geoid":"20020","state":"20","district":"20","name":"State House District 20","chamber":"House"}},{"type":"Feature","geometry":{"type":"Polygon","coordinates":[[[-94.6724,38.9876],[-94.6677,38.9859],[-94.6677,38.9785],[-94.6257,38.9787],[-94.6211,38.984],[-94.6082,38.9843],[-94.6079,39.0006],[-94.6295,39.0005],[-94.6304,39.0078],[-94.6721,39.0077],[-94.6724,38.9876]]]},"properties":{"geoid":"20021","state":"20","district":"21","name":"State House District 21","chamber":"House"}},{"type":"Feature","geometry":{"type":"Polygon","coordinates":[[[-94.7051,38.9828],[-94.705,38.9493],[-94.6769,38.9499],[-94.677,38.9567],[-94.6676,38.9567],[-94.6677,38.9859],[-94.7051,38.9828]]]},"properties":{"geoid":"20022","state":"20","district":"22","name":"State House District 22","chamber":"House"}},{"type":"Feature","geometry":{"type":"Polygon","coordinates":[[[-94.7424,38.9953],[-94.7423,38.9711],[-94.719,38.9711],[-94.7422,38.9453],[-94.7375,38.939],[-94.7422,38.9362],[-94.7236,38.9351],[-94.7284,38.9366],[-94.7236,38.9367],[-94.7236,38.9565],[-94.705,38.9566],[-94.7051,39.0039],[-94.7238,39.0001],[-94.7237,38.9928],[-94.7424,38.9953]]]},"properties":{"geoid":"20023","state":"20","district":"23","name":"State House District 23","chamber":"House"}},{"type":"Feature","geometry":{"type":"Polygon","coordinates":[[[-94.7053,39.0223],[-94.705,38.9848],[-94.6724,38.9858],[-94.6721,39.0077],[-94.6584,39.0077],[-94.6561,39.044],[-94.6982,39.044],[-94.6982,39.0222],[-94.7053,39.0223]]]},"properties":{"geoid":"20024","state":"20","district":"24","name":"State House District 24","chamber":"House"}},{"type":"Feature","geometry":{"type":"Polygon","coordinates":[[[-94.6585,39.039],[-94.6584,39.0077],[-94.6304,39.0078],[-94.6295,39.0005],[-94.6079,39.0006],[-94.6074,39.0441],[-94.6561,39.044],[-94.6585,39.039]]]},"properties":{"geoid":"20025","state":"20","district":"25","name":"State House District 25","chamber":"House"}},{"type":"Feature","geometry":{"type":"Polygon","coordinates":[[[-94.8394,38.7499],[-94.8344,38.7166],[-94.8252,38.7166],[-94.8252,38.7274],[-94.8152,38.7274],[-94.816,38.7384],[-94.7417,38.7383],[-94.7424,38.811],[-94.7237,38.811],[-94.7237,38.8402],[-94.7612,38.8403],[-94.7612,38.8257],[-94.7797,38.8255],[-94.7796,38.8402],[-94.7917,38.8453],[-94.7891,38.8547],[-94.8158,38.8548],[-94.8162,38.8172],[-94.8251,38.8061],[-94.8251,38.7727],[-94.8394,38.7499]]]},"properties":{"geoid":"20026","state":"20","district":"26","name":"State House District 26","chamber":"House"}},{"type":"Feature","geometry":{"type":"Polygon","coordinates":[[[-94.7424,38.811],[-94.7417,38.7383],[-94.6091,38.7381],[-94.608,38.855],[-94.6305,38.8548],[-94.6306,38.8692],[-94.6492,38.8692],[-94.6491,38.8547],[-94.6678,38.8546],[-94.6677,38.8402],[-94.6863,38.8401],[-94.6864,38.8255],[-94.7238,38.8257],[-94.7237,38.811],[-94.7424,38.811]]]},"properties":{"geoid":"20027","state":"20","district":"27","name":"State House District 27","chamber":"House"}},{"type":"Feature","geometry":{"type":"Polygon","coordinates":[[[-94.6678,38.872],[-94.6678,38.8546],[-94.6491,38.8547],[-94.6488,38.8692],[-94.6306,38.8692],[-94.6305,38.8548],[-94.608,38.855],[-94.608,38.8838],[-94.6306,38.8838],[-94.6305,38.8983],[-94.6492,38.8983],[-94.6555,38.9055],[-94.6678,38.9056],[-94.6678,38.872]]]},"properties":{"geoid":"20028","state":"20","district":"28","name":"State House District 28","chamber":"House"}},{"type":"Feature","geometry":{"type":"Polygon","coordinates":[[[-94.7056,38.946],[-94.7034,38.9193],[-94.6864,38.9053],[-94.6865,38.8837],[-94.6678,38.8837],[-94.6676,38.9567],[-94.677,38.9567],[-94.6769,38.9499],[-94.705,38.9493],[-94.7056,38.946]]]},"properties":{"geoid":"20029","state":"20","district":"29","name":"State House District 29","chamber":"House"}},{"type":"Feature","geometry":{"type":"Polygon","coordinates":[[[-94.8996,38.9492],[-94.865,38.9416],[-94.7888,38.9415],[-94.7841,38.9346],[-94.7934,38.9345],[-94.7935,38.9273],[-94.7888,38.9273],[-94.7889,38.9164],[-94.7796,38.9169],[-94.7796,38.9129],[-94.7974,38.9127],[-94.7973,38.8837],[-94.7795,38.8837],[-94.7795,38.8917],[-94.7728,38.8908],[-94.774,38.9011],[-94.761,38.9019],[-94.7609,38.92],[-94.7649,38.9201],[-94.7521,38.9353],[-94.7515,38.9499],[-94.7422,38.9602],[-94.7665,38.9634],[-94.7648,38.9565],[-94.7795,38.9564],[-94.7797,38.971],[-94.813,38.9708],[-94.8256,38.9778],[-94.8542,38.978],[-94.8534,38.9564],[-94.8761,38.9595],[-94.8774,38.9543],[-94.8996,38.9492]]]},"properties":{"geoid":"20030","state":"20","district":"30","name":"State House District 30","chamber":"House"}},{"type":"Feature","geometry":{"type":"Polygon","coordinates":[[[-94.6804,39.0807],[-94.6759,39.0441],[-94.6074,39.0441],[-94.6073,39.0817],[-94.642,39.0722],[-94.6804,39.0807]]]},"properties":{"geoid":"20031","state":"20","district":"31","name":"State House District 31","chamber":"House"}},{"type":"Feature","geometry":{"type":"Polygon","coordinates":[[[-94.6824,39.1123],[-94.6701,39.1006],[-94.6407,39.0929],[-94.6259,39.0922],[-94.6071,39.0985],[-94.6073,39.1089],[-94.6214,39.1165],[-94.6816,39.1167],[-94.6824,39.1123]]]},"properties":{"geoid":"20032","state":"20","district":"32","name":"State House District 32","chamber":"House"}},{"type":"Feature","geometry":{"type":"Polygon","coordinates":[[[-94.9089,39.0342],[-94.9088,38.9914],[-94.8884,39.0161],[-94.8911,39.0307],[-94.8836,39.0507],[-94.8715,39.0594],[-94.8425,39.0609],[-94.8033,39.0435],[-94.6759,39.0441],[-94.6792,39.0586],[-94.6794,39.0531],[-94.6864,39.0498],[-94.6865,39.0545],[-94.6967,39.0514],[-94.7004,39.0549],[-94.7292,39.0549],[-94.7299,39.0658],[-94.7382,39.0634],[-94.7608,39.0692],[-94.7369,39.0875],[-94.7976,39.0873],[-94.7977,39.1286],[-94.9083,39.1287],[-94.9089,39.0342]]]},"properties":{"geoid":"20033","state":"20","district":"33","name":"State House District 33","chamber":"House"}},{"type":"Feature","geometry":{"type":"Polygon","coordinates":[[[-94.7604,39.1174],[-94.6214,39.1165],[-94.6214,39.1244],[-94.6381,39.1296],[-94.6688,39.1284],[-94.6687,39.1357],[-94.7111,39.1362],[-94.7098,39.1285],[-94.7524,39.1285],[-94.7604,39.1174]]]},"properties":{"geoid":"20034","state":"20","district":"34","name":"State House District 34","chamber":"House"}},{"type":"Feature","geometry":{"type":"Polygon","coordinates":[[[-94.7456,39.1432],[-94.7456,39.1285],[-94.7098,39.1285],[-94.7111,39.1362],[-94.6687,39.1357],[-94.6688,39.1284],[-94.6381,39.1296],[-94.6214,39.1244],[-94.6214,39.1156],[-94.6073,39.1089],[-94.6077,39.1197],[-94.5911,39.1368],[-94.5884,39.1499],[-94.5938,39.1568],[-94.6087,39.161],[-94.6356,39.1541],[-94.6558,39.1557],[-94.6614,39.1627],[-94.6616,39.1774],[-94.6803,39.1843],[-94.7141,39.1704],[-94.7419,39.1703],[-94.6976,39.1641],[-94.7048,39.159],[-94.7057,39.1483],[-94.7244,39.1504],[-94.7245,39.1431],[-94.7456,39.1432]]]},"properties":{"geoid":"20035","state":"20","district":"35","name":"State House District 35","chamber":"House"}},{"type":"Feature","geometry":{"type":"Polygon","coordinates":[[[-94.9014,39.129],[-94.7699,39.1286],[-94.7699,39.1206],[-94.7625,39.1226],[-94.7604,39.1187],[-94.7524,39.1285],[-94.7456,39.1285],[-94.7456,39.1432],[-94.7245,39.1431],[-94.7244,39.1504],[-94.7057,39.1483],[-94.7048,39.159],[-94.6975,39.1649],[-94.7429,39.1677],[-94.7629,39.18],[-94.7711,39.1915],[-94.788,39.1877],[-94.8111,39.1722],[-94.9007,39.1724],[-94.9014,39.129]]]},"properties":{"geoid":"20036","state":"20","district":"36","name":"State House District 36","chamber":"House"}},{"type":"Feature","geometry":{"type":"Polygon","coordinates":[[[-94.7978,39.1254],[-94.7976,39.0873],[-94.7369,39.0875],[-94.7608,39.0692],[-94.7382,39.0634],[-94.7299,39.0658],[-94.7292,39.0549],[-94.7004,39.0549],[-94.6967,39.0514],[-94.6865,39.0545],[-94.6864,39.0498],[-94.6794,39.0531],[-94.6804,39.0807],[-94.642,39.0722],[-94.6073,39.0817],[-94.6071,39.0985],[-94.6312,39.0918],[-94.6645,39.0985],[-94.6778,39.1052],[-94.6816,39.1167],[-94.7605,39.1164],[-94.7617,39.1223],[-94.7699,39.1206],[-94.7699,39.1286],[-94.7977,39.1286],[-94.7978,39.1254]]]},"properties":{"geoid":"20037","state":"20","district":"37","name":"State House District 37","chamber":"House"}},{"type":"Feature","geometry":{"type":"Polygon","coordinates":[[[-95.075,38.987],[-95.0351,38.9749],[-95.0253,38.9823],[-95.0218,38.9996],[-95.0114,39.0008],[-94.9565,38.982],[-94.9245,39.0027],[-94.9162,38.9969],[-94.9212,38.9848],[-94.9138,38.9865],[-94.9088,38.9914],[-94.9083,39.1287],[-94.9014,39.1287],[-94.9007,39.1724],[-94.8111,39.1722],[-94.788,39.1877],[-94.7711,39.1915],[-94.7755,39.2006],[-94.9731,39.2011],[-94.9749,39.2522],[-94.97,39.2655],[-94.9398,39.2885],[-94.9278,39.2886],[-94.9277,39.2958],[-94.921,39.2958],[-94.9208,39.3031],[-94.9649,39.3029],[-94.9792,39.2925],[-95.0587,39.2957],[-95.0589,39.2375],[-95.0682,39.2375],[-95.0683,39.2262],[-95.0638,39.2237],[-95.0661,39.2204],[-95.059,39.2209],[-95.0605,39.2131],[-95.0486,39.2112],[-95.0509,39.2012],[-95.0421,39.1981],[-95.0497,39.1884],[-95.041,39.1822],[-95.0477,39.1798],[-95.0445,39.1769],[-95.0479,39.1637],[-95.0404,39.1581],[-95.0422,39.1545],[-95.0338,39.1531],[-95.0315,39.1432],[-95.0155,39.1388],[-95.02,39.132],[-95.0099,39.1299],[-95.0197,39.1262],[-95.0112,39.1221],[-95.011,39.1116],[-95.0256,39.099],[-95.0266,39.09],[-95.02,39.0861],[-95.0288,39.0808],[-95.0267,39.0763],[-95.034,39.0788],[-95.0242,39.0681],[-95.0563,39.0583],[-95.0564,38.9913],[-95.075,38.987]]]},"properties":{"geoid":"20038","state":"20","district":"38","name":"State House District 38","chamber":"House"}},{"type":"Feature","geometry":{"type":"Polygon","coordinates":[[[-94.9089,38.9898],[-94.8872,39.0145],[-94.8724,39.0145],[-94.8723,39.0053],[-94.8538,39.0071],[-94.8538,39.0158],[-94.8394,39.0243],[-94.8394,39.029],[-94.819,39.0295],[-94.821,39.0092],[-94.7565,39.0093],[-94.7424,39.0138],[-94.7425,39.0235],[-94.7571,39.0437],[-94.8033,39.0435],[-94.8425,39.0609],[-94.8683,39.0601],[-94.8836,39.0507],[-94.8911,39.0307],[-94.8884,39.0161],[-94.9089,38.9898]]]},"properties":{"geoid":"20039","state":"20","district":"39","name":"State House District 39","chamber":"House"}},{"type":"Feature","geometry":{"type":"Polygon","coordinates":[[[-94.9765,39.2159],[-94.9731,39.2011],[-94.7755,39.2006],[-94.783,39.2072],[-94.8115,39.2069],[-94.8317,39.2159],[-94.8349,39.2238],[-94.8257,39.2417],[-94.8314,39.2563],[-94.8463,39.2685],[-94.8841,39.2845],[-94.9064,39.3117],[-94.9137,39.3107],[-94.9137,39.3032],[-94.9208,39.3031],[-94.921,39.2958],[-94.9277,39.2958],[-94.9278,39.2886],[-94.9398,39.2885],[-94.9696,39.2661],[-94.9748,39.2526],[-94.9765,39.2159]]]},"properties":{"geoid":"20040","state":"20","district":"40","name":"State House District 40","chamber":"House"}},{"type":"Feature","geometry":{"type":"Polygon","coordinates":[[[-95.0667,39.419],[-95.0664,39.4054],[-95.0582,39.3969],[-95.0571,39.3787],[-95.0498,39.3686],[-95.058,39.3666],[-95.0587,39.2957],[-94.9789,39.2925],[-94.9649,39.3029],[-94.9137,39.3032],[-94.9137,39.3107],[-94.9064,39.3117],[-94.9005,39.3016],[-94.9068,39.3174],[-94.9103,39.3513],[-94.9025,39.3604],[-94.8814,39.3704],[-94.8793,39.3798],[-94.8868,39.3913],[-94.8979,39.3936],[-94.9192,39.3852],[-94.9372,39.3865],[-94.9456,39.3939],[-94.9479,39.4086],[-94.969,39.4189],[-95.0667,39.419]]]},"properties":{"geoid":"20041","state":"20","district":"41","name":"State House District 41","chamber":"House"}},{"type":"Feature","geometry":{"type":"Polygon","coordinates":[[[-95.2548,39.2876],[-95.2527,39.0884],[-95.2426,39.0622],[-95.2423,39.0442],[-95.1871,39.0441],[-95.1866,38.9968],[-95.227,38.9937],[-95.2322,38.9888],[-95.2114,38.985],[-95.2143,38.9715],[-95.2095,38.957],[-95.2138,38.957],[-95.2142,38.95],[-95.2042,38.9497],[-95.205,38.9235],[-95.1871,38.9245],[-95.1668,38.9355],[-95.0975,38.9292],[-95.07,38.9426],[-95.0562,38.9431],[-95.0563,38.9821],[-95.075,38.987],[-95.0564,38.9913],[-95.0563,39.0583],[-95.0242,39.0681],[-95.034,39.0788],[-95.0267,39.0763],[-95.0288,39.0808],[-95.02,39.0861],[-95.0266,39.09],[-95.0256,39.099],[-95.011,39.1116],[-95.0112,39.1221],[-95.0197,39.1262],[-95.0099,39.1299],[-95.02,39.132],[-95.0155,39.1388],[-95.0315,39.1432],[-95.0338,39.1531],[-95.0422,39.1545],[-95.0404,39.1581],[-95.0479,39.1637],[-95.0445,39.1769],[-95.0477,39.1798],[-95.041,39.1822],[-95.0497,39.1884],[-95.0421,39.1981],[-95.0509,39.2012],[-95.0486,39.2112],[-95.0605,39.2131],[-95.059,39.2209],[-95.0661,39.2204],[-95.0638,39.2237],[-95.0683,39.2262],[-95.0682,39.2375],[-95.0589,39.2375],[-95.058,39.3666],[-95.0498,39.3686],[-95.0571,39.3787],[-95.0582,39.3969],[-95.0664,39.4054],[-95.0667,39.419],[-95.1809,39.4192],[-95.1801,39.2887],[-95.2548,39.2876]]]},"properties":{"geoid":"20042","state":"20","district":"42","name":"State House District 42","chamber":"House"}},{"type":"Feature","geometry":{"type":"Polygon","coordinates":[[[-95.112,38.7753],[-95.1121,38.7678],[-94.9495,38.7674],[-94.8967,38.8038],[-94.9089,38.8056],[-94.9089,38.8113],[-94.8864,38.8157],[-94.8713,38.8268],[-94.8712,38.8543],[-94.946,38.8548],[-94.9459,38.8401],[-95.1118,38.8407],[-95.112,38.7753]]]},"properties":{"geoid":"20043","state":"20","district":"43","name":"State House District 43","chamber":"House"}},{"type":"Feature","geometry":{"type":"Polygon","coordinates":[[[-95.3072,38.9432],[-95.2978,38.9427],[-95.2979,38.9354],[-95.307,38.936],[-95.3023,38.9313],[-95.2787,38.9224],[-95.2794,38.929],[-95.2734,38.9281],[-95.2699,38.9353],[-95.263,38.9359],[-95.2605,38.9861],[-95.2717,38.9861],[-95.2735,38.9715],[-95.307,38.9715],[-95.3072,38.9432]]]},"properties":{"geoid":"20044","state":"20","district":"44","name":"State House District 44","chamber":"House"}},{"type":"Feature","geometry":{"type":"Polygon","coordinates":[[[-95.41,39.0149],[-95.4099,39.0005],[-95.3438,39.0004],[-95.3431,38.9902],[-95.3345,38.9785],[-95.3347,38.9569],[-95.3255,38.957],[-95.3281,38.9475],[-95.2979,38.9354],[-95.2978,38.9427],[-95.3072,38.9426],[-95.307,38.9715],[-95.2735,38.9715],[-95.2717,38.9861],[-95.2605,38.9861],[-95.2604,38.99],[-95.1866,38.9968],[-95.1871,39.0441],[-95.2823,39.0471],[-95.2856,39.0454],[-95.2841,39.0323],[-95.2979,39.0423],[-95.3151,39.0347],[-95.3407,39.0317],[-95.3591,39.0355],[-95.3985,39.0581],[-95.3986,39.0482],[-95.4098,39.0437],[-95.41,39.0149]]]},"properties":{"geoid":"20045","state":"20","district":"45","name":"State House District 45","chamber":"House"}},{"type":"Feature","geometry":{"type":"Polygon","coordinates":[[[-95.2613,38.9743],[-95.2605,38.95],[-95.2454,38.9501],[-95.2383,38.957],[-95.2095,38.957],[-95.2143,38.9715],[-95.2114,38.985],[-95.2322,38.986],[-95.227,38.9938],[-95.2604,38.99],[-95.2613,38.9743]]]},"properties":{"geoid":"20046","state":"20","district":"46","name":"State House District 46","chamber":"House"}},{"type":"Feature","geometry":{"type":"Polygon","coordinates":[[[-95.7939,39.2215],[-95.7938,39.2166],[-95.5895,39.2161],[-95.5893,39.1292],[-95.5947,39.1293],[-95.5968,39.0647],[-95.5823,39.054],[-95.5488,39.0683],[-95.5155,39.0674],[-95.5003,39.0567],[-95.5002,38.8697],[-95.2978,38.8699],[-95.2979,38.8843],[-95.2791,38.8872],[-95.2791,38.9136],[-95.2604,38.9087],[-95.2604,38.9212],[-95.2724,38.9203],[-95.2999,38.93],[-95.3281,38.9475],[-95.3255,38.957],[-95.3347,38.9569],[-95.3345,38.9785],[-95.3431,38.9902],[-95.3438,39.0004],[-95.4099,39.0005],[-95.4098,39.0437],[-95.3986,39.0482],[-95.3985,39.0581],[-95.3591,39.0355],[-95.3407,39.0317],[-95.3151,39.0347],[-95.2979,39.0423],[-95.2841,39.0323],[-95.2856,39.0454],[-95.2823,39.0471],[-95.2423,39.0442],[-95.2426,39.0622],[-95.2527,39.0884],[-95.2547,39.2888],[-95.1801,39.2887],[-95.1809,39.4192],[-95.5893,39.4191],[-95.5891,39.3901],[-95.7385,39.3906],[-95.7383,39.26],[-95.7937,39.2602],[-95.7939,39.2215]]]},"properties":{"geoid":"20047","state":"20","district":"47","name":"State House District 47","chamber":"House"}},{"type":"Feature","geometry":{"type":"Polygon","coordinates":[[[-94.7052,38.9017],[-94.7005,38.8852],[-94.7005,38.8681],[-94.7051,38.8611],[-94.6864,38.8594],[-94.6864,38.8546],[-94.6789,38.8528],[-94.6825,38.8401],[-94.6677,38.8402],[-94.6678,38.8837],[-94.6865,38.8837],[-94.6864,38.9053],[-94.6988,38.9129],[-94.7051,38.9128],[-94.7052,38.9017]]]},"properties":{"geoid":"20048","state":"20","district":"48","name":"State House District 48","chamber":"House"}},{"type":"Feature","geometry":{"type":"Polygon","coordinates":[[[-94.7795,38.8906],[-94.7795,38.8837],[-94.7692,38.8793],[-94.7764,38.8738],[-94.7757,38.8691],[-94.7609,38.8691],[-94.7612,38.8403],[-94.7424,38.8402],[-94.7424,38.877],[-94.7333,38.8769],[-94.7332,38.8837],[-94.7237,38.8837],[-94.7237,38.8937],[-94.7336,38.8908],[-94.7424,38.8921],[-94.7424,38.8982],[-94.7731,38.8982],[-94.7728,38.8908],[-94.7795,38.8906]]]},"properties":{"geoid":"20049","state":"20","district":"49","name":"State House District 49","chamber":"House"}},{"type":"Feature","geometry":{"type":"Polygon","coordinates":[[[-96.039,39.1276],[-96.017,39.1203],[-96.0038,39.132],[-95.9937,39.1338],[-95.9922,39.1257],[-96.006,39.1215],[-96.009,39.1158],[-95.995,39.1093],[-95.9726,39.1116],[-95.9563,39.099],[-95.9285,39.101],[-95.9166,39.0877],[-95.8656,39.0845],[-95.8578,39.0804],[-95.8527,39.0683],[-95.8215,39.0616],[-95.7526,39.0707],[-95.7526,39.08],[-95.7307,39.0808],[-95.7254,39.0907],[-95.6242,39.0916],[-95.6255,39.0837],[-95.6135,39.082],[-95.5948,39.0864],[-95.5947,39.1293],[-95.5893,39.1292],[-95.5895,39.2161],[-96.0356,39.2165],[-96.0359,39.1298],[-96.039,39.1276]]]},"properties":{"geoid":"20050","state":"20","district":"50","name":"State House District 50","chamber":"House"}},{"type":"Feature","geometry":{"type":"Polygon","coordinates":[[[-96.5823,39.1316],[-96.5195,39.1304],[-96.5197,39.0729],[-96.501,39.0727],[-96.5014,38.8262],[-96.3904,38.8259],[-96.3897,38.739],[-95.9459,38.7391],[-95.9468,39.0987],[-95.958,39.0997],[-95.9726,39.1116],[-95.995,39.1093],[-96.009,39.1158],[-96.006,39.1215],[-95.9922,39.1257],[-95.9937,39.1338],[-96.0203,39.1202],[-96.0412,39.1275],[-96.0426,39.1408],[-96.0579,39.1415],[-96.0897,39.1532],[-96.0909,39.1587],[-96.0839,39.1633],[-96.0624,39.1574],[-96.0568,39.1603],[-96.0836,39.1935],[-96.0963,39.1918],[-96.1085,39.2011],[-96.1228,39.1871],[-96.1528,39.1926],[-96.1767,39.1886],[-96.1816,39.2063],[-96.1948,39.2076],[-96.2041,39.2],[-96.2167,39.2003],[-96.2353,39.2134],[-96.299,39.21],[-96.3055,39.2104],[-96.3063,39.2176],[-96.3502,39.2141],[-96.3707,39.2172],[-96.3709,39.2104],[-96.4124,39.2093],[-96.4127,39.2215],[-96.5012,39.2257],[-96.5012,39.2184],[-96.5164,39.2184],[-96.5256,39.2096],[-96.5391,39.2148],[-96.543,39.2086],[-96.5575,39.2111],[-96.5621,39.2077],[-96.5582,39.183],[-96.5539,39.179],[-96.558,39.1599],[-96.5708,39.1571],[-96.5597,39.1429],[-96.5748,39.1413],[-96.5823,39.1316]]]},"properties":{"geoid":"20051","state":"20","district":"51","name":"State House District 51","chamber":"House"}},{"type":"Feature","geometry":{"type":"Polygon","coordinates":[[[-95.8357,38.9616],[-95.8357,38.9565],[-95.7248,38.9568],[-95.7249,38.9783],[-95.7301,38.9812],[-95.7297,39.0096],[-95.7676,39.0146],[-95.7678,39.021],[-95.7745,39.022],[-95.774,39.029],[-95.7809,39.0289],[-95.7803,39.067],[-95.8164,39.0613],[-95.8352,39.0659],[-95.8357,38.9616]]]},"properties":{"geoid":"20052","state":"20","district":"52","name":"State House District 52","chamber":"House"}},{"type":"Feature","geometry":{"type":"Polygon","coordinates":[[[-95.7809,39.0291],[-95.774,39.029],[-95.7745,39.022],[-95.7678,39.021],[-95.7676,39.0146],[-95.7297,39.0096],[-95.725,39.0173],[-95.7245,39.0677],[-95.7708,39.0707],[-95.7803,39.067],[-95.7809,39.0291]]]},"properties":{"geoid":"20053","state":"20","district":"53","name":"State House District 53","chamber":"House"}},{"type":"Feature","geometry":{"type":"Polygon","coordinates":[[[-95.9497,38.6954],[-95.9496,38.6808],[-95.8383,38.6807],[-95.8384,38.6735],[-95.8165,38.6734],[-95.8105,38.6735],[-95.8104,38.6807],[-95.7255,38.6814],[-95.7255,38.6741],[-95.6831,38.674],[-95.6831,38.6812],[-95.6366,38.681],[-95.6398,38.7109],[-95.6273,38.7098],[-95.6313,38.7163],[-95.6294,38.7243],[-95.5008,38.7243],[-95.5022,39.0593],[-95.5139,39.0672],[-95.5428,39.0691],[-95.5823,39.054],[-95.5982,39.0676],[-95.5948,39.0864],[-95.6218,39.0823],[-95.6219,39.0734],[-95.6125,39.0734],[-95.6128,39.0661],[-95.606,39.0676],[-95.6036,39.0624],[-95.6037,39.0588],[-95.6155,39.0625],[-95.6225,39.0588],[-95.6228,39.0442],[-95.6135,39.0443],[-95.614,39.0293],[-95.5982,39.0296],[-95.5916,39.0192],[-95.586,39.0193],[-95.5864,38.9861],[-95.5957,38.986],[-95.5955,38.957],[-95.8357,38.9565],[-95.8352,39.0659],[-95.8527,39.0683],[-95.8578,39.0804],[-95.8656,39.0845],[-95.9038,39.0852],[-95.9189,39.0885],[-95.9285,39.101],[-95.9468,39.0987],[-95.9457,38.6954],[-95.9497,38.6954]]]},"properties":{"geoid":"20054","state":"20","district":"54","name":"State House District 54","chamber":"House"}},{"type":"Feature","geometry":{"type":"Polygon","coordinates":[[[-95.7319,39.0679],[-95.7245,39.0677],[-95.7249,39.0295],[-95.6876,39.0297],[-95.6909,39.0473],[-95.6821,39.046],[-95.6744,39.0639],[-95.693,39.0741],[-95.7319,39.0679]]]},"properties":{"geoid":"20055","state":"20","district":"55","name":"State House District 55","chamber":"House"}},{"type":"Feature","geometry":{"type":"Polygon","coordinates":[[[-95.7303,39.0082],[-95.7248,38.9568],[-95.5955,38.957],[-95.5957,38.986],[-95.6329,38.9862],[-95.6333,38.9934],[-95.6877,38.9917],[-95.6853,39.0224],[-95.6889,39.0224],[-95.6889,39.0297],[-95.7249,39.0295],[-95.7303,39.0082]]]},"properties":{"geoid":"20056","state":"20","district":"56","name":"State House District 56","chamber":"House"}},{"type":"Feature","geometry":{"type":"Polygon","coordinates":[[[-95.7526,39.08],[-95.7526,39.0707],[-95.6875,39.072],[-95.6744,39.0639],[-95.6827,39.0446],[-95.66,39.0442],[-95.6606,39.0298],[-95.6326,39.0297],[-95.6292,39.0152],[-95.5861,39.0151],[-95.586,39.0193],[-95.5987,39.0254],[-95.5982,39.0296],[-95.614,39.0293],[-95.6135,39.0443],[-95.6228,39.0442],[-95.6225,39.0588],[-95.6155,39.0625],[-95.6037,39.0588],[-95.6036,39.0624],[-95.606,39.0676],[-95.6128,39.0661],[-95.6125,39.0734],[-95.6219,39.0734],[-95.6242,39.0916],[-95.7254,39.0907],[-95.7307,39.0808],[-95.7526,39.08]]]},"properties":{"geoid":"20057","state":"20","district":"57","name":"State House District 57","chamber":"House"}},{"type":"Feature","geometry":{"type":"Polygon","coordinates":[[[-95.6918,39.0389],[-95.6875,39.0369],[-95.6889,39.0224],[-95.6853,39.0224],[-95.6877,38.9917],[-95.6333,38.9934],[-95.6329,38.9862],[-95.5864,38.9861],[-95.5861,39.0151],[-95.6292,39.0152],[-95.6326,39.0297],[-95.6606,39.0298],[-95.66,39.0442],[-95.6909,39.0473],[-95.6918,39.0389]]]},"properties":{"geoid":"20058","state":"20","district":"58","name":"State House District 58","chamber":"House"}},{"type":"Feature","geometry":{"type":"Polygon","coordinates":[[[-95.509,38.659],[-95.5083,38.3903],[-95.0658,38.3899],[-95.0652,38.6517],[-95.1745,38.6522],[-95.1742,38.695],[-95.1677,38.695],[-95.1675,38.7385],[-95.5007,38.7388],[-95.5012,38.6953],[-95.508,38.6953],[-95.509,38.659]]]},"properties":{"geoid":"20059","state":"20","district":"59","name":"State House District 59","chamber":"House"}},{"type":"Feature","geometry":{"type":"Polygon","coordinates":[[[-96.3547,38.4057],[-96.2472,38.4016],[-96.2541,38.3917],[-96.247,38.4016],[-96.1465,38.3977],[-96.134,38.4085],[-96.1363,38.4193],[-96.1242,38.4236],[-96.1182,38.4339],[-96.2077,38.4347],[-96.2066,38.6078],[-96.3531,38.6089],[-96.3547,38.4057]]]},"properties":{"geoid":"20060","state":"20","district":"60","name":"State House District 60","chamber":"House"}},{"type":"Feature","geometry":{"type":"Polygon","coordinates":[[[-96.7277,39.4269],[-96.715,39.4197],[-96.7156,39.4086],[-96.7264,39.4036],[-96.7197,39.3948],[-96.6954,39.3732],[-96.6844,39.3723],[-96.6915,39.3613],[-96.6874,39.3566],[-96.6704,39.3438],[-96.6612,39.3439],[-96.6713,39.3368],[-96.6694,39.3311],[-96.659,39.3249],[-96.6463,39.3259],[-96.6566,39.317],[-96.6337,39.299],[-96.633,39.2945],[-96.6395,39.2929],[-96.6351,39.2872],[-96.6101,39.2667],[-96.5959,39.2631],[-96.5911,39.2497],[-96.5769,39.2492],[-96.5791,39.2562],[-96.5715,39.251],[-96.573,39.2443],[-96.5882,39.2426],[-96.5817,39.2342],[-96.5713,39.2376],[-96.5845,39.2295],[-96.5789,39.2191],[-96.5669,39.2186],[-96.5688,39.211],[-96.544,39.2084],[-96.5388,39.2148],[-96.5256,39.2096],[-96.5164,39.2184],[-96.5012,39.2184],[-96.5012,39.2257],[-96.4639,39.2256],[-96.4616,39.222],[-96.4127,39.2215],[-96.4124,39.2093],[-96.3709,39.2104],[-96.3707,39.2172],[-96.3502,39.2141],[-96.3063,39.2176],[-96.3055,39.2104],[-96.2603,39.2092],[-96.2353,39.2134],[-96.2214,39.2014],[-96.213,39.1999],[-96.1854,39.2073],[-96.1793,39.2043],[-96.1767,39.1886],[-96.1528,39.1926],[-96.1228,39.1871],[-96.107,39.201],[-96.0963,39.1918],[-96.0836,39.1935],[-96.0569,39.1615],[-96.0607,39.1573],[-96.0839,39.1633],[-96.0909,39.1587],[-96.0906,39.154],[-96.0579,39.1415],[-96.0426,39.1408],[-96.0391,39.1265],[-96.0359,39.1298],[-96.0356,39.2165],[-95.7938,39.2166],[-95.7937,39.2602],[-95.7383,39.26],[-95.7385,39.4557],[-95.7231,39.4571],[-95.7285,39.469],[-95.7178,39.4701],[-95.7291,39.4774],[-96.0355,39.4779],[-96.0366,39.5663],[-96.5804,39.5663],[-96.5912,39.5527],[-96.5893,39.5456],[-96.6149,39.5319],[-96.6207,39.5384],[-96.6426,39.5221],[-96.6447,39.5164],[-96.6401,39.5088],[-96.6567,39.5002],[-96.6677,39.4754],[-96.6765,39.4727],[-96.6813,39.4832],[-96.69,39.4679],[-96.6882,39.4611],[-96.7085,39.4605],[-96.7219,39.4445],[-96.7132,39.436],[-96.7277,39.4269]]]},"properties":{"geoid":"20061","state":"20","district":"61","name":"State House District 61","chamber":"House"}},{"type":"Feature","geometry":{"type":"Polygon","coordinates":[[[-96.2398,39.7185],[-96.239,39.5662],[-96.0366,39.5663],[-96.0355,39.4779],[-95.7291,39.4774],[-95.7178,39.4698],[-95.7285,39.469],[-95.7231,39.4571],[-95.7385,39.4557],[-95.7385,39.3906],[-95.5891,39.3901],[-95.5893,39.4191],[-95.5704,39.4191],[-95.5703,39.5659],[-95.5643,39.5659],[-95.5641,39.6529],[-95.3397,39.653],[-95.3399,40],[-96.2392,40.0009],[-96.2398,39.7185]]]},"properties":{"geoid":"20062","state":"20","district":"62","name":"State House District 62","chamber":"House"}},{"type":"Feature","geometry":{"type":"Polygon","coordinates":[[[-95.5703,39.4335],[-95.5704,39.4191],[-94.969,39.4189],[-94.9875,39.4446],[-95.022,39.4555],[-95.0408,39.4664],[-95.0522,39.5],[-95.1013,39.5317],[-95.1104,39.5446],[-95.1131,39.5592],[-95.1013,39.5788],[-95.0895,39.581],[-95.0693,39.5762],[-95.0528,39.5848],[-95.0464,39.5996],[-95.0552,39.6217],[-95.0495,39.6379],[-95.0183,39.6729],[-94.9841,39.6779],[-94.9713,39.6864],[-94.9712,39.7293],[-94.9627,39.7413],[-94.9475,39.7453],[-94.901,39.7241],[-94.8813,39.7279],[-94.865,39.7386],[-94.859,39.7541],[-94.8671,39.7717],[-94.8822,39.771],[-94.9109,39.7592],[-94.9262,39.7665],[-94.9355,39.777],[-94.935,39.7837],[-94.9276,39.7892],[-94.8932,39.7909],[-94.8823,39.7958],[-94.8762,39.8074],[-94.8776,39.825],[-94.8888,39.8341],[-94.9168,39.8358],[-94.9399,39.852],[-94.9424,39.8623],[-94.9285,39.8763],[-94.9274,39.884],[-94.9439,39.8981],[-94.9607,39.9014],[-94.9871,39.8963],[-95.0131,39.9002],[-95.0244,39.8912],[-95.0267,39.8723],[-95.0352,39.8659],[-95.0902,39.8631],[-95.1371,39.8784],[-95.1433,39.8878],[-95.1428,39.9004],[-95.1497,39.9059],[-95.1812,39.9],[-95.2017,39.9044],[-95.2061,39.9121],[-95.2004,39.931],[-95.2053,39.9397],[-95.2503,39.9486],[-95.2699,39.9694],[-95.3023,39.9846],[-95.3083,40],[-95.3399,40],[-95.3397,39.653],[-95.5641,39.6529],[-95.5643,39.5659],[-95.5703,39.5659],[-95.5703,39.4335]]]},"properties":{"geoid":"20063","state":"20","district":"63","name":"State House District 63","chamber":"House"}},{"type":"Feature","geometry":{"type":"Polygon","coordinates":[[[-97.667,39.3081],[-97.3698,39.306],[-97.3712,39.0305],[-96.9632,39.0309],[-96.9617,39.2201],[-96.8499,39.219],[-96.8497,39.1393],[-96.831,39.1392],[-96.831,39.1355],[-96.8322,39.1196],[-96.8513,39.1007],[-96.8514,39.0882],[-96.8132,39.0882],[-96.8105,39.1016],[-96.7962,39.0959],[-96.7966,39.1214],[-96.7729,39.1237],[-96.7612,39.1341],[-96.6869,39.1315],[-96.6824,39.1406],[-96.6819,39.1748],[-96.647,39.1747],[-96.6494,39.1892],[-96.6448,39.1891],[-96.6448,39.2036],[-96.654,39.2039],[-96.6539,39.2143],[-96.6446,39.2256],[-96.6354,39.2183],[-96.6237,39.2184],[-96.6246,39.2143],[-96.6181,39.2216],[-96.6164,39.2184],[-96.5786,39.2184],[-96.5845,39.2295],[-96.5713,39.2376],[-96.5817,39.2342],[-96.5882,39.2427],[-96.573,39.2443],[-96.5715,39.251],[-96.5791,39.2562],[-96.5769,39.2492],[-96.5911,39.2497],[-96.5959,39.2631],[-96.6101,39.2667],[-96.6351,39.2872],[-96.6395,39.2929],[-96.633,39.2945],[-96.6337,39.299],[-96.6566,39.317],[-96.6463,39.3259],[-96.659,39.3249],[-96.6694,39.3311],[-96.6713,39.3368],[-96.6612,39.3439],[-96.6704,39.3438],[-96.6874,39.3566],[-96.6915,39.3613],[-96.6844,39.3723],[-96.6954,39.3732],[-96.7197,39.3948],[-96.7264,39.4036],[-96.7156,39.4086],[-96.715,39.4197],[-96.7277,39.4269],[-96.7132,39.436],[-96.7219,39.4445],[-96.7085,39.4605],[-96.6882,39.4611],[-96.69,39.4679],[-96.6813,39.4832],[-96.6765,39.4727],[-96.6677,39.4754],[-96.6567,39.5002],[-96.6401,39.5088],[-96.6447,39.5164],[-96.6426,39.5221],[-96.6207,39.5384],[-96.6149,39.5319],[-96.5893,39.5456],[-96.5912,39.5527],[-96.5805,39.5662],[-97.3686,39.567],[-97.3687,39.654],[-97.6601,39.6535],[-97.6595,39.5974],[-97.6551,39.5774],[-97.6329,39.5738],[-97.6308,39.5813],[-97.6253,39.5739],[-97.5934,39.5739],[-97.5933,39.5666],[-97.6483,39.5634],[-97.6479,39.5247],[-97.6565,39.5248],[-97.6571,39.5044],[-97.6666,39.4852],[-97.667,39.3081]]]},"properties":{"geoid":"20064","state":"20","district":"64","name":"State House District 64","chamber":"House"}},{"type":"Feature","geometry":{"type":"Polygon","coordinates":[[[-96.9635,38.9953],[-96.9193,39.0006],[-96.8614,38.9993],[-96.8583,39.0102],[-96.8524,39.0102],[-96.8488,39.017],[-96.8314,39.0188],[-96.8279,39.0675],[-96.8338,39.0729],[-96.8265,39.0881],[-96.8514,39.0882],[-96.8513,39.1007],[-96.8322,39.1196],[-96.831,39.1355],[-96.831,39.1392],[-96.8497,39.1393],[-96.8499,39.219],[-96.9617,39.2201],[-96.9635,38.9953]]]},"properties":{"geoid":"20065","state":"20","district":"65","name":"State House District 65","chamber":"House"}},{"type":"Feature","geometry":{"type":"Polygon","coordinates":[[[-96.6075,39.2118],[-96.5981,39.2111],[-96.5998,39.1895],[-96.5958,39.1822],[-96.5888,39.1838],[-96.5936,39.1698],[-96.556,39.1714],[-96.5539,39.179],[-96.5621,39.2059],[-96.5575,39.2101],[-96.5696,39.2114],[-96.567,39.2187],[-96.6073,39.2185],[-96.6075,39.2118]]]},"properties":{"geoid":"20066","state":"20","district":"66","name":"State House District 66","chamber":"House"}},{"type":"Feature","geometry":{"type":"Polygon","coordinates":[[[-96.6539,39.208],[-96.654,39.2039],[-96.6448,39.2036],[-96.6448,39.1891],[-96.6494,39.1892],[-96.6494,39.1819],[-96.6455,39.1819],[-96.6441,39.1467],[-96.6306,39.1539],[-96.6139,39.1491],[-96.5898,39.1289],[-96.5825,39.1303],[-96.5748,39.1413],[-96.56,39.1421],[-96.5708,39.1571],[-96.5583,39.1595],[-96.556,39.1714],[-96.5936,39.1698],[-96.5888,39.1838],[-96.5958,39.1822],[-96.5998,39.1895],[-96.5981,39.2111],[-96.6073,39.211],[-96.6075,39.2182],[-96.6181,39.2216],[-96.6246,39.2143],[-96.6237,39.2184],[-96.6354,39.2183],[-96.6446,39.2256],[-96.6539,39.208]]]},"properties":{"geoid":"20067","state":"20","district":"67","name":"State House District 67","chamber":"House"}},{"type":"Feature","geometry":{"type":"Polygon","coordinates":[[[-96.9637,38.9813],[-96.9635,38.9649],[-96.9505,38.971],[-96.9506,38.9768],[-96.9466,38.976],[-96.9473,38.9706],[-96.9397,38.9767],[-96.9328,38.9729],[-96.9344,38.9782],[-96.9262,38.9789],[-96.9267,38.8704],[-96.8902,38.8701],[-96.8901,38.8123],[-96.9272,38.8122],[-96.9274,38.696],[-96.9339,38.6553],[-96.9297,38.6517],[-96.93,38.5224],[-96.3538,38.5217],[-96.3526,38.7393],[-96.3897,38.739],[-96.3904,38.8259],[-96.5014,38.8262],[-96.501,39.0727],[-96.5197,39.0729],[-96.5195,39.1304],[-96.5907,39.129],[-96.6139,39.1491],[-96.6306,39.1539],[-96.6441,39.1467],[-96.6447,39.1747],[-96.6819,39.1748],[-96.6824,39.1406],[-96.6869,39.1315],[-96.761,39.1342],[-96.7729,39.1237],[-96.7966,39.1214],[-96.7962,39.0959],[-96.8105,39.1016],[-96.8132,39.0882],[-96.8265,39.0881],[-96.8337,39.0736],[-96.8279,39.0675],[-96.8314,39.0188],[-96.8488,39.017],[-96.8524,39.0102],[-96.8583,39.0102],[-96.8614,38.9993],[-96.9193,39.0006],[-96.9635,38.9944],[-96.9637,38.9813]]]},"properties":{"geoid":"20068","state":"20","district":"68","name":"State House District 68","chamber":"House"}},{"type":"Feature","geometry":{"type":"Polygon","coordinates":[[[-97.9285,38.8065],[-97.9248,38.6099],[-97.3719,38.6094],[-97.3718,38.7834],[-97.594,38.7834],[-97.5942,38.8125],[-97.6094,38.8144],[-97.6092,38.8271],[-97.6965,38.8272],[-97.8121,38.7734],[-97.9285,38.8065]]]},"properties":{"geoid":"20069","state":"20","district":"69","name":"State House District 69","chamber":"House"}},{"type":"Feature","geometry":{"type":"Polygon","coordinates":[[[-97.4831,38.5174],[-97.4821,38.4349],[-97.1513,38.4352],[-97.1507,38.348],[-97.0402,38.3482],[-97.0422,38.0865],[-96.8408,38.0856],[-96.8377,38.3486],[-96.8195,38.3485],[-96.8195,38.5224],[-96.93,38.5224],[-96.9297,38.6517],[-96.9339,38.6553],[-96.9274,38.696],[-96.9272,38.8122],[-96.8901,38.8123],[-96.8902,38.8701],[-96.9267,38.8704],[-96.9262,38.9789],[-96.9344,38.9782],[-96.9328,38.9729],[-96.9397,38.9767],[-96.9473,38.9706],[-96.9466,38.976],[-96.9506,38.9768],[-96.9505,38.971],[-96.9635,38.9649],[-96.9632,39.0309],[-97.3712,39.0305],[-97.3717,38.9296],[-97.3812,38.9287],[-97.3812,38.9143],[-97.3721,38.9143],[-97.3719,38.6094],[-97.4825,38.6092],[-97.4831,38.5174]]]},"properties":{"geoid":"20070","state":"20","district":"70","name":"State House District 70","chamber":"House"}},{"type":"Feature","geometry":{"type":"Polygon","coordinates":[[[-97.6309,38.8419],[-97.6091,38.8405],[-97.6094,38.8144],[-97.5942,38.8125],[-97.594,38.7834],[-97.3718,38.7834],[-97.3721,38.9143],[-97.3812,38.9143],[-97.3812,38.9287],[-97.3717,38.9289],[-97.3716,38.9579],[-97.612,38.958],[-97.6123,38.8763],[-97.6169,38.876],[-97.6129,38.8737],[-97.6173,38.8562],[-97.6309,38.8419]]]},"properties":{"geoid":"20071","state":"20","district":"71","name":"State House District 71","chamber":"House"}},{"type":"Feature","geometry":{"type":"Polygon","coordinates":[[[-97.4363,37.9157],[-97.4271,37.9113],[-97.4269,37.9033],[-97.418,37.9032],[-97.4225,37.9123],[-97.2632,37.9123],[-97.2621,37.825],[-97.1521,37.8252],[-97.1526,37.9565],[-97.1362,37.9638],[-97.1436,37.9656],[-97.1436,37.9696],[-97.1526,37.9663],[-97.1529,38.0877],[-97.2889,38.0864],[-97.3001,38.0718],[-97.3368,38.0718],[-97.3369,38.0664],[-97.3396,38.0718],[-97.345,38.0706],[-97.3439,38.0634],[-97.3535,38.0718],[-97.4089,38.0722],[-97.4088,37.9438],[-97.4199,37.9268],[-97.4276,37.9273],[-97.4247,37.9218],[-97.4328,37.9215],[-97.4363,37.9157]]]},"properties":{"geoid":"20072","state":"20","district":"72","name":"State House District 72","chamber":"House"}},{"type":"Feature","geometry":{"type":"Polygon","coordinates":[[[-97.9252,38.2804],[-97.9252,38.2605],[-97.4823,38.2608],[-97.4825,38.6092],[-97.9248,38.6099],[-97.9252,38.2804]]]},"properties":{"geoid":"20073","state":"20","district":"73","name":"State House District 73","chamber":"House"}},{"type":"Feature","geometry":{"type":"Polygon","coordinates":[[[-97.7022,38.0737],[-97.702,37.9113],[-97.4364,37.9124],[-97.4363,37.9177],[-97.4248,37.9218],[-97.4276,37.9273],[-97.4199,37.9268],[-97.4088,37.9438],[-97.4089,38.0722],[-97.3535,38.0718],[-97.3439,38.0634],[-97.345,38.0706],[-97.3396,38.0718],[-97.3369,38.0664],[-97.3368,38.0718],[-97.3001,38.0718],[-97.2889,38.0864],[-97.0422,38.0865],[-97.0402,38.3482],[-97.1507,38.348],[-97.1513,38.4352],[-97.4821,38.4349],[-97.4823,38.2608],[-97.702,38.2607],[-97.7022,38.0737]]]},"properties":{"geoid":"20074","state":"20","district":"74","name":"State House District 74","chamber":"House"}},{"type":"Feature","geometry":{"type":"Polygon","coordinates":[[[-97.1534,37.8252],[-97.1531,37.7816],[-97.0987,37.7816],[-97.0964,37.738],[-96.7159,37.7372],[-96.7161,37.825],[-96.5257,37.8251],[-96.5228,38.0864],[-97.1529,38.0877],[-97.1526,37.9663],[-97.1436,37.9696],[-97.1436,37.9656],[-97.1362,37.9637],[-97.1526,37.9565],[-97.1534,37.8252]]]},"properties":{"geoid":"20075","state":"20","district":"75","name":"State House District 75","chamber":"House"}},{"type":"Feature","geometry":{"type":"Polygon","coordinates":[[[-96.3534,38.625],[-96.3531,38.6089],[-96.2066,38.6078],[-96.2077,38.4347],[-96.1182,38.4339],[-96.1242,38.4236],[-96.1363,38.4193],[-96.134,38.4085],[-96.1465,38.3977],[-96.1802,38.3977],[-96.1824,38.3833],[-96.1803,38.3469],[-96.171,38.3468],[-96.1713,38.2672],[-96.1744,38.265],[-96.1713,38.2578],[-96.1562,38.255],[-96.1568,38.1722],[-95.9589,38.1709],[-95.959,38.0402],[-95.519,38.0382],[-95.5168,38.2593],[-95.5075,38.2592],[-95.5085,38.6816],[-95.508,38.6953],[-95.5012,38.6953],[-95.5008,38.7243],[-95.6294,38.7243],[-95.6313,38.7163],[-95.6273,38.7098],[-95.6398,38.7109],[-95.6369,38.6809],[-95.6831,38.6812],[-95.6831,38.674],[-95.6865,38.6739],[-95.7255,38.6741],[-95.7255,38.6814],[-95.8104,38.6807],[-95.8105,38.6735],[-95.8374,38.6735],[-95.8383,38.6807],[-95.9496,38.6808],[-95.9497,38.6954],[-95.9457,38.6954],[-95.9459,38.7391],[-96.3526,38.739],[-96.3534,38.625]]]},"properties":{"geoid":"20076","state":"20","district":"76","name":"State House District 76","chamber":"House"}},{"type":"Feature","geometry":{"type":"Polygon","coordinates":[[[-97.1533,37.4759],[-96.9972,37.4757],[-96.9986,37.481],[-96.9897,37.4871],[-96.9881,37.4983],[-96.9825,37.4988],[-96.9804,37.5083],[-96.9749,37.508],[-96.9767,37.5122],[-96.9901,37.5123],[-96.9903,37.5341],[-96.9975,37.5341],[-96.9897,37.548],[-96.9901,37.6068],[-96.9353,37.6066],[-96.9346,37.7376],[-97.0758,37.738],[-97.0756,37.7231],[-97.0802,37.7224],[-97.0802,37.6797],[-97.1353,37.6795],[-97.1355,37.636],[-97.153,37.6358],[-97.1533,37.4759]]]},"properties":{"geoid":"20077","state":"20","district":"77","name":"State House District 77","chamber":"House"}},{"type":"Feature","geometry":{"type":"Polygon","coordinates":[[[-94.8158,38.855],[-94.7891,38.8547],[-94.7917,38.8453],[-94.7796,38.8402],[-94.7797,38.8255],[-94.7612,38.8257],[-94.7609,38.8691],[-94.7952,38.8723],[-94.8158,38.855]]]},"properties":{"geoid":"20078","state":"20","district":"78","name":"State House District 78","chamber":"House"}},{"type":"Feature","geometry":{"type":"Polygon","coordinates":[[[-97.8076,37.4742],[-97.8072,37.4009],[-97.5868,37.402],[-97.5835,37.1704],[-97.4202,37.1728],[-97.4209,37.2545],[-97.4119,37.2602],[-97.4234,37.2636],[-97.4212,37.2743],[-97.4251,37.2764],[-97.4123,37.2772],[-97.4125,37.29],[-97.4034,37.2929],[-97.4001,37.2894],[-97.3951,37.3039],[-97.2581,37.3049],[-97.2581,37.2176],[-97.152,37.2165],[-97.1492,37.1286],[-97.0047,37.1288],[-97.0054,37.0995],[-96.9327,37.0995],[-96.9329,37.1212],[-96.9146,37.1214],[-96.9159,37.3025],[-96.9422,37.3023],[-96.9337,37.3098],[-96.9312,37.3895],[-96.9355,37.4755],[-97.1533,37.4755],[-97.1517,37.4485],[-97.2409,37.4495],[-97.2613,37.4587],[-97.2601,37.4691],[-97.263,37.4672],[-97.2638,37.4721],[-97.2775,37.4721],[-97.2778,37.4758],[-97.8076,37.4742]]]},"properties":{"geoid":"20079","state":"20","district":"79","name":"State House District 79","chamber":"House"}},{"type":"Feature","geometry":{"type":"Polygon","coordinates":[[[-97.5839,37.125],[-97.5824,36.9986],[-97.0397,36.999],[-97.0391,37.0389],[-97.0233,37.0393],[-97.0162,37.0314],[-97.0104,37.0319],[-97.0035,37.0371],[-96.9998,37.0498],[-96.9674,37.0415],[-96.9619,37.0349],[-96.9441,37.0292],[-96.932,37.0288],[-96.9321,37.0487],[-96.9669,37.0489],[-96.9691,37.0559],[-96.9831,37.0563],[-96.9867,37.0997],[-97.0054,37.0995],[-97.0047,37.1288],[-97.1492,37.1286],[-97.152,37.2165],[-97.2581,37.2176],[-97.2581,37.3049],[-97.3951,37.3039],[-97.4001,37.2894],[-97.4034,37.2929],[-97.4125,37.29],[-97.4123,37.2772],[-97.4251,37.2764],[-97.4212,37.2743],[-97.4234,37.2636],[-97.4119,37.2602],[-97.4209,37.2545],[-97.4202,37.1728],[-97.5835,37.1704],[-97.5839,37.125]]]},"properties":{"geoid":"20080","state":"20","district":"80","name":"State House District 80","chamber":"House"}},{"type":"Feature","geometry":{"type":"Polygon","coordinates":[[[-97.3102,37.6499],[-97.3081,37.6399],[-97.2959,37.6267],[-97.2762,37.5625],[-97.2621,37.5625],[-97.2621,37.5552],[-97.2443,37.5559],[-97.2444,37.5625],[-97.1528,37.563],[-97.153,37.6358],[-97.2343,37.6355],[-97.2345,37.6428],[-97.2621,37.6429],[-97.262,37.6501],[-97.3102,37.6499]]]},"properties":{"geoid":"20081","state":"20","district":"81","name":"State House District 81","chamber":"House"}},{"type":"Feature","geometry":{"type":"Polygon","coordinates":[[[-97.288,37.5626],[-97.2842,37.5502],[-97.2744,37.5399],[-97.28,37.5115],[-97.267,37.5089],[-97.259,37.499],[-97.2608,37.4755],[-97.2778,37.4758],[-97.2775,37.4721],[-97.2638,37.4721],[-97.263,37.4672],[-97.2601,37.4691],[-97.2613,37.4587],[-97.2409,37.4495],[-97.1517,37.4485],[-97.1528,37.563],[-97.2444,37.5625],[-97.2443,37.5559],[-97.2621,37.5552],[-97.2621,37.5625],[-97.288,37.5626]]]},"properties":{"geoid":"20082","state":"20","district":"82","name":"State House District 82","chamber":"House"}},{"type":"Feature","geometry":{"type":"Polygon","coordinates":[[[-97.2989,37.6755],[-97.2988,37.6646],[-97.2804,37.6647],[-97.2804,37.6574],[-97.2686,37.6574],[-97.2738,37.6501],[-97.2621,37.656],[-97.2621,37.6701],[-97.2444,37.672],[-97.2445,37.6791],[-97.2548,37.6798],[-97.2537,37.6902],[-97.2622,37.6902],[-97.2623,37.7084],[-97.2806,37.7084],[-97.2805,37.6774],[-97.2989,37.6755]]]},"properties":{"geoid":"20083","state":"20","district":"83","name":"State House District 83","chamber":"House"}},{"type":"Feature","geometry":{"type":"Polygon","coordinates":[[[-97.3266,37.6976],[-97.3264,37.6861],[-97.299,37.6863],[-97.2989,37.6755],[-97.2805,37.6774],[-97.2806,37.7156],[-97.299,37.7155],[-97.299,37.7228],[-97.3183,37.7227],[-97.3224,37.7161],[-97.3199,37.7081],[-97.3265,37.7081],[-97.3266,37.6976]]]},"properties":{"geoid":"20084","state":"20","district":"84","name":"State House District 84","chamber":"House"}},{"type":"Feature","geometry":{"type":"Polygon","coordinates":[[[-97.2627,37.825],[-97.2623,37.7376],[-97.2541,37.7376],[-97.2539,37.723],[-97.1529,37.7233],[-97.1529,37.7379],[-97.0964,37.738],[-97.0987,37.7816],[-97.1531,37.7816],[-97.1534,37.8252],[-97.2627,37.825]]]},"properties":{"geoid":"20085","state":"20","district":"85","name":"State House District 85","chamber":"House"}},{"type":"Feature","geometry":{"type":"Polygon","coordinates":[[[-97.3488,37.657],[-97.3407,37.6497],[-97.2738,37.6501],[-97.2686,37.6574],[-97.2804,37.6574],[-97.2804,37.6647],[-97.2988,37.6646],[-97.299,37.6863],[-97.3172,37.6861],[-97.3172,37.6718],[-97.3264,37.6717],[-97.3237,37.6644],[-97.3462,37.6645],[-97.3488,37.657]]]},"properties":{"geoid":"20086","state":"20","district":"86","name":"State House District 86","chamber":"House"}},{"type":"Feature","geometry":{"type":"Polygon","coordinates":[[[-97.2623,37.7162],[-97.2622,37.6902],[-97.2537,37.6902],[-97.2548,37.6798],[-97.2445,37.6791],[-97.2444,37.6695],[-97.235,37.674],[-97.2261,37.6719],[-97.2262,37.6647],[-97.1895,37.6648],[-97.1897,37.7231],[-97.2623,37.723],[-97.2623,37.7162]]]},"properties":{"geoid":"20087","state":"20","district":"87","name":"State House District 87","chamber":"House"}},{"type":"Feature","geometry":{"type":"Polygon","coordinates":[[[-97.272,37.6501],[-97.262,37.6501],[-97.2621,37.6429],[-97.2345,37.6428],[-97.2343,37.6355],[-97.1355,37.636],[-97.1353,37.6795],[-97.153,37.6795],[-97.1529,37.6649],[-97.2262,37.6647],[-97.2261,37.6719],[-97.235,37.674],[-97.2444,37.6695],[-97.2621,37.6701],[-97.2621,37.656],[-97.272,37.6501]]]},"properties":{"geoid":"20088","state":"20","district":"88","name":"State House District 88","chamber":"House"}},{"type":"Feature","geometry":{"type":"Polygon","coordinates":[[[-97.3186,37.7386],[-97.3183,37.7227],[-97.299,37.7228],[-97.299,37.7155],[-97.2806,37.7156],[-97.2806,37.7084],[-97.2623,37.7084],[-97.2623,37.723],[-97.2539,37.723],[-97.2541,37.7376],[-97.2623,37.7376],[-97.2625,37.7814],[-97.2991,37.7813],[-97.299,37.7668],[-97.3174,37.7668],[-97.3186,37.7386]]]},"properties":{"geoid":"20089","state":"20","district":"89","name":"State House District 89","chamber":"House"}},{"type":"Feature","geometry":{"type":"Polygon","coordinates":[[[-97.5922,37.8616],[-97.5895,37.7357],[-97.4445,37.7375],[-97.4447,37.752],[-97.4263,37.7522],[-97.4269,37.825],[-97.2621,37.825],[-97.2632,37.9123],[-97.4225,37.9123],[-97.4183,37.9032],[-97.4271,37.9033],[-97.4294,37.9123],[-97.5921,37.9124],[-97.5922,37.8616]]]},"properties":{"geoid":"20090","state":"20","district":"90","name":"State House District 90","chamber":"House"}},{"type":"Feature","geometry":{"type":"Polygon","coordinates":[[[-97.4447,37.752],[-97.4445,37.7375],[-97.3749,37.7376],[-97.3739,37.7553],[-97.3593,37.7503],[-97.3174,37.7668],[-97.299,37.7668],[-97.2991,37.7813],[-97.2625,37.7814],[-97.2627,37.825],[-97.4269,37.825],[-97.4263,37.7522],[-97.4447,37.752]]]},"properties":{"geoid":"20091","state":"20","district":"91","name":"State House District 91","chamber":"House"}},{"type":"Feature","geometry":{"type":"Polygon","coordinates":[[[-97.3897,37.7124],[-97.3895,37.6948],[-97.3531,37.6907],[-97.3541,37.6968],[-97.3382,37.6975],[-97.3356,37.7171],[-97.3582,37.7221],[-97.36,37.7319],[-97.3534,37.7348],[-97.3584,37.7401],[-97.3529,37.7468],[-97.37,37.7522],[-97.3706,37.7561],[-97.3749,37.7533],[-97.3755,37.736],[-97.3868,37.7253],[-97.3807,37.7205],[-97.3819,37.7123],[-97.3897,37.7124]]]},"properties":{"geoid":"20092","state":"20","district":"92","name":"State House District 92","chamber":"House"}},{"type":"Feature","geometry":{"type":"Polygon","coordinates":[[[-97.8083,37.6466],[-97.8076,37.4742],[-97.2608,37.4755],[-97.2606,37.5028],[-97.2803,37.5124],[-97.2756,37.5354],[-97.3156,37.5352],[-97.3156,37.5499],[-97.3397,37.5499],[-97.3392,37.5644],[-97.3704,37.5643],[-97.3705,37.5933],[-97.48,37.592],[-97.4807,37.679],[-97.4986,37.6787],[-97.4986,37.6644],[-97.5348,37.6581],[-97.5348,37.6499],[-97.8083,37.6466]]]},"properties":{"geoid":"20093","state":"20","district":"93","name":"State House District 93","chamber":"House"}},{"type":"Feature","geometry":{"type":"Polygon","coordinates":[[[-97.5355,37.7361],[-97.535,37.693],[-97.4807,37.6935],[-97.4809,37.65],[-97.4665,37.6503],[-97.4666,37.6644],[-97.4622,37.6648],[-97.4627,37.7227],[-97.4811,37.7224],[-97.481,37.7369],[-97.5355,37.7361]]]},"properties":{"geoid":"20094","state":"20","district":"94","name":"State House District 94","chamber":"House"}},{"type":"Feature","geometry":{"type":"Polygon","coordinates":[[[-97.408,37.6837],[-97.4018,37.6756],[-97.3989,37.6465],[-97.3891,37.6516],[-97.3467,37.6516],[-97.3426,37.6799],[-97.3462,37.6895],[-97.3895,37.6948],[-97.3894,37.6839],[-97.408,37.6837]]]},"properties":{"geoid":"20095","state":"20","district":"95","name":"State House District 95","chamber":"House"}},{"type":"Feature","geometry":{"type":"Polygon","coordinates":[[[-97.3708,37.6369],[-97.3706,37.6078],[-97.334,37.608],[-97.3341,37.5935],[-97.3242,37.5936],[-97.3234,37.6011],[-97.3158,37.604],[-97.3193,37.6499],[-97.3487,37.6516],[-97.3444,37.6443],[-97.3673,37.6441],[-97.3673,37.6369],[-97.3708,37.6369]]]},"properties":{"geoid":"20096","state":"20","district":"96","name":"State House District 96","chamber":"House"}},{"type":"Feature","geometry":{"type":"Polygon","coordinates":[[[-97.4809,37.65],[-97.48,37.592],[-97.3705,37.5933],[-97.3673,37.6441],[-97.3444,37.6445],[-97.3487,37.6516],[-97.3891,37.6516],[-97.3989,37.6465],[-97.4049,37.6801],[-97.4625,37.6793],[-97.4665,37.6503],[-97.4809,37.65]]]},"properties":{"geoid":"20097","state":"20","district":"97","name":"State House District 97","chamber":"House"}},{"type":"Feature","geometry":{"type":"Polygon","coordinates":[[[-97.3706,37.6078],[-97.3704,37.5643],[-97.3392,37.5644],[-97.3397,37.5499],[-97.3156,37.5499],[-97.3156,37.5352],[-97.2756,37.5354],[-97.288,37.5626],[-97.2762,37.5625],[-97.2834,37.5884],[-97.2959,37.6267],[-97.3081,37.6399],[-97.3106,37.6499],[-97.3193,37.6499],[-97.3158,37.604],[-97.3234,37.6011],[-97.3242,37.5936],[-97.3341,37.5935],[-97.334,37.608],[-97.3706,37.6078]]]},"properties":{"geoid":"20098","state":"20","district":"98","name":"State House District 98","chamber":"House"}},{"type":"Feature","geometry":{"type":"Polygon","coordinates":[[[-97.1897,37.6798],[-97.1895,37.6648],[-97.1529,37.6649],[-97.153,37.6795],[-97.0802,37.6797],[-97.0802,37.7224],[-97.0756,37.7231],[-97.0758,37.738],[-97.1529,37.7379],[-97.1529,37.7233],[-97.1897,37.7231],[-97.1897,37.6798]]]},"properties":{"geoid":"20099","state":"20","district":"99","name":"State House District 99","chamber":"House"}},{"type":"Feature","geometry":{"type":"Polygon","coordinates":[[[-97.4811,37.7242],[-97.4627,37.7227],[-97.4625,37.6793],[-97.4442,37.6795],[-97.4443,37.7088],[-97.4261,37.7088],[-97.4262,37.7377],[-97.481,37.7369],[-97.4811,37.7242]]]},"properties":{"geoid":"20100","state":"20","district":"100","name":"State House District 100","chamber":"House"}},{"type":"Feature","geometry":{"type":"Polygon","coordinates":[[[-98.032,37.8629],[-98.0319,37.8246],[-98.0275,37.8246],[-98.0273,37.7333],[-97.8078,37.7339],[-97.8083,37.6468],[-97.5348,37.6499],[-97.5348,37.6581],[-97.4986,37.6644],[-97.4986,37.6787],[-97.4807,37.679],[-97.4807,37.6935],[-97.535,37.693],[-97.5355,37.7361],[-97.5895,37.7357],[-97.5921,37.9124],[-97.7019,37.9125],[-97.7022,37.9074],[-97.7205,37.9198],[-97.7203,37.9124],[-98.0318,37.9119],[-98.032,37.8629]]]},"properties":{"geoid":"20101","state":"20","district":"101","name":"State House District 101","chamber":"House"}},{"type":"Feature","geometry":{"type":"Polygon","coordinates":[[[-97.9659,38.0788],[-97.9655,38.0536],[-97.9508,38.0529],[-97.9496,38.0433],[-97.9329,38.0393],[-97.9243,38.0257],[-97.9125,38.0176],[-97.9079,38.0249],[-97.8945,38.0239],[-97.8929,38.0287],[-97.8486,38.0284],[-97.8486,38.0576],[-97.8669,38.0576],[-97.8671,38.065],[-97.8753,38.072],[-97.9319,38.0717],[-97.9407,38.074],[-97.9407,38.081],[-97.9659,38.0788]]]},"properties":{"geoid":"20102","state":"20","district":"102","name":"State House District 102","chamber":"House"}},{"type":"Feature","geometry":{"type":"Polygon","coordinates":[[[-97.361,37.7493],[-97.3529,37.7468],[-97.3584,37.7401],[-97.3534,37.7348],[-97.36,37.7319],[-97.3582,37.7221],[-97.3356,37.7171],[-97.3382,37.6975],[-97.3552,37.6956],[-97.3437,37.6855],[-97.3462,37.6645],[-97.3237,37.6644],[-97.3264,37.6717],[-97.3172,37.6718],[-97.3172,37.6861],[-97.3264,37.6861],[-97.3266,37.6976],[-97.3265,37.7081],[-97.3199,37.7081],[-97.3174,37.7644],[-97.361,37.7493]]]},"properties":{"geoid":"20103","state":"20","district":"103","name":"State House District 103","chamber":"House"}},{"type":"Feature","geometry":{"type":"Polygon","coordinates":[[[-97.9594,38.0923],[-97.959,38.0795],[-97.9407,38.081],[-97.9407,38.074],[-97.9319,38.0717],[-97.8753,38.072],[-97.8625,38.0559],[-97.8116,38.0574],[-97.8117,38.072],[-97.702,38.0722],[-97.702,38.2607],[-97.9224,38.2604],[-97.922,38.0973],[-97.9478,38.1002],[-97.9476,38.0929],[-97.9594,38.0923]]]},"properties":{"geoid":"20104","state":"20","district":"104","name":"State House District 104","chamber":"House"}},{"type":"Feature","geometry":{"type":"Polygon","coordinates":[[[-97.4444,37.6941],[-97.4442,37.6795],[-97.3894,37.6839],[-97.3897,37.7124],[-97.3806,37.7159],[-97.3868,37.7253],[-97.3749,37.7376],[-97.4262,37.7377],[-97.4261,37.7088],[-97.4443,37.7088],[-97.4444,37.6941]]]},"properties":{"geoid":"20105","state":"20","district":"105","name":"State House District 105","chamber":"House"}},{"type":"Feature","geometry":{"type":"Polygon","coordinates":[[[-98.5053,39.5679],[-97.9318,39.5669],[-97.9315,39.6538],[-97.3687,39.654],[-97.3686,39.567],[-96.239,39.5662],[-96.2392,40.0009],[-98.5045,40.0023],[-98.5053,39.5679]]]},"properties":{"geoid":"20106","state":"20","district":"106","name":"State House District 106","chamber":"House"}},{"type":"Feature","geometry":{"type":"Polygon","coordinates":[[[-98.4901,39.2264],[-98.4901,39.2198],[-97.9297,39.2193],[-97.9285,38.8065],[-97.8121,38.7734],[-97.6965,38.8272],[-97.6092,38.8271],[-97.6091,38.8405],[-97.6309,38.8417],[-97.6173,38.8562],[-97.6129,38.8737],[-97.6169,38.876],[-97.6123,38.8763],[-97.612,38.958],[-97.3716,38.9579],[-97.3698,39.306],[-97.6671,39.3066],[-97.6666,39.4852],[-97.6571,39.5044],[-97.6565,39.5248],[-97.6479,39.5247],[-97.6483,39.5634],[-97.5933,39.5666],[-97.5934,39.5739],[-97.6253,39.5739],[-97.6308,39.5813],[-97.6329,39.5738],[-97.6551,39.5774],[-97.6595,39.5974],[-97.6601,39.6535],[-97.9315,39.6538],[-97.9318,39.5669],[-98.4874,39.5675],[-98.4901,39.2264]]]},"properties":{"geoid":"20107","state":"20","district":"107","name":"State House District 107","chamber":"House"}},{"type":"Feature","geometry":{"type":"Polygon","coordinates":[[[-94.7797,38.971],[-94.7795,38.9564],[-94.7648,38.9565],[-94.7665,38.9634],[-94.7422,38.9602],[-94.7515,38.9499],[-94.7521,38.9353],[-94.7649,38.9201],[-94.7609,38.92],[-94.761,38.9019],[-94.7685,38.9042],[-94.7745,38.8982],[-94.7424,38.8982],[-94.7421,38.9274],[-94.7235,38.9277],[-94.7236,38.9351],[-94.7422,38.9362],[-94.7375,38.939],[-94.7422,38.9453],[-94.719,38.9711],[-94.7797,38.971]]]},"properties":{"geoid":"20108","state":"20","district":"108","name":"State House District 108","chamber":"House"}},{"type":"Feature","geometry":{"type":"Polygon","coordinates":[[[-99.0671,39.9239],[-99.0662,39.5681],[-99.0444,39.568],[-99.0477,39.133],[-99.0375,39.1331],[-99.0426,38.6968],[-98.48,38.6969],[-98.4804,38.5218],[-97.9243,38.5228],[-97.9297,39.2193],[-98.4901,39.2198],[-98.4874,39.5675],[-98.5053,39.5679],[-98.5045,40.0023],[-99.067,40.0023],[-99.0671,39.9239]]]},"properties":{"geoid":"20109","state":"20","district":"109","name":"State House District 109","chamber":"House"}},{"type":"Feature","geometry":{"type":"Polygon","coordinates":[[[-100.1805,39.5778],[-100.1804,39.5669],[-100.1617,39.5673],[-100.1642,39.1321],[-99.5918,39.1324],[-99.5983,38.6965],[-99.0426,38.6968],[-99.0375,39.1331],[-99.0477,39.133],[-99.0444,39.568],[-99.0662,39.5681],[-99.067,40.0023],[-100.1778,40.0016],[-100.1805,39.5778]],[[-99.3786,38.9083],[-99.3721,38.9289],[-99.2985,38.9291],[-99.2988,38.9144],[-99.2615,38.9145],[-99.262,38.8854],[-99.2436,38.8855],[-99.2438,38.8785],[-99.1229,38.8774],[-99.1142,38.8743],[-99.1142,38.8275],[-99.1325,38.8354],[-99.1327,38.8276],[-99.3186,38.8275],[-99.3185,38.842],[-99.3671,38.8419],[-99.376,38.8471],[-99.3786,38.9083]]]},"properties":{"geoid":"20110","state":"20","district":"110","name":"State House District 110","chamber":"House"}},{"type":"Feature","geometry":{"type":"Polygon","coordinates":[[[-99.3786,38.9123],[-99.376,38.8471],[-99.3671,38.8419],[-99.3185,38.842],[-99.3186,38.8275],[-99.1327,38.8276],[-99.1325,38.8354],[-99.1142,38.8275],[-99.1142,38.8743],[-99.1223,38.8772],[-99.2438,38.8785],[-99.2436,38.8855],[-99.262,38.8854],[-99.2615,38.9145],[-99.2988,38.9144],[-99.2985,38.9291],[-99.3721,38.9289],[-99.3786,38.9123]]]},"properties":{"geoid":"20111","state":"20","district":"111","name":"State House District 111","chamber":"House"}},{"type":"Feature","geometry":{"type":"Polygon","coordinates":[[[-99.0334,38.4209],[-99.0324,38.3483],[-98.9216,38.3471],[-98.9218,38.2612],[-98.7007,38.2608],[-98.7008,38.3421],[-98.6978,38.3403],[-98.6968,38.3456],[-98.701,38.3464],[-98.6889,38.3478],[-98.6829,38.3545],[-98.6641,38.3558],[-98.6642,38.391],[-98.4806,38.3911],[-98.48,38.6969],[-99.033,38.6968],[-99.0334,38.4209]]]},"properties":{"geoid":"20112","state":"20","district":"112","name":"State House District 112","chamber":"House"}},{"type":"Feature","geometry":{"type":"Polygon","coordinates":[[[-99.5866,38.6112],[-99.5842,38.2622],[-99.1323,38.2615],[-99.1323,37.9999],[-99.0221,38.0002],[-99.0226,37.8254],[-98.4723,37.8245],[-98.4728,38.1728],[-98.216,38.1735],[-98.2159,38.1587],[-98.1422,38.1595],[-98.1423,38.1739],[-97.9221,38.1737],[-97.9243,38.5228],[-98.4804,38.5218],[-98.4806,38.3911],[-98.6642,38.391],[-98.6641,38.3558],[-98.6829,38.3545],[-98.6889,38.3478],[-98.701,38.3464],[-98.6968,38.3456],[-98.6978,38.3403],[-98.7008,38.3421],[-98.7007,38.2608],[-98.9218,38.2612],[-98.9216,38.3471],[-99.0324,38.3483],[-99.033,38.6968],[-99.5851,38.6965],[-99.5866,38.6112]]]},"properties":{"geoid":"20113","state":"20","district":"113","name":"State House District 113","chamber":"House"}},{"type":"Feature","geometry":{"type":"Polygon","coordinates":[[[-98.7436,37.825],[-98.7397,37.8197],[-98.7393,37.6606],[-98.7215,37.6606],[-98.722,37.6531],[-98.7164,37.6502],[-98.7213,37.6496],[-98.7165,37.6457],[-98.7395,37.646],[-98.7381,37.5385],[-98.6772,37.4965],[-98.5668,37.4707],[-98.4647,37.471],[-98.465,37.3841],[-97.8071,37.3863],[-97.8078,37.7339],[-98.0273,37.7333],[-98.0318,37.9119],[-97.7203,37.9124],[-97.7205,37.9198],[-97.7022,37.9074],[-97.702,38.0722],[-97.8117,38.072],[-97.8116,38.0574],[-97.8486,38.0576],[-97.8486,38.0284],[-97.8929,38.0287],[-97.8945,38.0239],[-97.9079,38.0249],[-97.9125,38.0176],[-97.9243,38.0257],[-97.9329,38.0393],[-97.9496,38.0433],[-97.9508,38.0529],[-97.9655,38.0536],[-97.9659,38.0788],[-97.959,38.0789],[-97.9594,38.0928],[-97.9476,38.0929],[-97.9478,38.1002],[-97.922,38.0973],[-97.9221,38.1737],[-98.1423,38.1739],[-98.1422,38.1595],[-98.2159,38.1587],[-98.216,38.1735],[-98.4728,38.1728],[-98.4723,37.8245],[-98.7436,37.825]]]},"properties":{"geoid":"20114","state":"20","district":"114","name":"State House District 114","chamber":"House"}},{"type":"Feature","geometry":{"type":"Polygon","coordinates":[[[-100.6651,37.8341],[-100.6652,37.8288],[-100.6517,37.8287],[-100.6527,37.3876],[-100.6338,37.3876],[-100.6345,37.344],[-100.4894,37.3439],[-100.4895,37.3002],[-100.4352,37.3002],[-100.4343,37.0011],[-99.5411,36.9996],[-99.5432,37.3811],[-99.5558,37.3811],[-99.5596,37.7349],[-99.0135,37.733],[-99.0133,37.8253],[-99.0226,37.8254],[-99.0221,38.0002],[-99.4596,38.0006],[-99.4596,37.9133],[-100.017,37.913],[-100.2271,37.914],[-100.2266,38.001],[-100.6642,38.0025],[-100.6651,37.8341]],[[-100.0696,37.7552],[-100.0696,37.773],[-100.0514,37.7742],[-100.0514,37.7875],[-100.0378,37.7875],[-100.0332,37.7916],[-100.0333,37.8092],[-100.0242,37.8093],[-100.0241,37.7947],[-100.01,37.7924],[-100.0102,37.7812],[-100.0162,37.78],[-100.0164,37.7654],[-99.9966,37.7652],[-99.9966,37.7539],[-99.9606,37.7489],[-99.9606,37.74],[-99.9349,37.7349],[-99.9307,37.7288],[-99.957,37.7229],[-99.9966,37.7365],[-100.0349,37.7365],[-100.034,37.7473],[-100.0514,37.7474],[-100.0513,37.7543],[-100.0696,37.7552]]]},"properties":{"geoid":"20115","state":"20","district":"115","name":"State House District 115","chamber":"House"}},{"type":"Feature","geometry":{"type":"Polygon","coordinates":[[[-99.5597,37.7319],[-99.5558,37.3811],[-99.5432,37.3811],[-99.5411,36.9996],[-97.5824,36.9986],[-97.5868,37.402],[-97.8072,37.4009],[-97.8071,37.3863],[-98.465,37.3841],[-98.4647,37.471],[-98.5668,37.4707],[-98.6772,37.4965],[-98.7381,37.5385],[-98.7395,37.646],[-98.7165,37.6457],[-98.7213,37.6496],[-98.7164,37.6502],[-98.722,37.6531],[-98.7215,37.6606],[-98.7393,37.6606],[-98.7397,37.8197],[-98.7436,37.825],[-99.0133,37.8253],[-99.0135,37.733],[-99.5597,37.7319]]]},"properties":{"geoid":"20116","state":"20","district":"116","name":"State House District 116","chamber":"House"}},{"type":"Feature","geometry":{"type":"Polygon","coordinates":[[[-95.298,38.8843],[-95.2978,38.8699],[-95.2558,38.8699],[-95.2689,38.8333],[-95.2447,38.8333],[-95.2386,38.8262],[-95.2051,38.8259],[-95.205,38.8406],[-95.0562,38.8406],[-95.0559,38.8987],[-95.0375,38.8989],[-95.0375,38.9207],[-95.0055,38.9198],[-94.9927,38.9248],[-94.9922,38.9504],[-94.9833,38.9606],[-94.932,38.9599],[-94.8995,38.9477],[-94.8774,38.9543],[-94.8761,38.9595],[-94.8534,38.9564],[-94.8514,38.9969],[-94.8396,38.9991],[-94.8395,39.0081],[-94.821,39.0092],[-94.819,39.0295],[-94.8394,39.029],[-94.8394,39.0243],[-94.8538,39.0158],[-94.8538,39.0071],[-94.8723,39.0053],[-94.8724,39.0145],[-94.8872,39.0145],[-94.9073,38.9907],[-94.9191,38.9835],[-94.9218,38.9864],[-94.9162,38.9969],[-94.9233,39.0026],[-94.9316,39.0015],[-94.9444,38.9864],[-94.9565,38.982],[-95.0036,38.9989],[-95.0211,39],[-95.0261,38.9931],[-95.0253,38.9823],[-95.0333,38.9755],[-95.0407,38.9742],[-95.0563,38.9821],[-95.0562,38.9431],[-95.07,38.9426],[-95.0993,38.929],[-95.1701,38.9351],[-95.1871,38.9245],[-95.2204,38.9208],[-95.2236,38.9109],[-95.2316,38.9114],[-95.2317,38.9154],[-95.2604,38.9087],[-95.2791,38.9136],[-95.2791,38.8872],[-95.298,38.8843]]]},"properties":{"geoid":"20117","state":"20","district":"117","name":"State House District 117","chamber":"House"}},{"type":"Feature","geometry":{"type":"Polygon","coordinates":[[[-102.0453,38.5887],[-102.0445,38.2624],[-99.5842,38.2622],[-99.5851,38.6965],[-99.5983,38.6965],[-99.5918,39.1324],[-100.1642,39.1321],[-100.1617,39.5673],[-100.7202,39.568],[-100.7213,39.1334],[-101.4782,39.1348],[-101.4844,38.7002],[-102.0452,38.6976],[-102.0453,38.5887]]]},"properties":{"geoid":"20118","state":"20","district":"118","name":"State House District 118","chamber":"House"}},{"type":"Feature","geometry":{"type":"Polygon","coordinates":[[[-100.0696,37.7554],[-100.0513,37.7543],[-100.0514,37.7474],[-100.034,37.7473],[-100.0349,37.7365],[-99.9966,37.7365],[-99.957,37.7229],[-99.9307,37.7288],[-99.9349,37.7349],[-99.9606,37.74],[-99.9606,37.7489],[-99.9966,37.7539],[-99.9966,37.7652],[-100.0164,37.7654],[-100.0162,37.78],[-100.0102,37.7812],[-100.01,37.7924],[-100.0241,37.7947],[-100.0242,37.8093],[-100.0333,37.8092],[-100.0332,37.7916],[-100.0378,37.7875],[-100.0514,37.7875],[-100.0514,37.7742],[-100.0696,37.773],[-100.0696,37.7554]]]},"properties":{"geoid":"20119","state":"20","district":"119","name":"State House District 119","chamber":"House"}},{"type":"Feature","geometry":{"type":"Polygon","coordinates":[[[-102.0518,40],[-102.0452,38.6976],[-101.4844,38.7002],[-101.4782,39.1348],[-100.7213,39.1334],[-100.7202,39.568],[-100.1804,39.5669],[-100.1778,40.0016],[-102.0517,40.0031],[-102.0518,40]]]},"properties":{"geoid":"20120","state":"20","district":"120","name":"State House District 120","chamber":"House"}},{"type":"Feature","geometry":{"type":"Polygon","coordinates":[[[-95.0561,38.843],[-94.9459,38.8401],[-94.946,38.8548],[-94.8714,38.8544],[-94.8712,38.8688],[-94.8401,38.8691],[-94.8419,38.8769],[-94.8345,38.8777],[-94.8345,38.8837],[-94.8207,38.8835],[-94.8184,38.8982],[-94.8385,38.8971],[-94.8523,38.9127],[-94.8808,38.9128],[-94.8809,38.9054],[-94.8994,38.9054],[-94.8994,38.9376],[-94.8857,38.9475],[-94.8998,38.9478],[-94.9326,38.9599],[-94.9833,38.9606],[-94.9922,38.9504],[-94.9927,38.9248],[-95.0055,38.9198],[-95.0375,38.9207],[-95.0375,38.8989],[-95.0559,38.8987],[-95.0561,38.843]]]},"properties":{"geoid":"20121","state":"20","district":"121","name":"State House District 121","chamber":"House"}},{"type":"Feature","geometry":{"type":"Polygon","coordinates":[[[-101.5427,37.8316],[-101.5428,37.8276],[-101.527,37.8276],[-101.5271,37.7363],[-100.6523,37.7363],[-100.6517,37.8287],[-100.6652,37.8288],[-100.6642,38.0025],[-100.2266,38.001],[-100.2271,37.914],[-99.4596,37.9133],[-99.4596,38.0006],[-99.1323,37.9999],[-99.1323,38.2615],[-101.5423,38.2632],[-101.5427,37.8316]],[[-100.8927,37.975],[-100.8926,37.9897],[-100.8836,37.9905],[-100.8835,38.0035],[-100.8433,38.0036],[-100.8386,37.9966],[-100.8291,37.9965],[-100.829,37.9556],[-100.888,37.9674],[-100.8859,37.9716],[-100.873,37.9697],[-100.8715,37.975],[-100.8927,37.975]]]},"properties":{"geoid":"20122","state":"20","district":"122","name":"State House District 122","chamber":"House"}},{"type":"Feature","geometry":{"type":"Polygon","coordinates":[[[-100.8927,37.9757],[-100.8715,37.975],[-100.873,37.9697],[-100.8859,37.9716],[-100.888,37.9674],[-100.829,37.9556],[-100.8291,37.9965],[-100.8386,37.9966],[-100.8433,38.0036],[-100.8835,38.0035],[-100.8836,37.9905],[-100.8926,37.9897],[-100.8927,37.9757]]]},"properties":{"geoid":"20123","state":"20","district":"123","name":"State House District 123","chamber":"House"}},{"type":"Feature","geometry":{"type":"Polygon","coordinates":[[[-102.0448,38.262],[-102.0421,36.993],[-101.0665,36.9979],[-101.0681,37.3878],[-100.6527,37.3876],[-100.6523,37.7363],[-101.5271,37.7363],[-101.527,37.8276],[-101.5428,37.8276],[-101.5423,38.2632],[-102.0448,38.262]]]},"properties":{"geoid":"20124","state":"20","district":"124","name":"State House District 124","chamber":"House"}},{"type":"Feature","geometry":{"type":"Polygon","coordinates":[[[-101.0681,37.3876],[-101.0665,36.9979],[-100.4343,37.0011],[-100.4352,37.3002],[-100.4895,37.3002],[-100.4894,37.3439],[-100.6345,37.344],[-100.6338,37.3876],[-101.0681,37.3876]]]},"properties":{"geoid":"20125","state":"20","district":"125","name":"State House District 125","chamber":"House"}}]}