{"type":"FeatureCollection","features":[{"type":"Feature","geometry":{"type":"Polygon","coordinates":[[[-96.8067,39.7166],[-96.8065,39.5664],[-96.036,39.5661],[-96.0356,39.2165],[-95.5895,39.2161],[-95.5891,39.3031],[-95.3667,39.3039],[-95.3665,39.2886],[-95.1801,39.2887],[-95.1804,39.2016],[-94.9565,39.2012],[-94.9564,39.2531],[-94.9658,39.2531],[-94.9655,39.2667],[-94.9562,39.2668],[-94.9561,39.2741],[-94.9632,39.274],[-94.963,39.2812],[-94.956,39.2813],[-94.9559,39.2885],[-94.9652,39.2884],[-94.965,39.295],[-94.9557,39.2971],[-94.9554,39.3175],[-94.9629,39.3174],[-94.963,39.3211],[-94.9554,39.3224],[-94.9553,39.3269],[-94.9609,39.3278],[-94.9503,39.3417],[-94.9465,39.3378],[-94.9456,39.3754],[-94.9384,39.3756],[-94.9382,39.3871],[-94.9456,39.3939],[-94.9463,39.4056],[-94.973,39.4217],[-94.9875,39.4446],[-95.022,39.4555],[-95.0408,39.4664],[-95.0522,39.5],[-95.1013,39.5317],[-95.1133,39.5582],[-95.1013,39.5788],[-95.0895,39.581],[-95.0693,39.5762],[-95.0528,39.5848],[-95.0464,39.5996],[-95.0552,39.6217],[-95.0495,39.6379],[-95.0183,39.6729],[-94.9841,39.6779],[-94.9713,39.6864],[-94.9712,39.7293],[-94.964,39.7404],[-94.9488,39.7456],[-94.9127,39.7266],[-94.8917,39.7249],[-94.8677,39.736],[-94.859,39.7541],[-94.8697,39.7729],[-94.9109,39.7592],[-94.9346,39.773],[-94.935,39.7837],[-94.9282,39.7889],[-94.8847,39.794],[-94.8759,39.8133],[-94.8773,39.8245],[-94.8848,39.8324],[-94.9168,39.8358],[-94.9406,39.853],[-94.9424,39.8623],[-94.9274,39.8798],[-94.9349,39.8938],[-94.9552,39.9013],[-94.9871,39.8963],[-95.0151,39.8996],[-95.0252,39.8897],[-95.0267,39.8723],[-95.0394,39.8648],[-95.0816,39.8615],[-95.1245,39.8729],[-95.1406,39.8817],[-95.1428,39.9004],[-95.1497,39.9059],[-95.1812,39.9],[-95.2017,39.9044],[-95.2061,39.9121],[-95.2004,39.931],[-95.2053,39.9397],[-95.2503,39.9486],[-95.2699,39.9694],[-95.3023,39.9846],[-95.3083,40],[-96.5801,40.0012],[-96.5817,39.7399],[-96.8065,39.7403],[-96.8067,39.7166]]]},"properties":{"geoid":"20001","state":"20","district":"1","name":"State Senate District 1","chamber":"Senate"}},{"type":"Feature","geometry":{"type":"Polygon","coordinates":[[[-95.3166,38.9423],[-95.2999,38.93],[-95.2724,38.9203],[-95.2606,38.9208],[-95.2604,38.911],[-95.2605,38.9162],[-95.2553,38.9154],[-95.2564,38.9213],[-95.2452,38.9283],[-95.2121,38.9262],[-95.2037,38.9282],[-95.208,38.9333],[-95.186,38.9353],[-95.186,38.9429],[-95.1666,38.9426],[-95.1676,38.9689],[-95.1862,38.9645],[-95.1871,39.0441],[-95.2844,39.0467],[-95.2842,39.0213],[-95.2432,39.0027],[-95.2391,38.9921],[-95.2711,38.9929],[-95.2701,38.9824],[-95.2792,38.9816],[-95.2812,38.9715],[-95.307,38.9715],[-95.3069,38.957],[-95.279,38.957],[-95.2795,38.9427],[-95.3166,38.9423]]]},"properties":{"geoid":"20002","state":"20","district":"2","name":"State Senate District 2","chamber":"Senate"}},{"type":"Feature","geometry":{"type":"Polygon","coordinates":[[[-95.9502,38.4414],[-95.9503,38.4341],[-95.5083,38.4339],[-95.5085,38.5941],[-95.472,38.5939],[-95.4719,38.5876],[-95.4545,38.5836],[-95.4528,38.5936],[-95.4156,38.5935],[-95.4158,38.6084],[-95.3788,38.6085],[-95.3785,38.5501],[-95.3418,38.5502],[-95.3417,38.521],[-95.2123,38.5211],[-95.2122,38.5298],[-95.175,38.5305],[-95.1745,38.6522],[-95.0652,38.6517],[-95.0658,38.6949],[-95.0567,38.6949],[-95.0564,38.7386],[-95.2416,38.7387],[-95.2419,38.87],[-95.1679,38.8697],[-95.1666,38.9426],[-95.186,38.9429],[-95.186,38.9353],[-95.208,38.9333],[-95.2037,38.9282],[-95.2121,38.9262],[-95.2452,38.9283],[-95.2564,38.9213],[-95.2553,38.9154],[-95.2605,38.9162],[-95.2607,38.911],[-95.2606,38.9208],[-95.2724,38.9203],[-95.2999,38.93],[-95.3166,38.9421],[-95.2795,38.9427],[-95.279,38.957],[-95.3069,38.957],[-95.307,38.9715],[-95.3163,38.9715],[-95.3164,38.9824],[-95.3353,38.986],[-95.3346,38.9787],[-95.3438,38.9967],[-95.5011,39.0007],[-95.5013,39.0149],[-95.5377,39.0149],[-95.5464,39.023],[-95.5572,39.0224],[-95.5619,39.0152],[-95.5861,39.0151],[-95.5858,39.0308],[-95.6326,39.0297],[-95.6329,39.0227],[-95.6402,39.0158],[-95.6705,38.9948],[-95.6701,38.9569],[-95.6517,38.9568],[-95.6516,38.9463],[-95.6421,38.9407],[-95.6417,38.9318],[-95.6511,38.9318],[-95.6505,38.899],[-95.6844,38.8989],[-95.6828,38.87],[-95.9466,38.87],[-95.9502,38.4414]]]},"properties":{"geoid":"20003","state":"20","district":"3","name":"State Senate District 3","chamber":"Senate"}},{"type":"Feature","geometry":{"type":"Polygon","coordinates":[[[-94.7833,39.1336],[-94.7791,39.1164],[-94.7512,39.1166],[-94.7456,39.1064],[-94.7192,39.1054],[-94.7174,39.0993],[-94.7054,39.1047],[-94.6799,39.0997],[-94.6781,39.1039],[-94.6719,39.1013],[-94.6407,39.1117],[-94.6401,39.1082],[-94.6214,39.1082],[-94.6215,39.1026],[-94.6156,39.1026],[-94.6072,39.0897],[-94.6083,39.1183],[-94.5911,39.1368],[-94.5884,39.1499],[-94.5938,39.1568],[-94.6087,39.161],[-94.6356,39.1541],[-94.6558,39.1557],[-94.6614,39.1627],[-94.6616,39.1774],[-94.6821,39.1842],[-94.7141,39.1704],[-94.7616,39.1701],[-94.7613,39.1632],[-94.7708,39.1549],[-94.771,39.1367],[-94.7833,39.1336]]]},"properties":{"geoid":"20004","state":"20","district":"4","name":"State Senate District 4","chamber":"Senate"}},{"type":"Feature","geometry":{"type":"Polygon","coordinates":[[[-94.9829,39.1077],[-94.9829,39.1017],[-94.9274,39.1016],[-94.9271,39.1144],[-94.9178,39.1088],[-94.9177,39.1161],[-94.8537,39.1158],[-94.8536,39.1038],[-94.811,39.1054],[-94.8186,39.1358],[-94.7719,39.136],[-94.7708,39.1549],[-94.7613,39.1632],[-94.7616,39.1701],[-94.7419,39.1703],[-94.7629,39.18],[-94.783,39.2072],[-94.8115,39.2069],[-94.8317,39.2159],[-94.8349,39.2238],[-94.8257,39.2417],[-94.832,39.257],[-94.8463,39.2685],[-94.8804,39.2822],[-94.8985,39.2985],[-94.9068,39.3174],[-94.9106,39.3497],[-94.9025,39.3604],[-94.8814,39.3704],[-94.8793,39.3798],[-94.889,39.3924],[-94.9001,39.3933],[-94.9192,39.3852],[-94.9382,39.3871],[-94.9384,39.3756],[-94.9456,39.3754],[-94.9465,39.3378],[-94.9503,39.3417],[-94.9609,39.3278],[-94.9553,39.3269],[-94.9554,39.3224],[-94.963,39.3211],[-94.9629,39.3174],[-94.9554,39.3175],[-94.9557,39.2971],[-94.965,39.295],[-94.9652,39.2884],[-94.9559,39.2885],[-94.956,39.2813],[-94.963,39.2812],[-94.9632,39.274],[-94.9561,39.2741],[-94.9562,39.2668],[-94.9655,39.2667],[-94.9658,39.2531],[-94.9564,39.2531],[-94.9565,39.2012],[-94.9754,39.2011],[-94.9756,39.1286],[-94.9828,39.1285],[-94.9829,39.1077]]]},"properties":{"geoid":"20005","state":"20","district":"5","name":"State Senate District 5","chamber":"Senate"}},{"type":"Feature","geometry":{"type":"Polygon","coordinates":[[[-94.8186,39.1358],[-94.811,39.1054],[-94.7977,39.105],[-94.7975,39.0618],[-94.7882,39.0629],[-94.7884,39.0459],[-94.8009,39.0435],[-94.7053,39.044],[-94.7025,39.0221],[-94.6724,39.0222],[-94.6709,39.0372],[-94.6747,39.041],[-94.667,39.0441],[-94.6074,39.0441],[-94.6072,39.0897],[-94.6156,39.1026],[-94.6215,39.1026],[-94.6214,39.1082],[-94.6493,39.1117],[-94.6719,39.1013],[-94.6781,39.1039],[-94.6799,39.0997],[-94.7054,39.1047],[-94.7174,39.0993],[-94.7192,39.1054],[-94.7456,39.1064],[-94.7512,39.1166],[-94.7791,39.1164],[-94.7834,39.1336],[-94.7757,39.1358],[-94.8186,39.1358]]]},"properties":{"geoid":"20006","state":"20","district":"6","name":"State Senate District 6","chamber":"Senate"}},{"type":"Feature","geometry":{"type":"Polygon","coordinates":[[[-94.6817,38.9931],[-94.6817,38.9858],[-94.677,38.9858],[-94.677,38.9639],[-94.6583,38.964],[-94.6583,38.9567],[-94.6081,38.9567],[-94.6074,39.0441],[-94.6747,39.041],[-94.6709,39.0372],[-94.6771,39.0078],[-94.6677,39.0077],[-94.6677,39.0004],[-94.6771,39.0004],[-94.677,38.9931],[-94.6817,38.9931]]]},"properties":{"geoid":"20007","state":"20","district":"7","name":"State Senate District 7","chamber":"Senate"}},{"type":"Feature","geometry":{"type":"Polygon","coordinates":[[[-94.7425,38.9151],[-94.7424,38.8982],[-94.7237,38.8983],[-94.7237,38.9129],[-94.6988,38.9129],[-94.6864,38.9053],[-94.6865,38.8837],[-94.6678,38.8837],[-94.6678,38.8984],[-94.6492,38.8983],[-94.637,38.907],[-94.6398,38.9129],[-94.6491,38.9129],[-94.6489,38.9275],[-94.6299,38.9314],[-94.6303,38.9494],[-94.621,38.9495],[-94.6211,38.9569],[-94.6583,38.9567],[-94.6583,38.964],[-94.7236,38.9638],[-94.7235,38.9421],[-94.7422,38.9384],[-94.7373,38.9298],[-94.7421,38.9274],[-94.7425,38.9151]]]},"properties":{"geoid":"20008","state":"20","district":"8","name":"State Senate District 8","chamber":"Senate"}},{"type":"Feature","geometry":{"type":"Polygon","coordinates":[[[-95.242,38.8334],[-95.2416,38.7387],[-95.0564,38.7386],[-95.0561,38.8696],[-94.9089,38.8691],[-94.9056,38.92],[-94.8994,38.9054],[-94.8809,38.9054],[-94.8808,38.9163],[-94.8714,38.9163],[-94.8622,38.9126],[-94.816,38.9127],[-94.8161,38.8982],[-94.7851,38.8983],[-94.7638,38.9201],[-94.7703,38.9155],[-94.7889,38.9164],[-94.7934,38.9345],[-94.7841,38.9348],[-94.7888,38.9415],[-94.865,38.9416],[-94.9087,38.9527],[-94.9088,38.9914],[-94.8884,39.0161],[-94.8911,39.0307],[-94.8777,39.0562],[-94.8438,39.0612],[-94.8033,39.0435],[-94.7884,39.0459],[-94.7882,39.0629],[-94.7975,39.0618],[-94.7977,39.105],[-94.8536,39.1038],[-94.8537,39.1158],[-94.9177,39.1161],[-94.9178,39.1088],[-94.9271,39.1144],[-94.9274,39.1016],[-94.9829,39.1017],[-94.9828,39.1285],[-94.9756,39.1286],[-94.9754,39.2011],[-95.1804,39.2016],[-95.1801,39.1289],[-95.188,39.1289],[-95.1862,38.9645],[-95.1667,38.9673],[-95.1679,38.8697],[-95.2419,38.87],[-95.242,38.8334]]]},"properties":{"geoid":"20009","state":"20","district":"9","name":"State Senate District 9","chamber":"Senate"}},{"type":"Feature","geometry":{"type":"Polygon","coordinates":[[[-94.9089,38.9898],[-94.9087,38.9527],[-94.9016,38.9484],[-94.8526,38.9417],[-94.8531,38.9564],[-94.8258,38.9486],[-94.8161,38.9505],[-94.8148,38.9638],[-94.8214,38.9749],[-94.7973,38.971],[-94.7973,38.9855],[-94.7704,38.9856],[-94.7704,38.9928],[-94.7387,38.9928],[-94.733,38.9892],[-94.733,38.9928],[-94.7051,38.993],[-94.7053,39.044],[-94.8033,39.0435],[-94.8425,39.0609],[-94.8715,39.0594],[-94.8836,39.0507],[-94.8911,39.0307],[-94.8884,39.0161],[-94.9089,38.9898]]]},"properties":{"geoid":"20010","state":"20","district":"10","name":"State Senate District 10","chamber":"Senate"}},{"type":"Feature","geometry":{"type":"Polygon","coordinates":[[[-94.7052,38.8268],[-94.6864,38.8255],[-94.6864,38.8036],[-94.6934,38.8036],[-94.6934,38.8001],[-94.705,38.8037],[-94.7049,38.7892],[-94.6864,38.7893],[-94.6863,38.76],[-94.6774,38.7599],[-94.6775,38.7818],[-94.6678,38.7818],[-94.6676,38.7381],[-94.6091,38.7381],[-94.6081,38.9567],[-94.6211,38.9569],[-94.621,38.9495],[-94.6303,38.9494],[-94.6303,38.9312],[-94.6489,38.9275],[-94.6491,38.9129],[-94.6398,38.9129],[-94.637,38.907],[-94.6492,38.8983],[-94.6678,38.8984],[-94.6678,38.8837],[-94.7005,38.8837],[-94.7005,38.8692],[-94.6865,38.8692],[-94.6863,38.84],[-94.7052,38.8401],[-94.7052,38.8268]]]},"properties":{"geoid":"20011","state":"20","district":"11","name":"State Senate District 11","chamber":"Senate"}},{"type":"Feature","geometry":{"type":"Polygon","coordinates":[[[-95.9627,37.4524],[-95.9616,37.3866],[-95.5256,37.384],[-95.5255,37.7328],[-95.0881,37.7325],[-95.0879,37.8197],[-95.0796,37.8204],[-95.0779,38.0377],[-94.6141,38.0371],[-94.6123,38.5188],[-94.7047,38.5198],[-94.7041,38.5778],[-94.7133,38.5781],[-94.7085,38.6066],[-95.0652,38.6081],[-95.0652,38.6517],[-95.1745,38.6522],[-95.175,38.5305],[-95.2122,38.5298],[-95.2123,38.5211],[-95.3417,38.521],[-95.3418,38.5502],[-95.3785,38.5501],[-95.3788,38.6085],[-95.4158,38.6084],[-95.4156,38.5935],[-95.4528,38.5936],[-95.4545,38.5836],[-95.4719,38.5876],[-95.472,38.5939],[-95.5085,38.5941],[-95.5083,38.4339],[-95.9503,38.4341],[-95.95,38.2597],[-95.9585,38.2597],[-95.9588,38.251],[-95.9627,37.4524]]]},"properties":{"geoid":"20012","state":"20","district":"12","name":"State Senate District 12","chamber":"Senate"}},{"type":"Feature","geometry":{"type":"Polygon","coordinates":[[[-95.0885,37.5439],[-95.0882,37.3838],[-95.075,37.3838],[-95.0735,36.9996],[-94.618,36.9989],[-94.6141,38.0371],[-95.0779,38.0377],[-95.0796,37.8204],[-95.088,37.8196],[-95.0885,37.5439]]]},"properties":{"geoid":"20013","state":"20","district":"13","name":"State Senate District 13","chamber":"Senate"}},{"type":"Feature","geometry":{"type":"Polygon","coordinates":[[[-97.9252,38.2804],[-97.9221,38.1737],[-97.1531,38.1746],[-97.1528,38.0004],[-97.0422,37.9994],[-97.0438,37.7233],[-96.9348,37.723],[-96.9351,37.6502],[-96.5259,37.6506],[-96.5253,37.607],[-95.961,37.6038],[-95.9589,38.1709],[-96.3573,38.1727],[-96.3538,38.5217],[-96.93,38.5224],[-96.9303,38.6094],[-97.9248,38.6099],[-97.9252,38.2804]]]},"properties":{"geoid":"20014","state":"20","district":"14","name":"State Senate District 14","chamber":"Senate"}},{"type":"Feature","geometry":{"type":"Polygon","coordinates":[[[-96.5262,37.508],[-96.5256,36.9987],[-95.0735,36.9996],[-95.075,37.3838],[-95.0882,37.3838],[-95.0881,37.7325],[-95.5255,37.7328],[-95.5256,37.384],[-95.9616,37.3866],[-95.961,37.6038],[-96.5253,37.607],[-96.5262,37.508]]]},"properties":{"geoid":"20015","state":"20","district":"15","name":"State Senate District 15","chamber":"Senate"}},{"type":"Feature","geometry":{"type":"Polygon","coordinates":[[[-97.2995,37.7531],[-97.2991,37.7435],[-97.2625,37.7454],[-97.2623,37.7084],[-97.2006,37.7086],[-97.1876,37.694],[-97.1854,37.6794],[-97.153,37.6795],[-97.1533,37.4755],[-97.0439,37.4758],[-97.0422,37.9994],[-97.1528,38.0004],[-97.1525,37.9127],[-97.2632,37.9123],[-97.2625,37.7814],[-97.2717,37.7814],[-97.2716,37.7886],[-97.2808,37.7886],[-97.2808,37.7813],[-97.2878,37.7808],[-97.299,37.7682],[-97.2995,37.7531]]]},"properties":{"geoid":"20016","state":"20","district":"16","name":"State Senate District 16","chamber":"Senate"}},{"type":"Feature","geometry":{"type":"Polygon","coordinates":[[[-96.9637,38.9813],[-96.9635,38.9649],[-96.9505,38.971],[-96.9506,38.9768],[-96.9466,38.976],[-96.9473,38.9706],[-96.9397,38.9767],[-96.9328,38.9729],[-96.9344,38.9782],[-96.9262,38.9789],[-96.9267,38.8704],[-96.8902,38.8701],[-96.8901,38.8123],[-96.9272,38.8122],[-96.9274,38.696],[-96.9339,38.6553],[-96.9297,38.6517],[-96.93,38.5224],[-96.3538,38.5217],[-96.3573,38.1727],[-95.9589,38.1709],[-95.9585,38.2597],[-95.95,38.2597],[-95.9497,38.6954],[-95.9457,38.6954],[-95.9459,38.7391],[-96.3897,38.739],[-96.3904,38.8259],[-96.5014,38.8262],[-96.501,39.0727],[-96.7061,39.0731],[-96.7063,39.0916],[-96.7234,39.0909],[-96.7361,39.08],[-96.7435,39.082],[-96.7434,39.0877],[-96.8514,39.0882],[-96.8513,39.1007],[-96.8322,39.1196],[-96.831,39.1355],[-96.831,39.1392],[-96.8497,39.1393],[-96.8499,39.219],[-96.9617,39.2201],[-96.9637,38.9813]]]},"properties":{"geoid":"20017","state":"20","district":"17","name":"State Senate District 17","chamber":"Senate"}},{"type":"Feature","geometry":{"type":"Polygon","coordinates":[[[-96.7277,39.4269],[-96.715,39.4197],[-96.7156,39.4086],[-96.7264,39.4036],[-96.7197,39.3948],[-96.6954,39.3732],[-96.6844,39.3723],[-96.6915,39.3613],[-96.6874,39.3566],[-96.6704,39.3438],[-96.6612,39.3439],[-96.6713,39.3368],[-96.6694,39.3311],[-96.659,39.3249],[-96.6463,39.3259],[-96.6566,39.317],[-96.6337,39.299],[-96.633,39.2945],[-96.6395,39.2929],[-96.635,39.287],[-96.6101,39.2667],[-96.5959,39.2631],[-96.5911,39.2497],[-96.5769,39.2492],[-96.5793,39.2562],[-96.5725,39.2521],[-96.572,39.2451],[-96.5872,39.2435],[-96.5873,39.2388],[-96.5807,39.2342],[-96.5615,39.241],[-96.5472,39.209],[-96.5388,39.2148],[-96.5187,39.2056],[-96.5197,39.1983],[-96.531,39.1957],[-96.5606,39.1977],[-96.5579,39.182],[-96.5534,39.1788],[-96.5173,39.1877],[-96.5141,39.1833],[-96.5188,39.176],[-96.5168,39.1713],[-96.495,39.1679],[-96.4847,39.1794],[-96.4745,39.1643],[-96.4604,39.1684],[-96.4642,39.1766],[-96.4605,39.1893],[-96.4456,39.1906],[-96.4034,39.1817],[-96.3785,39.1643],[-96.3576,39.173],[-96.3591,39.1577],[-96.3466,39.1539],[-96.3374,39.1622],[-96.329,39.1599],[-96.3312,39.1661],[-96.3247,39.1861],[-96.3113,39.1959],[-96.2942,39.1955],[-96.2839,39.1848],[-96.2694,39.179],[-96.2545,39.1912],[-96.2442,39.208],[-96.2354,39.2121],[-96.2167,39.2003],[-96.2041,39.2],[-96.1948,39.2076],[-96.1816,39.2063],[-96.1767,39.1886],[-96.1528,39.1926],[-96.1228,39.1871],[-96.107,39.201],[-96.0963,39.1918],[-96.0836,39.1935],[-96.0569,39.1615],[-96.0607,39.1573],[-96.0839,39.1633],[-96.0909,39.1587],[-96.0906,39.154],[-96.0579,39.1415],[-96.0426,39.1408],[-96.0412,39.1275],[-96.0203,39.1202],[-96.0038,39.132],[-95.993,39.1334],[-95.9922,39.1257],[-96.006,39.1215],[-96.009,39.1158],[-95.995,39.1093],[-95.9726,39.1116],[-95.958,39.0997],[-95.9468,39.0987],[-95.9467,39.044],[-95.8816,39.0437],[-95.8815,39.015],[-95.8352,39.0216],[-95.8354,39.0534],[-95.8168,39.0497],[-95.8167,39.0432],[-95.7983,39.0431],[-95.7981,39.0506],[-95.7761,39.0541],[-95.771,39.0453],[-95.7801,39.0434],[-95.7712,39.0389],[-95.7686,39.0435],[-95.7483,39.0437],[-95.745,39.051],[-95.7247,39.0512],[-95.7245,39.0677],[-95.7315,39.0669],[-95.7316,39.0708],[-95.6952,39.0732],[-95.6607,39.0618],[-95.651,39.0669],[-95.6465,39.0852],[-95.6309,39.0878],[-95.6135,39.082],[-95.5948,39.0864],[-95.5982,39.0676],[-95.5823,39.054],[-95.5438,39.069],[-95.5122,39.0666],[-95.4938,39.054],[-95.4567,39.0683],[-95.4361,39.0698],[-95.4044,39.0618],[-95.3878,39.0488],[-95.3407,39.0317],[-95.3151,39.0347],[-95.2979,39.0423],[-95.2841,39.0323],[-95.2856,39.0454],[-95.2823,39.0471],[-95.1871,39.0441],[-95.188,39.1289],[-95.1801,39.1289],[-95.1801,39.2887],[-95.3665,39.2886],[-95.3667,39.3039],[-95.5891,39.3031],[-95.5895,39.2161],[-96.0356,39.2165],[-96.0366,39.5663],[-96.5804,39.5663],[-96.5912,39.5527],[-96.5893,39.5456],[-96.6149,39.5319],[-96.6207,39.5384],[-96.6426,39.5221],[-96.6447,39.5164],[-96.6401,39.5088],[-96.6567,39.5002],[-96.6677,39.4754],[-96.6765,39.4727],[-96.6813,39.4832],[-96.69,39.4679],[-96.6882,39.4611],[-96.7085,39.4605],[-96.7219,39.4445],[-96.7132,39.436],[-96.7277,39.4269]]]},"properties":{"geoid":"20018","state":"20","district":"18","name":"State Senate District 18","chamber":"Senate"}},{"type":"Feature","geometry":{"type":"Polygon","coordinates":[[[-95.7319,39.0679],[-95.7245,39.0677],[-95.7247,39.044],[-95.7154,39.044],[-95.711,39.0296],[-95.6969,39.0255],[-95.697,39.0196],[-95.7063,39.017],[-95.7107,39.0006],[-95.6877,39.0006],[-95.6877,38.9917],[-95.6625,38.999],[-95.6329,39.0227],[-95.6326,39.0297],[-95.6139,39.031],[-95.5858,39.0308],[-95.5861,39.0151],[-95.5619,39.0152],[-95.5572,39.0224],[-95.5464,39.023],[-95.5377,39.0149],[-95.5013,39.0149],[-95.5011,39.0007],[-95.3438,38.9967],[-95.3346,38.9787],[-95.3353,38.986],[-95.3164,38.9824],[-95.3163,38.9715],[-95.2812,38.9715],[-95.2792,38.9816],[-95.2701,38.9824],[-95.2711,38.9929],[-95.2391,38.9921],[-95.2432,39.0027],[-95.2837,39.0208],[-95.2851,39.0358],[-95.2918,39.0415],[-95.3282,39.0317],[-95.3491,39.0329],[-95.3899,39.0499],[-95.4025,39.061],[-95.4307,39.0693],[-95.4567,39.0683],[-95.4938,39.054],[-95.5122,39.0666],[-95.5438,39.069],[-95.5823,39.054],[-95.5968,39.0647],[-95.5948,39.0864],[-95.6002,39.0882],[-95.6135,39.082],[-95.6301,39.0878],[-95.6453,39.0861],[-95.651,39.0669],[-95.6607,39.0618],[-95.6952,39.0732],[-95.7319,39.0679]]]},"properties":{"geoid":"20019","state":"20","district":"19","name":"State Senate District 19","chamber":"Senate"}},{"type":"Feature","geometry":{"type":"Polygon","coordinates":[[[-96.5017,38.8768],[-96.5014,38.8262],[-96.3904,38.8259],[-96.3897,38.739],[-95.9459,38.7391],[-95.9466,38.87],[-95.6828,38.87],[-95.6844,38.8989],[-95.6505,38.899],[-95.6511,38.9318],[-95.6417,38.9318],[-95.6421,38.9407],[-95.6516,38.9463],[-95.6517,38.9568],[-95.6701,38.9569],[-95.6705,38.9948],[-95.6877,38.9917],[-95.6877,39.0006],[-95.7107,39.0006],[-95.7063,39.017],[-95.697,39.0196],[-95.6969,39.0255],[-95.711,39.0296],[-95.7108,39.0384],[-95.7155,39.0383],[-95.7154,39.044],[-95.7247,39.044],[-95.7247,39.0512],[-95.745,39.051],[-95.7483,39.0437],[-95.7686,39.0435],[-95.7761,39.039],[-95.7745,39.0435],[-95.7802,39.0449],[-95.7703,39.0472],[-95.7761,39.0541],[-95.7981,39.0506],[-95.7983,39.0431],[-95.8167,39.0432],[-95.8168,39.0497],[-95.8354,39.0534],[-95.8352,39.0216],[-95.8815,39.015],[-95.8816,39.0437],[-95.9467,39.044],[-95.9468,39.0987],[-95.958,39.0997],[-95.9726,39.1116],[-95.995,39.1093],[-96.009,39.1158],[-96.006,39.1215],[-95.9922,39.1257],[-95.993,39.1334],[-96.0038,39.132],[-96.0203,39.1202],[-96.0412,39.1275],[-96.0426,39.1408],[-96.0579,39.1415],[-96.0906,39.154],[-96.0909,39.1587],[-96.0839,39.1633],[-96.0624,39.1574],[-96.0568,39.1603],[-96.0836,39.1935],[-96.0963,39.1918],[-96.1085,39.2011],[-96.1228,39.1871],[-96.1528,39.1926],[-96.1767,39.1886],[-96.1816,39.2063],[-96.1948,39.2076],[-96.2041,39.2],[-96.2167,39.2003],[-96.2341,39.2123],[-96.2442,39.208],[-96.2545,39.1912],[-96.2694,39.179],[-96.2839,39.1848],[-96.2942,39.1955],[-96.3113,39.1959],[-96.3247,39.1861],[-96.3312,39.1661],[-96.329,39.1599],[-96.3374,39.1622],[-96.3466,39.1539],[-96.3591,39.1577],[-96.3576,39.173],[-96.3778,39.1641],[-96.389,39.1729],[-96.3908,39.0433],[-96.5012,39.0437],[-96.5017,38.8768]]]},"properties":{"geoid":"20020","state":"20","district":"20","name":"State Senate District 20","chamber":"Senate"}},{"type":"Feature","geometry":{"type":"Polygon","coordinates":[[[-94.8531,38.9564],[-94.8526,38.9417],[-94.7888,38.9415],[-94.7841,38.9348],[-94.7934,38.9345],[-94.7889,38.9164],[-94.7703,38.9155],[-94.7544,38.9274],[-94.7375,38.9274],[-94.7422,38.9384],[-94.7235,38.9421],[-94.7236,38.9638],[-94.677,38.9639],[-94.677,38.9858],[-94.6817,38.9858],[-94.6817,38.9931],[-94.677,38.9931],[-94.6771,39.0004],[-94.6677,39.0004],[-94.6677,39.0077],[-94.6771,39.0078],[-94.6771,39.0223],[-94.7053,39.0223],[-94.7051,38.993],[-94.733,38.9928],[-94.733,38.9892],[-94.7387,38.9928],[-94.7704,38.9928],[-94.7704,38.9856],[-94.7973,38.9855],[-94.7973,38.971],[-94.8137,38.9709],[-94.8207,38.9757],[-94.8148,38.9638],[-94.8161,38.9505],[-94.8258,38.9486],[-94.8531,38.9564]]]},"properties":{"geoid":"20021","state":"20","district":"21","name":"State Senate District 21","chamber":"Senate"}},{"type":"Feature","geometry":{"type":"Polygon","coordinates":[[[-96.9616,39.2208],[-96.8499,39.219],[-96.8497,39.1393],[-96.831,39.1392],[-96.831,39.1355],[-96.8322,39.1196],[-96.8513,39.1007],[-96.8514,39.0882],[-96.7434,39.0877],[-96.7435,39.082],[-96.7361,39.08],[-96.7234,39.0909],[-96.7063,39.0916],[-96.7061,39.0731],[-96.501,39.0727],[-96.5012,39.0437],[-96.3908,39.0433],[-96.3893,39.1733],[-96.4123,39.185],[-96.452,39.1912],[-96.4615,39.188],[-96.4642,39.1763],[-96.4605,39.1683],[-96.4745,39.1643],[-96.4847,39.1794],[-96.495,39.1679],[-96.5168,39.1713],[-96.5188,39.176],[-96.5141,39.1833],[-96.5173,39.1877],[-96.5562,39.1799],[-96.5606,39.1977],[-96.531,39.1957],[-96.5197,39.1983],[-96.5187,39.2056],[-96.5388,39.2148],[-96.5472,39.209],[-96.5618,39.2411],[-96.5807,39.2342],[-96.5872,39.2386],[-96.5872,39.2435],[-96.572,39.2451],[-96.5717,39.2513],[-96.5791,39.2562],[-96.5769,39.2492],[-96.5911,39.2497],[-96.5959,39.2631],[-96.6101,39.2667],[-96.635,39.287],[-96.6395,39.2929],[-96.633,39.2945],[-96.6337,39.299],[-96.6566,39.317],[-96.6463,39.3259],[-96.6579,39.3246],[-96.6683,39.3298],[-96.672,39.3355],[-96.6612,39.3439],[-96.6704,39.3438],[-96.6907,39.3596],[-96.6844,39.3723],[-96.6957,39.3734],[-96.7263,39.4034],[-96.7146,39.4104],[-96.7151,39.4203],[-96.7277,39.4269],[-96.7132,39.436],[-96.7219,39.4443],[-96.7109,39.4579],[-96.7065,39.4616],[-96.6975,39.4578],[-96.6882,39.4611],[-96.69,39.4679],[-96.6814,39.4832],[-96.6765,39.4727],[-96.6677,39.4754],[-96.6567,39.5002],[-96.6401,39.5088],[-96.6447,39.5164],[-96.6426,39.5221],[-96.6207,39.5384],[-96.6149,39.5319],[-96.5893,39.5456],[-96.5912,39.5527],[-96.5805,39.5662],[-96.9587,39.5664],[-96.9616,39.2208]]]},"properties":{"geoid":"20022","state":"20","district":"22","name":"State Senate District 22","chamber":"Senate"}},{"type":"Feature","geometry":{"type":"Polygon","coordinates":[[[-94.8719,38.7678],[-94.8716,38.7383],[-94.8635,38.738],[-94.8704,38.7237],[-94.8438,38.7238],[-94.8437,38.7094],[-94.8343,38.7097],[-94.8362,38.6948],[-94.8161,38.6948],[-94.8166,38.7093],[-94.7976,38.7113],[-94.7972,38.7383],[-94.7603,38.7382],[-94.761,38.8111],[-94.7796,38.8111],[-94.7807,38.831],[-94.7704,38.8329],[-94.7703,38.851],[-94.7612,38.8526],[-94.7609,38.92],[-94.7851,38.8983],[-94.8253,38.8982],[-94.8219,38.8714],[-94.8344,38.8629],[-94.8343,38.84],[-94.8548,38.84],[-94.8615,38.8298],[-94.8713,38.8268],[-94.8719,38.7678]]]},"properties":{"geoid":"20023","state":"20","district":"23","name":"State Senate District 23","chamber":"Senate"}},{"type":"Feature","geometry":{"type":"Polygon","coordinates":[[[-97.9287,38.8985],[-97.9248,38.6099],[-96.9303,38.6094],[-96.9297,38.6517],[-96.9339,38.6553],[-96.9274,38.696],[-96.9272,38.8122],[-96.8901,38.8123],[-96.8902,38.8701],[-96.9267,38.8704],[-96.9262,38.9789],[-96.9344,38.9782],[-96.9328,38.9729],[-96.9397,38.9767],[-96.9473,38.9706],[-96.9466,38.976],[-96.9506,38.9768],[-96.9505,38.971],[-96.9635,38.9649],[-96.9632,39.1323],[-97.3712,39.132],[-97.3716,38.9579],[-97.9286,38.9584],[-97.9287,38.8985]]]},"properties":{"geoid":"20024","state":"20","district":"24","name":"State Senate District 24","chamber":"Senate"}},{"type":"Feature","geometry":{"type":"Polygon","coordinates":[[[-97.405,37.7093],[-97.3897,37.7088],[-97.3894,37.6839],[-97.3712,37.6839],[-97.371,37.6587],[-97.3613,37.6587],[-97.3613,37.6514],[-97.305,37.65],[-97.3046,37.6573],[-97.2988,37.6573],[-97.2954,37.6257],[-97.2851,37.6278],[-97.2805,37.6349],[-97.2731,37.6352],[-97.2724,37.6313],[-97.2713,37.6426],[-97.28,37.6431],[-97.2713,37.6501],[-97.262,37.6501],[-97.2621,37.6429],[-97.2445,37.6428],[-97.2489,37.6647],[-97.2621,37.6646],[-97.2621,37.661],[-97.2988,37.6646],[-97.299,37.6863],[-97.3439,37.6854],[-97.3531,37.6911],[-97.3541,37.6968],[-97.3382,37.6975],[-97.3356,37.7171],[-97.3457,37.7171],[-97.352,37.7229],[-97.3631,37.7227],[-97.3631,37.7168],[-97.3868,37.7253],[-97.405,37.7093]]]},"properties":{"geoid":"20025","state":"20","district":"25","name":"State Senate District 25","chamber":"Senate"}},{"type":"Feature","geometry":{"type":"Polygon","coordinates":[[[-97.8083,37.6466],[-97.8076,37.4742],[-97.369,37.4773],[-97.3703,37.5498],[-97.3259,37.5498],[-97.3259,37.5788],[-97.334,37.579],[-97.334,37.5861],[-97.3457,37.5861],[-97.3474,37.5791],[-97.3582,37.579],[-97.3582,37.5861],[-97.3637,37.5898],[-97.3614,37.597],[-97.3704,37.597],[-97.366,37.6077],[-97.3952,37.6078],[-97.3999,37.6173],[-97.4035,37.6439],[-97.3891,37.6516],[-97.3709,37.6514],[-97.3712,37.6839],[-97.4807,37.679],[-97.4807,37.6935],[-97.4896,37.6933],[-97.4897,37.7006],[-97.4988,37.7005],[-97.4988,37.7077],[-97.485,37.7083],[-97.4899,37.7136],[-97.49,37.7296],[-97.4812,37.7297],[-97.4857,37.7367],[-97.4807,37.7368],[-97.4819,37.8251],[-97.6997,37.8252],[-97.6987,37.7351],[-97.8078,37.7339],[-97.8083,37.6466]]]},"properties":{"geoid":"20026","state":"20","district":"26","name":"State Senate District 26","chamber":"Senate"}},{"type":"Feature","geometry":{"type":"Polygon","coordinates":[[[-97.4988,37.7077],[-97.4988,37.7005],[-97.4897,37.7006],[-97.4896,37.6933],[-97.4807,37.6935],[-97.4807,37.679],[-97.3894,37.6839],[-97.3897,37.7088],[-97.4054,37.7089],[-97.3995,37.7141],[-97.4079,37.7227],[-97.4082,37.7495],[-97.4171,37.7523],[-97.4172,37.7595],[-97.4447,37.7592],[-97.4451,37.796],[-97.4268,37.796],[-97.4269,37.825],[-97.4819,37.8251],[-97.4807,37.7368],[-97.4857,37.7367],[-97.4812,37.7297],[-97.49,37.7296],[-97.4899,37.7136],[-97.485,37.7083],[-97.4988,37.7077]]]},"properties":{"geoid":"20027","state":"20","district":"27","name":"State Senate District 27","chamber":"Senate"}},{"type":"Feature","geometry":{"type":"Polygon","coordinates":[[[-97.4037,37.6361],[-97.3952,37.6078],[-97.366,37.6077],[-97.3704,37.597],[-97.3614,37.597],[-97.3637,37.5898],[-97.3582,37.5861],[-97.3582,37.579],[-97.3474,37.5791],[-97.3457,37.5861],[-97.334,37.5861],[-97.334,37.579],[-97.3259,37.5788],[-97.3259,37.5644],[-97.304,37.5644],[-97.2874,37.5579],[-97.288,37.5645],[-97.2842,37.5502],[-97.2744,37.5399],[-97.2777,37.5257],[-97.262,37.526],[-97.2621,37.5479],[-97.2442,37.5481],[-97.2445,37.6428],[-97.2621,37.6429],[-97.262,37.6501],[-97.2713,37.6501],[-97.28,37.6431],[-97.2713,37.6426],[-97.2724,37.6313],[-97.2731,37.6352],[-97.2805,37.6349],[-97.2851,37.6278],[-97.2954,37.6257],[-97.2988,37.6573],[-97.3046,37.6573],[-97.305,37.65],[-97.3411,37.6497],[-97.3613,37.6514],[-97.3613,37.6587],[-97.371,37.6587],[-97.3709,37.6514],[-97.3891,37.6516],[-97.4035,37.6439],[-97.4037,37.6361]]]},"properties":{"geoid":"20028","state":"20","district":"28","name":"State Senate District 28","chamber":"Senate"}},{"type":"Feature","geometry":{"type":"Polygon","coordinates":[[[-97.3602,37.7311],[-97.3571,37.7215],[-97.3356,37.7171],[-97.3382,37.6975],[-97.3551,37.6961],[-97.3439,37.6854],[-97.299,37.6863],[-97.2988,37.6646],[-97.2804,37.6647],[-97.2804,37.661],[-97.2621,37.661],[-97.2621,37.6701],[-97.2536,37.6701],[-97.2536,37.6795],[-97.2713,37.6792],[-97.2695,37.7084],[-97.2623,37.7084],[-97.2625,37.7454],[-97.3181,37.7435],[-97.3227,37.7597],[-97.3297,37.7592],[-97.3449,37.7565],[-97.3448,37.7375],[-97.357,37.7375],[-97.3534,37.7343],[-97.3602,37.7311]]]},"properties":{"geoid":"20029","state":"20","district":"29","name":"State Senate District 29","chamber":"Senate"}},{"type":"Feature","geometry":{"type":"Polygon","coordinates":[[[-97.3703,37.5498],[-97.369,37.4773],[-97.2778,37.4758],[-97.2775,37.4721],[-97.2638,37.4721],[-97.263,37.4672],[-97.2601,37.4691],[-97.2613,37.4587],[-97.2416,37.4502],[-97.2408,37.4635],[-97.2054,37.4636],[-97.2081,37.4757],[-97.1533,37.4755],[-97.153,37.6795],[-97.1854,37.6794],[-97.1876,37.694],[-97.2006,37.7086],[-97.2695,37.7084],[-97.2713,37.6792],[-97.2536,37.6795],[-97.2536,37.6701],[-97.2621,37.6701],[-97.2621,37.6646],[-97.2489,37.6647],[-97.249,37.6574],[-97.2445,37.6574],[-97.2442,37.5481],[-97.2621,37.5479],[-97.262,37.526],[-97.2777,37.5257],[-97.2744,37.5399],[-97.2842,37.5502],[-97.288,37.5645],[-97.2874,37.5579],[-97.304,37.5644],[-97.3259,37.5644],[-97.3259,37.5498],[-97.3703,37.5498]]]},"properties":{"geoid":"20030","state":"20","district":"30","name":"State Senate District 30","chamber":"Senate"}},{"type":"Feature","geometry":{"type":"Polygon","coordinates":[[[-97.7022,37.9003],[-97.7021,37.8252],[-97.4269,37.825],[-97.4268,37.796],[-97.4451,37.796],[-97.4447,37.7592],[-97.4172,37.7595],[-97.4171,37.7523],[-97.4082,37.7495],[-97.4079,37.7227],[-97.3995,37.7141],[-97.3868,37.7253],[-97.3631,37.7168],[-97.3631,37.7227],[-97.3584,37.7226],[-97.3598,37.7323],[-97.3534,37.7343],[-97.357,37.7375],[-97.3448,37.7375],[-97.3449,37.7565],[-97.3227,37.7597],[-97.3191,37.7438],[-97.2991,37.7435],[-97.299,37.7682],[-97.2878,37.7808],[-97.2808,37.7813],[-97.2808,37.7886],[-97.2716,37.7886],[-97.2717,37.7814],[-97.2625,37.7814],[-97.2632,37.9123],[-97.1525,37.9127],[-97.1531,38.1746],[-97.7018,38.1738],[-97.7022,37.9003]]]},"properties":{"geoid":"20031","state":"20","district":"31","name":"State Senate District 31","chamber":"Senate"}},{"type":"Feature","geometry":{"type":"Polygon","coordinates":[[[-98.3498,37.3841],[-98.3471,36.9981],[-96.5255,36.9987],[-96.5259,37.6506],[-96.9351,37.6502],[-96.9348,37.723],[-97.0438,37.7233],[-97.0439,37.4758],[-97.2081,37.4757],[-97.2054,37.4636],[-97.2408,37.4635],[-97.2416,37.4502],[-97.2613,37.4587],[-97.2601,37.4691],[-97.263,37.4672],[-97.2638,37.4721],[-97.2775,37.4721],[-97.2778,37.4758],[-97.8076,37.4742],[-97.8071,37.3863],[-98.3498,37.3841]]]},"properties":{"geoid":"20032","state":"20","district":"32","name":"State Senate District 32","chamber":"Senate"}},{"type":"Feature","geometry":{"type":"Polygon","coordinates":[[[-100.2487,38.6239],[-100.2444,38.2623],[-99.5705,38.2621],[-99.5706,37.8256],[-99.5603,37.8256],[-99.5558,37.3811],[-99.5432,37.3811],[-99.5411,36.9996],[-99.0003,36.9995],[-99.0013,37.3843],[-99.0115,37.3843],[-99.0126,37.4704],[-98.4647,37.471],[-98.4649,37.8245],[-98.4723,37.8246],[-98.4728,38.1728],[-98.216,38.1735],[-98.2159,38.1587],[-98.1422,38.1595],[-98.1423,38.1739],[-97.9221,38.1737],[-97.9286,38.8711],[-98.4849,38.8708],[-98.4861,38.6969],[-100.247,38.6982],[-100.2487,38.6239]]]},"properties":{"geoid":"20033","state":"20","district":"33","name":"State Senate District 33","chamber":"Senate"}},{"type":"Feature","geometry":{"type":"Polygon","coordinates":[[[-99.0126,37.4704],[-99.0115,37.3843],[-99.0013,37.3843],[-99.0003,36.9995],[-98.3471,36.9982],[-98.3498,37.3841],[-97.8071,37.3863],[-97.8078,37.7339],[-97.6987,37.7351],[-97.7018,38.1738],[-98.1423,38.1739],[-98.1422,38.1595],[-98.2159,38.1587],[-98.216,38.1735],[-98.4728,38.1728],[-98.4723,37.8246],[-98.4649,37.8245],[-98.4647,37.471],[-99.0126,37.4704]]]},"properties":{"geoid":"20034","state":"20","district":"34","name":"State Senate District 34","chamber":"Senate"}},{"type":"Feature","geometry":{"type":"Polygon","coordinates":[[[-94.7807,38.831],[-94.7796,38.8111],[-94.761,38.8111],[-94.7603,38.7382],[-94.6676,38.7381],[-94.6678,38.7818],[-94.6775,38.7818],[-94.6774,38.7599],[-94.6862,38.76],[-94.6864,38.7893],[-94.7049,38.7892],[-94.705,38.8037],[-94.6934,38.8001],[-94.6934,38.8036],[-94.6864,38.8036],[-94.6864,38.8255],[-94.7052,38.8255],[-94.7052,38.8401],[-94.6863,38.84],[-94.6865,38.8692],[-94.7005,38.8692],[-94.7005,38.8747],[-94.7005,38.8837],[-94.6865,38.8837],[-94.6864,38.9053],[-94.6988,38.9129],[-94.7237,38.9129],[-94.7237,38.8983],[-94.7424,38.8982],[-94.7421,38.9274],[-94.7544,38.9274],[-94.7616,38.9168],[-94.7612,38.8526],[-94.7703,38.851],[-94.7704,38.8329],[-94.7807,38.831]]]},"properties":{"geoid":"20035","state":"20","district":"35","name":"State Senate District 35","chamber":"Senate"}},{"type":"Feature","geometry":{"type":"Polygon","coordinates":[[[-99.6055,39.2368],[-99.6052,39.1325],[-99.0375,39.1331],[-99.0426,38.6968],[-98.4861,38.6969],[-98.4849,38.8708],[-97.9286,38.8711],[-97.9286,38.9584],[-97.3716,38.9579],[-97.3712,39.132],[-96.9614,39.1323],[-96.9587,39.5664],[-96.8065,39.5664],[-96.8065,39.7403],[-96.5817,39.7399],[-96.5818,40.001],[-99.4034,40.002],[-99.4027,39.5673],[-99.6022,39.5673],[-99.6055,39.2368]]]},"properties":{"geoid":"20036","state":"20","district":"36","name":"State Senate District 36","chamber":"Senate"}},{"type":"Feature","geometry":{"type":"Polygon","coordinates":[[[-95.0658,38.6946],[-95.0652,38.6081],[-94.7085,38.6066],[-94.7133,38.5781],[-94.7041,38.5778],[-94.7047,38.5198],[-94.6123,38.5188],[-94.6091,38.7381],[-94.7972,38.7383],[-94.7976,38.7113],[-94.8166,38.7093],[-94.8159,38.695],[-94.8283,38.6939],[-94.8362,38.6948],[-94.8343,38.7097],[-94.8437,38.7094],[-94.8438,38.7238],[-94.8704,38.7237],[-94.8635,38.738],[-94.8716,38.7383],[-94.8713,38.8268],[-94.8615,38.8298],[-94.8548,38.84],[-94.8343,38.84],[-94.8344,38.8629],[-94.8222,38.8702],[-94.8253,38.898],[-94.8161,38.8982],[-94.816,38.9127],[-94.8808,38.9163],[-94.8809,38.9054],[-94.8994,38.9054],[-94.9056,38.92],[-94.9089,38.8691],[-95.0561,38.8696],[-95.0567,38.6949],[-95.0658,38.6946]]]},"properties":{"geoid":"20037","state":"20","district":"37","name":"State Senate District 37","chamber":"Senate"}},{"type":"Feature","geometry":{"type":"Polygon","coordinates":[[[-101.0905,37.6345],[-101.0897,37.3877],[-101.0681,37.3878],[-101.0665,36.9979],[-100.1079,37.0023],[-99.5411,36.9996],[-99.5432,37.3811],[-99.5558,37.3811],[-99.5603,37.8256],[-99.5706,37.8256],[-99.5707,38.2622],[-100.2271,38.2622],[-100.2266,38.001],[-100.6642,38.0025],[-100.6652,37.8288],[-100.6517,37.8287],[-100.6523,37.7363],[-101.0897,37.7363],[-101.0905,37.6345]]]},"properties":{"geoid":"20038","state":"20","district":"38","name":"State Senate District 38","chamber":"Senate"}},{"type":"Feature","geometry":{"type":"Polygon","coordinates":[[[-102.0453,38.5887],[-102.0421,36.993],[-101.0665,36.9979],[-101.0681,37.3878],[-101.0897,37.3877],[-101.0897,37.7363],[-100.6523,37.7363],[-100.6517,37.8287],[-100.6652,37.8288],[-100.6642,38.0025],[-100.2266,38.001],[-100.2271,38.2622],[-100.2444,38.2623],[-100.2472,38.6982],[-101.2196,38.7016],[-102.0449,38.6976],[-102.0453,38.5887]]]},"properties":{"geoid":"20039","state":"20","district":"39","name":"State Senate District 39","chamber":"Senate"}},{"type":"Feature","geometry":{"type":"Polygon","coordinates":[[[-102.0518,40],[-102.0452,38.6976],[-101.2196,38.7016],[-99.0426,38.6968],[-99.0375,39.1331],[-99.6052,39.1325],[-99.6022,39.5673],[-99.4027,39.5673],[-99.4035,40.0021],[-102.0517,40.0031],[-102.0518,40]]]},"properties":{"geoid":"20040","state":"20","district":"40","name":"State Senate District 40","chamber":"Senate"}}]}