{"type":"FeatureCollection","features":[{"type":"Feature","geometry":{"type":"Polygon","coordinates":[[[-73.5082,42.0861],[-73.497,42.0496],[-72.8138,42.0367],[-72.8171,41.9977],[-72.7667,42.0033],[-72.759,42.0155],[-72.7653,42.0224],[-72.7573,42.021],[-72.7521,42.029],[-72.7559,42.0363],[-72.7146,42.0366],[-72.706,42.0808],[-72.8372,42.1022],[-72.8393,42.1117],[-72.8957,42.1239],[-72.8722,42.2164],[-72.8576,42.2405],[-72.8134,42.245],[-72.8144,42.2568],[-72.7358,42.2665],[-72.7412,42.3627],[-72.6721,42.3714],[-72.6691,42.4097],[-72.5811,42.4226],[-72.5894,42.4486],[-72.5855,42.4668],[-72.6092,42.464],[-72.6111,42.4712],[-72.6315,42.4683],[-72.6324,42.4729],[-72.6628,42.4693],[-72.6487,42.5294],[-72.6637,42.5488],[-72.6754,42.553],[-72.6553,42.5552],[-72.652,42.5686],[-72.6389,42.57],[-72.6368,42.578],[-72.6499,42.5769],[-72.6484,42.5832],[-72.633,42.6454],[-72.6196,42.6486],[-72.6368,42.6698],[-72.652,42.6766],[-72.6552,42.6897],[-72.6745,42.7083],[-72.6698,42.7156],[-72.6747,42.7329],[-73.2648,42.7459],[-73.5082,42.0861]]]},"properties":{"geoid":"25D01","state":"25","district":"Berkshire-Hampden-Franklin-Hampshire","name":"Berkshire-Hampden-Franklin-Hampshire District","chamber":"Senate"}},{"type":"Feature","geometry":{"type":"Polygon","coordinates":[[[-72.8957,42.1239],[-72.8393,42.1117],[-72.8372,42.1022],[-72.706,42.0808],[-72.7146,42.0369],[-72.608,42.0311],[-72.6057,42.0492],[-72.5826,42.0811],[-72.5926,42.0974],[-72.6209,42.1164],[-72.615,42.1376],[-72.627,42.1513],[-72.6283,42.1736],[-72.6212,42.186],[-72.6099,42.1898],[-72.6109,42.1829],[-72.6054,42.1813],[-72.6051,42.1862],[-72.595,42.1929],[-72.5765,42.192],[-72.5789,42.2016],[-72.5724,42.2007],[-72.5722,42.2138],[-72.6024,42.2133],[-72.6235,42.2313],[-72.618,42.2484],[-72.599,42.2684],[-72.6012,42.2813],[-72.6147,42.2902],[-72.6407,42.2841],[-72.6488,42.2918],[-72.6605,42.2887],[-72.6721,42.2919],[-72.7367,42.2842],[-72.7358,42.2665],[-72.8144,42.2568],[-72.8134,42.245],[-72.8576,42.2405],[-72.8722,42.2164],[-72.8957,42.1239]]]},"properties":{"geoid":"25D02","state":"25","district":"Hampden and Hampshire","name":"Hampden and Hampshire District","chamber":"Senate"}},{"type":"Feature","geometry":{"type":"Polygon","coordinates":[[[-72.6286,42.1694],[-72.627,42.1513],[-72.615,42.1376],[-72.6207,42.1159],[-72.5926,42.0974],[-72.5827,42.0816],[-72.5578,42.0863],[-72.5589,42.077],[-72.5502,42.0738],[-72.5444,42.0837],[-72.5419,42.0804],[-72.5283,42.0826],[-72.529,42.0911],[-72.5455,42.0922],[-72.5373,42.1031],[-72.5464,42.1057],[-72.5102,42.1049],[-72.5033,42.1134],[-72.5086,42.1175],[-72.4986,42.1153],[-72.4992,42.1104],[-72.4738,42.1032],[-72.4846,42.1565],[-72.4893,42.1621],[-72.5215,42.1612],[-72.5388,42.1547],[-72.5419,42.1592],[-72.5525,42.1567],[-72.5623,42.1612],[-72.5884,42.1596],[-72.5959,42.1658],[-72.5932,42.1682],[-72.6033,42.1716],[-72.5874,42.1742],[-72.5892,42.178],[-72.6032,42.182],[-72.6026,42.1876],[-72.6054,42.1813],[-72.6109,42.1829],[-72.6099,42.1898],[-72.6237,42.1846],[-72.6286,42.1694]]]},"properties":{"geoid":"25D03","state":"25","district":"Hampden","name":"Hampden District","chamber":"Senate"}},{"type":"Feature","geometry":{"type":"Polygon","coordinates":[[[-72.6241,42.2351],[-72.6038,42.2139],[-72.5722,42.2138],[-72.5724,42.2007],[-72.5789,42.2016],[-72.5765,42.192],[-72.595,42.1929],[-72.6044,42.1843],[-72.5909,42.1803],[-72.5871,42.1745],[-72.6029,42.1697],[-72.5938,42.1686],[-72.5959,42.1658],[-72.5884,42.1596],[-72.5623,42.1612],[-72.5525,42.1567],[-72.5419,42.1592],[-72.5388,42.1547],[-72.5215,42.1612],[-72.4891,42.162],[-72.4738,42.1032],[-72.4992,42.1104],[-72.4986,42.1153],[-72.5045,42.1175],[-72.5086,42.1175],[-72.5033,42.1134],[-72.5102,42.1049],[-72.5464,42.1057],[-72.5373,42.1031],[-72.5455,42.0922],[-72.529,42.0911],[-72.5283,42.0826],[-72.5419,42.0804],[-72.5444,42.0837],[-72.5502,42.0738],[-72.5589,42.077],[-72.5578,42.0863],[-72.5827,42.0816],[-72.6064,42.0478],[-72.6072,42.0251],[-72.5822,42.0247],[-72.5728,42.0302],[-72.5315,42.0346],[-72.367,42.0327],[-72.389,42.1524],[-72.3463,42.1617],[-72.3123,42.1434],[-72.2716,42.1431],[-72.2653,42.1546],[-72.2682,42.1635],[-72.2616,42.1715],[-72.2639,42.1838],[-72.2006,42.1613],[-72.1993,42.1537],[-72.1419,42.161],[-72.1539,42.2072],[-72.1713,42.2343],[-72.1777,42.2373],[-72.1825,42.2514],[-72.2111,42.2513],[-72.2105,42.2472],[-72.247,42.2421],[-72.2576,42.2299],[-72.2682,42.2293],[-72.2705,42.2371],[-72.336,42.2202],[-72.3329,42.2371],[-72.3385,42.2587],[-72.3316,42.2713],[-72.3383,42.2742],[-72.3394,42.2809],[-72.3507,42.2847],[-72.3486,42.2946],[-72.3606,42.3077],[-72.3512,42.3249],[-72.351,42.3352],[-72.3554,42.3407],[-72.4055,42.3364],[-72.4094,42.3588],[-72.4723,42.3515],[-72.4642,42.3081],[-72.4936,42.3023],[-72.4991,42.3063],[-72.528,42.3015],[-72.5447,42.3057],[-72.588,42.3004],[-72.6099,42.2852],[-72.6012,42.2813],[-72.5991,42.2677],[-72.6136,42.2542],[-72.6241,42.2351]]]},"properties":{"geoid":"25D04","state":"25","district":"Hampden-Hampshire-Worcester","name":"Hampden-Hampshire-Worcester District","chamber":"Senate"}},{"type":"Feature","geometry":{"type":"Polygon","coordinates":[[[-72.7412,42.3627],[-72.7367,42.2842],[-72.6721,42.2919],[-72.6605,42.2887],[-72.6488,42.2918],[-72.6407,42.2841],[-72.6147,42.2902],[-72.6099,42.2852],[-72.588,42.3004],[-72.5693,42.3045],[-72.528,42.3015],[-72.4991,42.3063],[-72.4936,42.3023],[-72.4642,42.3081],[-72.4723,42.3515],[-72.4094,42.3588],[-72.4055,42.3364],[-72.354,42.3401],[-72.3512,42.3249],[-72.3606,42.3077],[-72.3507,42.304],[-72.3512,42.3103],[-72.3281,42.3187],[-72.3282,42.3261],[-72.3148,42.3435],[-72.2862,42.3529],[-72.285,42.3731],[-72.281,42.3725],[-72.2819,42.3782],[-72.2726,42.3897],[-72.2641,42.3866],[-72.2582,42.3935],[-72.2423,42.3881],[-72.2296,42.4002],[-72.219,42.3955],[-72.2052,42.4177],[-72.1009,42.4837],[-72.1856,42.5504],[-72.1756,42.5899],[-72.1676,42.5849],[-72.1571,42.5994],[-72.1707,42.597],[-72.1544,42.6238],[-72.0757,42.6252],[-72.0461,42.6018],[-71.9861,42.63],[-71.9521,42.6107],[-71.9458,42.5949],[-71.8831,42.6153],[-71.882,42.6199],[-71.8587,42.629],[-71.8578,42.675],[-71.8971,42.7037],[-71.8988,42.7113],[-72.6747,42.7329],[-72.6698,42.7156],[-72.6745,42.7083],[-72.6552,42.6897],[-72.652,42.6766],[-72.6368,42.6698],[-72.6196,42.6486],[-72.633,42.6454],[-72.6484,42.5832],[-72.6499,42.5769],[-72.6368,42.578],[-72.6389,42.57],[-72.652,42.5686],[-72.6553,42.5552],[-72.6754,42.553],[-72.6637,42.5488],[-72.6487,42.5294],[-72.6628,42.4693],[-72.6324,42.4729],[-72.6315,42.4683],[-72.6111,42.4712],[-72.6092,42.464],[-72.5855,42.4668],[-72.5894,42.4486],[-72.5811,42.4226],[-72.6691,42.4097],[-72.6721,42.3714],[-72.7412,42.3627]]]},"properties":{"geoid":"25D05","state":"25","district":"Hampshire-Franklin-Worcester","name":"Hampshire-Franklin-Worcester District","chamber":"Senate"}},{"type":"Feature","geometry":{"type":"Polygon","coordinates":[[[-72.356,42.3033],[-72.3486,42.2946],[-72.3507,42.2847],[-72.3394,42.2809],[-72.3383,42.2742],[-72.3316,42.2713],[-72.3385,42.2587],[-72.3329,42.2371],[-72.336,42.2202],[-72.2705,42.2371],[-72.2682,42.2293],[-72.2576,42.2299],[-72.247,42.2421],[-72.2105,42.2472],[-72.2111,42.2513],[-72.1825,42.2514],[-72.1777,42.2373],[-72.1713,42.2343],[-72.1539,42.2072],[-72.1419,42.161],[-72.1115,42.1645],[-72.1087,42.1516],[-72.0868,42.1544],[-72.0894,42.1671],[-72.0186,42.1757],[-72.0199,42.1838],[-71.8951,42.1924],[-71.866,42.226],[-71.8339,42.2319],[-71.8328,42.2438],[-71.8397,42.2435],[-71.8394,42.2492],[-71.8485,42.2578],[-71.8482,42.2622],[-71.8376,42.264],[-71.855,42.2768],[-71.8546,42.2862],[-71.8602,42.2906],[-71.8591,42.2965],[-71.802,42.3313],[-71.8242,42.4049],[-71.7866,42.399],[-71.7633,42.4004],[-71.7419,42.3928],[-71.7419,42.3868],[-71.726,42.3903],[-71.7184,42.4102],[-71.7187,42.4734],[-71.83,42.4922],[-71.8223,42.5043],[-71.8423,42.5126],[-71.8378,42.5438],[-71.863,42.5447],[-71.8625,42.5525],[-71.8556,42.5521],[-71.8551,42.5583],[-71.8623,42.558],[-71.8587,42.629],[-71.882,42.6199],[-71.8831,42.6153],[-71.9458,42.5949],[-71.9521,42.6107],[-71.9861,42.63],[-72.0461,42.6018],[-72.0757,42.6252],[-72.1544,42.6238],[-72.1707,42.597],[-72.1571,42.5994],[-72.1676,42.5849],[-72.1756,42.5899],[-72.1856,42.5504],[-72.1009,42.4837],[-72.2052,42.4177],[-72.219,42.3955],[-72.2296,42.4002],[-72.2423,42.3881],[-72.2582,42.3935],[-72.2641,42.3866],[-72.2726,42.3897],[-72.2819,42.3782],[-72.281,42.3725],[-72.285,42.3731],[-72.2862,42.3529],[-72.3148,42.3435],[-72.3282,42.3261],[-72.3281,42.3187],[-72.3512,42.3103],[-72.3499,42.3045],[-72.356,42.3033]]]},"properties":{"geoid":"25D06","state":"25","district":"Worcester and Hampshire","name":"Worcester and Hampshire District","chamber":"Senate"}},{"type":"Feature","geometry":{"type":"Polygon","coordinates":[[[-72.389,42.1524],[-72.367,42.0327],[-71.8007,42.0235],[-71.7992,42.0081],[-71.4983,42.0173],[-71.4953,42.1],[-71.5029,42.1094],[-71.5016,42.1174],[-71.5098,42.1239],[-71.5192,42.1242],[-71.5632,42.1534],[-71.562,42.1786],[-71.5517,42.1786],[-71.5568,42.1925],[-71.5829,42.1956],[-71.6022,42.2181],[-71.5993,42.226],[-71.6211,42.2309],[-71.6444,42.2266],[-71.6373,42.1832],[-71.6492,42.1817],[-71.6409,42.1747],[-71.6463,42.1729],[-71.6422,42.1657],[-71.6914,42.1631],[-71.6952,42.1758],[-71.7186,42.173],[-71.7235,42.1915],[-71.7405,42.1792],[-71.7442,42.1824],[-71.8296,42.1449],[-71.8249,42.1553],[-71.8345,42.1573],[-71.8255,42.1599],[-71.826,42.1658],[-71.8349,42.1598],[-71.8581,42.1607],[-71.8758,42.1701],[-71.8951,42.1924],[-72.0199,42.1838],[-72.0186,42.1757],[-72.0894,42.1671],[-72.0868,42.1544],[-72.1087,42.1516],[-72.1115,42.1645],[-72.1993,42.1537],[-72.2006,42.1613],[-72.2639,42.1838],[-72.2616,42.1715],[-72.2682,42.1635],[-72.2653,42.1546],[-72.2716,42.1431],[-72.3123,42.1434],[-72.3463,42.1617],[-72.389,42.1524]]]},"properties":{"geoid":"25D07","state":"25","district":"Worcester and Hampden","name":"Worcester and Hampden District","chamber":"Senate"}},{"type":"Feature","geometry":{"type":"Polygon","coordinates":[[[-71.8951,42.1924],[-71.8758,42.1701],[-71.8581,42.1607],[-71.8349,42.1598],[-71.826,42.1658],[-71.8255,42.1599],[-71.8345,42.1573],[-71.8249,42.1553],[-71.8296,42.1449],[-71.7442,42.1824],[-71.7405,42.1792],[-71.7235,42.1915],[-71.7186,42.173],[-71.6952,42.1758],[-71.6914,42.1631],[-71.6422,42.1657],[-71.6463,42.1729],[-71.6409,42.1747],[-71.6492,42.1817],[-71.6373,42.1832],[-71.6444,42.2266],[-71.6211,42.2309],[-71.5993,42.226],[-71.5868,42.2595],[-71.5427,42.2697],[-71.58,42.3059],[-71.6332,42.3006],[-71.6427,42.2882],[-71.6701,42.2788],[-71.6897,42.3188],[-71.6879,42.3255],[-71.6976,42.3276],[-71.6987,42.3324],[-71.7318,42.3179],[-71.7672,42.3132],[-71.7585,42.2962],[-71.7547,42.2744],[-71.7782,42.2735],[-71.7882,42.2645],[-71.7933,42.2673],[-71.797,42.2364],[-71.8038,42.244],[-71.8123,42.2414],[-71.8169,42.2476],[-71.8335,42.245],[-71.8353,42.2288],[-71.866,42.226],[-71.8951,42.1924]]]},"properties":{"geoid":"25D08","state":"25","district":"Second Worcester","name":"Second Worcester District","chamber":"Senate"}},{"type":"Feature","geometry":{"type":"Polygon","coordinates":[[[-71.8601,42.2907],[-71.8546,42.2862],[-71.855,42.2768],[-71.8376,42.264],[-71.8482,42.2622],[-71.8397,42.2435],[-71.8169,42.2476],[-71.8123,42.2414],[-71.8038,42.244],[-71.797,42.2364],[-71.7933,42.2673],[-71.7882,42.2645],[-71.7782,42.2735],[-71.7547,42.2744],[-71.7585,42.2962],[-71.7672,42.3132],[-71.7318,42.3179],[-71.6987,42.3324],[-71.6976,42.3276],[-71.6879,42.3255],[-71.6897,42.3188],[-71.6701,42.2788],[-71.6427,42.2882],[-71.6332,42.3006],[-71.58,42.3059],[-71.6053,42.3302],[-71.6041,42.3368],[-71.6258,42.3497],[-71.61,42.3574],[-71.6031,42.3673],[-71.6078,42.37],[-71.5801,42.387],[-71.6043,42.3977],[-71.5853,42.4071],[-71.5591,42.4119],[-71.5489,42.4473],[-71.6424,42.4795],[-71.6681,42.3946],[-71.6765,42.3961],[-71.6788,42.3892],[-71.701,42.3958],[-71.7419,42.3868],[-71.7419,42.3928],[-71.7633,42.4004],[-71.7866,42.399],[-71.8242,42.4049],[-71.802,42.3313],[-71.8591,42.2965],[-71.8601,42.2907]]]},"properties":{"geoid":"25D09","state":"25","district":"First Worcester","name":"First Worcester District","chamber":"Senate"}},{"type":"Feature","geometry":{"type":"Polygon","coordinates":[[[-71.8987,42.7113],[-71.8971,42.7037],[-71.8578,42.675],[-71.8623,42.558],[-71.8551,42.5583],[-71.8556,42.5521],[-71.8625,42.5525],[-71.863,42.5447],[-71.8378,42.5438],[-71.8423,42.5126],[-71.8223,42.5043],[-71.83,42.4922],[-71.7187,42.4734],[-71.7184,42.4102],[-71.726,42.3903],[-71.701,42.3958],[-71.6788,42.3892],[-71.6765,42.3961],[-71.6681,42.3946],[-71.6424,42.4795],[-71.6337,42.4772],[-71.6342,42.4858],[-71.6259,42.4985],[-71.6337,42.5027],[-71.6273,42.5128],[-71.6392,42.531],[-71.6284,42.5481],[-71.611,42.5543],[-71.6125,42.5592],[-71.6066,42.5665],[-71.6161,42.5747],[-71.6069,42.5832],[-71.5115,42.5694],[-71.498,42.5769],[-71.4838,42.5738],[-71.48,42.5581],[-71.4238,42.5262],[-71.3847,42.5387],[-71.4176,42.6538],[-71.4935,42.6174],[-71.4986,42.6388],[-71.4965,42.6498],[-71.515,42.6436],[-71.5343,42.6484],[-71.5371,42.6635],[-71.5793,42.6543],[-71.5821,42.6443],[-71.5867,42.6463],[-71.5881,42.6378],[-71.5924,42.637],[-71.5879,42.6308],[-71.5996,42.6258],[-71.6048,42.6308],[-71.6142,42.6285],[-71.6407,42.6393],[-71.6579,42.6499],[-71.6518,42.7048],[-71.8987,42.7113]]]},"properties":{"geoid":"25D10","state":"25","district":"Worcester and Middlesex","name":"Worcester and Middlesex District","chamber":"Senate"}},{"type":"Feature","geometry":{"type":"Polygon","coordinates":[[[-71.6579,42.65],[-71.6142,42.6285],[-71.6056,42.631],[-71.5936,42.6262],[-71.5879,42.6312],[-71.5924,42.637],[-71.5881,42.6378],[-71.5867,42.6463],[-71.5821,42.6443],[-71.5793,42.6543],[-71.5371,42.6635],[-71.5343,42.6484],[-71.515,42.6436],[-71.4965,42.6498],[-71.4986,42.6388],[-71.4935,42.6174],[-71.4176,42.6538],[-71.3989,42.6449],[-71.4021,42.6516],[-71.399,42.6525],[-71.3943,42.6485],[-71.3807,42.6489],[-71.3745,42.6395],[-71.3647,42.6376],[-71.3599,42.626],[-71.3257,42.6133],[-71.3233,42.6065],[-71.3193,42.6136],[-71.2834,42.6153],[-71.2778,42.6208],[-71.2712,42.6442],[-71.2752,42.6562],[-71.2562,42.6571],[-71.2425,42.6623],[-71.2382,42.6694],[-71.2551,42.7366],[-71.2946,42.697],[-71.6518,42.7048],[-71.6579,42.65]]]},"properties":{"geoid":"25D11","state":"25","district":"First Middlesex","name":"First Middlesex District","chamber":"Senate"}},{"type":"Feature","geometry":{"type":"Polygon","coordinates":[[[-71.6392,42.531],[-71.6273,42.5128],[-71.6337,42.5027],[-71.6258,42.4991],[-71.6358,42.4769],[-71.5489,42.4473],[-71.5591,42.4119],[-71.5853,42.4071],[-71.6043,42.3977],[-71.5801,42.387],[-71.6078,42.37],[-71.6031,42.3673],[-71.61,42.3574],[-71.6258,42.3497],[-71.6041,42.3368],[-71.6053,42.3302],[-71.5974,42.321],[-71.5427,42.2697],[-71.55,42.2659],[-71.5396,42.2628],[-71.5156,42.2678],[-71.5061,42.2644],[-71.5059,42.2729],[-71.4859,42.3112],[-71.4833,42.3531],[-71.3967,42.341],[-71.3818,42.3285],[-71.3734,42.3099],[-71.3599,42.3171],[-71.346,42.3148],[-71.3338,42.3324],[-71.3288,42.3317],[-71.3359,42.3939],[-71.3326,42.3994],[-71.4304,42.4369],[-71.385,42.5045],[-71.3916,42.5068],[-71.3995,42.534],[-71.4238,42.5262],[-71.48,42.5581],[-71.4838,42.5738],[-71.498,42.5769],[-71.5115,42.5694],[-71.6066,42.5832],[-71.6161,42.5747],[-71.6066,42.5665],[-71.6125,42.5592],[-71.611,42.5543],[-71.6284,42.5481],[-71.6392,42.531]]]},"properties":{"geoid":"25D12","state":"25","district":"Middlesex and Worcester","name":"Middlesex and Worcester District","chamber":"Senate"}},{"type":"Feature","geometry":{"type":"Polygon","coordinates":[[[-71.6016,42.2197],[-71.5829,42.1956],[-71.5568,42.1925],[-71.5557,42.1825],[-71.5395,42.1897],[-71.5026,42.1914],[-71.4974,42.1666],[-71.478,42.1659],[-71.4785,42.1314],[-71.4346,42.1343],[-71.4302,42.139],[-71.4151,42.1383],[-71.4127,42.1336],[-71.4023,42.1395],[-71.3802,42.1329],[-71.3756,42.1355],[-71.4044,42.1884],[-71.3848,42.192],[-71.3802,42.2018],[-71.3917,42.2097],[-71.3973,42.2079],[-71.41,42.2187],[-71.4134,42.2346],[-71.4201,42.2381],[-71.4193,42.2573],[-71.3978,42.2615],[-71.3904,42.2719],[-71.3569,42.2635],[-71.3537,42.2568],[-71.3329,42.2478],[-71.3029,42.2483],[-71.3085,42.2708],[-71.3297,42.313],[-71.3288,42.3317],[-71.3338,42.3324],[-71.346,42.3148],[-71.3599,42.3171],[-71.3734,42.3099],[-71.3818,42.3285],[-71.3967,42.341],[-71.4833,42.3531],[-71.4859,42.3112],[-71.5059,42.2729],[-71.5061,42.2644],[-71.5189,42.2677],[-71.5396,42.2628],[-71.5567,42.2681],[-71.5868,42.2595],[-71.6016,42.2197]]]},"properties":{"geoid":"25D13","state":"25","district":"Middlesex and Norfolk","name":"Middlesex and Norfolk District","chamber":"Senate"}},{"type":"Feature","geometry":{"type":"Polygon","coordinates":[[[-71.5644,42.1652],[-71.5632,42.1534],[-71.5013,42.1169],[-71.5029,42.1094],[-71.4953,42.1],[-71.4983,42.0173],[-71.3814,42.0188],[-71.3813,41.9851],[-71.3643,41.9853],[-71.2883,42.0145],[-71.2877,42.0769],[-71.2803,42.0885],[-71.3002,42.1259],[-71.2989,42.1404],[-71.3038,42.1495],[-71.275,42.1486],[-71.2757,42.1817],[-71.2696,42.2005],[-71.2514,42.2026],[-71.2295,42.2639],[-71.2199,42.2635],[-71.218,42.2687],[-71.1995,42.2678],[-71.1882,42.2804],[-71.1931,42.288],[-71.2052,42.2896],[-71.2129,42.3059],[-71.2267,42.3082],[-71.2264,42.3143],[-71.2323,42.3164],[-71.2948,42.2731],[-71.2996,42.275],[-71.2999,42.2829],[-71.3093,42.2764],[-71.3029,42.2483],[-71.3329,42.2478],[-71.3537,42.2568],[-71.3569,42.2635],[-71.3904,42.2719],[-71.3978,42.2615],[-71.4193,42.2573],[-71.4201,42.2381],[-71.4134,42.2346],[-71.41,42.2187],[-71.3973,42.2079],[-71.3917,42.2097],[-71.3802,42.2018],[-71.3848,42.192],[-71.4044,42.1884],[-71.3756,42.1355],[-71.3799,42.133],[-71.4023,42.1395],[-71.4127,42.1336],[-71.4151,42.1383],[-71.4302,42.139],[-71.4346,42.1343],[-71.4785,42.1314],[-71.478,42.1659],[-71.4974,42.1666],[-71.5026,42.1914],[-71.5395,42.1897],[-71.5557,42.1825],[-71.5525,42.1774],[-71.562,42.1786],[-71.5598,42.1671],[-71.5644,42.1652]],[[-71.2999,42.2703],[-71.2976,42.2724],[-71.2957,42.2725],[-71.2999,42.2703]]]},"properties":{"geoid":"25D14","state":"25","district":"Norfolk-Worcester-Middlesex","name":"Norfolk-Worcester-Middlesex District","chamber":"Senate"}},{"type":"Feature","geometry":{"type":"Polygon","coordinates":[[[-71.4304,42.437],[-71.3326,42.3994],[-71.3359,42.3939],[-71.3273,42.3137],[-71.27,42.3281],[-71.2557,42.3393],[-71.2619,42.3419],[-71.2604,42.3537],[-71.2171,42.3666],[-71.1942,42.386],[-71.2026,42.4037],[-71.2113,42.4061],[-71.2076,42.4098],[-71.2189,42.4156],[-71.2148,42.4184],[-71.2313,42.4222],[-71.2339,42.4334],[-71.2422,42.4336],[-71.2374,42.4354],[-71.2436,42.4393],[-71.2309,42.4535],[-71.2328,42.4629],[-71.2653,42.4706],[-71.2409,42.49],[-71.2319,42.5064],[-71.2401,42.5197],[-71.2501,42.5257],[-71.2546,42.5226],[-71.2781,42.5267],[-71.3067,42.5206],[-71.3046,42.5293],[-71.3183,42.5428],[-71.3144,42.5496],[-71.3331,42.5601],[-71.2942,42.6055],[-71.2962,42.6147],[-71.3193,42.6136],[-71.3233,42.6065],[-71.3257,42.6133],[-71.3599,42.626],[-71.3647,42.6376],[-71.3745,42.6395],[-71.3817,42.6493],[-71.4021,42.6516],[-71.3989,42.6449],[-71.4176,42.6538],[-71.3847,42.5387],[-71.3995,42.534],[-71.3979,42.5263],[-71.3916,42.5068],[-71.385,42.5045],[-71.4304,42.437]]]},"properties":{"geoid":"25D15","state":"25","district":"Third Middlesex","name":"Third Middlesex District","chamber":"Senate"}},{"type":"Feature","geometry":{"type":"Polygon","coordinates":[[[-71.3326,42.5607],[-71.3144,42.5496],[-71.3183,42.5428],[-71.3046,42.5293],[-71.3067,42.5206],[-71.2781,42.5267],[-71.2546,42.5226],[-71.2501,42.5257],[-71.2401,42.5197],[-71.2319,42.5064],[-71.2409,42.49],[-71.2653,42.4706],[-71.2304,42.4598],[-71.2309,42.4535],[-71.2436,42.4393],[-71.2374,42.4354],[-71.2422,42.4336],[-71.2339,42.4334],[-71.2313,42.4222],[-71.2148,42.4184],[-71.2189,42.4156],[-71.2076,42.4098],[-71.1943,42.4153],[-71.1436,42.3974],[-71.1351,42.4025],[-71.1324,42.4152],[-71.1428,42.4194],[-71.1499,42.4358],[-71.1823,42.4363],[-71.1779,42.4402],[-71.1896,42.4498],[-71.163,42.4602],[-71.1562,42.4569],[-71.1523,42.4637],[-71.1121,42.4738],[-71.1168,42.4946],[-71.1355,42.53],[-71.17,42.5155],[-71.2124,42.5475],[-71.2089,42.5545],[-71.2187,42.5617],[-71.2111,42.5733],[-71.297,42.613],[-71.2942,42.6055],[-71.3326,42.5607]]]},"properties":{"geoid":"25D16","state":"25","district":"Fourth Middlesex","name":"Fourth Middlesex District","chamber":"Senate"}},{"type":"Feature","geometry":{"type":"MultiPolygon","coordinates":[[[[-71.3297,42.313],[-71.3085,42.2707],[-71.3093,42.2764],[-71.3006,42.2827],[-71.2996,42.275],[-71.2948,42.2731],[-71.2323,42.3164],[-71.2264,42.3143],[-71.2267,42.3082],[-71.2129,42.3059],[-71.2052,42.2896],[-71.1932,42.288],[-71.1912,42.283],[-71.1647,42.3038],[-71.1521,42.2946],[-71.1469,42.2973],[-71.1237,42.3227],[-71.1165,42.3239],[-71.1055,42.3438],[-71.1066,42.3499],[-71.1241,42.3516],[-71.157,42.3304],[-71.1676,42.3334],[-71.1667,42.3401],[-71.1749,42.3503],[-71.1676,42.3601],[-71.1963,42.3618],[-71.1922,42.3654],[-71.1954,42.3678],[-71.2075,42.3641],[-71.2171,42.3666],[-71.2604,42.3537],[-71.2619,42.3419],[-71.2557,42.3393],[-71.27,42.3281],[-71.3297,42.313]]],[[[-71.2999,42.2704],[-71.2957,42.2725],[-71.2976,42.2724],[-71.2999,42.2704]]]]},"properties":{"geoid":"25D17","state":"25","district":"Norfolk and Middlesex","name":"Norfolk and Middlesex District","chamber":"Senate"}},{"type":"Feature","geometry":{"type":"Polygon","coordinates":[[[-71.3038,42.1492],[-71.2989,42.1404],[-71.3002,42.1259],[-71.2803,42.0885],[-71.2717,42.0984],[-71.2388,42.1064],[-71.2399,42.1208],[-71.2311,42.1233],[-71.2319,42.1316],[-71.1869,42.1533],[-71.1887,42.1611],[-71.1813,42.1655],[-71.1673,42.1692],[-71.1634,42.1761],[-71.1679,42.1794],[-71.1463,42.2042],[-71.1402,42.2238],[-71.1226,42.2344],[-71.1264,42.2392],[-71.1093,42.248],[-71.113,42.2587],[-71.1194,42.2537],[-71.1181,42.2491],[-71.1328,42.2384],[-71.1142,42.3002],[-71.1197,42.3054],[-71.1114,42.309],[-71.1151,42.3101],[-71.1098,42.322],[-71.1237,42.3227],[-71.1401,42.3022],[-71.1521,42.2946],[-71.1647,42.3038],[-71.1912,42.283],[-71.1882,42.2804],[-71.1971,42.269],[-71.2293,42.264],[-71.2514,42.2026],[-71.2696,42.2005],[-71.2757,42.1817],[-71.275,42.1486],[-71.3038,42.1492]]]},"properties":{"geoid":"25D18","state":"25","district":"Norfolk and Suffolk","name":"Norfolk and Suffolk District","chamber":"Senate"}},{"type":"Feature","geometry":{"type":"Polygon","coordinates":[[[-71.2551,42.7366],[-71.2382,42.6694],[-71.2282,42.68],[-71.2238,42.6951],[-71.2149,42.7013],[-71.1889,42.6963],[-71.1855,42.6759],[-71.1512,42.6817],[-71.1345,42.6768],[-71.1394,42.6845],[-71.1379,42.6925],[-71.1459,42.6985],[-71.134,42.7104],[-71.1345,42.7212],[-71.1158,42.7403],[-71.1276,42.7547],[-71.1208,42.7684],[-71.0996,42.7624],[-71.0841,42.7718],[-71.0678,42.7734],[-71.072,42.7849],[-71.0828,42.7921],[-71.0903,42.7835],[-71.0872,42.7776],[-71.0927,42.783],[-71.1085,42.7737],[-71.1186,42.7737],[-71.1146,42.783],[-71.1271,42.7843],[-71.1307,42.7608],[-71.1824,42.7943],[-71.1861,42.7909],[-71.1818,42.7373],[-71.2238,42.7465],[-71.2551,42.7366]]]},"properties":{"geoid":"25D19","state":"25","district":"First Essex","name":"First Essex District","chamber":"Senate"}},{"type":"Feature","geometry":{"type":"Polygon","coordinates":[[[-71.2963,42.6127],[-71.2111,42.5733],[-71.2187,42.5617],[-71.2089,42.5545],[-71.2124,42.5475],[-71.17,42.5155],[-71.1313,42.5318],[-71.1367,42.5535],[-71.1305,42.5832],[-71.1355,42.5991],[-71.0762,42.6041],[-71.1187,42.6611],[-71.1148,42.6652],[-71.1055,42.6591],[-71.107,42.6639],[-71.0983,42.6664],[-71.1007,42.6728],[-71.0555,42.6658],[-71.0468,42.6784],[-71.0951,42.7215],[-71.0937,42.7267],[-71.0965,42.7241],[-71.1086,42.7353],[-71.0589,42.7325],[-71.0242,42.7758],[-71.0187,42.7916],[-70.9998,42.805],[-71.0012,42.817],[-70.9969,42.8212],[-70.9787,42.8246],[-70.945,42.8208],[-70.9193,42.8413],[-70.9042,42.8339],[-70.8998,42.8474],[-70.9146,42.8866],[-70.9296,42.885],[-70.967,42.8688],[-71.0312,42.8591],[-71.0449,42.8487],[-71.0644,42.8063],[-71.1328,42.8215],[-71.1666,42.8089],[-71.1824,42.7943],[-71.1307,42.7608],[-71.1271,42.7843],[-71.1146,42.783],[-71.1186,42.7737],[-71.1085,42.7737],[-71.0927,42.783],[-71.0872,42.7776],[-71.0903,42.7835],[-71.0828,42.7921],[-71.072,42.7849],[-71.0678,42.7734],[-71.0841,42.7718],[-71.0996,42.7624],[-71.1208,42.7684],[-71.1276,42.7547],[-71.1158,42.7403],[-71.1345,42.7212],[-71.134,42.7104],[-71.1459,42.6985],[-71.1379,42.6925],[-71.1394,42.6845],[-71.1345,42.6768],[-71.1512,42.6817],[-71.1855,42.6759],[-71.1889,42.6963],[-71.2182,42.7006],[-71.2425,42.6623],[-71.2752,42.6562],[-71.2712,42.6442],[-71.2778,42.6208],[-71.2963,42.6127]]]},"properties":{"geoid":"25D20","state":"25","district":"Second Essex and Middlesex","name":"Second Essex and Middlesex District","chamber":"Senate"}},{"type":"Feature","geometry":{"type":"Polygon","coordinates":[[[-71.1367,42.5535],[-71.1269,42.5542],[-71.1047,42.5666],[-71.0899,42.5582],[-71.071,42.5559],[-71.0571,42.574],[-71.0368,42.5717],[-71.0348,42.5655],[-71.0233,42.5704],[-71.0029,42.5633],[-70.9861,42.5918],[-70.9324,42.6132],[-70.9295,42.609],[-70.9339,42.5996],[-70.9275,42.5922],[-70.8354,42.5907],[-70.8203,42.5778],[-70.8101,42.5842],[-70.794,42.5692],[-70.7954,42.5515],[-70.7336,42.504],[-70.7361,42.5001],[-70.6173,42.5001],[-70.6063,42.5312],[-70.5827,42.553],[-70.5454,42.5701],[-70.5218,42.5935],[-70.5021,42.6246],[-70.5021,42.6355],[-70.5139,42.6806],[-70.5297,42.707],[-70.5493,42.7242],[-70.6259,42.7397],[-70.6613,42.7366],[-70.7026,42.7242],[-70.7143,42.7319],[-70.7372,42.788],[-70.7349,42.8245],[-70.7488,42.8588],[-70.735,42.8747],[-70.8202,42.8718],[-70.8477,42.8609],[-70.8856,42.8828],[-70.9146,42.8866],[-70.8998,42.8474],[-70.9042,42.8339],[-70.9193,42.8413],[-70.945,42.8208],[-70.9787,42.8246],[-70.9969,42.8212],[-71.0012,42.817],[-70.9998,42.805],[-71.0187,42.7916],[-71.0242,42.7758],[-71.0589,42.7325],[-71.1086,42.7353],[-71.0965,42.7241],[-71.0937,42.7267],[-71.0951,42.7215],[-71.0468,42.6784],[-71.0555,42.6658],[-71.1007,42.6728],[-71.0983,42.6664],[-71.107,42.6639],[-71.1055,42.6591],[-71.1148,42.6652],[-71.1186,42.6612],[-71.0762,42.6041],[-71.1355,42.5991],[-71.1305,42.5832],[-71.1367,42.5535]]]},"properties":{"geoid":"25D21","state":"25","district":"First Essex and Middlesex","name":"First Essex and Middlesex District","chamber":"Senate"}},{"type":"Feature","geometry":{"type":"MultiPolygon","coordinates":[[[[-71.0348,42.5655],[-71.0316,42.5512],[-71.0053,42.523],[-70.9571,42.4965],[-70.9065,42.4843],[-70.8906,42.4887],[-70.8751,42.5185],[-70.8581,42.5274],[-70.8433,42.5288],[-70.8137,42.5224],[-70.7676,42.4846],[-70.7336,42.504],[-70.7954,42.5515],[-70.794,42.5692],[-70.8101,42.5842],[-70.8203,42.5778],[-70.8354,42.5907],[-70.9275,42.5922],[-70.9339,42.5996],[-70.9295,42.609],[-70.9324,42.6132],[-70.9861,42.5918],[-71.0029,42.5633],[-71.0233,42.5704],[-71.0348,42.5655]]],[[[-70.8176,42.5141],[-70.8121,42.5103],[-70.812,42.5121],[-70.8176,42.5141]]],[[[-70.8354,42.4838],[-70.8334,42.4819],[-70.8337,42.4857],[-70.8354,42.4838]]]]},"properties":{"geoid":"25D22","state":"25","district":"Second Essex","name":"Second Essex District","chamber":"Senate"}},{"type":"Feature","geometry":{"type":"Polygon","coordinates":[[[-71.1505,42.4643],[-71.1415,42.4563],[-71.1465,42.4522],[-71.144,42.447],[-71.1362,42.4425],[-71.1341,42.4474],[-71.124,42.4434],[-71.1194,42.4534],[-71.0856,42.4447],[-71.0894,42.4266],[-71.0859,42.4179],[-71.0747,42.4125],[-71.0505,42.4229],[-71.0282,42.4242],[-71.0204,42.4383],[-71.0542,42.4769],[-71.0526,42.4861],[-71.0399,42.4961],[-71.0438,42.5013],[-71.0349,42.5068],[-71.0411,42.5201],[-71.0387,42.5243],[-71.0676,42.5247],[-71.0752,42.531],[-71.071,42.5559],[-71.0899,42.5582],[-71.1047,42.5666],[-71.1365,42.5524],[-71.1313,42.5318],[-71.1355,42.53],[-71.1168,42.4946],[-71.1121,42.4738],[-71.1505,42.4643]]]},"properties":{"geoid":"25D23","state":"25","district":"Fifth Middlesex","name":"Fifth Middlesex District","chamber":"Senate"}},{"type":"Feature","geometry":{"type":"Polygon","coordinates":[[[-71.0751,42.5311],[-71.0676,42.5247],[-71.0387,42.5243],[-71.0411,42.5201],[-71.0349,42.5068],[-71.0438,42.5013],[-71.0399,42.4961],[-71.0526,42.4861],[-71.0542,42.4769],[-71.0258,42.4447],[-71.0188,42.4501],[-71.0095,42.441],[-71.0108,42.4346],[-70.9957,42.4309],[-70.9901,42.4349],[-70.9799,42.4324],[-70.9686,42.4444],[-70.9508,42.4443],[-70.9621,42.4124],[-70.9595,42.4075],[-70.9246,42.3868],[-70.9013,42.3841],[-70.8514,42.3932],[-70.6481,42.4056],[-70.6173,42.5001],[-70.7361,42.5001],[-70.7676,42.4846],[-70.8137,42.5224],[-70.8433,42.5288],[-70.8581,42.5274],[-70.8751,42.5185],[-70.8906,42.4887],[-70.9065,42.4843],[-70.9571,42.4965],[-71.0053,42.523],[-71.0316,42.5512],[-71.0355,42.5706],[-71.0441,42.5739],[-71.0571,42.574],[-71.071,42.5559],[-71.0751,42.5311]],[[-70.8354,42.4838],[-70.8337,42.4857],[-70.8334,42.4819],[-70.8354,42.4838]],[[-70.8176,42.5139],[-70.815,42.5141],[-70.8121,42.5103],[-70.8176,42.5139]]]},"properties":{"geoid":"25D24","state":"25","district":"Third Essex","name":"Third Essex District","chamber":"Senate"}},{"type":"Feature","geometry":{"type":"Polygon","coordinates":[[[-71.0912,42.3543],[-71.0878,42.3473],[-71.0906,42.3396],[-71.0835,42.3413],[-71.0795,42.3495],[-71.0494,42.3545],[-71.0426,42.3638],[-71.011,42.3427],[-70.9751,42.3435],[-70.9729,42.3536],[-70.9179,42.386],[-70.9595,42.4075],[-70.9621,42.4124],[-70.9508,42.4443],[-70.9686,42.4444],[-70.9799,42.4324],[-70.9901,42.4349],[-70.9957,42.4309],[-71.0108,42.4346],[-71.0095,42.441],[-71.0188,42.4501],[-71.0258,42.4447],[-71.0204,42.4383],[-71.0332,42.4142],[-71.0262,42.4059],[-71.0096,42.4002],[-71.0224,42.3864],[-71.0395,42.3869],[-71.0491,42.3712],[-71.0695,42.369],[-71.0773,42.3591],[-71.0912,42.3543]]]},"properties":{"geoid":"25D25","state":"25","district":"Third Suffolk","name":"Third Suffolk District","chamber":"Senate"}},{"type":"Feature","geometry":{"type":"Polygon","coordinates":[[[-71.1242,42.379],[-71.1179,42.3731],[-71.1232,42.3689],[-71.1172,42.3674],[-71.1165,42.355],[-71.093,42.3539],[-71.0773,42.3591],[-71.0695,42.369],[-71.0491,42.3712],[-71.0395,42.3869],[-71.0224,42.3864],[-71.0094,42.4012],[-71.0268,42.4064],[-71.0332,42.4142],[-71.0282,42.4242],[-71.0505,42.4229],[-71.0604,42.416],[-71.0733,42.4148],[-71.0735,42.3918],[-71.081,42.3823],[-71.0727,42.3732],[-71.1032,42.3743],[-71.1116,42.3818],[-71.1242,42.379]]]},"properties":{"geoid":"25D26","state":"25","district":"Middlesex and Suffolk","name":"Middlesex and Suffolk District","chamber":"Senate"}},{"type":"Feature","geometry":{"type":"Polygon","coordinates":[[[-71.1896,42.4498],[-71.1779,42.4402],[-71.1823,42.4363],[-71.1499,42.4358],[-71.1428,42.4194],[-71.1324,42.4152],[-71.1363,42.401],[-71.1436,42.3974],[-71.1521,42.401],[-71.1564,42.3959],[-71.1411,42.3921],[-71.1437,42.3882],[-71.1251,42.3801],[-71.1107,42.3817],[-71.1032,42.3743],[-71.0727,42.3732],[-71.081,42.3823],[-71.0735,42.3918],[-71.0764,42.3978],[-71.0719,42.4117],[-71.0859,42.4179],[-71.0894,42.4266],[-71.0856,42.4447],[-71.1194,42.4534],[-71.124,42.4434],[-71.1341,42.4474],[-71.1362,42.4425],[-71.144,42.447],[-71.1465,42.4522],[-71.1415,42.4563],[-71.1505,42.4643],[-71.1562,42.4569],[-71.163,42.4602],[-71.1896,42.4498]]]},"properties":{"geoid":"25D27","state":"25","district":"Second Middlesex","name":"Second Middlesex District","chamber":"Senate"}},{"type":"Feature","geometry":{"type":"Polygon","coordinates":[[[-71.217,42.3666],[-71.2075,42.3641],[-71.1954,42.3678],[-71.1922,42.3654],[-71.1963,42.3618],[-71.1676,42.3601],[-71.1749,42.3503],[-71.1667,42.3401],[-71.1676,42.3334],[-71.157,42.3304],[-71.1229,42.3519],[-71.1066,42.3499],[-71.1055,42.3438],[-71.1116,42.3373],[-71.1049,42.3342],[-71.0907,42.3398],[-71.0878,42.3473],[-71.0912,42.3543],[-71.1165,42.355],[-71.1172,42.3674],[-71.1232,42.3689],[-71.1179,42.3731],[-71.1219,42.3808],[-71.1564,42.3959],[-71.1522,42.4008],[-71.1943,42.4153],[-71.2026,42.4148],[-71.2113,42.4061],[-71.2026,42.4037],[-71.1942,42.386],[-71.217,42.3666]]]},"properties":{"geoid":"25D28","state":"25","district":"Suffolk and Middlesex","name":"Suffolk and Middlesex District","chamber":"Senate"}},{"type":"Feature","geometry":{"type":"Polygon","coordinates":[[[-71.1331,42.2395],[-71.1181,42.2491],[-71.1194,42.2537],[-71.1115,42.2608],[-71.103,42.2598],[-71.0895,42.2697],[-71.0752,42.2703],[-71.0773,42.2772],[-71.0855,42.281],[-71.0785,42.2893],[-71.0789,42.2967],[-71.0721,42.3003],[-71.0739,42.3077],[-71.0675,42.3233],[-71.0751,42.3253],[-71.0775,42.3309],[-71.0734,42.3336],[-71.0825,42.3421],[-71.1049,42.3342],[-71.1093,42.337],[-71.1196,42.3226],[-71.1098,42.322],[-71.1134,42.3171],[-71.1096,42.3151],[-71.1141,42.3141],[-71.1118,42.3084],[-71.1192,42.307],[-71.1142,42.3002],[-71.1331,42.2395]]]},"properties":{"geoid":"25D29","state":"25","district":"Second Suffolk","name":"Second Suffolk District","chamber":"Senate"}},{"type":"Feature","geometry":{"type":"Polygon","coordinates":[[[-71.0855,42.281],[-71.0773,42.2772],[-71.0752,42.2703],[-71.066,42.2713],[-71.0618,42.2672],[-71.0537,42.2718],[-71.0544,42.277],[-71.0424,42.2773],[-71.0353,42.2888],[-71.0417,42.3053],[-71.0284,42.3088],[-71.01,42.3052],[-70.9887,42.3136],[-70.976,42.3001],[-70.9602,42.2995],[-70.949,42.3013],[-70.9371,42.3111],[-70.9057,42.317],[-70.8943,42.3724],[-70.6587,42.3751],[-70.6481,42.4056],[-70.8514,42.3932],[-70.9013,42.3841],[-70.9179,42.386],[-70.9729,42.3536],[-70.9751,42.3435],[-71.011,42.3427],[-71.0426,42.3638],[-71.0494,42.3545],[-71.0795,42.3495],[-71.0849,42.3427],[-71.0734,42.3336],[-71.0775,42.3309],[-71.0751,42.3253],[-71.0675,42.3233],[-71.0739,42.3077],[-71.0721,42.3003],[-71.0789,42.2967],[-71.0785,42.2893],[-71.0855,42.281]]]},"properties":{"geoid":"25D30","state":"25","district":"First Suffolk","name":"First Suffolk District","chamber":"Senate"}},{"type":"Feature","geometry":{"type":"Polygon","coordinates":[[[-70.9813,42.1355],[-70.8903,42.1717],[-70.8843,42.1537],[-70.8472,42.1583],[-70.8347,42.1344],[-70.8166,42.1316],[-70.809,42.1244],[-70.8088,42.1147],[-70.801,42.1096],[-70.7989,42.1125],[-70.7897,42.1064],[-70.7923,42.1091],[-70.7771,42.1168],[-70.776,42.1129],[-70.7595,42.1096],[-70.7623,42.1033],[-70.7497,42.097],[-70.7814,42.0468],[-70.7687,42.0451],[-70.7592,42.0344],[-70.7695,42.0221],[-70.7312,42.0177],[-70.7218,42.0028],[-70.6986,42.0067],[-70.6733,42.0002],[-70.6683,41.99],[-70.6535,41.9871],[-70.6415,42.0132],[-70.5986,42.0137],[-70.6331,42.0882],[-70.3745,42.0733],[-70.3745,42.1215],[-70.6084,42.1385],[-70.6429,42.1782],[-70.6363,42.2029],[-70.6401,42.2284],[-70.6486,42.2374],[-70.6841,42.2538],[-70.6887,42.2635],[-70.6904,42.279],[-70.6587,42.3751],[-70.8943,42.3724],[-70.9057,42.317],[-70.9371,42.3111],[-70.949,42.3013],[-70.9602,42.2995],[-70.9604,42.2877],[-70.9377,42.2775],[-70.9381,42.2664],[-70.9686,42.2404],[-70.9605,42.2351],[-70.9604,42.2287],[-70.9687,42.2199],[-70.9813,42.1355]]]},"properties":{"geoid":"25D31","state":"25","district":"First Plymouth and Norfolk","name":"First Plymouth and Norfolk District","chamber":"Senate"}},{"type":"Feature","geometry":{"type":"Polygon","coordinates":[[[-71.0932,42.2139],[-71.0827,42.2043],[-71.0455,42.2063],[-71.0449,42.2154],[-71.033,42.2279],[-70.9812,42.2357],[-70.9736,42.2221],[-70.9871,42.2029],[-70.9862,42.1889],[-70.9951,42.1845],[-70.9995,42.1759],[-71.008,42.1783],[-71.0043,42.1684],[-71.022,42.169],[-71.0351,42.1356],[-71.0272,42.1329],[-71.027,42.1237],[-71.0219,42.1187],[-71.002,42.1265],[-70.9986,42.1116],[-70.9791,42.1141],[-70.9754,42.0875],[-70.9159,42.1001],[-70.9024,42.0859],[-70.87,42.0873],[-70.8536,42.0954],[-70.8401,42.0945],[-70.8218,42.1008],[-70.8112,42.098],[-70.8122,42.1041],[-70.8038,42.1115],[-70.8166,42.1316],[-70.8347,42.1344],[-70.8472,42.1583],[-70.8843,42.1537],[-70.8903,42.1717],[-70.9813,42.1355],[-70.9687,42.2199],[-70.9604,42.2287],[-70.9605,42.2351],[-70.9686,42.2404],[-70.9381,42.2664],[-70.9377,42.2775],[-70.9604,42.2877],[-70.9602,42.2995],[-70.976,42.3001],[-70.9887,42.3136],[-71.01,42.3052],[-71.0284,42.3088],[-71.0417,42.3053],[-71.0353,42.2888],[-71.0428,42.2771],[-71.0417,42.2664],[-71.0314,42.2592],[-71.0611,42.2424],[-71.053,42.2292],[-71.0932,42.2139]]]},"properties":{"geoid":"25D32","state":"25","district":"Norfolk and Plymouth","name":"Norfolk and Plymouth District","chamber":"Senate"}},{"type":"Feature","geometry":{"type":"Polygon","coordinates":[[[-71.1687,42.0612],[-71.1565,42.001],[-71.0547,41.9851],[-71.0495,41.9631],[-70.9998,41.9297],[-70.9979,41.9343],[-70.99,41.9317],[-70.9797,41.9405],[-70.9459,41.9328],[-70.9325,41.9587],[-70.9099,41.9641],[-70.9073,41.9701],[-70.9121,41.9789],[-70.9014,41.983],[-70.8998,41.9883],[-70.8992,41.9964],[-70.9128,41.997],[-70.9253,42.0089],[-70.9537,42.0059],[-70.9796,42.011],[-70.9872,42.0466],[-71.0229,42.0422],[-71.0258,42.0551],[-71.0696,42.0497],[-71.0805,42.0955],[-71.0613,42.1032],[-71.071,42.1321],[-71.0565,42.1538],[-71.0509,42.1526],[-71.0538,42.1655],[-71.0442,42.1671],[-71.0501,42.1794],[-71.0194,42.1845],[-71.022,42.169],[-71.0043,42.1684],[-71.008,42.1783],[-70.9995,42.1759],[-70.9951,42.1845],[-70.9862,42.1889],[-70.9871,42.2029],[-70.9736,42.2221],[-70.9812,42.2357],[-71.033,42.2279],[-71.0449,42.2154],[-71.0449,42.2065],[-71.0827,42.2043],[-71.0932,42.2139],[-71.053,42.2292],[-71.0611,42.2424],[-71.0314,42.2592],[-71.0417,42.2664],[-71.0428,42.2771],[-71.0544,42.277],[-71.0537,42.2718],[-71.0618,42.2672],[-71.0675,42.2715],[-71.0891,42.2697],[-71.1027,42.2599],[-71.1115,42.2608],[-71.1093,42.248],[-71.1264,42.2392],[-71.1226,42.2344],[-71.1307,42.2278],[-71.0666,42.1641],[-71.0956,42.1479],[-71.1492,42.1386],[-71.1482,42.1281],[-71.1386,42.1195],[-71.1313,42.1007],[-71.1394,42.0849],[-71.1386,42.0728],[-71.1687,42.0612]]]},"properties":{"geoid":"25D33","state":"25","district":"Norfolk-Plymouth-Bristol","name":"Norfolk-Plymouth-Bristol District","chamber":"Senate"}},{"type":"Feature","geometry":{"type":"Polygon","coordinates":[[[-71.0805,42.0955],[-71.0696,42.0497],[-71.0258,42.0551],[-71.0229,42.0422],[-70.9872,42.0466],[-70.9796,42.011],[-70.9537,42.0059],[-70.9254,42.0089],[-70.9128,41.997],[-70.8992,41.9964],[-70.9014,41.983],[-70.9122,41.9787],[-70.9085,41.9664],[-70.8691,41.9483],[-70.8229,41.9845],[-70.8187,41.9967],[-70.8065,42.0103],[-70.815,42.024],[-70.8335,42.0195],[-70.8448,42.0427],[-70.8411,42.0449],[-70.847,42.0482],[-70.8458,42.0551],[-70.8368,42.0593],[-70.841,42.0604],[-70.8382,42.0639],[-70.8439,42.0772],[-70.8433,42.0948],[-70.8536,42.0954],[-70.87,42.0873],[-70.9024,42.0859],[-70.9159,42.1001],[-70.9754,42.0875],[-70.9791,42.1141],[-70.9986,42.1116],[-71.002,42.1265],[-71.0219,42.1187],[-71.027,42.1237],[-71.0272,42.1329],[-71.0351,42.1356],[-71.0194,42.1845],[-71.0501,42.1794],[-71.0442,42.1671],[-71.0538,42.1655],[-71.0509,42.1526],[-71.0565,42.1538],[-71.071,42.1321],[-71.0613,42.1032],[-71.0805,42.0955]]]},"properties":{"geoid":"25D34","state":"25","district":"Second Plymouth and Norfolk","name":"Second Plymouth and Norfolk District","chamber":"Senate"}},{"type":"Feature","geometry":{"type":"Polygon","coordinates":[[[-71.3815,41.8937],[-71.2225,41.9122],[-71.1939,41.9108],[-71.1557,41.938],[-71.1009,41.9932],[-71.1565,42.001],[-71.1687,42.0612],[-71.1386,42.0728],[-71.1394,42.0849],[-71.1313,42.1007],[-71.1386,42.1195],[-71.1482,42.1281],[-71.1492,42.1386],[-71.0956,42.1479],[-71.0666,42.1641],[-71.1308,42.2279],[-71.1401,42.2239],[-71.1463,42.2042],[-71.1639,42.1874],[-71.1673,42.1692],[-71.1813,42.1655],[-71.1887,42.1611],[-71.1869,42.1533],[-71.2319,42.1316],[-71.2311,42.1233],[-71.2399,42.1208],[-71.2388,42.1064],[-71.2717,42.0984],[-71.2845,42.0836],[-71.2894,42.0591],[-71.2883,42.0145],[-71.3643,41.9853],[-71.3813,41.9851],[-71.3815,41.8937]]]},"properties":{"geoid":"25D35","state":"25","district":"Bristol and Norfolk","name":"Bristol and Norfolk District","chamber":"Senate"}},{"type":"Feature","geometry":{"type":"Polygon","coordinates":[[[-71.3475,41.8232],[-71.3393,41.8085],[-71.3405,41.797],[-71.3295,41.7883],[-71.3285,41.7807],[-71.3164,41.7756],[-71.1878,41.7832],[-71.1935,41.8165],[-71.1762,41.8159],[-71.1711,41.7894],[-71.1196,41.791],[-71.1145,41.7788],[-71.0877,41.8025],[-71.0877,41.808],[-71.0934,41.8103],[-71.0885,41.8178],[-71.0366,41.8165],[-70.9737,41.8609],[-70.9849,41.9075],[-70.9164,41.8769],[-70.9129,41.8617],[-70.9187,41.8519],[-70.8935,41.8279],[-70.8986,41.8149],[-70.8964,41.7943],[-70.7718,41.8089],[-70.7785,41.792],[-70.7743,41.7697],[-70.7866,41.7569],[-70.7858,41.7474],[-70.7932,41.7432],[-70.7917,41.7326],[-70.7962,41.7284],[-70.8029,41.6871],[-70.7861,41.6744],[-70.7629,41.6776],[-70.6996,41.6437],[-70.6766,41.6911],[-70.6437,41.7175],[-70.6327,41.7379],[-70.6208,41.7475],[-70.6363,41.769],[-70.6301,41.7745],[-70.6306,41.7869],[-70.6166,41.8054],[-70.7175,41.8015],[-70.7151,41.8174],[-70.7083,41.8268],[-70.6973,41.8295],[-70.6807,41.8456],[-70.7507,41.926],[-70.7587,41.9475],[-70.8298,41.9277],[-70.8609,41.955],[-70.8691,41.9483],[-70.9085,41.9664],[-70.914,41.9611],[-70.9326,41.9587],[-70.9462,41.9327],[-70.9797,41.9405],[-70.99,41.9317],[-70.9979,41.9343],[-70.9998,41.9297],[-71.0495,41.9631],[-71.0547,41.9851],[-71.1009,41.9932],[-71.1557,41.938],[-71.1939,41.9108],[-71.2225,41.9122],[-71.3388,41.8986],[-71.3409,41.8818],[-71.334,41.8626],[-71.3426,41.8447],[-71.3354,41.8356],[-71.3475,41.8232]]]},"properties":{"geoid":"25D36","state":"25","district":"Third Bristol and Plymouth","name":"Third Bristol and Plymouth District","chamber":"Senate"}},{"type":"Feature","geometry":{"type":"Polygon","coordinates":[[[-71.3149,41.7755],[-71.2611,41.7521],[-71.1955,41.6751],[-71.1326,41.6604],[-71.1353,41.6285],[-71.142,41.6125],[-71.1316,41.5937],[-71.1211,41.4928],[-71.0886,41.4313],[-71.085,41.4335],[-71.0519,41.4167],[-70.9745,41.4541],[-71.0287,41.514],[-71.0327,41.5278],[-71.0263,41.5305],[-71.0314,41.5464],[-71.0291,41.5582],[-71.045,41.5881],[-71.0368,41.5982],[-71.0366,41.6241],[-71.0751,41.6781],[-71.0767,41.6875],[-71.0666,41.6856],[-70.9222,41.7548],[-70.9263,41.7588],[-70.9072,41.7635],[-70.9044,41.758],[-70.8864,41.7602],[-70.865,41.7002],[-70.7991,41.7101],[-70.7917,41.7326],[-70.7932,41.7432],[-70.7858,41.7474],[-70.7866,41.7569],[-70.7744,41.7696],[-70.7785,41.792],[-70.7718,41.8089],[-70.8964,41.7943],[-70.8986,41.8149],[-70.8935,41.8279],[-70.9187,41.8519],[-70.9129,41.8617],[-70.9164,41.8769],[-70.9852,41.9075],[-70.9737,41.8609],[-71.0366,41.8165],[-71.0885,41.8178],[-71.0934,41.8103],[-71.0877,41.808],[-71.0877,41.8025],[-71.1145,41.7788],[-71.1196,41.791],[-71.1711,41.7894],[-71.1762,41.8159],[-71.1935,41.8165],[-71.1878,41.7832],[-71.3149,41.7755]]]},"properties":{"geoid":"25D37","state":"25","district":"First Bristol and Plymouth","name":"First Bristol and Plymouth District","chamber":"Senate"}},{"type":"Feature","geometry":{"type":"Polygon","coordinates":[[[-71.0767,41.6875],[-71.0751,41.6781],[-71.0366,41.6241],[-71.0368,41.5982],[-71.045,41.5881],[-71.0291,41.5582],[-71.0314,41.5464],[-71.0263,41.5305],[-71.0327,41.5278],[-71.0287,41.514],[-70.9745,41.4541],[-70.7638,41.5566],[-70.7298,41.5916],[-70.6996,41.6437],[-70.7629,41.6776],[-70.7861,41.6744],[-70.8029,41.6871],[-70.7991,41.7101],[-70.865,41.7002],[-70.8864,41.7602],[-70.9044,41.758],[-70.9072,41.7635],[-70.9263,41.7588],[-70.9222,41.7548],[-71.0666,41.6856],[-71.0767,41.6875]]]},"properties":{"geoid":"25D38","state":"25","district":"Second Bristol and Plymouth","name":"Second Bristol and Plymouth District","chamber":"Senate"}},{"type":"Feature","geometry":{"type":"Polygon","coordinates":[[[-70.863,41.9568],[-70.8298,41.9277],[-70.7587,41.9475],[-70.7507,41.926],[-70.6807,41.8456],[-70.6973,41.8295],[-70.7083,41.8268],[-70.7151,41.8174],[-70.7175,41.8015],[-70.6166,41.8054],[-70.6306,41.7869],[-70.6301,41.7745],[-70.6363,41.769],[-70.6208,41.7475],[-70.6327,41.7379],[-70.6437,41.7175],[-70.6766,41.6911],[-70.7298,41.5916],[-70.7585,41.5609],[-70.6947,41.5256],[-70.6914,41.5178],[-70.6746,41.5194],[-70.668,41.512],[-70.6545,41.5154],[-70.6422,41.5338],[-70.623,41.5412],[-70.5465,41.5521],[-70.5293,41.5465],[-70.4862,41.5539],[-70.4666,41.5665],[-70.4501,41.5862],[-70.465,41.5967],[-70.4486,41.6215],[-70.4527,41.6348],[-70.4676,41.6342],[-70.4526,41.6387],[-70.4465,41.6503],[-70.4587,41.664],[-70.3833,41.7401],[-70.4248,41.7473],[-70.4731,41.7625],[-70.5153,41.7894],[-70.5375,41.8107],[-70.4995,41.8441],[-70.355,42.0001],[-70.3378,42.0445],[-70.3225,42.1179],[-70.3745,42.1215],[-70.3745,42.0733],[-70.6331,42.0882],[-70.5986,42.0137],[-70.6415,42.0132],[-70.6535,41.9871],[-70.6683,41.99],[-70.6733,42.0002],[-70.6986,42.0067],[-70.7218,42.0028],[-70.7312,42.0177],[-70.7695,42.0221],[-70.7592,42.0344],[-70.7687,42.0451],[-70.7814,42.0468],[-70.7497,42.097],[-70.7623,42.1033],[-70.7595,42.1096],[-70.7659,42.1099],[-70.7665,42.114],[-70.7823,42.1168],[-70.7923,42.1061],[-70.7984,42.1124],[-70.8047,42.1113],[-70.8123,42.1039],[-70.8109,42.0981],[-70.8263,42.1004],[-70.8456,42.0928],[-70.8382,42.0639],[-70.841,42.0604],[-70.8368,42.0593],[-70.8473,42.0507],[-70.8411,42.0449],[-70.8448,42.0427],[-70.8335,42.0195],[-70.815,42.024],[-70.8065,42.0103],[-70.8187,41.9967],[-70.8229,41.9845],[-70.863,41.9568]]]},"properties":{"geoid":"25D39","state":"25","district":"Plymouth and Barnstable","name":"Plymouth and Barnstable District","chamber":"Senate"}},{"type":"Feature","geometry":{"type":"Polygon","coordinates":[[[-71.0519,41.4167],[-71.0336,41.4141],[-71.0399,41.3983],[-71.0261,41.3717],[-70.9907,41.3513],[-70.9558,41.3502],[-70.896,41.3701],[-70.9037,41.3551],[-70.901,41.3346],[-70.87,41.2971],[-70.8903,41.2774],[-70.8942,41.2594],[-70.8905,41.2431],[-70.8663,41.2154],[-70.8236,41.2006],[-70.7836,41.2012],[-70.7542,41.2161],[-70.7389,41.2364],[-70.7348,41.2592],[-70.7165,41.2695],[-70.7031,41.289],[-70.6551,41.2962],[-70.5718,41.3001],[-70.5122,41.2983],[-70.4933,41.28],[-70.4599,41.2653],[-70.4291,41.2687],[-70.4087,41.2773],[-70.3745,41.2695],[-70.3441,41.2761],[-70.2857,41.2423],[-70.1789,41.2045],[-70.1097,41.1898],[-70.0125,41.1871],[-69.9732,41.1935],[-69.942,41.2045],[-69.9158,41.2209],[-69.903,41.2384],[-69.893,41.2666],[-69.8938,41.2869],[-69.9696,41.4035],[-70.0065,41.4339],[-70.0443,41.4438],[-70.0652,41.4427],[-70.0944,41.4308],[-70.1058,41.4199],[-70.1165,41.3951],[-70.1113,41.3704],[-70.0978,41.3536],[-70.1379,41.3464],[-70.1487,41.3452],[-70.1749,41.3573],[-70.2151,41.3603],[-70.2381,41.3862],[-70.2673,41.3934],[-70.3236,41.3916],[-70.3531,41.3815],[-70.3701,41.3688],[-70.3834,41.3699],[-70.3808,41.412],[-70.3929,41.4455],[-70.4059,41.457],[-70.4364,41.4689],[-70.4897,41.463],[-70.4949,41.4796],[-70.5086,41.499],[-70.4486,41.5131],[-70.4239,41.5287],[-70.3952,41.5567],[-70.3463,41.5685],[-70.3113,41.5711],[-70.2789,41.5593],[-70.2495,41.5601],[-70.2256,41.5686],[-70.208,41.5842],[-70.1815,41.5935],[-70.1604,41.5994],[-70.127,41.6002],[-70.0779,41.6125],[-70.0686,41.6107],[-70.0634,41.5902],[-70.0803,41.5645],[-70.1095,41.5515],[-70.1286,41.5247],[-70.1267,41.5037],[-70.1144,41.4841],[-70.0849,41.4675],[-70.0403,41.466],[-70.0139,41.4774],[-69.9982,41.4934],[-69.9674,41.5001],[-69.9466,41.5122],[-69.929,41.5322],[-69.9154,41.5892],[-69.8986,41.6061],[-69.8681,41.6568],[-69.859,41.7069],[-69.8665,41.817],[-69.9092,41.9421],[-69.9291,41.9785],[-69.9963,42.0597],[-70.0116,42.0734],[-70.0671,42.1053],[-70.1207,42.1251],[-70.1725,42.1345],[-70.2292,42.1312],[-70.2774,42.1143],[-70.3225,42.1179],[-70.3378,42.0445],[-70.355,42.0001],[-70.4995,41.8441],[-70.5375,41.8107],[-70.5153,41.7894],[-70.4731,41.7625],[-70.4248,41.7473],[-70.3833,41.7401],[-70.4587,41.664],[-70.4465,41.6503],[-70.4526,41.6387],[-70.4676,41.6342],[-70.4527,41.6348],[-70.4486,41.6215],[-70.465,41.5967],[-70.4501,41.5862],[-70.465,41.568],[-70.4936,41.5519],[-70.5293,41.5465],[-70.5465,41.5521],[-70.6328,41.5386],[-70.6456,41.5305],[-70.6545,41.5154],[-70.668,41.512],[-70.6746,41.5194],[-70.6914,41.5178],[-70.6947,41.5256],[-70.7585,41.5609],[-71.0519,41.4167]]]},"properties":{"geoid":"25D40","state":"25","district":"Cape and Islands","name":"Cape and Islands District","chamber":"Senate"}}]}