{"type":"FeatureCollection","features":[{"type":"Feature","geometry":{"type":"Polygon","coordinates":[[[-77.5046,39.4535],[-77.5018,39.4453],[-77.4899,39.4381],[-77.4866,39.4233],[-77.4645,39.4048],[-77.4629,39.3882],[-77.4527,39.3862],[-77.4529,39.3751],[-77.4488,39.3732],[-77.4544,39.3691],[-77.4434,39.3608],[-77.4371,39.3626],[-77.4259,39.3487],[-77.4323,39.3325],[-77.4216,39.3323],[-77.4134,39.3261],[-77.3926,39.3341],[-77.362,39.3218],[-77.3495,39.3244],[-77.3433,39.328],[-77.3506,39.3405],[-77.3504,39.352],[-77.3567,39.3551],[-77.3501,39.3582],[-77.3523,39.3645],[-77.3348,39.3671],[-77.3256,39.3624],[-77.3203,39.372],[-77.3253,39.3921],[-77.31,39.3881],[-77.3123,39.4104],[-77.3286,39.4176],[-77.3299,39.4247],[-77.3245,39.4317],[-77.3459,39.4347],[-77.3452,39.4402],[-77.3536,39.4401],[-77.3579,39.4455],[-77.3644,39.4437],[-77.3624,39.4479],[-77.3721,39.4573],[-77.3665,39.4653],[-77.3709,39.4661],[-77.3717,39.4738],[-77.3914,39.4685],[-77.388,39.48],[-77.3978,39.4857],[-77.4066,39.4843],[-77.4078,39.4801],[-77.4121,39.4812],[-77.4088,39.4875],[-77.4204,39.4875],[-77.4237,39.4843],[-77.4198,39.4778],[-77.4124,39.4744],[-77.4158,39.4697],[-77.441,39.4758],[-77.4593,39.4678],[-77.4543,39.4648],[-77.461,39.4594],[-77.4545,39.4475],[-77.4674,39.4474],[-77.4704,39.4395],[-77.5009,39.4561],[-77.5046,39.4535]]]},"properties":{"geoid":"24003","state":"24","district":"3","name":"State Legislative District 3","chamber":"House"}},{"type":"Feature","geometry":{"type":"Polygon","coordinates":[[[-77.6771,39.3252],[-77.6509,39.3108],[-77.6159,39.3025],[-77.5666,39.306],[-77.5618,39.3015],[-77.5607,39.286],[-77.5431,39.2669],[-77.4866,39.2473],[-77.4595,39.2277],[-77.4588,39.2203],[-77.1681,39.354],[-77.1676,39.3635],[-77.1789,39.3661],[-77.1795,39.3788],[-77.173,39.3777],[-77.1692,39.3871],[-77.1756,39.3885],[-77.17,39.3939],[-77.161,39.3807],[-77.1559,39.3819],[-77.148,39.4178],[-77.116,39.4598],[-77.12,39.4653],[-77.1177,39.4786],[-77.1067,39.4921],[-77.1277,39.5085],[-77.1336,39.5086],[-77.1384,39.5205],[-77.15,39.522],[-77.1523,39.5325],[-77.1706,39.5344],[-77.1694,39.5541],[-77.187,39.5625],[-77.1999,39.5785],[-77.2202,39.5754],[-77.2203,39.5821],[-77.2325,39.5846],[-77.2277,39.5883],[-77.2388,39.5845],[-77.2517,39.6021],[-77.26,39.6027],[-77.2628,39.5941],[-77.2711,39.6061],[-77.2857,39.6078],[-77.2896,39.6041],[-77.3014,39.6134],[-77.3074,39.6191],[-77.2995,39.6239],[-77.3079,39.6283],[-77.3116,39.6387],[-77.302,39.6407],[-77.3021,39.6545],[-77.3467,39.6647],[-77.3613,39.6595],[-77.3579,39.6521],[-77.3634,39.6468],[-77.3662,39.6255],[-77.3591,39.6135],[-77.3894,39.6116],[-77.3991,39.6037],[-77.3985,39.5988],[-77.4118,39.6035],[-77.4109,39.6104],[-77.4246,39.6137],[-77.4263,39.6203],[-77.4379,39.6212],[-77.4376,39.6259],[-77.4446,39.627],[-77.4464,39.6322],[-77.4598,39.6313],[-77.459,39.6461],[-77.4671,39.642],[-77.4766,39.6476],[-77.4924,39.6437],[-77.4967,39.6535],[-77.4942,39.6584],[-77.5047,39.6626],[-77.5291,39.6325],[-77.546,39.6331],[-77.5508,39.6253],[-77.5702,39.62],[-77.575,39.6113],[-77.5868,39.5714],[-77.5994,39.5502],[-77.5971,39.542],[-77.6129,39.5297],[-77.6225,39.5082],[-77.623,39.4999],[-77.6144,39.4916],[-77.622,39.4818],[-77.616,39.4688],[-77.6268,39.4571],[-77.6265,39.4485],[-77.6347,39.4455],[-77.6404,39.4025],[-77.6516,39.3751],[-77.6734,39.3442],[-77.6771,39.3252]],[[-77.5046,39.4534],[-77.5009,39.4561],[-77.4704,39.4395],[-77.4674,39.4474],[-77.4545,39.4475],[-77.461,39.4594],[-77.4543,39.4648],[-77.4593,39.4678],[-77.441,39.4758],[-77.4158,39.4697],[-77.4124,39.4744],[-77.4198,39.4778],[-77.4237,39.4843],[-77.4204,39.4875],[-77.4088,39.4875],[-77.4121,39.4812],[-77.4078,39.4801],[-77.4066,39.4843],[-77.3978,39.4857],[-77.388,39.48],[-77.3914,39.4685],[-77.3717,39.4738],[-77.3709,39.4661],[-77.3665,39.4653],[-77.3721,39.4573],[-77.3624,39.4479],[-77.3644,39.4437],[-77.3579,39.4455],[-77.3536,39.4401],[-77.3452,39.4402],[-77.3459,39.4347],[-77.3245,39.4317],[-77.3299,39.4247],[-77.3286,39.4176],[-77.3123,39.4104],[-77.31,39.3881],[-77.3253,39.3921],[-77.3203,39.372],[-77.3256,39.3624],[-77.3348,39.3671],[-77.3523,39.3645],[-77.3501,39.3582],[-77.3567,39.3551],[-77.3504,39.352],[-77.3506,39.3405],[-77.3433,39.328],[-77.3618,39.3218],[-77.394,39.3342],[-77.4134,39.3261],[-77.4216,39.3323],[-77.4323,39.3325],[-77.4259,39.3487],[-77.4371,39.3626],[-77.4434,39.3608],[-77.4544,39.3691],[-77.4488,39.3732],[-77.4529,39.3751],[-77.4527,39.3862],[-77.4629,39.3882],[-77.4645,39.4048],[-77.4866,39.4233],[-77.4899,39.4381],[-77.5018,39.4453],[-77.5046,39.4534]]]},"properties":{"geoid":"24004","state":"24","district":"4","name":"State Legislative District 4","chamber":"House"}},{"type":"Feature","geometry":{"type":"Polygon","coordinates":[[[-77.3116,39.6387],[-77.3079,39.6283],[-77.2995,39.6239],[-77.3074,39.619],[-77.2904,39.6044],[-77.2713,39.6062],[-77.2704,39.6003],[-77.2606,39.594],[-77.2617,39.6005],[-77.2547,39.6033],[-77.2387,39.5844],[-77.2274,39.5881],[-77.2325,39.5846],[-77.2203,39.5821],[-77.2207,39.5756],[-77.1999,39.5785],[-77.187,39.5625],[-77.1694,39.5541],[-77.1706,39.5344],[-77.1523,39.5325],[-77.15,39.522],[-77.1384,39.5205],[-77.1335,39.5085],[-77.1074,39.4942],[-77.1177,39.4786],[-77.12,39.4653],[-77.116,39.4598],[-77.148,39.4178],[-77.1559,39.3819],[-77.161,39.3807],[-77.17,39.3939],[-77.1756,39.3885],[-77.1692,39.3871],[-77.173,39.3777],[-77.1795,39.3788],[-77.1789,39.3661],[-77.1676,39.3635],[-77.1693,39.3546],[-77.1518,39.3486],[-77.1264,39.3643],[-77.101,39.3693],[-77.0613,39.3592],[-77.0486,39.3622],[-77.0254,39.3506],[-76.9698,39.364],[-76.96,39.3566],[-76.9464,39.361],[-76.9096,39.3485],[-76.903,39.3544],[-76.8804,39.3497],[-76.8799,39.3567],[-76.8734,39.3569],[-76.8815,39.3617],[-76.8793,39.366],[-76.8849,39.365],[-76.891,39.3767],[-76.8851,39.3881],[-76.8734,39.3888],[-76.8855,39.3976],[-76.8789,39.4039],[-76.8844,39.4046],[-76.8814,39.4174],[-76.8745,39.4191],[-76.8865,39.4217],[-76.8894,39.4302],[-76.8956,39.4292],[-76.8906,39.4354],[-76.8943,39.4398],[-76.8873,39.4405],[-76.9272,39.4493],[-76.9385,39.4424],[-76.9554,39.4519],[-76.9519,39.4714],[-76.9491,39.4745],[-76.9393,39.468],[-76.9288,39.4872],[-76.9469,39.5066],[-76.9499,39.4969],[-76.9621,39.4875],[-76.9721,39.4893],[-76.9753,39.5131],[-76.9903,39.5238],[-76.9731,39.5335],[-76.9439,39.5682],[-76.9761,39.5852],[-76.992,39.586],[-76.9991,39.591],[-76.9956,39.5928],[-76.9984,39.6051],[-76.9903,39.6024],[-76.9944,39.6176],[-76.9912,39.6194],[-76.997,39.6205],[-76.9974,39.6146],[-77.0116,39.6214],[-77.0222,39.6135],[-77.0193,39.608],[-77.008,39.6067],[-77.0263,39.5902],[-77.0582,39.6026],[-77.0465,39.632],[-77.0418,39.6343],[-77.0462,39.6344],[-77.0467,39.6439],[-77.0386,39.6468],[-77.0223,39.6434],[-77.0263,39.6655],[-76.99,39.6592],[-76.9842,39.6756],[-76.9727,39.6849],[-76.9554,39.6626],[-76.9403,39.6674],[-76.9233,39.6564],[-76.8974,39.6675],[-76.9009,39.6607],[-76.8902,39.6599],[-76.9016,39.6483],[-76.8933,39.6417],[-76.9,39.6377],[-76.8921,39.6369],[-76.882,39.6423],[-76.8866,39.6472],[-76.8742,39.6523],[-76.8773,39.6607],[-76.8704,39.6644],[-76.8823,39.673],[-76.8901,39.6687],[-76.8918,39.6764],[-76.8867,39.6762],[-76.8876,39.6821],[-76.8712,39.6988],[-76.8377,39.7205],[-77.217,39.7199],[-77.2156,39.7127],[-77.2268,39.7073],[-77.2163,39.6974],[-77.2433,39.6947],[-77.2345,39.6774],[-77.2558,39.6632],[-77.2662,39.6623],[-77.2655,39.6559],[-77.2756,39.6472],[-77.2714,39.6417],[-77.2792,39.6364],[-77.276,39.6319],[-77.2915,39.6306],[-77.3001,39.6393],[-77.3116,39.6387]]]},"properties":{"geoid":"24005","state":"24","district":"5","name":"State Legislative District 5","chamber":"House"}},{"type":"Feature","geometry":{"type":"Polygon","coordinates":[[[-76.5299,39.2831],[-76.5295,39.2184],[-76.5145,39.2024],[-76.3747,39.1598],[-76.3495,39.1566],[-76.3324,39.2044],[-76.2877,39.2541],[-76.3438,39.2845],[-76.4075,39.3055],[-76.4233,39.315],[-76.4389,39.3327],[-76.4473,39.3302],[-76.4443,39.3319],[-76.462,39.339],[-76.4746,39.3323],[-76.4861,39.3399],[-76.5298,39.3104],[-76.5299,39.2831]]]},"properties":{"geoid":"24006","state":"24","district":"6","name":"State Legislative District 6","chamber":"House"}},{"type":"Feature","geometry":{"type":"Polygon","coordinates":[[[-76.5884,39.4016],[-76.5795,39.3872],[-76.5798,39.3795],[-76.5712,39.3782],[-76.57,39.3721],[-76.5298,39.3721],[-76.5298,39.3104],[-76.4861,39.3399],[-76.4746,39.3323],[-76.462,39.339],[-76.4443,39.3319],[-76.4473,39.3302],[-76.4389,39.3327],[-76.435,39.3413],[-76.4367,39.3531],[-76.4295,39.358],[-76.4542,39.3745],[-76.4458,39.3823],[-76.4695,39.3854],[-76.4741,39.3909],[-76.4693,39.4112],[-76.478,39.4126],[-76.4805,39.4052],[-76.4944,39.4103],[-76.4966,39.4032],[-76.486,39.3976],[-76.5044,39.3955],[-76.5108,39.3899],[-76.5125,39.395],[-76.5246,39.3936],[-76.5365,39.3984],[-76.5325,39.4057],[-76.5408,39.409],[-76.5463,39.4021],[-76.5661,39.4014],[-76.5792,39.4094],[-76.5884,39.4016]]]},"properties":{"geoid":"24008","state":"24","district":"8","name":"State Legislative District 8","chamber":"House"}},{"type":"Feature","geometry":{"type":"Polygon","coordinates":[[[-76.8956,39.4293],[-76.8894,39.4302],[-76.8865,39.4217],[-76.8745,39.4191],[-76.8814,39.4174],[-76.8844,39.4046],[-76.8789,39.4039],[-76.8855,39.3976],[-76.8734,39.3888],[-76.8847,39.3884],[-76.8915,39.3813],[-76.885,39.3652],[-76.8794,39.3661],[-76.8807,39.3605],[-76.8734,39.3572],[-76.8798,39.3568],[-76.8823,39.3502],[-76.875,39.3322],[-76.864,39.3308],[-76.8537,39.3175],[-76.8356,39.3158],[-76.8345,39.3115],[-76.8252,39.3193],[-76.8178,39.3132],[-76.8141,39.318],[-76.7935,39.3136],[-76.7958,39.3037],[-76.7785,39.2953],[-76.7852,39.2918],[-76.794,39.266],[-76.764,39.2515],[-76.7636,39.2464],[-76.7543,39.2463],[-76.7398,39.2323],[-76.7061,39.2183],[-76.6967,39.2257],[-76.7343,39.2604],[-76.7432,39.2601],[-76.7504,39.2683],[-76.7597,39.2672],[-76.7702,39.2768],[-76.763,39.2884],[-76.7711,39.3005],[-76.7609,39.3073],[-76.744,39.306],[-76.7448,39.3219],[-76.7588,39.3215],[-76.7652,39.349],[-76.7563,39.3578],[-76.7617,39.3615],[-76.7582,39.3665],[-76.7673,39.3698],[-76.7719,39.3816],[-76.7595,39.3846],[-76.7741,39.3902],[-76.7868,39.3882],[-76.7892,39.3825],[-76.811,39.3866],[-76.8136,39.3891],[-76.8077,39.398],[-76.8136,39.3944],[-76.8127,39.4053],[-76.8164,39.407],[-76.8058,39.4262],[-76.7921,39.4292],[-76.8017,39.4323],[-76.7833,39.4432],[-76.7868,39.4498],[-76.7765,39.4754],[-76.7651,39.4767],[-76.7605,39.487],[-76.7399,39.4956],[-76.7086,39.4958],[-76.7281,39.5355],[-76.7505,39.5232],[-76.7745,39.5214],[-76.7907,39.5419],[-76.8398,39.5596],[-76.8377,39.5442],[-76.857,39.5306],[-76.8686,39.4938],[-76.867,39.4849],[-76.8766,39.483],[-76.8769,39.4767],[-76.8818,39.4772],[-76.8886,39.4685],[-76.8845,39.4669],[-76.8869,39.4632],[-76.892,39.4618],[-76.8857,39.4564],[-76.893,39.4553],[-76.8764,39.4508],[-76.8823,39.4442],[-76.8918,39.4454],[-76.8873,39.4405],[-76.8943,39.4398],[-76.8906,39.4354],[-76.8956,39.4293]]]},"properties":{"geoid":"24010","state":"24","district":"10","name":"State Legislative District 10","chamber":"House"}},{"type":"Feature","geometry":{"type":"Polygon","coordinates":[[[-77.0404,39.2347],[-77.0323,39.2203],[-77.0094,39.2067],[-77.0122,39.1952],[-77.0042,39.1923],[-77.0085,39.1817],[-76.9989,39.1778],[-77.0055,39.1761],[-76.9975,39.1745],[-77.001,39.1695],[-76.9733,39.1621],[-76.9754,39.1496],[-76.9507,39.1453],[-76.9585,39.134],[-76.9467,39.1294],[-76.9282,39.1383],[-76.9154,39.1268],[-76.9067,39.1254],[-76.8857,39.1313],[-76.8701,39.1127],[-76.8404,39.1031],[-76.8282,39.108],[-76.822,39.1191],[-76.7901,39.1258],[-76.7822,39.1446],[-76.7644,39.1655],[-76.7465,39.1796],[-76.7406,39.1792],[-76.7666,39.1974],[-76.7728,39.1916],[-76.7811,39.1991],[-76.7954,39.2026],[-76.8,39.2107],[-76.8148,39.2081],[-76.8246,39.2197],[-76.817,39.2259],[-76.8352,39.2344],[-76.8416,39.2331],[-76.8745,39.1819],[-76.8958,39.188],[-76.9058,39.2035],[-76.9271,39.2005],[-76.9245,39.1964],[-76.9294,39.1999],[-76.9357,39.1947],[-76.9222,39.188],[-76.9296,39.1851],[-76.9354,39.1777],[-76.933,39.1744],[-76.9429,39.1735],[-76.9439,39.1668],[-76.9714,39.1872],[-76.9815,39.2014],[-76.9742,39.2219],[-76.976,39.2302],[-76.9894,39.2413],[-76.9945,39.2534],[-77.0061,39.251],[-77.0084,39.245],[-77.0225,39.2375],[-77.0272,39.2431],[-77.0404,39.2347]]]},"properties":{"geoid":"24013","state":"24","district":"13","name":"State Legislative District 13","chamber":"House"}},{"type":"Feature","geometry":{"type":"Polygon","coordinates":[[[-77.2576,39.2445],[-77.249,39.236],[-77.2538,39.2304],[-77.237,39.2314],[-77.2397,39.2102],[-77.2072,39.204],[-77.1996,39.1976],[-77.1729,39.1903],[-77.1531,39.195],[-77.1508,39.1852],[-77.1206,39.1893],[-77.1061,39.181],[-77.1105,39.1649],[-77.103,39.1517],[-77.106,39.1424],[-77.1036,39.1393],[-77.0924,39.1439],[-77.0795,39.1268],[-77.0722,39.1261],[-77.0759,39.1094],[-77.034,39.1205],[-77.0406,39.1017],[-77.0369,39.0934],[-77.0256,39.092],[-77.0232,39.0755],[-77.0293,39.0665],[-76.9941,39.0755],[-76.984,39.0666],[-76.9573,39.0609],[-76.9518,39.0453],[-76.9088,39.1038],[-76.9039,39.1146],[-76.9073,39.1179],[-76.8888,39.13],[-76.915,39.1267],[-76.9291,39.1384],[-76.9467,39.1294],[-76.9585,39.134],[-76.9507,39.1453],[-76.9754,39.1496],[-76.9733,39.1621],[-77.001,39.1695],[-76.9975,39.1745],[-77.0055,39.1761],[-76.9989,39.1778],[-77.0085,39.1817],[-77.0042,39.1923],[-77.0122,39.1952],[-77.0094,39.2067],[-77.0323,39.2203],[-77.0448,39.2377],[-77.06,39.2402],[-77.0656,39.251],[-77.0821,39.26],[-77.1306,39.2684],[-77.14,39.2831],[-77.1401,39.2921],[-77.1481,39.2976],[-77.1735,39.2997],[-77.1923,39.2929],[-77.2036,39.2786],[-77.2027,39.2601],[-77.2215,39.2621],[-77.2341,39.2469],[-77.2384,39.2514],[-77.2576,39.2445]]]},"properties":{"geoid":"24014","state":"24","district":"14","name":"State Legislative District 14","chamber":"House"}},{"type":"Feature","geometry":{"type":"Polygon","coordinates":[[[-77.5277,39.1447],[-77.5203,39.1211],[-77.4854,39.1093],[-77.457,39.0734],[-77.3858,39.0621],[-77.3371,39.0623],[-77.2941,39.0469],[-77.2742,39.034],[-77.2489,39.0268],[-77.2404,39.035],[-77.2219,39.029],[-77.2089,39.018],[-77.2039,39.0266],[-77.1703,39.022],[-77.1419,39.0236],[-77.1545,39.0563],[-77.1774,39.0604],[-77.1757,39.0643],[-77.1874,39.0696],[-77.1859,39.0736],[-77.2002,39.0805],[-77.1898,39.1118],[-77.1952,39.107],[-77.2105,39.1123],[-77.2116,39.1069],[-77.228,39.1037],[-77.2476,39.1163],[-77.2639,39.1162],[-77.3079,39.1462],[-77.2946,39.1513],[-77.2881,39.1618],[-77.2817,39.1621],[-77.2673,39.1788],[-77.2546,39.1844],[-77.2772,39.214],[-77.2599,39.2209],[-77.249,39.236],[-77.2576,39.2445],[-77.2649,39.2453],[-77.2779,39.2375],[-77.2983,39.2471],[-77.325,39.2812],[-77.4588,39.2203],[-77.4738,39.2084],[-77.4787,39.1897],[-77.5108,39.1788],[-77.5277,39.1447]]]},"properties":{"geoid":"24015","state":"24","district":"15","name":"State Legislative District 15","chamber":"House"}},{"type":"Feature","geometry":{"type":"Polygon","coordinates":[[[-77.2558,39.002],[-77.245,38.9827],[-77.2349,38.976],[-77.2299,38.9797],[-77.2236,38.972],[-77.1472,38.9644],[-77.1198,38.9343],[-77.0857,38.9608],[-77.0953,38.9896],[-77.0827,38.9916],[-77.0881,38.9989],[-77.0833,39.0001],[-77.0835,39.0057],[-77.0781,39.0054],[-77.1031,39.0225],[-77.1208,39.0582],[-77.1362,39.0529],[-77.1534,39.0561],[-77.1578,39.062],[-77.1614,39.0572],[-77.1545,39.0563],[-77.1415,39.0294],[-77.1427,39.0217],[-77.1976,39.027],[-77.2059,39.0256],[-77.2089,39.018],[-77.2219,39.029],[-77.2404,39.035],[-77.2489,39.0268],[-77.2453,39.0178],[-77.2558,39.002]]]},"properties":{"geoid":"24016","state":"24","district":"16","name":"State Legislative District 16","chamber":"House"}},{"type":"Feature","geometry":{"type":"Polygon","coordinates":[[[-77.2528,39.1179],[-77.2206,39.1027],[-77.2182,39.1079],[-77.2116,39.1069],[-77.2105,39.1123],[-77.1952,39.107],[-77.1898,39.1118],[-77.2002,39.0805],[-77.1859,39.0736],[-77.1874,39.0696],[-77.1757,39.0643],[-77.1774,39.0604],[-77.1669,39.0578],[-77.1578,39.062],[-77.1534,39.0561],[-77.1313,39.0531],[-77.1263,39.0579],[-77.1156,39.0578],[-77.1187,39.0607],[-77.1138,39.0743],[-77.1077,39.0757],[-77.1251,39.1061],[-77.1348,39.1036],[-77.1372,39.0971],[-77.1536,39.0991],[-77.1621,39.1149],[-77.1803,39.1244],[-77.1772,39.1303],[-77.1852,39.128],[-77.1861,39.1332],[-77.1791,39.1376],[-77.1881,39.1497],[-77.1876,39.1596],[-77.1921,39.1601],[-77.1924,39.1525],[-77.1983,39.1523],[-77.2044,39.1582],[-77.2078,39.1562],[-77.2077,39.1639],[-77.2148,39.1683],[-77.2221,39.1629],[-77.2304,39.1656],[-77.2325,39.161],[-77.2169,39.1488],[-77.2201,39.1452],[-77.243,39.1497],[-77.2441,39.1439],[-77.2399,39.1437],[-77.244,39.1276],[-77.2528,39.1179]]]},"properties":{"geoid":"24017","state":"24","district":"17","name":"State Legislative District 17","chamber":"House"}},{"type":"Feature","geometry":{"type":"Polygon","coordinates":[[[-77.1208,39.0582],[-77.1031,39.0225],[-77.0781,39.0054],[-77.0835,39.0057],[-77.0833,39.0001],[-77.0881,38.9989],[-77.0827,38.9916],[-77.0953,38.9896],[-77.0857,38.9608],[-77.0426,38.9943],[-77.0437,39.0014],[-77.0337,39.0011],[-77.042,39.0133],[-77.0323,39.0149],[-77.0315,39.0386],[-77.0281,39.0396],[-77.0343,39.0476],[-77.0482,39.0484],[-77.0448,39.0558],[-77.0499,39.0558],[-77.0594,39.0667],[-77.0734,39.0633],[-77.0764,39.0709],[-77.0859,39.067],[-77.0891,39.0599],[-77.1138,39.0743],[-77.1187,39.0607],[-77.1156,39.0578],[-77.1208,39.0582]]]},"properties":{"geoid":"24018","state":"24","district":"18","name":"State Legislative District 18","chamber":"House"}},{"type":"Feature","geometry":{"type":"Polygon","coordinates":[[[-77.1861,39.1332],[-77.1844,39.1272],[-77.1772,39.1303],[-77.1803,39.1244],[-77.1621,39.1149],[-77.1536,39.0991],[-77.1372,39.0971],[-77.1348,39.1036],[-77.1251,39.1061],[-77.1099,39.0835],[-77.1077,39.0757],[-77.1111,39.0729],[-77.0924,39.0617],[-77.0879,39.0604],[-77.0865,39.0665],[-77.0764,39.0709],[-77.0734,39.0633],[-77.0594,39.0667],[-77.0499,39.0558],[-77.0448,39.0558],[-77.0482,39.0484],[-77.032,39.0457],[-77.0281,39.0396],[-77.0315,39.0386],[-77.0161,39.0225],[-77.0127,39.0203],[-77.006,39.03],[-77.0113,39.0389],[-77.0067,39.0406],[-77.0106,39.0585],[-77.0293,39.0657],[-77.0232,39.0755],[-77.026,39.0932],[-77.0391,39.0949],[-77.034,39.1205],[-77.0759,39.1094],[-77.0722,39.1261],[-77.0795,39.1268],[-77.0924,39.1439],[-77.1036,39.1393],[-77.106,39.1424],[-77.103,39.1517],[-77.1105,39.1649],[-77.1061,39.181],[-77.1206,39.1893],[-77.1508,39.1852],[-77.1604,39.159],[-77.1721,39.167],[-77.1743,39.1642],[-77.1655,39.1563],[-77.1745,39.1508],[-77.1661,39.1379],[-77.1861,39.1332]]]},"properties":{"geoid":"24019","state":"24","district":"19","name":"State Legislative District 19","chamber":"House"}},{"type":"Feature","geometry":{"type":"Polygon","coordinates":[[[-79.4877,39.28],[-79.4869,39.2059],[-79.473,39.2021],[-79.4674,39.2088],[-79.4533,39.2105],[-79.4257,39.2253],[-79.4252,39.2345],[-79.4122,39.2402],[-79.3873,39.2678],[-79.3575,39.2763],[-79.3513,39.2851],[-79.3449,39.285],[-79.346,39.294],[-79.3139,39.3047],[-79.2904,39.2995],[-79.2821,39.3233],[-79.2704,39.3289],[-79.2687,39.3362],[-79.2538,39.3371],[-79.2563,39.3572],[-79.235,39.3587],[-79.231,39.3649],[-79.2143,39.3635],[-79.1977,39.3884],[-79.1856,39.3852],[-79.177,39.389],[-79.1792,39.3965],[-79.1623,39.3881],[-79.1667,39.4009],[-79.1594,39.4095],[-79.1595,39.417],[-79.1512,39.417],[-79.15,39.4061],[-79.1438,39.4052],[-79.1418,39.4171],[-79.1274,39.4182],[-79.129,39.4295],[-79.124,39.4332],[-79.1108,39.4319],[-79.1169,39.4389],[-79.1028,39.4505],[-79.1018,39.4572],[-79.1083,39.4571],[-79.1079,39.4612],[-79.0945,39.4648],[-79.1044,39.4708],[-79.1024,39.4764],[-79.083,39.4715],[-79.0693,39.474],[-79.0663,39.48],[-79.0569,39.4707],[-79.0527,39.4817],[-79.047,39.4833],[-79.037,39.4767],[-79.0309,39.4653],[-79.018,39.4677],[-78.9657,39.4385],[-78.9568,39.4402],[-78.956,39.4478],[-78.9605,39.451],[-78.9543,39.4547],[-78.9589,39.4628],[-78.9425,39.4689],[-78.9385,39.4746],[-78.9425,39.4806],[-78.9343,39.4863],[-78.9167,39.4863],[-78.9041,39.5041],[-78.9055,39.5115],[-78.8924,39.5133],[-78.8927,39.5244],[-78.8751,39.5227],[-78.8694,39.5318],[-78.8707,39.5388],[-78.8614,39.541],[-78.8521,39.551],[-78.851,39.5601],[-78.8398,39.5671],[-78.8487,39.5735],[-78.8461,39.5811],[-78.8505,39.59],[-78.8345,39.5965],[-78.8615,39.5989],[-78.8774,39.6115],[-78.8971,39.5822],[-78.923,39.5586],[-78.9335,39.5615],[-78.9506,39.5828],[-78.9622,39.5784],[-78.9636,39.587],[-78.9567,39.5951],[-78.9722,39.6045],[-78.9987,39.5999],[-78.9672,39.6549],[-78.9503,39.6368],[-78.9337,39.6335],[-78.9291,39.6394],[-78.9297,39.6485],[-78.9237,39.6553],[-78.9436,39.6756],[-78.955,39.6763],[-78.9284,39.7228],[-79.4767,39.7211],[-79.4877,39.28]]]},"properties":{"geoid":"2401A","state":"24","district":"1A","name":"State Legislative Subdistrict 1A","chamber":"House"}},{"type":"Feature","geometry":{"type":"Polygon","coordinates":[[[-78.9987,39.5999],[-78.9722,39.6045],[-78.9567,39.5951],[-78.9636,39.587],[-78.9622,39.5784],[-78.9506,39.5828],[-78.9335,39.5615],[-78.923,39.5586],[-78.8971,39.5822],[-78.8774,39.6115],[-78.8615,39.5989],[-78.8345,39.5965],[-78.8505,39.59],[-78.8461,39.5811],[-78.8487,39.5735],[-78.8401,39.5663],[-78.8176,39.5614],[-78.8134,39.5679],[-78.8261,39.5772],[-78.8257,39.5892],[-78.8119,39.598],[-78.809,39.6082],[-78.7965,39.6059],[-78.8016,39.6277],[-78.7953,39.6368],[-78.7812,39.6368],[-78.776,39.6453],[-78.766,39.6484],[-78.7772,39.6218],[-78.7634,39.6188],[-78.7483,39.6267],[-78.7274,39.6268],[-78.7177,39.6349],[-78.7063,39.6569],[-78.7092,39.6599],[-78.7043,39.6736],[-78.7086,39.6762],[-78.6979,39.6781],[-78.701,39.681],[-78.6968,39.6918],[-78.7029,39.6955],[-78.7021,39.7002],[-78.6945,39.7017],[-78.6982,39.7058],[-78.6719,39.699],[-78.6592,39.7229],[-78.9284,39.7228],[-78.955,39.6763],[-78.9436,39.6756],[-78.9237,39.6553],[-78.9297,39.6485],[-78.9291,39.6394],[-78.9337,39.6335],[-78.9503,39.6368],[-78.9672,39.6549],[-78.9987,39.5999]]]},"properties":{"geoid":"2401B","state":"24","district":"1B","name":"State Legislative Subdistrict 1B","chamber":"House"}},{"type":"Feature","geometry":{"type":"Polygon","coordinates":[[[-78.7782,39.6019],[-78.757,39.5808],[-78.7445,39.5802],[-78.7402,39.5864],[-78.7334,39.5865],[-78.7246,39.5639],[-78.7132,39.5623],[-78.7075,39.5558],[-78.6947,39.5537],[-78.6896,39.5458],[-78.6626,39.5365],[-78.6231,39.5397],[-78.6034,39.532],[-78.5921,39.537],[-78.5876,39.5277],[-78.5661,39.5194],[-78.5231,39.5249],[-78.4708,39.5161],[-78.4618,39.5223],[-78.4624,39.5364],[-78.4485,39.5404],[-78.4605,39.5462],[-78.4611,39.5508],[-78.4504,39.5498],[-78.4379,39.5385],[-78.4346,39.5422],[-78.4377,39.5534],[-78.4245,39.5452],[-78.417,39.5486],[-78.4263,39.5592],[-78.4543,39.5741],[-78.4568,39.5876],[-78.4435,39.5913],[-78.4074,39.5786],[-78.3948,39.5852],[-78.4255,39.6077],[-78.4335,39.6182],[-78.4301,39.6234],[-78.4205,39.6241],[-78.3756,39.6083],[-78.372,39.6119],[-78.3834,39.6229],[-78.3824,39.6278],[-78.3738,39.6304],[-78.3555,39.6261],[-78.3535,39.6306],[-78.3593,39.6372],[-78.3553,39.6407],[-78.2661,39.6191],[-78.2541,39.6402],[-78.2238,39.6605],[-78.2326,39.6736],[-78.2022,39.6769],[-78.191,39.6903],[-78.1758,39.696],[-78.1053,39.6817],[-78.0806,39.6705],[-78.0373,39.637],[-78.0101,39.603],[-77.9776,39.5996],[-77.9672,39.6071],[-77.955,39.6081],[-77.9461,39.5848],[-77.9391,39.587],[-77.936,39.5967],[-77.9359,39.6094],[-77.9448,39.6156],[-77.9411,39.619],[-77.9328,39.6176],[-77.9227,39.6047],[-77.892,39.5978],[-77.8812,39.601],[-77.8849,39.6158],[-77.8378,39.6059],[-77.8297,39.5911],[-77.8346,39.5687],[-77.7813,39.5761],[-77.7717,39.5882],[-77.7546,39.581],[-77.7413,39.6134],[-77.7455,39.6165],[-77.7413,39.6221],[-77.7455,39.6248],[-77.7419,39.6251],[-77.7513,39.6274],[-77.7502,39.6325],[-77.773,39.6306],[-77.7672,39.6363],[-77.7689,39.6433],[-77.7601,39.6364],[-77.7656,39.6337],[-77.7449,39.6422],[-77.7444,39.6539],[-77.7382,39.66],[-77.7608,39.6545],[-77.7601,39.6438],[-77.7664,39.6479],[-77.7631,39.6539],[-77.7668,39.6623],[-77.745,39.6627],[-77.741,39.6681],[-77.7467,39.671],[-77.7434,39.6737],[-77.7352,39.6666],[-77.7334,39.6882],[-77.7395,39.7004],[-77.7224,39.7027],[-77.7188,39.7086],[-77.7236,39.7158],[-77.7202,39.7199],[-77.7273,39.7213],[-78.6592,39.7229],[-78.6719,39.699],[-78.6799,39.6987],[-78.6932,39.707],[-78.6982,39.7058],[-78.6947,39.7014],[-78.7022,39.7],[-78.7029,39.6955],[-78.6967,39.6916],[-78.701,39.681],[-78.6979,39.6781],[-78.7086,39.6762],[-78.7043,39.6736],[-78.7092,39.6599],[-78.7062,39.657],[-78.7177,39.6349],[-78.7274,39.6268],[-78.7385,39.6271],[-78.7336,39.6138],[-78.7468,39.6057],[-78.752,39.6102],[-78.7627,39.6099],[-78.7782,39.6019]]]},"properties":{"geoid":"2401C","state":"24","district":"1C","name":"State Legislative Subdistrict 1C","chamber":"House"}},{"type":"Feature","geometry":{"type":"Polygon","coordinates":[[[-77.0437,39.0014],[-77.0426,38.9943],[-77.0024,38.9657],[-76.9868,38.9771],[-76.9848,38.9872],[-76.9911,38.9924],[-76.952,39.0448],[-76.9563,39.0599],[-76.984,39.0666],[-76.9943,39.0755],[-77.0293,39.0665],[-77.0239,39.0609],[-77.0106,39.0585],[-77.0067,39.0406],[-77.0113,39.0389],[-77.006,39.03],[-77.0127,39.0203],[-77.031,39.0366],[-77.0323,39.0149],[-77.042,39.0133],[-77.0337,39.0011],[-77.0437,39.0014]]]},"properties":{"geoid":"24020","state":"24","district":"20","name":"State Legislative District 20","chamber":"House"}},{"type":"Feature","geometry":{"type":"Polygon","coordinates":[[[-76.9761,38.9864],[-76.95,38.9847],[-76.9379,38.977],[-76.938,38.971],[-76.9248,38.9712],[-76.9253,38.9753],[-76.9141,38.9751],[-76.9101,38.9836],[-76.9229,38.9914],[-76.9085,39.0152],[-76.9008,39.0135],[-76.8781,39.0239],[-76.864,39.0237],[-76.8499,39.0164],[-76.8477,39.0331],[-76.8539,39.0331],[-76.8504,39.0383],[-76.8533,39.0466],[-76.8618,39.0495],[-76.8541,39.0557],[-76.885,39.0621],[-76.8656,39.0755],[-76.8558,39.0735],[-76.8554,39.077],[-76.8487,39.0773],[-76.8418,39.069],[-76.8316,39.0692],[-76.829,39.0644],[-76.8042,39.0626],[-76.7924,39.046],[-76.7749,39.0449],[-76.7622,39.0352],[-76.7558,39.0377],[-76.7477,39.0336],[-76.7503,39.0308],[-76.7431,39.0237],[-76.7445,39.0171],[-76.7333,39.0068],[-76.7255,39.0059],[-76.7256,38.9989],[-76.7116,38.9954],[-76.7042,38.9877],[-76.6922,38.9855],[-76.681,38.9913],[-76.6982,38.992],[-76.7011,38.9967],[-76.6957,39.0193],[-76.6825,39.0118],[-76.676,39.0169],[-76.664,39.0124],[-76.6579,39.0238],[-76.6718,39.0332],[-76.6751,39.0252],[-76.6909,39.032],[-76.6878,39.0478],[-76.698,39.0459],[-76.7038,39.0524],[-76.7142,39.053],[-76.7165,39.0481],[-76.7274,39.0486],[-76.7337,39.0551],[-76.7092,39.0704],[-76.7119,39.0795],[-76.7063,39.0869],[-76.7142,39.0913],[-76.7256,39.0872],[-76.7539,39.0892],[-76.7673,39.0966],[-76.7778,39.1144],[-76.811,39.089],[-76.8264,39.0864],[-76.8247,39.0934],[-76.8377,39.0969],[-76.8416,39.1059],[-76.8701,39.1127],[-76.8883,39.1313],[-76.9073,39.1179],[-76.9039,39.1146],[-76.9088,39.1038],[-76.9662,39.0262],[-76.9532,39.0316],[-76.9482,39.0208],[-76.9588,39.0043],[-76.971,39.0046],[-76.9761,38.9864]]]},"properties":{"geoid":"24021","state":"24","district":"21","name":"State Legislative District 21","chamber":"House"}},{"type":"Feature","geometry":{"type":"Polygon","coordinates":[[[-76.9702,38.9628],[-76.9623,38.9559],[-76.9664,38.9524],[-76.9448,38.9438],[-76.93,38.9448],[-76.9228,38.9539],[-76.9099,38.9534],[-76.913,38.9388],[-76.8649,38.9569],[-76.8585,38.9455],[-76.8768,38.944],[-76.8963,38.93],[-76.8746,38.9262],[-76.8791,38.9196],[-76.8717,38.9195],[-76.8687,38.9282],[-76.8729,38.9278],[-76.8676,38.9322],[-76.873,38.9355],[-76.8695,38.9402],[-76.8599,38.9313],[-76.8515,38.9311],[-76.8501,38.9371],[-76.856,38.9394],[-76.8451,38.9464],[-76.8187,38.9466],[-76.8192,38.9508],[-76.8092,38.9525],[-76.8181,38.9633],[-76.8582,38.9558],[-76.8575,38.9637],[-76.8636,38.962],[-76.8669,38.9802],[-76.854,38.978],[-76.8424,38.9834],[-76.8397,38.976],[-76.818,38.9883],[-76.8291,38.9985],[-76.8104,39.0072],[-76.8412,39.0334],[-76.8477,39.0338],[-76.8499,39.0164],[-76.864,39.0237],[-76.8781,39.0239],[-76.9008,39.0135],[-76.9085,39.0152],[-76.9229,38.9914],[-76.9096,38.9851],[-76.9141,38.9751],[-76.938,38.971],[-76.9379,38.977],[-76.95,38.9847],[-76.9642,38.9848],[-76.9614,38.9812],[-76.9667,38.9686],[-76.954,38.9699],[-76.9605,38.9732],[-76.9534,38.9774],[-76.9483,38.9663],[-76.9702,38.9628]]]},"properties":{"geoid":"24022","state":"24","district":"22","name":"State Legislative District 22","chamber":"House"}},{"type":"Feature","geometry":{"type":"Polygon","coordinates":[[[-76.885,39.0621],[-76.8541,39.0557],[-76.8618,39.0495],[-76.8533,39.0466],[-76.8504,39.0383],[-76.8539,39.0331],[-76.8412,39.0334],[-76.8074,39.0052],[-76.8022,39.0096],[-76.7834,39.0107],[-76.7911,39.0051],[-76.7872,39.0027],[-76.799,38.9961],[-76.797,38.9883],[-76.7878,38.9855],[-76.7802,38.992],[-76.7832,38.9944],[-76.7801,38.9987],[-76.7646,38.9985],[-76.766,38.9914],[-76.7564,38.9807],[-76.7785,38.9752],[-76.7731,38.9679],[-76.7579,38.9696],[-76.7563,38.9658],[-76.7654,38.9637],[-76.7548,38.9623],[-76.7523,38.9568],[-76.7704,38.9602],[-76.7702,38.9454],[-76.7904,38.9438],[-76.7903,38.9378],[-76.7984,38.9326],[-76.7951,38.9259],[-76.8009,38.9223],[-76.779,38.9274],[-76.7625,38.9247],[-76.793,38.9009],[-76.7807,38.8771],[-76.7484,38.8736],[-76.7516,38.8502],[-76.7631,38.8499],[-76.7608,38.8433],[-76.7752,38.8396],[-76.7711,38.8311],[-76.7658,38.8318],[-76.765,38.8273],[-76.7694,38.826],[-76.7637,38.8192],[-76.7859,38.8118],[-76.825,38.8141],[-76.8256,38.8011],[-76.8433,38.7869],[-76.8302,38.7734],[-76.8309,38.7626],[-76.8414,38.7565],[-76.8465,38.7462],[-76.8328,38.7444],[-76.8322,38.7533],[-76.8166,38.746],[-76.8203,38.7393],[-76.8103,38.7423],[-76.7994,38.7332],[-76.7751,38.7251],[-76.7606,38.7302],[-76.7642,38.7325],[-76.755,38.7299],[-76.7231,38.7359],[-76.7059,38.7474],[-76.7023,38.743],[-76.6963,38.7443],[-76.7009,38.7687],[-76.714,38.7769],[-76.7123,38.7844],[-76.702,38.7887],[-76.7101,38.796],[-76.7081,38.8049],[-76.7123,38.8129],[-76.697,38.8188],[-76.6983,38.843],[-76.6915,38.8598],[-76.6768,38.8755],[-76.6718,38.8876],[-76.6763,38.8959],[-76.6695,38.9044],[-76.6906,38.9235],[-76.6814,38.9313],[-76.6922,38.9363],[-76.694,38.9564],[-76.7037,38.9715],[-76.6982,38.9835],[-76.7404,39.0129],[-76.7503,39.0308],[-76.7477,39.0336],[-76.7558,39.0377],[-76.7622,39.0352],[-76.7749,39.0449],[-76.7924,39.046],[-76.8042,39.0626],[-76.829,39.0644],[-76.8377,39.0718],[-76.8418,39.069],[-76.8487,39.0773],[-76.8558,39.0735],[-76.8656,39.0755],[-76.885,39.0621]]]},"properties":{"geoid":"24023","state":"24","district":"23","name":"State Legislative District 23","chamber":"House"}},{"type":"Feature","geometry":{"type":"Polygon","coordinates":[[[-76.958,38.855],[-76.9431,38.8353],[-76.9337,38.8358],[-76.9342,38.8425],[-76.9226,38.8509],[-76.9028,38.8548],[-76.903,38.861],[-76.8866,38.8633],[-76.8851,38.8713],[-76.8913,38.8687],[-76.8948,38.873],[-76.8927,38.8875],[-76.8473,38.8922],[-76.85,38.907],[-76.8418,38.9039],[-76.8393,38.8948],[-76.8281,38.899],[-76.8076,38.8978],[-76.8037,38.9012],[-76.8153,38.9198],[-76.8033,38.9227],[-76.793,38.9009],[-76.7705,38.9209],[-76.7623,38.9213],[-76.7625,38.9247],[-76.7785,38.9274],[-76.8009,38.9222],[-76.7951,38.9259],[-76.7984,38.9326],[-76.7903,38.9378],[-76.7904,38.9438],[-76.7702,38.9454],[-76.7704,38.9602],[-76.7523,38.9568],[-76.7548,38.9623],[-76.7654,38.9637],[-76.7563,38.9658],[-76.7579,38.9696],[-76.7731,38.9679],[-76.7785,38.9752],[-76.7564,38.9807],[-76.766,38.9914],[-76.7646,38.9985],[-76.7801,38.9987],[-76.7832,38.9944],[-76.7802,38.992],[-76.7878,38.9855],[-76.8001,38.9941],[-76.7834,39.0107],[-76.8022,39.0096],[-76.8291,38.9985],[-76.818,38.9883],[-76.8397,38.976],[-76.8424,38.9834],[-76.854,38.978],[-76.8669,38.9802],[-76.8636,38.962],[-76.8575,38.9637],[-76.8582,38.9558],[-76.8181,38.9633],[-76.8092,38.9525],[-76.8192,38.9508],[-76.8187,38.9466],[-76.8451,38.9464],[-76.856,38.9394],[-76.8501,38.9371],[-76.8515,38.9311],[-76.8599,38.9313],[-76.8695,38.9402],[-76.873,38.9355],[-76.8676,38.9322],[-76.8729,38.9276],[-76.8687,38.9282],[-76.872,38.9263],[-76.8682,38.924],[-76.8716,38.923],[-76.87,38.9131],[-76.8854,38.9126],[-76.9107,38.8996],[-76.9115,38.9057],[-76.9236,38.904],[-76.9094,38.8929],[-76.958,38.855]]]},"properties":{"geoid":"24024","state":"24","district":"24","name":"State Legislative District 24","chamber":"House"}},{"type":"Feature","geometry":{"type":"Polygon","coordinates":[[[-76.9735,38.806],[-76.9586,38.805],[-76.9461,38.8137],[-76.9488,38.8173],[-76.9312,38.8188],[-76.9273,38.8281],[-76.9117,38.8344],[-76.8902,38.8352],[-76.9011,38.8344],[-76.8943,38.8338],[-76.8947,38.8224],[-76.8901,38.8225],[-76.9025,38.818],[-76.8894,38.8194],[-76.9032,38.8066],[-76.9048,38.7907],[-76.9224,38.7844],[-76.927,38.7694],[-76.9341,38.7696],[-76.9421,38.7587],[-76.9141,38.7436],[-76.895,38.7553],[-76.8981,38.7653],[-76.8848,38.7683],[-76.8795,38.7505],[-76.86,38.7365],[-76.8309,38.7626],[-76.8302,38.7734],[-76.8433,38.7869],[-76.8256,38.8011],[-76.825,38.8141],[-76.7859,38.8118],[-76.7637,38.8192],[-76.7694,38.826],[-76.765,38.8273],[-76.7658,38.8318],[-76.7711,38.8311],[-76.7752,38.8396],[-76.7608,38.8433],[-76.7631,38.8499],[-76.7516,38.8502],[-76.7482,38.8732],[-76.7807,38.8771],[-76.8033,38.9227],[-76.8153,38.9198],[-76.8036,38.8999],[-76.8393,38.8948],[-76.8418,38.9039],[-76.85,38.907],[-76.8473,38.8922],[-76.8927,38.8875],[-76.8948,38.873],[-76.8913,38.8687],[-76.8851,38.8713],[-76.8866,38.8633],[-76.903,38.861],[-76.9028,38.8548],[-76.9226,38.8509],[-76.9342,38.8425],[-76.9337,38.8358],[-76.945,38.8377],[-76.9534,38.8285],[-76.9598,38.833],[-76.9673,38.83],[-76.9689,38.8224],[-76.9628,38.8157],[-76.9735,38.806]]]},"properties":{"geoid":"24025","state":"24","district":"25","name":"State Legislative District 25","chamber":"House"}},{"type":"Feature","geometry":{"type":"Polygon","coordinates":[[[-77.0864,38.7062],[-77.0478,38.6162],[-77.0179,38.649],[-76.9674,38.661],[-76.9744,38.672],[-76.9666,38.6806],[-76.9778,38.6929],[-76.9745,38.7033],[-76.9415,38.7083],[-76.923,38.7264],[-76.9321,38.7475],[-76.9271,38.752],[-76.9421,38.7587],[-76.9341,38.7696],[-76.927,38.7694],[-76.9224,38.7844],[-76.9048,38.7907],[-76.9032,38.8066],[-76.8894,38.8194],[-76.9025,38.818],[-76.8901,38.8225],[-76.8947,38.8224],[-76.8943,38.8338],[-76.9011,38.8344],[-76.8902,38.8352],[-76.9117,38.8344],[-76.9273,38.8281],[-76.9312,38.8188],[-76.9488,38.8173],[-76.9461,38.8137],[-76.9586,38.805],[-76.9732,38.8057],[-76.9628,38.8157],[-76.9689,38.8224],[-76.9678,38.8296],[-76.9598,38.833],[-76.9534,38.8285],[-76.945,38.8377],[-76.9581,38.8549],[-77.0405,38.7904],[-77.0415,38.7258],[-77.0462,38.7145],[-77.0535,38.7098],[-77.0782,38.7134],[-77.0864,38.7062]]]},"properties":{"geoid":"24026","state":"24","district":"26","name":"State Legislative District 26","chamber":"House"}},{"type":"Feature","geometry":{"type":"Polygon","coordinates":[[[-77.323,38.4335],[-77.3049,38.3753],[-77.2882,38.3594],[-77.2838,38.3429],[-77.2653,38.3332],[-77.2401,38.3316],[-77.1632,38.3458],[-77.1377,38.368],[-77.0867,38.3679],[-77.0706,38.3782],[-77.0534,38.3988],[-77.0415,38.4007],[-77.0115,38.3744],[-77.0159,38.371],[-77.0145,38.3326],[-77.0307,38.3116],[-77.0281,38.3053],[-77.0164,38.2988],[-77.0009,38.28],[-76.9909,38.2736],[-76.9813,38.2745],[-76.9621,38.257],[-76.9569,38.2375],[-76.9623,38.2299],[-76.949,38.2084],[-76.916,38.1997],[-76.8689,38.1713],[-76.821,38.2713],[-76.8462,38.3278],[-76.8529,38.3326],[-76.8479,38.3622],[-76.8737,38.3796],[-76.8715,38.3899],[-76.8503,38.3983],[-76.8467,38.408],[-76.8227,38.4284],[-76.775,38.5089],[-76.7529,38.5138],[-76.7138,38.5105],[-76.6993,38.4971],[-76.6846,38.495],[-76.6741,38.4996],[-76.6625,38.5255],[-76.6755,38.5359],[-76.6908,38.5379],[-76.7039,38.5471],[-76.7065,38.5432],[-76.7395,38.5582],[-76.7479,38.5397],[-76.7633,38.5412],[-76.8047,38.5286],[-76.8166,38.5309],[-76.8401,38.5215],[-76.8406,38.5279],[-76.8558,38.5307],[-76.8683,38.548],[-76.8545,38.5606],[-76.8612,38.5665],[-76.8622,38.5847],[-76.8775,38.5957],[-76.8929,38.593],[-76.892,38.5984],[-76.8984,38.6043],[-76.8818,38.6145],[-76.9176,38.6298],[-76.9135,38.6529],[-76.9657,38.6613],[-77.0019,38.6548],[-77.0201,38.6476],[-77.0271,38.6348],[-77.0384,38.6299],[-77.0478,38.6162],[-77.0864,38.7062],[-77.1226,38.6853],[-77.1324,38.6741],[-77.1364,38.6475],[-77.1297,38.6347],[-77.2037,38.6182],[-77.2464,38.5934],[-77.2565,38.5606],[-77.274,38.5502],[-77.2853,38.5197],[-77.3106,38.494],[-77.3185,38.4744],[-77.323,38.4335]]]},"properties":{"geoid":"24028","state":"24","district":"28","name":"State Legislative District 28","chamber":"House"}},{"type":"Feature","geometry":{"type":"Polygon","coordinates":[[[-77.8889,39.5568],[-77.8653,39.5384],[-77.8648,39.5159],[-77.8419,39.5184],[-77.837,39.5321],[-77.8247,39.5285],[-77.8258,39.5167],[-77.8466,39.5046],[-77.8454,39.4981],[-77.8029,39.4895],[-77.7916,39.491],[-77.7822,39.499],[-77.7664,39.4963],[-77.7673,39.4913],[-77.7972,39.4801],[-77.7954,39.4712],[-77.7776,39.4623],[-77.798,39.4608],[-77.7983,39.4561],[-77.7853,39.4454],[-77.8032,39.4371],[-77.7877,39.4292],[-77.7579,39.4264],[-77.7384,39.399],[-77.7366,39.3871],[-77.753,39.3817],[-77.7434,39.3611],[-77.7476,39.3513],[-77.7598,39.3445],[-77.7582,39.3355],[-77.7261,39.3217],[-77.692,39.3186],[-77.6772,39.3245],[-77.6734,39.3442],[-77.6479,39.3832],[-77.6393,39.4074],[-77.6347,39.4455],[-77.6265,39.4485],[-77.6268,39.4571],[-77.616,39.4688],[-77.622,39.4818],[-77.6144,39.4916],[-77.623,39.4999],[-77.6225,39.5082],[-77.6129,39.5297],[-77.5971,39.542],[-77.5994,39.5502],[-77.5868,39.5714],[-77.5702,39.62],[-77.5508,39.6253],[-77.5454,39.6334],[-77.5298,39.632],[-77.5045,39.6626],[-77.4942,39.6584],[-77.4967,39.6535],[-77.4924,39.6437],[-77.4766,39.6476],[-77.4671,39.642],[-77.459,39.6461],[-77.4598,39.6313],[-77.4464,39.6322],[-77.4446,39.627],[-77.4376,39.6259],[-77.4379,39.6212],[-77.4263,39.6203],[-77.4246,39.6137],[-77.4109,39.6104],[-77.4118,39.6035],[-77.3985,39.5988],[-77.3991,39.6037],[-77.3894,39.6116],[-77.3591,39.6135],[-77.3662,39.6255],[-77.3634,39.6468],[-77.3579,39.6521],[-77.3631,39.6584],[-77.3499,39.6639],[-77.3021,39.6545],[-77.3026,39.6402],[-77.2947,39.6319],[-77.2772,39.6313],[-77.2789,39.6369],[-77.2713,39.642],[-77.2756,39.6472],[-77.2655,39.6559],[-77.2662,39.6623],[-77.2558,39.6632],[-77.2345,39.6774],[-77.2431,39.695],[-77.2163,39.6974],[-77.2268,39.7073],[-77.2157,39.7127],[-77.2147,39.7174],[-77.7217,39.7209],[-77.7236,39.7158],[-77.7188,39.7086],[-77.7224,39.7027],[-77.7395,39.7004],[-77.7334,39.6882],[-77.7355,39.671],[-77.7241,39.6725],[-77.7271,39.6689],[-77.7067,39.6644],[-77.6994,39.6694],[-77.6914,39.6673],[-77.6903,39.6589],[-77.695,39.6601],[-77.6984,39.6516],[-77.6897,39.6571],[-77.6907,39.6513],[-77.6961,39.648],[-77.6945,39.6441],[-77.699,39.648],[-77.7019,39.6422],[-77.6933,39.6423],[-77.6933,39.6383],[-77.6878,39.6424],[-77.686,39.6386],[-77.6991,39.6292],[-77.7075,39.6288],[-77.6947,39.6171],[-77.694,39.6228],[-77.687,39.6258],[-77.6844,39.6191],[-77.6893,39.6171],[-77.6881,39.6129],[-77.6724,39.6163],[-77.6758,39.6104],[-77.6939,39.6087],[-77.6861,39.6079],[-77.6871,39.6034],[-77.6812,39.607],[-77.6723,39.6046],[-77.673,39.601],[-77.6903,39.5997],[-77.6886,39.6043],[-77.6933,39.603],[-77.7008,39.6135],[-77.71,39.6123],[-77.7122,39.6176],[-77.7188,39.6157],[-77.7288,39.6222],[-77.7281,39.6121],[-77.7412,39.6136],[-77.7546,39.581],[-77.7717,39.5882],[-77.7813,39.5761],[-77.8419,39.5646],[-77.878,39.5635],[-77.8889,39.5568]]]},"properties":{"geoid":"2402A","state":"24","district":"2A","name":"State Legislative Subdistrict 2A","chamber":"House"}},{"type":"Feature","geometry":{"type":"Polygon","coordinates":[[[-77.773,39.6304],[-77.7502,39.6325],[-77.7513,39.6274],[-77.7419,39.6251],[-77.7455,39.6248],[-77.7413,39.6221],[-77.7455,39.6165],[-77.7418,39.6132],[-77.7281,39.6121],[-77.7288,39.6222],[-77.7188,39.6157],[-77.7122,39.6176],[-77.71,39.6123],[-77.7008,39.6135],[-77.6933,39.603],[-77.6886,39.6043],[-77.6903,39.5997],[-77.6724,39.6023],[-77.6795,39.6071],[-77.6871,39.6034],[-77.6861,39.6079],[-77.6939,39.6087],[-77.6758,39.6104],[-77.6724,39.6163],[-77.6881,39.6129],[-77.6893,39.6171],[-77.6844,39.6191],[-77.687,39.6258],[-77.694,39.6228],[-77.6947,39.6171],[-77.7075,39.6288],[-77.6991,39.6292],[-77.686,39.6386],[-77.6878,39.6424],[-77.6933,39.6383],[-77.6933,39.6423],[-77.7019,39.6422],[-77.699,39.648],[-77.6945,39.6441],[-77.6961,39.648],[-77.6907,39.6513],[-77.6897,39.6571],[-77.6984,39.6516],[-77.695,39.6601],[-77.6903,39.6589],[-77.6914,39.6673],[-77.6994,39.6694],[-77.7067,39.6644],[-77.733,39.673],[-77.7369,39.6657],[-77.7434,39.6737],[-77.7467,39.671],[-77.741,39.6681],[-77.745,39.6627],[-77.7673,39.6596],[-77.7631,39.6539],[-77.7664,39.6479],[-77.7601,39.6438],[-77.7608,39.6545],[-77.7385,39.6603],[-77.7444,39.6539],[-77.7449,39.6422],[-77.7656,39.6337],[-77.7601,39.6364],[-77.7689,39.6433],[-77.7672,39.6363],[-77.773,39.6304]]]},"properties":{"geoid":"2402B","state":"24","district":"2B","name":"State Legislative Subdistrict 2B","chamber":"House"}},{"type":"Feature","geometry":{"type":"Polygon","coordinates":[[[-76.7008,39.1035],[-76.6857,39.1023],[-76.6756,39.0815],[-76.6845,39.0781],[-76.6582,39.0573],[-76.6334,39.0546],[-76.6278,39.0596],[-76.6305,39.0729],[-76.6236,39.0864],[-76.61,39.0898],[-76.5723,39.0785],[-76.5713,39.096],[-76.5654,39.0993],[-76.5332,39.0636],[-76.5253,39.0729],[-76.5096,39.0763],[-76.3565,39.0345],[-76.3517,39.0562],[-76.3548,39.1251],[-76.3495,39.1566],[-76.3747,39.1598],[-76.5145,39.2024],[-76.5295,39.2184],[-76.5298,39.2099],[-76.5501,39.1972],[-76.5803,39.2066],[-76.5735,39.1935],[-76.5766,39.1869],[-76.5958,39.1804],[-76.6099,39.1817],[-76.605,39.1822],[-76.6042,39.1632],[-76.5929,39.148],[-76.5876,39.1574],[-76.5839,39.1519],[-76.569,39.1552],[-76.5632,39.1313],[-76.5978,39.1362],[-76.6156,39.1534],[-76.6203,39.151],[-76.6186,39.1398],[-76.6073,39.132],[-76.6138,39.1242],[-76.6105,39.1227],[-76.6329,39.1108],[-76.6312,39.1078],[-76.6403,39.1067],[-76.643,39.1249],[-76.6592,39.1333],[-76.6554,39.1375],[-76.6857,39.1367],[-76.6873,39.1488],[-76.6974,39.1475],[-76.6958,39.1237],[-76.7008,39.1035]]]},"properties":{"geoid":"24031","state":"24","district":"31","name":"State Legislative District 31","chamber":"House"}},{"type":"Feature","geometry":{"type":"Polygon","coordinates":[[[-76.8404,39.1031],[-76.8376,39.0968],[-76.8247,39.0934],[-76.827,39.0866],[-76.811,39.089],[-76.7778,39.1144],[-76.7673,39.0966],[-76.7549,39.0895],[-76.7233,39.0876],[-76.7171,39.0922],[-76.7224,39.105],[-76.7129,39.1082],[-76.714,39.1122],[-76.6997,39.1077],[-76.6957,39.125],[-76.6974,39.1475],[-76.6873,39.1488],[-76.6857,39.1367],[-76.6554,39.1375],[-76.6592,39.1333],[-76.643,39.1249],[-76.6418,39.1077],[-76.6312,39.1078],[-76.6329,39.1108],[-76.6127,39.1198],[-76.6073,39.132],[-76.6186,39.1398],[-76.6203,39.151],[-76.6146,39.1537],[-76.6223,39.1642],[-76.6129,39.1829],[-76.6136,39.1937],[-76.6323,39.1974],[-76.6315,39.2027],[-76.6417,39.2063],[-76.6436,39.2148],[-76.6488,39.2103],[-76.6583,39.2192],[-76.6797,39.2118],[-76.7153,39.1874],[-76.7207,39.1895],[-76.7221,39.1829],[-76.7465,39.1796],[-76.7815,39.1455],[-76.789,39.1266],[-76.822,39.1191],[-76.8282,39.108],[-76.8404,39.1031]]]},"properties":{"geoid":"24032","state":"24","district":"32","name":"State Legislative District 32","chamber":"House"}},{"type":"Feature","geometry":{"type":"Polygon","coordinates":[[[-76.4366,38.8074],[-76.3712,38.8078],[-76.3578,38.8119],[-76.3385,38.8242],[-76.3157,38.8528],[-76.2615,38.8809],[-76.2497,38.8794],[-76.2281,38.8575],[-76.2384,38.8313],[-76.2115,38.8265],[-76.1924,38.8638],[-76.1822,38.8586],[-76.1779,38.8652],[-76.1699,38.8656],[-76.1625,38.881],[-76.1476,38.8827],[-76.128,38.876],[-76.1214,38.8824],[-76.1035,38.8823],[-76.1027,38.8902],[-76.1155,38.9137],[-76.1037,38.939],[-76.097,38.9443],[-75.9493,38.9183],[-75.9528,38.9296],[-75.948,38.9362],[-75.9534,38.9382],[-75.9471,38.94],[-75.9513,38.946],[-75.9423,38.9498],[-75.9381,38.9591],[-75.943,38.9667],[-75.9266,38.9667],[-75.9133,38.9572],[-75.9093,38.9398],[-75.8946,38.9353],[-75.8944,38.9152],[-75.8645,38.918],[-75.8522,38.9074],[-75.8356,38.9056],[-75.8091,38.9163],[-75.7864,38.9156],[-75.731,38.9331],[-75.7887,39.6501],[-75.7886,39.7222],[-75.8751,39.7219],[-75.8779,39.7154],[-75.8688,39.7105],[-75.8682,39.7032],[-75.8535,39.6993],[-75.8514,39.6881],[-75.8565,39.6865],[-75.8833,39.694],[-75.8864,39.7008],[-75.9035,39.6973],[-75.9316,39.7002],[-75.9236,39.6858],[-75.9015,39.6733],[-75.916,39.6336],[-75.9067,39.6287],[-75.9202,39.6251],[-75.9203,39.6202],[-75.9287,39.6176],[-75.9334,39.609],[-75.9139,39.6079],[-75.9172,39.6067],[-75.9118,39.5956],[-75.9129,39.5826],[-75.9167,39.5771],[-75.9332,39.5873],[-75.9425,39.5864],[-75.9405,39.5803],[-75.9528,39.587],[-75.9788,39.5583],[-75.9842,39.5395],[-75.9923,39.5317],[-76.0571,39.5176],[-76.0441,39.4994],[-76.0358,39.4675],[-76.0408,39.4431],[-76.0523,39.4247],[-76.0769,39.407],[-76.1412,39.3804],[-76.2877,39.2541],[-76.3324,39.2044],[-76.3458,39.1705],[-76.354,39.1335],[-76.3533,39.0457],[-76.3675,39.0001],[-76.3934,38.9627],[-76.4112,38.9254],[-76.4296,38.8549],[-76.4366,38.8074]]]},"properties":{"geoid":"24036","state":"24","district":"36","name":"State Legislative District 36","chamber":"House"}},{"type":"Feature","geometry":{"type":"Polygon","coordinates":[[[-77.3077,39.1464],[-77.2639,39.1162],[-77.2528,39.1179],[-77.244,39.1276],[-77.2399,39.1437],[-77.2441,39.1439],[-77.243,39.1497],[-77.2201,39.1452],[-77.2169,39.1488],[-77.2325,39.161],[-77.2304,39.1656],[-77.2221,39.1629],[-77.2148,39.1683],[-77.2077,39.1639],[-77.2078,39.1562],[-77.2044,39.1582],[-77.1983,39.1523],[-77.1924,39.1525],[-77.1921,39.1601],[-77.1876,39.1596],[-77.1836,39.1399],[-77.172,39.1345],[-77.1661,39.1391],[-77.1745,39.1508],[-77.1655,39.1563],[-77.1743,39.1642],[-77.1721,39.167],[-77.1598,39.1597],[-77.1507,39.1783],[-77.1531,39.195],[-77.1729,39.1903],[-77.1996,39.1976],[-77.2072,39.204],[-77.2397,39.2102],[-77.237,39.2314],[-77.2498,39.2318],[-77.267,39.2156],[-77.2772,39.214],[-77.2546,39.1844],[-77.2673,39.1788],[-77.2817,39.1621],[-77.2881,39.1618],[-77.2946,39.1513],[-77.3077,39.1464]]]},"properties":{"geoid":"24039","state":"24","district":"39","name":"State Legislative District 39","chamber":"House"}},{"type":"Feature","geometry":{"type":"Polygon","coordinates":[[[-76.6797,39.2647],[-76.6599,39.2555],[-76.6528,39.2583],[-76.6296,39.2807],[-76.6237,39.2798],[-76.6275,39.2861],[-76.6152,39.2904],[-76.62,39.2984],[-76.611,39.3026],[-76.6176,39.3054],[-76.614,39.3144],[-76.6202,39.3109],[-76.6277,39.318],[-76.6227,39.3207],[-76.6253,39.3262],[-76.6174,39.3232],[-76.618,39.329],[-76.6245,39.3311],[-76.6232,39.3359],[-76.6372,39.342],[-76.6547,39.3332],[-76.6589,39.3444],[-76.6751,39.3454],[-76.6782,39.3396],[-76.6691,39.3289],[-76.6751,39.3009],[-76.6688,39.2694],[-76.6797,39.2647]]]},"properties":{"geoid":"24040","state":"24","district":"40","name":"State Legislative District 40","chamber":"House"}},{"type":"Feature","geometry":{"type":"Polygon","coordinates":[[[-76.7115,39.3662],[-76.7111,39.2779],[-76.68,39.2644],[-76.6721,39.2668],[-76.6688,39.2694],[-76.6751,39.3009],[-76.6691,39.3289],[-76.6782,39.3396],[-76.6758,39.3444],[-76.6589,39.3444],[-76.6547,39.3332],[-76.6372,39.342],[-76.624,39.3365],[-76.6235,39.3532],[-76.6161,39.3538],[-76.6167,39.3606],[-76.6123,39.3615],[-76.6183,39.372],[-76.7113,39.3719],[-76.7115,39.3662]]]},"properties":{"geoid":"24041","state":"24","district":"41","name":"State Legislative District 41","chamber":"House"}},{"type":"Feature","geometry":{"type":"Polygon","coordinates":[[[-76.6178,39.309],[-76.611,39.3012],[-76.6028,39.3002],[-76.6018,39.2948],[-76.5757,39.2947],[-76.5727,39.2992],[-76.5576,39.2998],[-76.5295,39.2971],[-76.5298,39.3721],[-76.57,39.3721],[-76.5782,39.368],[-76.5822,39.3578],[-76.5725,39.3538],[-76.5752,39.3352],[-76.5907,39.3284],[-76.6062,39.3116],[-76.614,39.3144],[-76.6178,39.309]]]},"properties":{"geoid":"24045","state":"24","district":"45","name":"State Legislative District 45","chamber":"House"}},{"type":"Feature","geometry":{"type":"Polygon","coordinates":[[[-76.6597,39.2556],[-76.6117,39.2344],[-76.5833,39.2074],[-76.5501,39.1972],[-76.5298,39.2099],[-76.5295,39.2971],[-76.5329,39.2987],[-76.5727,39.2992],[-76.5757,39.2947],[-76.5941,39.294],[-76.6018,39.2948],[-76.6049,39.3015],[-76.616,39.3024],[-76.6199,39.2963],[-76.6152,39.2904],[-76.6275,39.2861],[-76.6237,39.2798],[-76.6296,39.2807],[-76.6366,39.2707],[-76.6597,39.2556]]]},"properties":{"geoid":"24046","state":"24","district":"46","name":"State Legislative District 46","chamber":"House"}},{"type":"Feature","geometry":{"type":"Polygon","coordinates":[[[-76.5743,39.4155],[-76.5599,39.4123],[-76.5676,39.41],[-76.5638,39.409],[-76.5659,39.4031],[-76.5463,39.4021],[-76.5408,39.409],[-76.5325,39.4057],[-76.5365,39.3984],[-76.5246,39.3936],[-76.5125,39.395],[-76.5108,39.3899],[-76.5044,39.3955],[-76.486,39.3976],[-76.4966,39.4032],[-76.4944,39.4103],[-76.4805,39.4052],[-76.478,39.4126],[-76.4693,39.4112],[-76.4741,39.3909],[-76.4695,39.3854],[-76.4458,39.3823],[-76.4542,39.3745],[-76.4295,39.358],[-76.4367,39.3531],[-76.4391,39.3302],[-76.4233,39.315],[-76.3899,39.2972],[-76.3438,39.2845],[-76.3319,39.2986],[-76.3066,39.3101],[-76.3163,39.3299],[-76.3156,39.3376],[-76.3301,39.3562],[-76.3212,39.3663],[-76.3237,39.3744],[-76.3588,39.3903],[-76.3611,39.4003],[-76.3719,39.4051],[-76.3702,39.4152],[-76.3804,39.4249],[-76.3789,39.4454],[-76.3886,39.4532],[-76.3866,39.4596],[-76.4027,39.4733],[-76.4079,39.4721],[-76.4106,39.4784],[-76.4206,39.4781],[-76.4331,39.488],[-76.4279,39.5019],[-76.4322,39.5066],[-76.437,39.502],[-76.448,39.5085],[-76.4596,39.5072],[-76.4627,39.5125],[-76.4741,39.5176],[-76.4774,39.5145],[-76.4967,39.526],[-76.5088,39.512],[-76.5027,39.5078],[-76.5259,39.4956],[-76.5223,39.4883],[-76.5061,39.4868],[-76.5022,39.4476],[-76.527,39.4342],[-76.5325,39.4401],[-76.5328,39.4496],[-76.5458,39.4541],[-76.5559,39.4418],[-76.558,39.4455],[-76.5584,39.4398],[-76.5529,39.4382],[-76.5665,39.4214],[-76.5618,39.4188],[-76.5743,39.4155]]]},"properties":{"geoid":"2407A","state":"24","district":"7A","name":"State Legislative Subdistrict 7A","chamber":"House"}},{"type":"Feature","geometry":{"type":"Polygon","coordinates":[[[-76.5694,39.7212],[-76.5652,39.6145],[-76.5601,39.5961],[-76.5471,39.5877],[-76.5398,39.5678],[-76.532,39.5615],[-76.5322,39.544],[-76.5185,39.5364],[-76.5104,39.5244],[-76.4946,39.5266],[-76.4774,39.5145],[-76.4741,39.5176],[-76.4627,39.5125],[-76.4596,39.5072],[-76.448,39.5085],[-76.437,39.502],[-76.4322,39.5066],[-76.4293,39.5043],[-76.4331,39.488],[-76.4206,39.4781],[-76.4106,39.4784],[-76.4079,39.4721],[-76.4027,39.4733],[-76.3866,39.4597],[-76.3886,39.4532],[-76.3789,39.4454],[-76.3804,39.4249],[-76.3702,39.4152],[-76.3722,39.4056],[-76.3611,39.4003],[-76.3588,39.3903],[-76.3492,39.3859],[-76.3446,39.4059],[-76.3615,39.4156],[-76.3629,39.4217],[-76.3544,39.423],[-76.3557,39.429],[-76.301,39.4376],[-76.3179,39.4445],[-76.3299,39.4648],[-76.3255,39.476],[-76.3305,39.4797],[-76.327,39.4923],[-76.33,39.4975],[-76.3571,39.5237],[-76.3678,39.5253],[-76.369,39.5156],[-76.3697,39.5195],[-76.3887,39.5247],[-76.3996,39.5202],[-76.4014,39.5134],[-76.402,39.5194],[-76.4076,39.515],[-76.4462,39.5322],[-76.4416,39.5455],[-76.4502,39.5637],[-76.4604,39.5654],[-76.4672,39.5806],[-76.475,39.5864],[-76.4781,39.6102],[-76.4713,39.6437],[-76.4453,39.6645],[-76.4501,39.6762],[-76.4516,39.7211],[-76.5694,39.7212]]]},"properties":{"geoid":"2407B","state":"24","district":"7B","name":"State Legislative Subdistrict 7B","chamber":"House"}},{"type":"Feature","geometry":{"type":"Polygon","coordinates":[[[-77.325,39.2812],[-77.2983,39.2471],[-77.2779,39.2375],[-77.2384,39.2514],[-77.2341,39.2469],[-77.2215,39.2621],[-77.2027,39.2601],[-77.2019,39.2836],[-77.1926,39.2927],[-77.1735,39.2997],[-77.1471,39.2972],[-77.1401,39.2921],[-77.14,39.2831],[-77.1306,39.2684],[-77.0817,39.2599],[-77.0656,39.251],[-77.06,39.2402],[-77.041,39.2342],[-77.0272,39.2431],[-77.0225,39.2375],[-77.0084,39.245],[-77.0061,39.251],[-76.9945,39.2534],[-76.9894,39.2413],[-76.976,39.2302],[-76.9742,39.2219],[-76.9815,39.2014],[-76.9714,39.1872],[-76.9439,39.1668],[-76.9429,39.1735],[-76.933,39.1744],[-76.9354,39.1777],[-76.9296,39.1851],[-76.9222,39.188],[-76.9357,39.1947],[-76.9294,39.1999],[-76.9245,39.1964],[-76.9276,39.2004],[-76.9058,39.2035],[-76.9048,39.2143],[-76.917,39.2294],[-76.8869,39.235],[-76.894,39.2514],[-76.8913,39.2656],[-76.9049,39.2627],[-76.9088,39.2558],[-76.9144,39.2597],[-76.9101,39.2669],[-76.9166,39.2796],[-76.9007,39.2877],[-76.8892,39.2852],[-76.8881,39.2709],[-76.8632,39.2742],[-76.8602,39.2795],[-76.8226,39.2771],[-76.8261,39.2966],[-76.8117,39.2968],[-76.8103,39.2827],[-76.7866,39.2964],[-76.7785,39.2953],[-76.7958,39.3037],[-76.7925,39.3111],[-76.7956,39.3147],[-76.8143,39.318],[-76.8174,39.3131],[-76.8252,39.3193],[-76.8341,39.3115],[-76.8443,39.3183],[-76.8516,39.3162],[-76.8628,39.3301],[-76.875,39.3322],[-76.8784,39.3365],[-76.8753,39.3401],[-76.889,39.3538],[-76.9056,39.3542],[-76.9096,39.3485],[-76.9464,39.361],[-76.96,39.3566],[-76.9698,39.364],[-77.0254,39.3506],[-77.0486,39.3622],[-77.0613,39.3592],[-77.101,39.3693],[-77.1264,39.3643],[-77.1518,39.3486],[-77.1676,39.3544],[-77.325,39.2812]]]},"properties":{"geoid":"2409A","state":"24","district":"9A","name":"State Legislative Subdistrict 9A","chamber":"House"}},{"type":"Feature","geometry":{"type":"Polygon","coordinates":[[[-76.9168,39.2793],[-76.9101,39.2669],[-76.9144,39.2597],[-76.9088,39.2558],[-76.9049,39.2627],[-76.8913,39.2656],[-76.894,39.2514],[-76.8869,39.235],[-76.8472,39.2395],[-76.846,39.2454],[-76.8317,39.2482],[-76.8312,39.2386],[-76.8131,39.2329],[-76.8143,39.2388],[-76.8018,39.2396],[-76.7906,39.2282],[-76.7757,39.2449],[-76.7637,39.2507],[-76.7945,39.2666],[-76.7852,39.2829],[-76.7852,39.2918],[-76.7786,39.295],[-76.7826,39.2968],[-76.8103,39.2827],[-76.8117,39.2968],[-76.8261,39.2966],[-76.8226,39.2771],[-76.8602,39.2795],[-76.8632,39.2742],[-76.8881,39.2709],[-76.8892,39.2852],[-76.9007,39.2877],[-76.9168,39.2793]]]},"properties":{"geoid":"2409B","state":"24","district":"9B","name":"State Legislative Subdistrict 9B","chamber":"House"}},{"type":"Feature","geometry":{"type":"Polygon","coordinates":[[[-76.8163,39.4072],[-76.8127,39.4053],[-76.8136,39.3944],[-76.8077,39.398],[-76.8136,39.3891],[-76.811,39.3866],[-76.7892,39.3825],[-76.7868,39.3882],[-76.7741,39.3902],[-76.7595,39.3846],[-76.7719,39.3816],[-76.7706,39.3771],[-76.7581,39.3828],[-76.7517,39.3757],[-76.7584,39.3867],[-76.7472,39.4004],[-76.7644,39.4084],[-76.7574,39.4141],[-76.7634,39.4158],[-76.7613,39.4219],[-76.7659,39.4306],[-76.7408,39.4361],[-76.7586,39.4462],[-76.7491,39.4485],[-76.7551,39.4544],[-76.7542,39.4601],[-76.7288,39.4573],[-76.7208,39.4607],[-76.7175,39.472],[-76.7078,39.4772],[-76.7013,39.4689],[-76.6798,39.4794],[-76.6638,39.4744],[-76.6675,39.4951],[-76.7398,39.4956],[-76.7426,39.4914],[-76.7539,39.4912],[-76.7651,39.4767],[-76.7717,39.4785],[-76.7806,39.4707],[-76.7868,39.4498],[-76.7833,39.4432],[-76.8017,39.4323],[-76.7921,39.4292],[-76.8058,39.4262],[-76.8163,39.4072]]]},"properties":{"geoid":"2411A","state":"24","district":"11A","name":"State Legislative Subdistrict 11A","chamber":"House"}},{"type":"Feature","geometry":{"type":"Polygon","coordinates":[[[-76.7699,39.3772],[-76.7645,39.3676],[-76.7481,39.3695],[-76.7463,39.3598],[-76.7215,39.3631],[-76.7191,39.3571],[-76.7112,39.3544],[-76.7113,39.3719],[-76.6183,39.372],[-76.6275,39.3817],[-76.6266,39.3996],[-76.6452,39.4022],[-76.6433,39.4128],[-76.6145,39.4168],[-76.6264,39.4409],[-76.6301,39.4396],[-76.6351,39.4488],[-76.6298,39.4486],[-76.635,39.4607],[-76.6305,39.4627],[-76.6323,39.4743],[-76.6425,39.4781],[-76.6506,39.5007],[-76.6675,39.4951],[-76.6638,39.4744],[-76.6798,39.4794],[-76.7013,39.4689],[-76.7078,39.4772],[-76.7175,39.472],[-76.7208,39.4607],[-76.7288,39.4573],[-76.7542,39.4601],[-76.7551,39.4544],[-76.7491,39.4485],[-76.7586,39.4462],[-76.7408,39.4361],[-76.7659,39.4306],[-76.7613,39.4219],[-76.7634,39.4158],[-76.7574,39.4141],[-76.7644,39.4084],[-76.7472,39.4004],[-76.7584,39.3867],[-76.7517,39.3757],[-76.7581,39.3828],[-76.7699,39.3772]]]},"properties":{"geoid":"2411B","state":"24","district":"11B","name":"State Legislative Subdistrict 11B","chamber":"House"}},{"type":"Feature","geometry":{"type":"Polygon","coordinates":[[[-76.9167,39.2298],[-76.9048,39.2142],[-76.9084,39.2047],[-76.8977,39.1954],[-76.8961,39.1883],[-76.8745,39.1819],[-76.8416,39.2331],[-76.8352,39.2344],[-76.817,39.2259],[-76.8246,39.2197],[-76.8148,39.2081],[-76.8,39.2107],[-76.7954,39.2026],[-76.7811,39.1991],[-76.7728,39.1916],[-76.7666,39.1974],[-76.7399,39.179],[-76.722,39.183],[-76.7193,39.1914],[-76.7133,39.1934],[-76.7124,39.2018],[-76.6964,39.2136],[-76.7045,39.2149],[-76.7064,39.2212],[-76.7401,39.2324],[-76.7543,39.2463],[-76.768,39.25],[-76.7906,39.2282],[-76.8018,39.2396],[-76.8143,39.2388],[-76.8131,39.2329],[-76.8312,39.2386],[-76.8317,39.2482],[-76.846,39.2454],[-76.8472,39.2395],[-76.9167,39.2298]]]},"properties":{"geoid":"2412A","state":"24","district":"12A","name":"State Legislative Subdistrict 12A","chamber":"House"}},{"type":"Feature","geometry":{"type":"Polygon","coordinates":[[[-76.7199,39.1899],[-76.7153,39.1874],[-76.6815,39.2109],[-76.6583,39.2192],[-76.6488,39.2103],[-76.6436,39.2148],[-76.6417,39.2063],[-76.6315,39.2027],[-76.6323,39.1974],[-76.6136,39.1937],[-76.6129,39.1829],[-76.6222,39.1633],[-76.6003,39.1379],[-76.5632,39.1313],[-76.569,39.1552],[-76.5839,39.1519],[-76.5876,39.1574],[-76.5929,39.148],[-76.6029,39.1599],[-76.605,39.1822],[-76.6099,39.1817],[-76.5933,39.181],[-76.5766,39.1869],[-76.5735,39.1935],[-76.5803,39.2066],[-76.6186,39.2374],[-76.6325,39.2236],[-76.6617,39.2311],[-76.6802,39.2202],[-76.6928,39.2198],[-76.7199,39.1899]]]},"properties":{"geoid":"2412B","state":"24","district":"12B","name":"State Legislative Subdistrict 12B","chamber":"House"}},{"type":"Feature","geometry":{"type":"Polygon","coordinates":[[[-76.9776,38.6931],[-76.9666,38.6806],[-76.9744,38.6722],[-76.9674,38.661],[-76.9135,38.6529],[-76.9176,38.6298],[-76.8818,38.6145],[-76.8988,38.6052],[-76.892,38.5984],[-76.8929,38.593],[-76.8775,38.5957],[-76.8622,38.5847],[-76.8612,38.5665],[-76.8545,38.5606],[-76.8683,38.548],[-76.8555,38.5305],[-76.8419,38.5292],[-76.8386,38.5214],[-76.8166,38.5309],[-76.8047,38.5286],[-76.7633,38.5412],[-76.7479,38.5397],[-76.7393,38.5677],[-76.7476,38.6173],[-76.863,38.6586],[-76.8742,38.6583],[-76.8721,38.6955],[-76.8757,38.7009],[-76.8818,38.6958],[-76.8892,38.7],[-76.8806,38.7035],[-76.8873,38.7058],[-76.8855,38.7136],[-76.8966,38.7255],[-76.8949,38.7379],[-76.9,38.7407],[-76.8964,38.7415],[-76.895,38.7553],[-76.9141,38.7436],[-76.9273,38.7484],[-76.9271,38.752],[-76.9321,38.7475],[-76.922,38.73],[-76.9256,38.7229],[-76.9415,38.7083],[-76.9715,38.7067],[-76.9776,38.6931]]]},"properties":{"geoid":"2427A","state":"24","district":"27A","name":"State Legislative Subdistrict 27A","chamber":"House"}},{"type":"Feature","geometry":{"type":"Polygon","coordinates":[[[-76.9,38.7407],[-76.8949,38.7379],[-76.8965,38.7252],[-76.8855,38.7136],[-76.8873,38.7058],[-76.8806,38.7035],[-76.8892,38.7],[-76.8818,38.6958],[-76.8757,38.7009],[-76.8723,38.696],[-76.8742,38.6583],[-76.863,38.6586],[-76.7485,38.6182],[-76.7406,38.5588],[-76.7065,38.5432],[-76.7039,38.5471],[-76.6898,38.5376],[-76.6755,38.5359],[-76.6724,38.5489],[-76.6807,38.5805],[-76.6726,38.5993],[-76.6723,38.6175],[-76.6785,38.6273],[-76.6929,38.6364],[-76.6916,38.6485],[-76.6843,38.6565],[-76.6904,38.648],[-76.6862,38.6416],[-76.6757,38.6477],[-76.678,38.6551],[-76.6527,38.6592],[-76.6565,38.668],[-76.6417,38.6683],[-76.6312,38.6806],[-76.6087,38.6627],[-76.6169,38.6692],[-76.5995,38.6696],[-76.5846,38.677],[-76.5703,38.6765],[-76.5605,38.6673],[-76.5553,38.681],[-76.5454,38.6776],[-76.5378,38.6648],[-76.5295,38.6652],[-76.5332,38.6935],[-76.5281,38.7116],[-76.5356,38.7215],[-76.6159,38.7208],[-76.6229,38.7266],[-76.6231,38.7673],[-76.6476,38.7687],[-76.6666,38.7621],[-76.6721,38.7557],[-76.6852,38.7561],[-76.6864,38.7485],[-76.6993,38.7534],[-76.6965,38.7443],[-76.7023,38.743],[-76.7059,38.7474],[-76.715,38.7388],[-76.74,38.7315],[-76.7642,38.7325],[-76.7606,38.7302],[-76.7674,38.7252],[-76.7991,38.733],[-76.8103,38.7423],[-76.8201,38.7392],[-76.8166,38.746],[-76.8324,38.7533],[-76.8328,38.7444],[-76.8465,38.7462],[-76.86,38.7365],[-76.8795,38.7505],[-76.8848,38.7683],[-76.8981,38.7653],[-76.8951,38.7543],[-76.8964,38.7415],[-76.9,38.7407]]]},"properties":{"geoid":"2427B","state":"24","district":"27B","name":"State Legislative Subdistrict 27B","chamber":"House"}},{"type":"Feature","geometry":{"type":"Polygon","coordinates":[[[-76.6922,38.6432],[-76.692,38.6349],[-76.6785,38.6273],[-76.6723,38.6175],[-76.6726,38.5993],[-76.6807,38.5805],[-76.6723,38.5528],[-76.6757,38.5365],[-76.6625,38.5255],[-76.6744,38.5001],[-76.6521,38.4738],[-76.6539,38.4634],[-76.6242,38.4435],[-76.6084,38.4244],[-76.5975,38.4234],[-76.5656,38.4071],[-76.5584,38.3959],[-76.5341,38.3978],[-76.5063,38.3751],[-76.4962,38.3915],[-76.4795,38.3939],[-76.4859,38.3975],[-76.4815,38.4056],[-76.4854,38.4077],[-76.4822,38.4149],[-76.4866,38.4206],[-76.4836,38.426],[-76.4731,38.4247],[-76.4657,38.43],[-76.4709,38.444],[-76.4664,38.4345],[-76.447,38.4357],[-76.4422,38.4331],[-76.4459,38.4323],[-76.4432,38.4279],[-76.4328,38.4272],[-76.478,38.4694],[-76.4696,38.4694],[-76.4923,38.4898],[-76.4158,38.4898],[-76.4263,38.5081],[-76.4636,38.7111],[-76.5292,38.7128],[-76.5332,38.6935],[-76.5295,38.6652],[-76.5331,38.6634],[-76.5454,38.6776],[-76.5553,38.681],[-76.5605,38.6673],[-76.5703,38.6765],[-76.5846,38.677],[-76.5995,38.6696],[-76.6169,38.6692],[-76.6087,38.6627],[-76.6312,38.6806],[-76.6417,38.6683],[-76.6565,38.668],[-76.6527,38.6592],[-76.678,38.6551],[-76.6757,38.6477],[-76.6862,38.6416],[-76.6904,38.648],[-76.6843,38.6565],[-76.6922,38.6432]]]},"properties":{"geoid":"2427C","state":"24","district":"27C","name":"State Legislative Subdistrict 27C","chamber":"House"}},{"type":"Feature","geometry":{"type":"Polygon","coordinates":[[[-76.8744,38.3822],[-76.8479,38.3622],[-76.8529,38.3326],[-76.8462,38.3278],[-76.821,38.2713],[-76.8689,38.1714],[-76.8384,38.1635],[-76.7882,38.1693],[-76.753,38.165],[-76.7445,38.202],[-76.7285,38.2306],[-76.691,38.2302],[-76.6876,38.2529],[-76.661,38.2569],[-76.6358,38.2718],[-76.6292,38.2795],[-76.6324,38.2854],[-76.6247,38.28],[-76.6183,38.2848],[-76.6275,38.2975],[-76.6216,38.314],[-76.6147,38.3151],[-76.6195,38.3225],[-76.6091,38.3237],[-76.5844,38.3407],[-76.5473,38.3575],[-76.5426,38.3746],[-76.5331,38.3787],[-76.5244,38.3731],[-76.5284,38.3717],[-76.5002,38.3584],[-76.4965,38.3438],[-76.4831,38.3424],[-76.4957,38.3666],[-76.5331,38.3972],[-76.5584,38.3959],[-76.5656,38.4071],[-76.5975,38.4234],[-76.6084,38.4244],[-76.6242,38.4435],[-76.6539,38.4634],[-76.6521,38.4738],[-76.6664,38.4948],[-76.6741,38.4996],[-76.6846,38.495],[-76.6993,38.4971],[-76.7138,38.5105],[-76.7529,38.5138],[-76.775,38.5089],[-76.8227,38.4284],[-76.8467,38.408],[-76.8503,38.3983],[-76.8713,38.3901],[-76.8744,38.3822]]]},"properties":{"geoid":"2429A","state":"24","district":"29A","name":"State Legislative Subdistrict 29A","chamber":"House"}},{"type":"Feature","geometry":{"type":"Polygon","coordinates":[[[-76.5673,38.3074],[-76.5489,38.2985],[-76.5567,38.2838],[-76.5369,38.275],[-76.5088,38.2517],[-76.5077,38.2431],[-76.4901,38.2309],[-76.493,38.2269],[-76.4557,38.2069],[-76.4488,38.1945],[-76.4368,38.1914],[-76.4471,38.1721],[-76.4455,38.0914],[-76.5341,38.0901],[-76.5412,38.0765],[-76.5162,38.0449],[-76.5166,38.0268],[-76.465,38.0132],[-76.4129,37.9663],[-76.3386,37.9453],[-76.2658,37.911],[-76.2361,37.8885],[-76.2015,38.0773],[-76.3141,38.2968],[-76.3219,38.3273],[-76.3788,38.3274],[-76.4543,38.3053],[-76.4617,38.2971],[-76.4558,38.2919],[-76.4624,38.2754],[-76.5358,38.3146],[-76.5613,38.318],[-76.5673,38.3074]]]},"properties":{"geoid":"2429B","state":"24","district":"29B","name":"State Legislative Subdistrict 29B","chamber":"House"}},{"type":"Feature","geometry":{"type":"Polygon","coordinates":[[[-76.753,38.165],[-76.6054,38.1489],[-76.6104,38.1485],[-76.5962,38.1067],[-76.5412,38.0765],[-76.5341,38.0901],[-76.4455,38.0914],[-76.4471,38.1721],[-76.4372,38.1926],[-76.4488,38.1945],[-76.4557,38.2069],[-76.485,38.2205],[-76.4931,38.227],[-76.4904,38.2312],[-76.5077,38.2431],[-76.5092,38.2521],[-76.5369,38.275],[-76.5567,38.2838],[-76.5489,38.2985],[-76.5664,38.3052],[-76.5651,38.3148],[-76.5613,38.318],[-76.5358,38.3146],[-76.4624,38.2754],[-76.4558,38.2919],[-76.4617,38.2971],[-76.4543,38.3053],[-76.3788,38.3274],[-76.3219,38.3273],[-76.3363,38.388],[-76.4158,38.4898],[-76.4923,38.4898],[-76.4696,38.4694],[-76.478,38.4694],[-76.4328,38.4296],[-76.4393,38.4263],[-76.4469,38.4357],[-76.4664,38.4345],[-76.4709,38.444],[-76.4657,38.43],[-76.4731,38.4247],[-76.485,38.4251],[-76.4822,38.4149],[-76.4854,38.4077],[-76.4815,38.4045],[-76.4859,38.3976],[-76.4795,38.3939],[-76.4962,38.3915],[-76.5063,38.3751],[-76.4892,38.3584],[-76.4834,38.3404],[-76.4965,38.3438],[-76.5002,38.3584],[-76.5284,38.3717],[-76.5244,38.3729],[-76.5273,38.3755],[-76.5331,38.3787],[-76.5426,38.3746],[-76.5473,38.3575],[-76.5844,38.3407],[-76.6091,38.3237],[-76.6195,38.3225],[-76.6147,38.3151],[-76.6216,38.314],[-76.6275,38.2975],[-76.6183,38.2848],[-76.6247,38.28],[-76.6324,38.2854],[-76.6292,38.2795],[-76.6358,38.2718],[-76.661,38.2569],[-76.6876,38.2529],[-76.691,38.2302],[-76.7285,38.2306],[-76.7445,38.202],[-76.753,38.165]]]},"properties":{"geoid":"2429C","state":"24","district":"29C","name":"State Legislative Subdistrict 29C","chamber":"House"}},{"type":"Feature","geometry":{"type":"Polygon","coordinates":[[[-76.6049,38.9813],[-76.5937,38.962],[-76.555,38.9515],[-76.5671,38.9368],[-76.5589,38.9374],[-76.5571,38.927],[-76.5463,38.9246],[-76.5478,38.9215],[-76.5411,38.9309],[-76.5277,38.9364],[-76.4934,38.9128],[-76.4236,38.8795],[-76.4112,38.9254],[-76.3934,38.9627],[-76.4412,38.9857],[-76.4555,38.9979],[-76.4568,39.0066],[-76.4816,39.0186],[-76.4758,39.0214],[-76.4751,39.0275],[-76.4794,39.0373],[-76.4917,39.0389],[-76.5038,39.0292],[-76.529,39.0566],[-76.5356,39.0399],[-76.5328,39.0353],[-76.534,39.0385],[-76.5261,39.0394],[-76.5341,39.0319],[-76.5235,39.0209],[-76.5493,39.0142],[-76.5593,39.0012],[-76.5681,38.9974],[-76.5676,38.9901],[-76.5632,38.9891],[-76.5684,38.9839],[-76.6049,38.9813]]]},"properties":{"geoid":"2430A","state":"24","district":"30A","name":"State Legislative Subdistrict 30A","chamber":"House"}},{"type":"Feature","geometry":{"type":"Polygon","coordinates":[[[-76.7144,38.7793],[-76.7009,38.7687],[-76.6993,38.7534],[-76.6944,38.7489],[-76.6864,38.7485],[-76.6852,38.7561],[-76.6721,38.7557],[-76.6666,38.7621],[-76.6467,38.7689],[-76.6231,38.7673],[-76.6229,38.7266],[-76.6154,38.7206],[-76.5356,38.7215],[-76.5285,38.7127],[-76.4636,38.7111],[-76.4338,38.814],[-76.4236,38.8795],[-76.4934,38.9128],[-76.5277,38.9364],[-76.5411,38.9309],[-76.5478,38.9215],[-76.5463,38.9246],[-76.5571,38.927],[-76.5589,38.9374],[-76.5671,38.9368],[-76.555,38.9515],[-76.5674,38.9543],[-76.5772,38.9416],[-76.588,38.9522],[-76.598,38.9476],[-76.6109,38.9278],[-76.5981,38.9272],[-76.5926,38.9178],[-76.5803,38.9104],[-76.6198,38.8656],[-76.6261,38.8685],[-76.6357,38.8873],[-76.6696,38.888],[-76.6763,38.8952],[-76.6719,38.8871],[-76.6919,38.8592],[-76.6994,38.8389],[-76.697,38.8188],[-76.7121,38.814],[-76.7101,38.796],[-76.7021,38.7885],[-76.7144,38.7793]]]},"properties":{"geoid":"2430B","state":"24","district":"30B","name":"State Legislative Subdistrict 30B","chamber":"House"}},{"type":"Feature","geometry":{"type":"Polygon","coordinates":[[[-76.734,39.0562],[-76.7276,39.0487],[-76.7165,39.0481],[-76.7142,39.053],[-76.7038,39.0524],[-76.698,39.0459],[-76.6874,39.0476],[-76.6914,39.0327],[-76.6755,39.0253],[-76.6709,39.035],[-76.6752,39.0393],[-76.6695,39.0435],[-76.6566,39.0377],[-76.6488,39.0408],[-76.6505,39.045],[-76.6402,39.0402],[-76.6312,39.0489],[-76.6338,39.0544],[-76.6594,39.0577],[-76.683,39.0765],[-76.6756,39.0815],[-76.6857,39.1023],[-76.7008,39.1035],[-76.7049,39.112],[-76.7083,39.1081],[-76.714,39.1122],[-76.7129,39.1082],[-76.7224,39.105],[-76.7139,39.0878],[-76.7063,39.0869],[-76.7119,39.0795],[-76.7092,39.0704],[-76.734,39.0562]]]},"properties":{"geoid":"2433A","state":"24","district":"33A","name":"State Legislative Subdistrict 33A","chamber":"House"}},{"type":"Feature","geometry":{"type":"Polygon","coordinates":[[[-76.704,38.9728],[-76.694,38.9564],[-76.6922,38.9363],[-76.6815,38.9316],[-76.6906,38.9235],[-76.6701,38.9069],[-76.6763,38.8957],[-76.6715,38.8942],[-76.6717,38.8889],[-76.6357,38.8873],[-76.6261,38.8685],[-76.6198,38.8656],[-76.5802,38.9106],[-76.5926,38.9178],[-76.5981,38.9272],[-76.6109,38.9278],[-76.6073,38.9355],[-76.598,38.9476],[-76.5882,38.9521],[-76.5772,38.9416],[-76.5669,38.9521],[-76.5937,38.962],[-76.6049,38.9813],[-76.5684,38.9839],[-76.5632,38.9891],[-76.5676,38.9901],[-76.5681,38.9974],[-76.5593,39.0012],[-76.5493,39.0142],[-76.5235,39.0209],[-76.5686,39.0652],[-76.5614,39.076],[-76.61,39.0898],[-76.6236,39.0864],[-76.6305,39.0729],[-76.6278,39.0596],[-76.6338,39.0544],[-76.6338,39.0454],[-76.6402,39.0402],[-76.6505,39.045],[-76.6488,39.0408],[-76.6566,39.0377],[-76.6695,39.0435],[-76.6752,39.0393],[-76.6579,39.0238],[-76.664,39.0124],[-76.676,39.0169],[-76.6825,39.0118],[-76.6957,39.0193],[-76.7011,38.9967],[-76.6982,38.992],[-76.681,38.9913],[-76.6922,38.9855],[-76.7033,38.9881],[-76.698,38.9828],[-76.704,38.9728]]]},"properties":{"geoid":"2433B","state":"24","district":"33B","name":"State Legislative Subdistrict 33B","chamber":"House"}},{"type":"Feature","geometry":{"type":"Polygon","coordinates":[[[-76.5723,39.0785],[-76.5614,39.076],[-76.5686,39.0652],[-76.5341,39.0319],[-76.5261,39.0394],[-76.534,39.0385],[-76.5328,39.0353],[-76.5356,39.0399],[-76.529,39.0566],[-76.5038,39.0292],[-76.4917,39.0389],[-76.4794,39.0373],[-76.4751,39.0275],[-76.4758,39.0214],[-76.4816,39.0186],[-76.4568,39.0066],[-76.4555,38.9979],[-76.4412,38.9857],[-76.3934,38.9627],[-76.3675,39.0001],[-76.3565,39.0345],[-76.5096,39.0763],[-76.5253,39.0729],[-76.5332,39.0636],[-76.5654,39.0993],[-76.5713,39.096],[-76.5723,39.0785]]]},"properties":{"geoid":"2433C","state":"24","district":"33C","name":"State Legislative Subdistrict 33C","chamber":"House"}},{"type":"Feature","geometry":{"type":"Polygon","coordinates":[[[-76.3633,39.4194],[-76.3446,39.4059],[-76.3492,39.3859],[-76.3237,39.3744],[-76.3206,39.3688],[-76.3301,39.3562],[-76.3156,39.3376],[-76.3163,39.3299],[-76.3066,39.3101],[-76.3319,39.2986],[-76.3443,39.2825],[-76.2877,39.2541],[-76.1412,39.3804],[-76.0836,39.4037],[-76.0552,39.4218],[-76.039,39.4481],[-76.0371,39.4773],[-76.0505,39.5098],[-76.1061,39.5805],[-76.1351,39.5736],[-76.1834,39.5302],[-76.1836,39.5349],[-76.1905,39.5363],[-76.1845,39.5395],[-76.185,39.545],[-76.1874,39.5413],[-76.1953,39.5442],[-76.2039,39.5343],[-76.1922,39.5334],[-76.1961,39.5301],[-76.1885,39.5243],[-76.1944,39.524],[-76.2449,39.487],[-76.3211,39.4513],[-76.3179,39.4445],[-76.3014,39.4374],[-76.3557,39.429],[-76.3544,39.423],[-76.3633,39.4194]]]},"properties":{"geoid":"2434A","state":"24","district":"34A","name":"State Legislative Subdistrict 34A","chamber":"House"}},{"type":"Feature","geometry":{"type":"Polygon","coordinates":[[[-76.3678,39.5253],[-76.3514,39.5202],[-76.3455,39.5087],[-76.33,39.4975],[-76.327,39.4923],[-76.3305,39.4797],[-76.3255,39.476],[-76.3299,39.4648],[-76.3211,39.4513],[-76.2514,39.4843],[-76.2865,39.5245],[-76.2964,39.5158],[-76.3141,39.5236],[-76.3317,39.5411],[-76.3399,39.5408],[-76.3361,39.5486],[-76.3465,39.5524],[-76.3652,39.5446],[-76.3553,39.5294],[-76.365,39.5316],[-76.3678,39.5253]]]},"properties":{"geoid":"2434B","state":"24","district":"34B","name":"State Legislative Subdistrict 34B","chamber":"House"}},{"type":"Feature","geometry":{"type":"Polygon","coordinates":[[[-76.4781,39.6097],[-76.475,39.5864],[-76.4672,39.5806],[-76.4604,39.5654],[-76.4503,39.5639],[-76.4416,39.5455],[-76.4462,39.5322],[-76.4076,39.515],[-76.402,39.5194],[-76.4014,39.5134],[-76.3996,39.5202],[-76.3877,39.5249],[-76.3697,39.5195],[-76.369,39.5156],[-76.3712,39.521],[-76.365,39.5316],[-76.3553,39.5294],[-76.3652,39.5446],[-76.3465,39.5524],[-76.3361,39.5486],[-76.3399,39.5408],[-76.3317,39.5411],[-76.3141,39.5236],[-76.2964,39.5158],[-76.2865,39.5245],[-76.2514,39.4843],[-76.1885,39.5243],[-76.1961,39.5301],[-76.1922,39.5334],[-76.2039,39.5343],[-76.1953,39.5442],[-76.1874,39.5413],[-76.185,39.545],[-76.1845,39.5395],[-76.1905,39.5363],[-76.1836,39.5349],[-76.1834,39.5302],[-76.1351,39.5736],[-76.1061,39.5805],[-76.136,39.6141],[-76.1475,39.6194],[-76.1636,39.6513],[-76.157,39.6604],[-76.1522,39.6427],[-76.1279,39.6375],[-76.1136,39.6711],[-76.1196,39.6914],[-76.1096,39.7028],[-76.1216,39.7127],[-76.124,39.7212],[-76.4518,39.7213],[-76.4501,39.6762],[-76.4453,39.6645],[-76.4697,39.6474],[-76.4781,39.6097]]]},"properties":{"geoid":"2435A","state":"24","district":"35A","name":"State Legislative Subdistrict 35A","chamber":"House"}},{"type":"Feature","geometry":{"type":"Polygon","coordinates":[[[-76.1636,39.6513],[-76.1475,39.6194],[-76.136,39.6141],[-76.086,39.559],[-76.0571,39.5176],[-76.0443,39.5189],[-75.9997,39.5281],[-75.9887,39.5343],[-75.9788,39.5583],[-75.9528,39.587],[-75.9405,39.5803],[-75.9425,39.5864],[-75.9332,39.5873],[-75.9167,39.5771],[-75.9129,39.5825],[-75.9118,39.5956],[-75.9172,39.6067],[-75.9139,39.6079],[-75.9334,39.609],[-75.9287,39.6176],[-75.9203,39.6202],[-75.9202,39.6251],[-75.9067,39.6287],[-75.916,39.6336],[-75.9015,39.6733],[-75.9236,39.6858],[-75.9316,39.7002],[-75.9035,39.6973],[-75.8864,39.7008],[-75.876,39.6906],[-75.8669,39.6924],[-75.8627,39.6861],[-75.8514,39.6881],[-75.8538,39.6998],[-75.8682,39.7032],[-75.8688,39.7105],[-75.8779,39.7154],[-75.8751,39.7219],[-76.124,39.7212],[-76.1097,39.6993],[-76.1196,39.6914],[-76.1136,39.6711],[-76.1279,39.6375],[-76.1522,39.6427],[-76.157,39.6604],[-76.1636,39.6513]]]},"properties":{"geoid":"2435B","state":"24","district":"35B","name":"State Legislative Subdistrict 35B","chamber":"House"}},{"type":"Feature","geometry":{"type":"Polygon","coordinates":[[[-76.1137,38.5617],[-76.1026,38.5581],[-76.104,38.5481],[-76.1084,38.5479],[-76.1031,38.5447],[-76.111,38.536],[-76.0962,38.5316],[-76.0937,38.5394],[-76.0727,38.5405],[-76.054,38.5231],[-76.0259,38.5277],[-76.0287,38.5173],[-76.0249,38.5131],[-76.0144,38.5172],[-76.0094,38.5067],[-76.0032,38.5126],[-75.995,38.511],[-75.9953,38.5041],[-75.9901,38.5025],[-75.9949,38.4853],[-75.9921,38.4769],[-75.9971,38.4725],[-76.0016,38.4783],[-76.0097,38.4725],[-76.0005,38.4654],[-76.0059,38.4631],[-75.9997,38.4548],[-76.0058,38.4515],[-76.0066,38.443],[-75.993,38.4387],[-75.9954,38.4278],[-75.986,38.432],[-75.9748,38.4245],[-75.9758,38.4304],[-75.9674,38.4355],[-75.9603,38.4346],[-75.9572,38.4282],[-75.9494,38.4314],[-75.9281,38.4236],[-75.9253,38.4301],[-75.9199,38.4284],[-75.9255,38.432],[-75.9257,38.4246],[-75.9314,38.4261],[-75.9321,38.4388],[-75.9284,38.4409],[-75.9354,38.4392],[-75.932,38.4265],[-75.9457,38.4281],[-75.9371,38.4326],[-75.9538,38.4329],[-75.9461,38.4331],[-75.9531,38.4382],[-75.9506,38.4457],[-75.9563,38.4625],[-75.93,38.4653],[-75.9267,38.4589],[-75.9181,38.4833],[-75.9068,38.4977],[-75.9124,38.5136],[-75.9019,38.5169],[-75.889,38.4867],[-75.8832,38.4827],[-75.9079,38.4688],[-75.9033,38.4597],[-75.9077,38.4545],[-75.903,38.4507],[-75.9073,38.4536],[-75.903,38.4602],[-75.9075,38.4677],[-75.892,38.4794],[-75.8843,38.48],[-75.8928,38.4993],[-75.8897,38.5074],[-75.8803,38.5123],[-75.8474,38.4948],[-75.8497,38.4907],[-75.8278,38.4895],[-75.8195,38.483],[-75.8095,38.4872],[-75.7986,38.4811],[-75.7965,38.4716],[-75.7842,38.4696],[-75.7794,38.4616],[-75.7632,38.4634],[-75.7573,38.4499],[-75.7414,38.4392],[-75.7383,38.4314],[-75.7352,38.4343],[-75.708,38.4305],[-75.6997,38.4254],[-75.7034,38.429],[-75.6979,38.432],[-75.6941,38.4228],[-75.6995,38.4205],[-75.6943,38.414],[-75.7058,38.4056],[-75.7024,38.4012],[-75.6847,38.4072],[-75.6799,38.4132],[-75.6303,38.382],[-75.6227,38.3717],[-75.6396,38.3685],[-75.6317,38.3586],[-75.6242,38.3561],[-75.6122,38.362],[-75.6021,38.3567],[-75.5973,38.3601],[-75.5969,38.3479],[-75.5896,38.3524],[-75.5821,38.3479],[-75.5725,38.353],[-75.5882,38.3653],[-75.5807,38.3696],[-75.5814,38.3741],[-75.5723,38.3755],[-75.5703,38.3825],[-75.5832,38.3841],[-75.6041,38.3662],[-75.5934,38.3927],[-75.5939,38.4086],[-75.6234,38.4232],[-75.6191,38.431],[-75.609,38.4325],[-75.6022,38.4246],[-75.5942,38.4333],[-75.5867,38.4318],[-75.5814,38.4465],[-75.5877,38.4511],[-75.581,38.4503],[-75.5816,38.4562],[-75.6937,38.4601],[-75.7001,38.5426],[-75.7154,38.5332],[-75.7328,38.5298],[-75.746,38.5352],[-75.7548,38.5125],[-75.7779,38.5029],[-75.791,38.5249],[-75.8046,38.5142],[-75.8147,38.5211],[-75.8115,38.5265],[-75.8178,38.5248],[-75.8226,38.5518],[-75.7994,38.5473],[-75.8145,38.5671],[-75.8291,38.5582],[-75.8333,38.5655],[-75.8419,38.5893],[-75.8265,38.595],[-75.8346,38.6051],[-75.8221,38.6423],[-75.8317,38.6626],[-75.8493,38.6719],[-75.8323,38.6839],[-75.8545,38.6964],[-75.8783,38.6935],[-75.8947,38.6968],[-75.891,38.6914],[-75.8959,38.6915],[-75.8971,38.6861],[-75.8871,38.6749],[-75.8786,38.6745],[-75.8676,38.6594],[-75.8791,38.6445],[-75.8714,38.6411],[-75.8754,38.6331],[-75.8702,38.6294],[-75.8778,38.624],[-75.8589,38.6188],[-75.8709,38.5887],[-75.8554,38.5833],[-75.857,38.5745],[-75.8806,38.5775],[-75.8936,38.5935],[-75.9081,38.5974],[-75.8922,38.6096],[-75.8997,38.6217],[-75.9133,38.6279],[-75.918,38.6206],[-75.9126,38.6201],[-75.9142,38.6153],[-75.9301,38.5989],[-75.9285,38.5915],[-75.9227,38.5933],[-75.9267,38.5916],[-75.9388,38.5453],[-75.9452,38.5404],[-75.9386,38.5324],[-75.9547,38.5267],[-75.9611,38.5184],[-75.965,38.52],[-75.9683,38.5129],[-75.9884,38.5155],[-76.0016,38.5406],[-76.0214,38.5497],[-76.0531,38.5551],[-76.0658,38.5666],[-76.0656,38.5604],[-76.0712,38.5613],[-76.0792,38.5771],[-76.0906,38.572],[-76.1025,38.5739],[-76.1037,38.5669],[-76.1107,38.5675],[-76.1137,38.5617]]]},"properties":{"geoid":"2437A","state":"24","district":"37A","name":"State Legislative Subdistrict 37A","chamber":"House"}},{"type":"Feature","geometry":{"type":"Polygon","coordinates":[[[-76.4639,38.7097],[-76.4263,38.5081],[-76.3363,38.388],[-76.3154,38.2998],[-76.202,38.0787],[-76.2047,38.0584],[-76.0786,38.0609],[-76.0316,38.1475],[-75.9938,38.1624],[-75.9748,38.2023],[-75.9485,38.216],[-75.8747,38.22],[-75.861,38.2409],[-75.8351,38.2545],[-75.8039,38.254],[-75.796,38.266],[-75.774,38.2717],[-75.7687,38.2852],[-75.753,38.2851],[-75.7518,38.2807],[-75.749,38.2847],[-75.7416,38.2792],[-75.7285,38.281],[-75.7204,38.2666],[-75.7104,38.2646],[-75.6944,38.2669],[-75.6964,38.2742],[-75.686,38.2858],[-75.6872,38.2899],[-75.6631,38.2989],[-75.6126,38.2786],[-75.5684,38.2807],[-75.5668,38.3005],[-75.5979,38.3303],[-75.6054,38.3166],[-75.6002,38.3107],[-75.6079,38.313],[-75.6203,38.3052],[-75.6262,38.3123],[-75.6306,38.3065],[-75.6274,38.3031],[-75.6321,38.3024],[-75.6305,38.307],[-75.6371,38.3104],[-75.6356,38.3186],[-75.6441,38.3136],[-75.6509,38.3184],[-75.6425,38.3231],[-75.6482,38.3285],[-75.642,38.3336],[-75.6451,38.3405],[-75.6375,38.3408],[-75.6406,38.3457],[-75.6362,38.3477],[-75.6468,38.3482],[-75.652,38.3582],[-75.6449,38.3602],[-75.6453,38.3693],[-75.6227,38.3717],[-75.6329,38.3844],[-75.6805,38.4135],[-75.6847,38.4072],[-75.7019,38.4008],[-75.7058,38.4056],[-75.6943,38.414],[-75.6995,38.4205],[-75.6941,38.4228],[-75.6979,38.432],[-75.7034,38.429],[-75.6997,38.4254],[-75.708,38.4305],[-75.7352,38.4343],[-75.7383,38.4314],[-75.7414,38.4392],[-75.7573,38.4499],[-75.7632,38.4634],[-75.7794,38.4616],[-75.7842,38.4696],[-75.7965,38.4716],[-75.7986,38.4811],[-75.8095,38.4872],[-75.8195,38.483],[-75.8278,38.4895],[-75.8497,38.4907],[-75.8474,38.4948],[-75.8803,38.5123],[-75.8851,38.5111],[-75.8928,38.4993],[-75.8828,38.4828],[-75.9071,38.4685],[-75.903,38.4602],[-75.9073,38.4536],[-75.903,38.4507],[-75.9077,38.4545],[-75.9033,38.4597],[-75.9079,38.4688],[-75.8832,38.4828],[-75.889,38.4867],[-75.9019,38.5169],[-75.9084,38.5153],[-75.9124,38.5136],[-75.9118,38.5055],[-75.9068,38.4977],[-75.9181,38.4833],[-75.9267,38.4589],[-75.93,38.4653],[-75.9563,38.4625],[-75.9506,38.4457],[-75.9531,38.4382],[-75.9461,38.4331],[-75.9538,38.4329],[-75.9371,38.4326],[-75.9457,38.4281],[-75.932,38.4265],[-75.9354,38.4392],[-75.9284,38.4409],[-75.9321,38.4388],[-75.9314,38.4261],[-75.9257,38.4246],[-75.9255,38.432],[-75.9199,38.4284],[-75.9253,38.4301],[-75.9281,38.4236],[-75.9494,38.4314],[-75.9572,38.4282],[-75.9603,38.4346],[-75.9676,38.4355],[-75.9758,38.4304],[-75.9755,38.4244],[-75.986,38.432],[-75.9954,38.4278],[-75.993,38.4387],[-76.0066,38.4429],[-76.0058,38.4515],[-75.9997,38.4548],[-76.0059,38.4631],[-76.0005,38.4654],[-76.0096,38.4725],[-76.0016,38.4783],[-75.9971,38.4725],[-75.9921,38.4769],[-75.9949,38.4853],[-75.9901,38.5025],[-75.9953,38.5041],[-75.995,38.511],[-76.0032,38.5126],[-76.0094,38.5067],[-76.0144,38.5172],[-76.0249,38.5131],[-76.0287,38.5173],[-76.0259,38.5277],[-76.054,38.5231],[-76.0727,38.5405],[-76.0937,38.5394],[-76.0962,38.5316],[-76.111,38.536],[-76.1031,38.5447],[-76.1084,38.5479],[-76.104,38.5481],[-76.1026,38.5581],[-76.1137,38.5617],[-76.1107,38.5675],[-76.1037,38.5669],[-76.1025,38.5739],[-76.0906,38.572],[-76.0792,38.5771],[-76.0712,38.5613],[-76.0656,38.5604],[-76.0658,38.5666],[-76.0531,38.5551],[-76.0214,38.5497],[-76.0016,38.5406],[-75.9884,38.5155],[-75.9683,38.5129],[-75.965,38.52],[-75.9611,38.5184],[-75.9547,38.5267],[-75.9386,38.5324],[-75.9452,38.5404],[-75.9388,38.5453],[-75.9267,38.5916],[-75.9227,38.5933],[-75.9285,38.5915],[-75.9301,38.5989],[-75.9142,38.6153],[-75.9126,38.6201],[-75.918,38.6206],[-75.9133,38.6279],[-75.8997,38.6217],[-75.8922,38.6096],[-75.9081,38.5974],[-75.8936,38.5935],[-75.8806,38.5775],[-75.857,38.5745],[-75.8554,38.5833],[-75.8709,38.5887],[-75.8589,38.6188],[-75.8778,38.624],[-75.8702,38.6294],[-75.8754,38.6331],[-75.8714,38.6411],[-75.8791,38.6445],[-75.8676,38.6594],[-75.8786,38.6745],[-75.8842,38.6734],[-75.8972,38.682],[-75.8925,38.6844],[-75.8971,38.6861],[-75.8959,38.6915],[-75.891,38.6914],[-75.8947,38.6968],[-75.877,38.6935],[-75.8643,38.6979],[-75.8323,38.6839],[-75.8493,38.6719],[-75.8317,38.6626],[-75.8221,38.6423],[-75.8346,38.6051],[-75.8265,38.595],[-75.8419,38.5893],[-75.8291,38.5582],[-75.8145,38.5671],[-75.7996,38.5478],[-75.8226,38.5518],[-75.8178,38.5248],[-75.8115,38.5265],[-75.8147,38.5211],[-75.8046,38.5142],[-75.791,38.5249],[-75.7779,38.5029],[-75.7548,38.5125],[-75.746,38.5352],[-75.7328,38.5298],[-75.7154,38.5332],[-75.7001,38.5426],[-75.731,38.9331],[-75.7864,38.9156],[-75.8091,38.9163],[-75.8356,38.9056],[-75.8522,38.9074],[-75.8645,38.918],[-75.8944,38.9152],[-75.8946,38.9353],[-75.9093,38.9398],[-75.9133,38.9572],[-75.9266,38.9667],[-75.943,38.9667],[-75.9381,38.9591],[-75.9423,38.9498],[-75.9513,38.946],[-75.9471,38.94],[-75.9534,38.9382],[-75.948,38.9362],[-75.9528,38.9296],[-75.9493,38.9183],[-76.097,38.9443],[-76.1037,38.939],[-76.1155,38.9137],[-76.1027,38.8902],[-76.1035,38.8823],[-76.1214,38.8824],[-76.128,38.876],[-76.1476,38.8827],[-76.1625,38.881],[-76.1699,38.8656],[-76.1779,38.8652],[-76.1822,38.8586],[-76.1924,38.8638],[-76.2115,38.8265],[-76.2384,38.8313],[-76.2281,38.8575],[-76.2497,38.8794],[-76.2615,38.8809],[-76.3157,38.8528],[-76.3385,38.8242],[-76.3578,38.8119],[-76.3712,38.8078],[-76.4365,38.8074],[-76.4639,38.7097]]]},"properties":{"geoid":"2437B","state":"24","district":"37B","name":"State Legislative Subdistrict 37B","chamber":"House"}},{"type":"Feature","geometry":{"type":"Polygon","coordinates":[[[-76.2363,37.8873],[-76.052,37.9536],[-75.9933,37.9535],[-75.9437,37.9461],[-75.9527,37.9068],[-75.8012,37.9122],[-75.7616,37.9414],[-75.7046,37.9547],[-75.6477,37.947],[-75.6482,37.9668],[-75.6382,37.9794],[-75.6295,37.976],[-75.6338,37.9845],[-75.6244,37.9942],[-75.3746,38.0155],[-75.3746,38.0269],[-75.36,38.0267],[-75.3397,38.0395],[-75.3302,38.0376],[-75.3303,38.0478],[-75.3151,38.0583],[-75.3155,38.0623],[-75.3234,38.0618],[-75.3346,38.0517],[-75.3504,38.0588],[-75.327,38.0708],[-75.3341,38.0843],[-75.3214,38.0881],[-75.3102,38.0808],[-75.3128,38.0767],[-75.3066,38.0709],[-75.2886,38.0744],[-75.2883,38.0813],[-75.3066,38.0833],[-75.3137,38.0904],[-75.3105,38.0947],[-75.2964,38.0938],[-75.29,38.1135],[-75.2947,38.1258],[-75.2872,38.1342],[-75.282,38.1522],[-75.2649,38.1587],[-75.2591,38.1515],[-75.2462,38.1525],[-75.244,38.1607],[-75.2627,38.1623],[-75.2668,38.1733],[-75.2496,38.1944],[-75.2462,38.2156],[-75.2374,38.2246],[-75.2095,38.2354],[-75.1899,38.2592],[-75.1939,38.256],[-75.1991,38.2603],[-75.2005,38.2761],[-75.2184,38.2939],[-75.1996,38.3282],[-75.191,38.3266],[-75.187,38.3347],[-75.178,38.3384],[-75.1891,38.3418],[-75.1815,38.3479],[-75.2146,38.3486],[-75.2129,38.3407],[-75.2158,38.3546],[-75.231,38.3535],[-75.2312,38.3477],[-75.2196,38.3415],[-75.2211,38.3345],[-75.2277,38.3366],[-75.2364,38.3258],[-75.2343,38.3209],[-75.246,38.3133],[-75.254,38.3164],[-75.2587,38.313],[-75.266,38.2968],[-75.2911,38.2974],[-75.3061,38.2802],[-75.3054,38.2758],[-75.319,38.2779],[-75.3272,38.2706],[-75.3576,38.2716],[-75.3615,38.2633],[-75.3644,38.2869],[-75.3726,38.2897],[-75.4565,38.2862],[-75.4554,38.2917],[-75.4679,38.3069],[-75.4703,38.3203],[-75.4806,38.3252],[-75.506,38.3513],[-75.5332,38.3553],[-75.5501,38.3444],[-75.5611,38.3454],[-75.559,38.3378],[-75.5855,38.3209],[-75.5804,38.3108],[-75.5668,38.3005],[-75.5684,38.2807],[-75.6126,38.2786],[-75.6631,38.2989],[-75.6872,38.2899],[-75.686,38.2858],[-75.6964,38.2742],[-75.6944,38.2669],[-75.7104,38.2646],[-75.7204,38.2666],[-75.7285,38.281],[-75.7416,38.2792],[-75.7485,38.2846],[-75.7518,38.2807],[-75.753,38.2851],[-75.7656,38.2858],[-75.774,38.2717],[-75.796,38.266],[-75.8039,38.254],[-75.8351,38.2545],[-75.861,38.2409],[-75.8735,38.2207],[-75.881,38.2176],[-75.9485,38.216],[-75.9748,38.2023],[-75.9938,38.1624],[-76.0316,38.1475],[-76.0786,38.0609],[-76.2047,38.0584],[-76.2363,37.8873]]]},"properties":{"geoid":"2438A","state":"24","district":"38A","name":"State Legislative Subdistrict 38A","chamber":"House"}},{"type":"Feature","geometry":{"type":"Polygon","coordinates":[[[-75.652,38.3582],[-75.6468,38.3482],[-75.6362,38.3477],[-75.6406,38.3457],[-75.6375,38.3408],[-75.6451,38.3405],[-75.642,38.3336],[-75.6482,38.3285],[-75.6425,38.3231],[-75.6509,38.3184],[-75.6441,38.3136],[-75.6356,38.3186],[-75.6374,38.3115],[-75.6305,38.307],[-75.6321,38.3024],[-75.6264,38.3035],[-75.6306,38.3065],[-75.6262,38.3123],[-75.6203,38.3052],[-75.6079,38.313],[-75.6002,38.3107],[-75.6054,38.3166],[-75.5979,38.3303],[-75.5855,38.3209],[-75.559,38.3378],[-75.5611,38.3454],[-75.5474,38.3455],[-75.5373,38.3697],[-75.5274,38.3723],[-75.5378,38.3719],[-75.542,38.3877],[-75.5506,38.3924],[-75.5514,38.4011],[-75.5443,38.4005],[-75.5445,38.4099],[-75.5587,38.4067],[-75.5511,38.421],[-75.5433,38.4233],[-75.5518,38.4283],[-75.5548,38.4474],[-75.5458,38.4476],[-75.5411,38.4551],[-75.5816,38.4562],[-75.581,38.4503],[-75.5877,38.4511],[-75.5814,38.4465],[-75.5867,38.4318],[-75.5942,38.4333],[-75.6022,38.4246],[-75.609,38.4325],[-75.6191,38.431],[-75.6234,38.4232],[-75.5939,38.4086],[-75.5934,38.3927],[-75.6041,38.3662],[-75.5832,38.3841],[-75.5703,38.3825],[-75.5723,38.3755],[-75.588,38.3676],[-75.5757,38.3581],[-75.5747,38.3505],[-75.5851,38.3478],[-75.5896,38.3524],[-75.5978,38.3481],[-75.5973,38.3601],[-75.609,38.357],[-75.6122,38.362],[-75.6242,38.3561],[-75.6344,38.3603],[-75.6394,38.3705],[-75.6453,38.3693],[-75.646,38.3587],[-75.652,38.3582]]]},"properties":{"geoid":"2438B","state":"24","district":"38B","name":"State Legislative Subdistrict 38B","chamber":"House"}},{"type":"Feature","geometry":{"type":"Polygon","coordinates":[[[-75.5583,38.4075],[-75.5445,38.4099],[-75.5443,38.4005],[-75.5514,38.4011],[-75.5506,38.3924],[-75.542,38.3877],[-75.5378,38.3719],[-75.5274,38.3723],[-75.5373,38.3697],[-75.542,38.3515],[-75.5332,38.3553],[-75.506,38.3513],[-75.4806,38.3252],[-75.4703,38.3203],[-75.4679,38.3069],[-75.4554,38.2917],[-75.4565,38.2862],[-75.3726,38.2897],[-75.3644,38.2869],[-75.3615,38.2633],[-75.3576,38.2716],[-75.3272,38.2706],[-75.319,38.2779],[-75.3054,38.2758],[-75.3061,38.2802],[-75.2911,38.2974],[-75.266,38.2968],[-75.2587,38.313],[-75.254,38.3164],[-75.246,38.3133],[-75.2343,38.3209],[-75.2364,38.3258],[-75.2277,38.3366],[-75.2211,38.3345],[-75.2196,38.3415],[-75.2312,38.3477],[-75.231,38.3535],[-75.2158,38.3546],[-75.2129,38.3407],[-75.2146,38.3486],[-75.1817,38.3484],[-75.1891,38.3418],[-75.178,38.3384],[-75.187,38.3347],[-75.191,38.3266],[-75.1996,38.3282],[-75.2184,38.2939],[-75.2005,38.2761],[-75.1991,38.2603],[-75.1939,38.256],[-75.1899,38.2592],[-75.2095,38.2354],[-75.2374,38.2246],[-75.2462,38.2156],[-75.2496,38.1944],[-75.2668,38.1733],[-75.2627,38.1623],[-75.244,38.1607],[-75.2462,38.1525],[-75.2591,38.1515],[-75.2649,38.1587],[-75.282,38.1522],[-75.2872,38.1342],[-75.2947,38.1258],[-75.29,38.1135],[-75.2964,38.0938],[-75.3105,38.0947],[-75.3137,38.0904],[-75.3066,38.0833],[-75.2883,38.0813],[-75.2886,38.0744],[-75.3066,38.0709],[-75.3128,38.0767],[-75.3102,38.0808],[-75.3214,38.0881],[-75.3341,38.0843],[-75.327,38.0708],[-75.3504,38.0588],[-75.3346,38.0517],[-75.3234,38.0618],[-75.3155,38.0623],[-75.3151,38.0583],[-75.3303,38.0478],[-75.3302,38.0376],[-75.3397,38.0395],[-75.36,38.0267],[-75.3746,38.0269],[-75.3746,38.0155],[-75.2496,38.0267],[-75.1664,38.0278],[-75.1246,38.0939],[-75.0878,38.1894],[-75.0415,38.287],[-75.0208,38.3098],[-74.9996,38.3717],[-74.9863,38.4516],[-75.5411,38.4551],[-75.5458,38.4476],[-75.5548,38.4474],[-75.5518,38.4283],[-75.5433,38.4233],[-75.5511,38.421],[-75.5583,38.4075]]]},"properties":{"geoid":"2438C","state":"24","district":"38C","name":"State Legislative Subdistrict 38C","chamber":"House"}},{"type":"Feature","geometry":{"type":"Polygon","coordinates":[[[-76.857,39.5307],[-76.8377,39.5442],[-76.8398,39.5596],[-76.7907,39.5419],[-76.7745,39.5214],[-76.7505,39.5232],[-76.7281,39.5355],[-76.7086,39.4958],[-76.6591,39.4956],[-76.6531,39.5011],[-76.6485,39.4915],[-76.636,39.5004],[-76.6225,39.5019],[-76.6265,39.5084],[-76.6212,39.5125],[-76.6233,39.5237],[-76.6152,39.5159],[-76.615,39.5052],[-76.606,39.4928],[-76.6101,39.4881],[-76.5838,39.4834],[-76.5998,39.4822],[-76.5951,39.4783],[-76.6016,39.4692],[-76.5958,39.4657],[-76.6035,39.4663],[-76.597,39.4522],[-76.5871,39.4476],[-76.5966,39.4442],[-76.597,39.4245],[-76.5866,39.4285],[-76.5679,39.4264],[-76.5674,39.4327],[-76.5556,39.4341],[-76.5529,39.4382],[-76.5584,39.4398],[-76.558,39.4455],[-76.5559,39.4418],[-76.5458,39.4541],[-76.5328,39.4496],[-76.5325,39.4401],[-76.527,39.4342],[-76.5022,39.4476],[-76.5061,39.4868],[-76.5223,39.4883],[-76.5259,39.4956],[-76.5027,39.5078],[-76.5088,39.512],[-76.4975,39.5246],[-76.5104,39.5244],[-76.5185,39.5364],[-76.5322,39.544],[-76.532,39.5615],[-76.5398,39.5678],[-76.5471,39.5877],[-76.5601,39.5961],[-76.5652,39.6145],[-76.5694,39.7212],[-76.7871,39.7208],[-76.857,39.5307]]]},"properties":{"geoid":"2442A","state":"24","district":"42A","name":"State Legislative Subdistrict 42A","chamber":"House"}},{"type":"Feature","geometry":{"type":"Polygon","coordinates":[[[-76.6485,39.4915],[-76.6425,39.4781],[-76.6323,39.4743],[-76.6305,39.4627],[-76.635,39.4607],[-76.6298,39.4486],[-76.6351,39.4488],[-76.6301,39.4396],[-76.6264,39.4409],[-76.6145,39.4168],[-76.6433,39.4128],[-76.6452,39.4022],[-76.6309,39.4027],[-76.6271,39.3955],[-76.6202,39.4087],[-76.6082,39.4037],[-76.6005,39.4131],[-76.591,39.4144],[-76.5661,39.4014],[-76.5638,39.409],[-76.5676,39.41],[-76.5599,39.4123],[-76.5743,39.4155],[-76.5619,39.4186],[-76.5665,39.4214],[-76.5556,39.4341],[-76.5674,39.4327],[-76.5679,39.4264],[-76.5866,39.4285],[-76.597,39.4245],[-76.5966,39.4442],[-76.5871,39.4476],[-76.597,39.4522],[-76.6035,39.4663],[-76.5958,39.4657],[-76.6016,39.4692],[-76.5951,39.4783],[-76.5998,39.4822],[-76.5841,39.4844],[-76.6101,39.4881],[-76.606,39.4928],[-76.615,39.5052],[-76.6152,39.5159],[-76.6234,39.5238],[-76.6212,39.5125],[-76.6265,39.5084],[-76.6225,39.5019],[-76.636,39.5004],[-76.6485,39.4915]]]},"properties":{"geoid":"2442B","state":"24","district":"42B","name":"State Legislative Subdistrict 42B","chamber":"House"}},{"type":"Feature","geometry":{"type":"Polygon","coordinates":[[[-77.058,39.603],[-77.0263,39.5902],[-77.008,39.6067],[-77.0193,39.608],[-77.0222,39.6135],[-77.0116,39.6214],[-76.9974,39.6146],[-76.997,39.6205],[-76.9912,39.6194],[-76.9944,39.6176],[-76.9903,39.6024],[-76.9984,39.6051],[-76.9956,39.5928],[-76.9991,39.591],[-76.992,39.586],[-76.9761,39.5852],[-76.9439,39.5682],[-76.9731,39.5335],[-76.9903,39.5238],[-76.9753,39.5131],[-76.9721,39.4893],[-76.9621,39.4875],[-76.9499,39.4969],[-76.9469,39.5066],[-76.9288,39.4872],[-76.9393,39.468],[-76.9491,39.4745],[-76.9519,39.4714],[-76.9554,39.4519],[-76.9385,39.4424],[-76.9272,39.4493],[-76.8873,39.4405],[-76.8918,39.4454],[-76.8823,39.4442],[-76.8764,39.4508],[-76.893,39.4553],[-76.8857,39.4564],[-76.892,39.4618],[-76.8869,39.4632],[-76.8845,39.4669],[-76.8886,39.4685],[-76.8818,39.4772],[-76.8769,39.4767],[-76.8766,39.483],[-76.867,39.4849],[-76.8686,39.4938],[-76.8567,39.5316],[-76.7871,39.7208],[-76.8377,39.7205],[-76.8519,39.7144],[-76.8541,39.7072],[-76.8712,39.6988],[-76.8876,39.6821],[-76.8867,39.6762],[-76.8918,39.6764],[-76.8901,39.6687],[-76.8823,39.673],[-76.8704,39.6644],[-76.8773,39.6607],[-76.8742,39.6523],[-76.8866,39.6472],[-76.882,39.6423],[-76.8962,39.639],[-76.895,39.636],[-76.8998,39.6383],[-76.8933,39.6417],[-76.9016,39.6483],[-76.8903,39.6608],[-76.9009,39.6607],[-76.8974,39.6675],[-76.9233,39.6564],[-76.9403,39.6674],[-76.9554,39.6626],[-76.9727,39.6849],[-76.9842,39.6756],[-76.99,39.6592],[-77.0263,39.6655],[-77.0223,39.6434],[-77.0386,39.6468],[-77.0467,39.6439],[-77.0462,39.6344],[-77.0418,39.6343],[-77.0465,39.632],[-77.058,39.603]]]},"properties":{"geoid":"2442C","state":"24","district":"42C","name":"State Legislative Subdistrict 42C","chamber":"House"}},{"type":"Feature","geometry":{"type":"Polygon","coordinates":[[[-76.6275,39.3181],[-76.6202,39.3109],[-76.6181,39.3142],[-76.6062,39.3116],[-76.5907,39.3284],[-76.5769,39.3336],[-76.5714,39.3412],[-76.5757,39.3461],[-76.5725,39.3538],[-76.5822,39.3578],[-76.5782,39.368],[-76.57,39.3721],[-76.6183,39.372],[-76.6123,39.3615],[-76.6167,39.3606],[-76.6161,39.3538],[-76.6235,39.3532],[-76.6214,39.3411],[-76.6258,39.3416],[-76.6245,39.3311],[-76.618,39.329],[-76.6174,39.3232],[-76.6253,39.3262],[-76.6227,39.3207],[-76.6275,39.3181]]]},"properties":{"geoid":"2443A","state":"24","district":"43A","name":"State Legislative Subdistrict 43A","chamber":"House"}},{"type":"Feature","geometry":{"type":"Polygon","coordinates":[[[-76.6285,39.3906],[-76.6242,39.3873],[-76.6274,39.3816],[-76.6183,39.372],[-76.5679,39.3733],[-76.5798,39.3795],[-76.5795,39.3872],[-76.5884,39.4016],[-76.5792,39.4094],[-76.5864,39.4136],[-76.6005,39.4131],[-76.6082,39.4037],[-76.6202,39.4087],[-76.6285,39.3906]]]},"properties":{"geoid":"2443B","state":"24","district":"43B","name":"State Legislative Subdistrict 43B","chamber":"House"}},{"type":"Feature","geometry":{"type":"Polygon","coordinates":[[[-76.7557,39.2756],[-76.7395,39.2763],[-76.7351,39.2713],[-76.7245,39.2736],[-76.6834,39.2532],[-76.6697,39.2407],[-76.6656,39.2302],[-76.6325,39.2236],[-76.6186,39.2374],[-76.7111,39.2779],[-76.7112,39.2916],[-76.7534,39.2837],[-76.7557,39.2756]]]},"properties":{"geoid":"2444A","state":"24","district":"44A","name":"State Legislative Subdistrict 44A","chamber":"House"}},{"type":"Feature","geometry":{"type":"Polygon","coordinates":[[[-76.7713,39.2996],[-76.763,39.2884],[-76.7686,39.2729],[-76.7597,39.2672],[-76.7504,39.2683],[-76.7432,39.2601],[-76.7365,39.2619],[-76.6955,39.2271],[-76.7061,39.2183],[-76.7039,39.2145],[-76.6987,39.2131],[-76.6892,39.2212],[-76.6802,39.2202],[-76.6656,39.2302],[-76.6804,39.2513],[-76.7245,39.2736],[-76.7564,39.2738],[-76.7534,39.2837],[-76.7112,39.2916],[-76.7112,39.3544],[-76.7191,39.3571],[-76.7215,39.3631],[-76.7463,39.3598],[-76.749,39.3695],[-76.7608,39.3634],[-76.7563,39.3578],[-76.7652,39.349],[-76.759,39.322],[-76.7448,39.3219],[-76.744,39.306],[-76.7609,39.3073],[-76.7713,39.2996]]]},"properties":{"geoid":"2444B","state":"24","district":"44B","name":"State Legislative Subdistrict 44B","chamber":"House"}},{"type":"Feature","geometry":{"type":"Polygon","coordinates":[[[-77.0023,38.9658],[-76.9236,38.904],[-76.9115,38.9057],[-76.9107,38.8996],[-76.8854,38.9126],[-76.87,38.9131],[-76.8698,38.9184],[-76.8791,38.9196],[-76.8744,38.9261],[-76.8963,38.93],[-76.8768,38.944],[-76.8585,38.9455],[-76.8649,38.9569],[-76.8685,38.9525],[-76.8734,38.9555],[-76.8846,38.9523],[-76.9089,38.939],[-76.9144,38.9392],[-76.9099,38.9534],[-76.9228,38.9539],[-76.93,38.9448],[-76.945,38.9439],[-76.9664,38.9524],[-76.9623,38.9559],[-76.9797,38.9722],[-76.9786,38.9795],[-76.9942,38.9753],[-77.0023,38.9658]]]},"properties":{"geoid":"2447A","state":"24","district":"47A","name":"State Legislative Subdistrict 47A","chamber":"House"}},{"type":"Feature","geometry":{"type":"Polygon","coordinates":[[[-76.9907,38.993],[-76.9848,38.9872],[-76.9869,38.9781],[-76.9786,38.9795],[-76.9797,38.9722],[-76.9702,38.9627],[-76.9485,38.9661],[-76.9534,38.9774],[-76.9605,38.9732],[-76.954,38.9699],[-76.9667,38.9686],[-76.9614,38.9813],[-76.9761,38.9863],[-76.971,39.0046],[-76.9588,39.0043],[-76.9482,39.0208],[-76.9508,39.0307],[-76.9662,39.0262],[-76.9907,38.993]]]},"properties":{"geoid":"2447B","state":"24","district":"47B","name":"State Legislative Subdistrict 47B","chamber":"House"}}]}