{"type":"FeatureCollection","features":[{"type":"Feature","geometry":{"type":"Polygon","coordinates":[[[-70.0232,46.5735],[-68.8214,46.5725],[-68.8218,46.3958],[-68.6949,46.3955],[-68.6949,46.3826],[-68.5679,46.3825],[-68.5679,46.4709],[-68.3047,46.4694],[-68.303,46.6578],[-68.1726,46.6607],[-68.1736,46.5652],[-68.0471,46.5682],[-68.0565,46.7757],[-67.9261,46.7788],[-67.9216,46.6865],[-67.7888,46.6894],[-67.7902,47.0672],[-67.8211,47.0834],[-67.8829,47.1044],[-67.8882,47.1098],[-67.8909,47.1266],[-67.9098,47.1472],[-67.9287,47.1562],[-67.9515,47.1835],[-67.9519,47.1945],[-67.9572,47.1996],[-67.9897,47.21],[-68.0197,47.2385],[-68.074,47.2592],[-68.0819,47.271],[-68.1359,47.2956],[-68.1522,47.3097],[-68.1547,47.3252],[-68.2145,47.3396],[-68.2345,47.3553],[-68.2649,47.3522],[-68.2848,47.3603],[-68.3033,47.3552],[-68.3277,47.3601],[-68.3631,47.3547],[-68.3777,47.3436],[-68.3847,47.3241],[-68.3808,47.3082],[-68.3848,47.3037],[-68.3763,47.2952],[-68.3779,47.2874],[-68.4098,47.288],[-68.4298,47.2813],[-68.4488,47.282],[-68.475,47.2971],[-68.5168,47.2961],[-68.5498,47.2821],[-68.5801,47.2871],[-68.5977,47.2702],[-68.5935,47.2588],[-68.6175,47.2434],[-68.6598,47.2361],[-68.6872,47.2444],[-68.7051,47.2379],[-68.717,47.2405],[-68.7643,47.222],[-68.8115,47.2151],[-68.8574,47.1903],[-68.8955,47.1824],[-68.9,47.1777],[-68.9198,47.1899],[-68.9237,47.1974],[-68.9411,47.2061],[-68.9508,47.202],[-68.9529,47.2069],[-68.9612,47.2057],[-68.9653,47.2125],[-68.9804,47.2201],[-69.0338,47.2404],[-69.0507,47.2565],[-69.0468,47.2716],[-69.0535,47.2972],[-69.0492,47.3058],[-69.0549,47.3153],[-69.0549,47.3777],[-69.0396,47.3842],[-69.0454,47.393],[-69.0438,47.3974],[-69.0376,47.3968],[-69.0427,47.402],[-69.0352,47.4018],[-69.0425,47.4047],[-69.0324,47.4022],[-69.0306,47.4074],[-69.0366,47.4077],[-69.0345,47.4146],[-69.0422,47.4157],[-69.0392,47.4197],[-69.0432,47.4268],[-69.0522,47.4221],[-69.0485,47.4242],[-69.0521,47.43],[-69.0635,47.4341],[-69.0619,47.4306],[-69.0684,47.4274],[-69.0901,47.4241],[-69.0989,47.4314],[-69.1077,47.4277],[-69.1078,47.4354],[-69.122,47.4427],[-69.1411,47.444],[-69.1565,47.4516],[-69.1623,47.4474],[-69.1789,47.4574],[-69.2052,47.452],[-69.2245,47.4598],[-69.9971,46.6955],[-70.0232,46.5735]]]},"properties":{"geoid":"23001","state":"23","district":"1","name":"State Senate District 1","chamber":"Senate"}},{"type":"Feature","geometry":{"type":"MultiPolygon","coordinates":[[[[-68.9646,45.5129],[-68.8573,45.5273],[-68.7761,45.2403],[-68.756,45.2432],[-68.7088,45.3221],[-68.6356,45.3075],[-68.6259,45.3191],[-68.6125,45.3214],[-68.577,45.3493],[-68.55,45.3629],[-68.5395,45.3744],[-68.5157,45.3849],[-68.5177,45.3921],[-68.5161,45.3858],[-68.5043,45.3861],[-68.4869,45.419],[-68.4007,45.4676],[-68.3602,45.5031],[-68.3707,45.5353],[-68.4078,45.5687],[-68.4389,45.5753],[-68.444,45.5789],[-68.4385,45.5797],[-68.4539,45.5861],[-68.4641,45.5789],[-68.4649,45.5827],[-68.4737,45.5829],[-68.4728,45.5898],[-68.5137,45.5955],[-68.5464,45.6068],[-68.5542,45.6138],[-68.5872,45.6211],[-68.6072,45.6323],[-68.5538,45.6154],[-68.5445,45.6075],[-68.5359,45.6082],[-68.547,45.6262],[-68.5463,45.63],[-68.5434,45.6274],[-68.5439,45.6364],[-68.5617,45.6608],[-68.5416,45.6356],[-68.5374,45.6142],[-68.5296,45.6042],[-68.4786,45.5923],[-68.4698,45.5922],[-68.4689,45.5994],[-68.4644,45.5991],[-68.4485,45.5867],[-68.4192,45.5774],[-68.3912,45.5599],[-68.3694,45.5398],[-68.3577,45.5043],[-68.3632,45.4955],[-68.1617,45.5256],[-68.1631,45.5301],[-68.1297,45.5363],[-68.1321,45.5427],[-68.1115,45.5474],[-68.1098,45.5386],[-68.0204,45.5533],[-68.048,45.6399],[-67.897,45.6653],[-67.9023,45.6801],[-67.8893,45.6718],[-67.8736,45.6693],[-67.8057,45.6801],[-67.818,45.6938],[-67.8029,45.6961],[-67.8096,45.7296],[-67.7818,45.7311],[-67.7929,45.7501],[-67.8063,45.7552],[-67.8065,45.7944],[-67.8021,45.803],[-67.7807,45.8178],[-67.7553,45.8234],[-67.7971,45.86],[-67.7962,45.8652],[-67.8045,45.8694],[-67.8039,45.8829],[-67.7875,45.8947],[-67.7681,45.8981],[-67.7653,45.9098],[-67.7554,45.9117],[-67.7506,45.9176],[-67.7586,45.9264],[-67.7778,45.9342],[-67.7812,45.9434],[-67.7888,46.6894],[-67.9216,46.6865],[-67.9261,46.7788],[-68.0565,46.7757],[-68.0471,46.5682],[-68.1736,46.5652],[-68.1726,46.6607],[-68.303,46.6578],[-68.3047,46.4694],[-68.5679,46.4709],[-68.5679,46.3825],[-68.6949,46.3826],[-68.6949,46.3955],[-68.8194,46.3958],[-68.827,45.6848],[-68.9589,45.6622],[-68.9507,45.6384],[-68.9517,45.5818],[-68.9646,45.5129]]],[[[-68.5387,45.6198],[-68.5378,45.6191],[-68.5382,45.6206],[-68.5387,45.6198]]],[[[-68.5388,45.6066],[-68.5318,45.6043],[-68.5339,45.6071],[-68.5388,45.6066]]],[[[-68.5412,45.6251],[-68.539,45.6235],[-68.54,45.6258],[-68.5412,45.6251]]],[[[-68.5414,45.6234],[-68.5413,45.6228],[-68.5407,45.6227],[-68.5414,45.6234]]],[[[-68.5418,45.6253],[-68.5412,45.6254],[-68.5414,45.626],[-68.5418,45.6253]]],[[[-68.5423,45.6267],[-68.5419,45.6269],[-68.5417,45.628],[-68.5423,45.6267]]],[[[-68.543,45.6238],[-68.5415,45.6226],[-68.542,45.6241],[-68.543,45.6238]]],[[[-68.5452,45.6267],[-68.5434,45.6262],[-68.544,45.6275],[-68.5452,45.6267]]]]},"properties":{"geoid":"23002","state":"23","district":"2","name":"State Senate District 2","chamber":"Senate"}},{"type":"Feature","geometry":{"type":"Polygon","coordinates":[[[-69.9035,44.7524],[-69.8926,44.745],[-69.8986,44.7316],[-69.8839,44.7322],[-69.8872,44.7222],[-69.8958,44.7172],[-69.8951,44.7117],[-69.8685,44.6929],[-69.8676,44.6751],[-69.8642,44.6758],[-69.8628,44.6697],[-69.7909,44.6787],[-69.7383,44.6713],[-69.7319,44.6942],[-69.7299,44.6869],[-69.633,44.6988],[-69.6288,44.6727],[-69.6176,44.657],[-69.5791,44.627],[-69.5927,44.6034],[-69.5909,44.5846],[-69.6057,44.5773],[-69.4818,44.5593],[-69.4797,44.5663],[-69.4432,44.5613],[-69.4447,44.5842],[-69.4095,44.5789],[-69.3931,44.6404],[-69.4611,44.6473],[-69.4559,44.6622],[-69.4479,44.6622],[-69.4429,44.6724],[-69.4756,44.6767],[-69.4773,44.6921],[-69.4168,44.701],[-69.4145,44.7187],[-69.3954,44.7315],[-69.398,44.7462],[-69.3885,44.7473],[-69.3857,44.7537],[-69.3435,44.7498],[-69.3274,44.7144],[-69.2052,44.7296],[-69.1837,44.644],[-69.061,44.6639],[-69.0941,44.7977],[-69.1006,44.797],[-69.1019,44.8021],[-69.0953,44.8029],[-69.1027,44.8325],[-69.0392,44.841],[-69.0624,44.927],[-69.4491,44.8778],[-69.4392,44.8459],[-69.4846,44.8394],[-69.479,44.8183],[-69.5217,44.8121],[-69.5324,44.8592],[-69.6075,44.8529],[-69.5993,44.8244],[-69.7245,44.8083],[-69.7512,44.9011],[-69.8599,44.8869],[-69.8646,44.8796],[-69.863,44.8554],[-69.8793,44.8461],[-69.8737,44.8381],[-69.8667,44.8407],[-69.8644,44.8332],[-69.8734,44.8331],[-69.8732,44.8181],[-69.8917,44.8122],[-69.8843,44.7945],[-69.8893,44.7904],[-69.8866,44.7741],[-69.8897,44.7645],[-69.9025,44.7619],[-69.893,44.7545],[-69.8997,44.7566],[-69.9035,44.7524]]]},"properties":{"geoid":"23003","state":"23","district":"3","name":"State Senate District 3","chamber":"Senate"}},{"type":"Feature","geometry":{"type":"Polygon","coordinates":[[[-69.8331,45.7386],[-69.8241,45.7423],[-69.7915,45.7283],[-69.8037,45.7205],[-69.8151,45.7214],[-69.809,45.7226],[-69.7902,45.7103],[-69.7828,45.6906],[-69.7562,45.6796],[-69.7386,45.6793],[-69.7394,45.6674],[-69.7447,45.6615],[-69.7395,45.6572],[-69.7442,45.6522],[-69.7361,45.6507],[-69.7317,45.6558],[-69.7349,45.6575],[-69.7227,45.6575],[-69.6918,45.645],[-69.6965,45.6407],[-69.7119,45.6504],[-69.7163,45.6476],[-69.7184,45.6399],[-69.7082,45.6375],[-69.7016,45.6278],[-69.7099,45.6132],[-69.7193,45.6146],[-69.7212,45.6034],[-69.7131,45.5949],[-69.7145,45.5856],[-69.7235,45.5817],[-69.7317,45.5668],[-69.7602,45.5542],[-69.7735,45.5546],[-69.7733,45.5455],[-69.7799,45.5428],[-69.7004,45.2925],[-69.7083,45.2914],[-69.7054,45.2782],[-69.6548,45.1],[-69.6458,45.1013],[-69.621,45.011],[-69.5156,45.025],[-69.5186,45.0343],[-69.4952,45.0374],[-69.4999,45.0538],[-69.3557,45.0735],[-69.3055,44.896],[-69.0624,44.927],[-69.0392,44.841],[-68.7952,44.8735],[-68.8028,44.9007],[-68.7919,44.9015],[-68.8809,45.2249],[-68.7761,45.2403],[-68.8573,45.5273],[-68.9647,45.5124],[-68.9517,45.5818],[-68.9507,45.6384],[-68.9589,45.6622],[-68.827,45.6848],[-68.8194,46.3874],[-68.8214,46.5725],[-69.7211,46.5741],[-69.7192,46.3941],[-69.7323,46.394],[-69.7286,45.9769],[-69.6836,45.9836],[-69.6466,45.864],[-69.6567,45.8601],[-69.6744,45.8622],[-69.6745,45.8523],[-69.6834,45.851],[-69.6901,45.8542],[-69.692,45.8651],[-69.6969,45.8643],[-69.7013,45.8726],[-69.6978,45.8857],[-69.7321,45.8784],[-69.7381,45.8831],[-69.7248,45.8738],[-69.7245,45.8658],[-69.7115,45.8608],[-69.7043,45.8461],[-69.7121,45.8322],[-69.7258,45.8344],[-69.7193,45.8336],[-69.7086,45.8115],[-69.7228,45.7833],[-69.7379,45.7825],[-69.7258,45.7714],[-69.7264,45.7623],[-69.7368,45.7546],[-69.7514,45.7659],[-69.7529,45.7617],[-69.7685,45.7613],[-69.7811,45.778],[-69.7851,45.7771],[-69.7832,45.7848],[-69.802,45.7862],[-69.7841,45.7823],[-69.7895,45.7779],[-69.7816,45.7737],[-69.7821,45.7696],[-69.7904,45.7677],[-69.7947,45.7575],[-69.7897,45.7557],[-69.7922,45.7512],[-69.7881,45.7469],[-69.8174,45.7469],[-69.8331,45.7386]]]},"properties":{"geoid":"23004","state":"23","district":"4","name":"State Senate District 4","chamber":"Senate"}},{"type":"Feature","geometry":{"type":"Polygon","coordinates":[[[-70.5529,45.6679],[-70.5058,45.5138],[-70.5187,45.5121],[-70.3987,45.0656],[-70.5215,45.0465],[-70.4874,44.87],[-70.5163,44.867],[-70.5132,44.8374],[-70.3489,44.9044],[-70.3279,44.8649],[-70.2675,44.8842],[-70.2535,44.8311],[-70.2644,44.828],[-70.2587,44.8138],[-70.2514,44.8169],[-70.2211,44.6958],[-70.2074,44.6722],[-70.2415,44.6614],[-70.2433,44.6541],[-70.2515,44.658],[-70.3169,44.6376],[-70.3476,44.5802],[-70.2807,44.5696],[-70.1525,44.5893],[-70.1294,44.4872],[-70.0424,44.4852],[-70.0458,44.4941],[-70.0354,44.5082],[-69.9986,44.5021],[-69.9956,44.5166],[-69.9886,44.5211],[-69.9927,44.5251],[-69.9864,44.5211],[-69.9633,44.5206],[-69.9589,44.5277],[-69.9547,44.527],[-69.9497,44.5387],[-69.9441,44.5378],[-69.9475,44.5181],[-69.9096,44.5124],[-69.8891,44.5319],[-69.8792,44.5257],[-69.8732,44.5303],[-69.8779,44.5526],[-69.8745,44.5648],[-69.8657,44.5642],[-69.8539,44.5488],[-69.8421,44.5475],[-69.8272,44.5679],[-69.8169,44.5741],[-69.8197,44.5813],[-69.7928,44.5773],[-69.7873,44.5941],[-69.7763,44.6082],[-69.7443,44.6026],[-69.7803,44.6771],[-69.8628,44.6697],[-69.8642,44.6758],[-69.8676,44.6751],[-69.8685,44.6929],[-69.8951,44.7117],[-69.8958,44.7172],[-69.8872,44.7222],[-69.8839,44.7322],[-69.8989,44.7319],[-69.8926,44.745],[-69.9034,44.7532],[-69.8928,44.7552],[-69.9026,44.7617],[-69.8897,44.7645],[-69.8866,44.7741],[-69.8893,44.7904],[-69.8843,44.7945],[-69.8917,44.8122],[-69.8732,44.8181],[-69.8734,44.8331],[-69.8645,44.8329],[-69.8667,44.8407],[-69.8737,44.8381],[-69.8793,44.8461],[-69.863,44.8554],[-69.8646,44.8796],[-69.8596,44.8872],[-69.7512,44.9011],[-69.7245,44.8083],[-69.5993,44.8244],[-69.6075,44.8529],[-69.5324,44.8592],[-69.5217,44.8121],[-69.479,44.8183],[-69.4846,44.8394],[-69.4392,44.8459],[-69.4491,44.8778],[-69.3055,44.896],[-69.3557,45.0735],[-69.4999,45.0538],[-69.4952,45.0374],[-69.5186,45.0343],[-69.5156,45.025],[-69.621,45.011],[-69.6458,45.1013],[-69.6548,45.1],[-69.7054,45.2782],[-69.7083,45.2914],[-69.7004,45.2925],[-69.7799,45.5428],[-69.7733,45.5455],[-69.7735,45.5546],[-69.7602,45.5542],[-69.7317,45.5668],[-69.7235,45.5817],[-69.7145,45.5856],[-69.7131,45.5949],[-69.7212,45.6034],[-69.7193,45.6146],[-69.7099,45.6132],[-69.7016,45.6278],[-69.7082,45.6375],[-69.7184,45.6399],[-69.7163,45.6476],[-69.7119,45.6504],[-69.6965,45.6407],[-69.6918,45.645],[-69.7227,45.6575],[-69.7349,45.6575],[-69.7317,45.6558],[-69.7361,45.6507],[-69.7442,45.6522],[-69.7395,45.6572],[-69.7447,45.6615],[-69.7394,45.6674],[-69.7386,45.6793],[-69.7562,45.6796],[-69.7828,45.6906],[-69.7902,45.7103],[-69.809,45.7226],[-69.8151,45.7214],[-69.8037,45.7205],[-69.7915,45.7283],[-69.8241,45.7423],[-69.8331,45.7386],[-69.8174,45.7469],[-69.7881,45.7469],[-69.7922,45.7512],[-69.7897,45.7557],[-69.7947,45.7575],[-69.7904,45.7677],[-69.7821,45.7696],[-69.7816,45.7737],[-69.7895,45.7779],[-69.7841,45.7823],[-69.802,45.7862],[-69.7832,45.7848],[-69.7851,45.7771],[-69.7811,45.778],[-69.7685,45.7613],[-69.7529,45.7617],[-69.7514,45.7659],[-69.7368,45.7546],[-69.7264,45.7623],[-69.7258,45.7714],[-69.7379,45.7825],[-69.7228,45.7833],[-69.7086,45.8115],[-69.7193,45.8336],[-69.7258,45.8344],[-69.7121,45.8322],[-69.7043,45.8461],[-69.7115,45.8608],[-69.7245,45.8658],[-69.7248,45.8738],[-69.7381,45.8831],[-69.7321,45.8784],[-69.6978,45.8857],[-69.7013,45.8726],[-69.6969,45.8643],[-69.692,45.8651],[-69.6901,45.8542],[-69.6834,45.851],[-69.6745,45.8523],[-69.6744,45.8622],[-69.6567,45.8601],[-69.6466,45.864],[-69.6836,45.9836],[-69.7286,45.9769],[-69.7323,46.394],[-69.7192,46.3941],[-69.7211,46.5741],[-70.0232,46.5735],[-70.0565,46.4156],[-70.0969,46.4095],[-70.0952,46.4064],[-70.1009,46.4053],[-70.0988,46.4011],[-70.1099,46.3903],[-70.1078,46.3877],[-70.1166,46.3882],[-70.127,46.3804],[-70.127,46.3708],[-70.1364,46.3699],[-70.1481,46.359],[-70.1729,46.3592],[-70.1912,46.3502],[-70.2089,46.3295],[-70.203,46.3144],[-70.2059,46.2997],[-70.2316,46.291],[-70.2531,46.2588],[-70.2509,46.2491],[-70.2675,46.2194],[-70.2736,46.2168],[-70.2711,46.2108],[-70.2927,46.1915],[-70.2906,46.1851],[-70.2363,46.1452],[-70.2545,46.1137],[-70.2531,46.1001],[-70.2859,46.0998],[-70.292,46.0868],[-70.3019,46.0824],[-70.3025,46.0704],[-70.311,46.0642],[-70.3004,46.0606],[-70.2842,46.0627],[-70.2783,46.0563],[-70.2974,46.0407],[-70.3014,46.0276],[-70.318,46.0191],[-70.3061,46.0098],[-70.3024,45.9987],[-70.2839,45.9955],[-70.307,45.9827],[-70.3159,45.963],[-70.277,45.9673],[-70.2745,45.9614],[-70.2657,45.9642],[-70.258,45.959],[-70.2605,45.9523],[-70.2528,45.9554],[-70.2391,45.9439],[-70.2631,45.924],[-70.2572,45.9176],[-70.2595,45.9098],[-70.2534,45.9074],[-70.2657,45.8937],[-70.2588,45.8912],[-70.3078,45.8588],[-70.3419,45.8523],[-70.3594,45.8354],[-70.3708,45.8352],[-70.3722,45.828],[-70.3967,45.8081],[-70.3962,45.7987],[-70.4169,45.7955],[-70.4157,45.7853],[-70.4056,45.7765],[-70.407,45.7625],[-70.3884,45.7502],[-70.3939,45.7401],[-70.3838,45.7346],[-70.3901,45.7285],[-70.3965,45.7291],[-70.4003,45.7197],[-70.4392,45.7039],[-70.4655,45.7065],[-70.5264,45.6664],[-70.5332,45.671],[-70.5424,45.6665],[-70.5529,45.6679]]]},"properties":{"geoid":"23005","state":"23","district":"5","name":"State Senate District 5","chamber":"Senate"}},{"type":"Feature","geometry":{"type":"Polygon","coordinates":[[[-68.5011,44.9807],[-68.3841,44.5323],[-68.3861,44.526],[-68.3705,44.5183],[-68.3032,44.5278],[-68.2995,44.514],[-68.2744,44.5045],[-68.2562,44.4795],[-68.2476,44.4526],[-68.2172,44.4433],[-68.2272,44.4174],[-68.219,44.4102],[-68.2169,44.3974],[-68.1933,44.3928],[-68.1943,44.3813],[-68.1642,44.3751],[-68.155,44.3662],[-68.1601,44.3543],[-68.1554,44.3273],[-68.1661,44.2917],[-68.1278,44.2644],[-68.061,44.2783],[-68.0278,44.2742],[-67.9994,44.2802],[-67.9736,44.2952],[-67.9608,44.3193],[-67.9424,44.3261],[-67.9252,44.3414],[-67.8982,44.3221],[-67.8744,44.3169],[-67.8583,44.317],[-67.8237,44.327],[-67.8097,44.3365],[-67.7953,44.3612],[-67.796,44.3795],[-67.8056,44.391],[-67.7747,44.4113],[-67.7417,44.3908],[-67.7153,44.3865],[-67.6746,44.3946],[-67.655,44.3867],[-67.6274,44.3835],[-67.5676,44.3972],[-67.4994,44.4275],[-67.473,44.4483],[-67.4442,44.4811],[-67.4434,44.5053],[-67.4139,44.5096],[-67.3882,44.5204],[-67.3568,44.5181],[-67.336,44.5227],[-67.3155,44.5333],[-67.3008,44.5499],[-67.2359,44.5581],[-67.1915,44.5795],[-67.1743,44.5947],[-67.1409,44.6083],[-67.1274,44.6214],[-67.0967,44.6392],[-67.0883,44.6527],[-67.0502,44.681],[-67.0393,44.697],[-67.0108,44.7173],[-66.9775,44.7312],[-66.9523,44.7604],[-66.9026,44.7766],[-66.8854,44.7942],[-66.9326,44.8255],[-66.9653,44.8289],[-66.9749,44.8416],[-66.9821,44.8673],[-66.9687,44.9104],[-66.9968,44.9284],[-67.0217,44.9539],[-67.0946,45.0745],[-67.1126,45.1126],[-67.1589,45.162],[-67.2051,45.1714],[-67.2273,45.1634],[-67.2428,45.1724],[-67.2474,45.1809],[-67.2834,45.1919],[-67.291,45.1876],[-67.2914,45.171],[-67.2993,45.1692],[-67.3027,45.1607],[-67.2942,45.1536],[-67.296,45.1478],[-67.32,45.1424],[-67.3208,45.1313],[-67.3305,45.1318],[-67.3408,45.125],[-67.3534,45.1292],[-67.3807,45.1521],[-67.405,45.1601],[-67.4048,45.1668],[-67.3992,45.169],[-67.4005,45.1777],[-67.4293,45.1935],[-67.428,45.2018],[-67.437,45.2227],[-67.4538,45.2412],[-67.4642,45.2451],[-67.4731,45.2586],[-67.4764,45.2754],[-67.4897,45.2821],[-67.4851,45.2912],[-67.4761,45.2886],[-67.4661,45.2939],[-67.4681,45.299],[-67.4603,45.3],[-67.4518,45.3177],[-67.4569,45.3253],[-67.4312,45.3411],[-67.4315,45.3498],[-67.4254,45.3574],[-67.4345,45.365],[-67.4192,45.3771],[-67.4276,45.391],[-67.4527,45.4097],[-67.4612,45.4222],[-67.4727,45.4232],[-67.4804,45.4409],[-67.4765,45.4433],[-67.485,45.4528],[-67.4821,45.4594],[-67.5037,45.4867],[-67.5001,45.4909],[-67.4895,45.4892],[-67.4855,45.4956],[-67.4637,45.4971],[-67.4712,45.5009],[-67.4636,45.5084],[-67.4516,45.4991],[-67.4489,45.5021],[-67.4535,45.5088],[-67.4501,45.5103],[-67.4301,45.501],[-67.4228,45.5055],[-67.4162,45.5013],[-67.4349,45.5281],[-67.4325,45.5404],[-67.4251,45.5403],[-67.4207,45.5497],[-67.4289,45.5683],[-67.4232,45.5716],[-67.4255,45.5784],[-67.4567,45.6043],[-67.4933,45.6013],[-67.488,45.5958],[-67.499,45.5867],[-67.5192,45.5876],[-67.548,45.5978],[-67.5617,45.5947],[-67.5899,45.6068],[-67.6084,45.6061],[-67.6391,45.6251],[-67.644,45.6231],[-67.6398,45.6161],[-67.6456,45.6133],[-67.6752,45.6307],[-67.6923,45.6501],[-67.7096,45.6813],[-67.7178,45.6794],[-67.7283,45.6892],[-67.7346,45.6889],[-67.7335,45.684],[-67.7179,45.6677],[-67.7201,45.6623],[-67.7325,45.6634],[-67.7444,45.6729],[-67.7543,45.6676],[-67.7687,45.6775],[-67.8057,45.6801],[-67.8736,45.6693],[-67.8893,45.6718],[-67.9023,45.6801],[-67.897,45.6653],[-68.048,45.6399],[-67.9727,45.4043],[-67.9579,45.3532],[-67.9669,45.3519],[-67.9398,45.2678],[-68.3037,45.2215],[-68.2705,45.1001],[-68.3969,45.0833],[-68.3759,44.9974],[-68.5011,44.9807]]]},"properties":{"geoid":"23006","state":"23","district":"6","name":"State Senate District 6","chamber":"Senate"}},{"type":"Feature","geometry":{"type":"Polygon","coordinates":[[[-68.896,44.2109],[-68.871,44.1988],[-68.8305,44.21],[-68.7748,44.1774],[-68.7549,44.136],[-68.7356,44.1192],[-68.7402,44.0971],[-68.7156,44.0584],[-68.6979,44.0001],[-68.7071,43.9638],[-68.6792,43.9511],[-68.6511,43.9482],[-68.6187,43.9559],[-68.5851,43.9543],[-68.5604,43.9611],[-68.5307,43.9866],[-68.4931,44.0106],[-68.4849,44.0283],[-68.463,44.0321],[-68.4368,44.0532],[-68.3688,44.0452],[-68.3114,44.0534],[-68.2792,44.0699],[-68.2631,44.0906],[-68.2302,44.0905],[-68.2034,44.0996],[-68.1759,44.1251],[-68.1684,44.1729],[-68.1708,44.1901],[-68.1376,44.2069],[-68.1226,44.226],[-68.1207,44.2443],[-68.1278,44.2644],[-68.1661,44.2917],[-68.1554,44.3273],[-68.1601,44.3543],[-68.155,44.3662],[-68.1642,44.3751],[-68.1943,44.3813],[-68.1933,44.3928],[-68.2169,44.3974],[-68.219,44.4102],[-68.2272,44.4174],[-68.2172,44.4433],[-68.2476,44.4526],[-68.2666,44.4966],[-68.2744,44.5045],[-68.2995,44.514],[-68.3032,44.5278],[-68.3705,44.5183],[-68.3861,44.526],[-68.3841,44.5323],[-68.4187,44.6661],[-68.5551,44.6514],[-68.6245,44.6387],[-68.6512,44.6558],[-68.7415,44.5819],[-68.7733,44.5655],[-68.7983,44.5681],[-68.8062,44.5523],[-68.8033,44.5273],[-68.7925,44.4967],[-68.7966,44.47],[-68.8046,44.4584],[-68.8407,44.4313],[-68.8519,44.416],[-68.8531,44.4015],[-68.8412,44.377],[-68.841,44.3628],[-68.859,44.3287],[-68.8618,44.2949],[-68.885,44.2577],[-68.896,44.2109]]]},"properties":{"geoid":"23007","state":"23","district":"7","name":"State Senate District 7","chamber":"Senate"}},{"type":"Feature","geometry":{"type":"Polygon","coordinates":[[[-68.8809,45.2249],[-68.7919,44.9015],[-68.8028,44.9007],[-68.7952,44.8735],[-68.7414,44.8789],[-68.7209,44.8637],[-68.7308,44.855],[-68.7187,44.8204],[-68.6968,44.8225],[-68.699,44.8411],[-68.6744,44.8583],[-68.6618,44.8806],[-68.6405,44.8971],[-68.6381,44.9114],[-68.6307,44.918],[-68.6363,44.9239],[-68.4918,44.944],[-68.5011,44.9807],[-68.3759,44.9974],[-68.3969,45.0833],[-68.2705,45.1001],[-68.3037,45.2215],[-67.9398,45.2678],[-67.9669,45.3519],[-67.9579,45.3532],[-68.0204,45.5533],[-68.1098,45.5386],[-68.1115,45.5474],[-68.1321,45.5427],[-68.1297,45.5363],[-68.1631,45.5301],[-68.1617,45.5256],[-68.3632,45.4955],[-68.3577,45.5043],[-68.3694,45.5398],[-68.3912,45.5599],[-68.4192,45.5774],[-68.4485,45.5867],[-68.4644,45.5991],[-68.4689,45.5994],[-68.4698,45.5922],[-68.4786,45.5923],[-68.5296,45.6042],[-68.5374,45.6142],[-68.5416,45.6356],[-68.5617,45.6608],[-68.5439,45.6364],[-68.5434,45.6274],[-68.5463,45.63],[-68.547,45.6262],[-68.5359,45.6082],[-68.5445,45.6075],[-68.5538,45.6154],[-68.6072,45.6323],[-68.5872,45.6211],[-68.5542,45.6138],[-68.5464,45.6068],[-68.5137,45.5955],[-68.4728,45.5898],[-68.4737,45.5829],[-68.4649,45.5827],[-68.4641,45.5789],[-68.4539,45.5861],[-68.4385,45.5797],[-68.444,45.5789],[-68.4389,45.5753],[-68.4078,45.5687],[-68.3707,45.5353],[-68.3604,45.5029],[-68.4007,45.4676],[-68.4869,45.419],[-68.5043,45.3861],[-68.5161,45.3858],[-68.5177,45.3921],[-68.5157,45.3849],[-68.5395,45.3744],[-68.55,45.3629],[-68.577,45.3493],[-68.6125,45.3214],[-68.6259,45.3191],[-68.6356,45.3075],[-68.7088,45.3221],[-68.7554,45.2433],[-68.8809,45.2249]],[[-68.5452,45.6266],[-68.544,45.6275],[-68.5434,45.6262],[-68.5452,45.6266]],[[-68.5429,45.6237],[-68.5422,45.6242],[-68.5415,45.6226],[-68.5429,45.6237]],[[-68.5423,45.6267],[-68.5417,45.628],[-68.5419,45.6269],[-68.5423,45.6267]],[[-68.5418,45.6251],[-68.5414,45.626],[-68.5412,45.6254],[-68.5418,45.6251]],[[-68.5414,45.623],[-68.5411,45.6234],[-68.5407,45.6227],[-68.5414,45.623]],[[-68.5412,45.6247],[-68.5402,45.6259],[-68.539,45.6235],[-68.5412,45.6247]],[[-68.5388,45.6063],[-68.5339,45.6071],[-68.5318,45.6043],[-68.5388,45.6063]],[[-68.5387,45.6197],[-68.5383,45.6206],[-68.5378,45.6191],[-68.5387,45.6197]]]},"properties":{"geoid":"23008","state":"23","district":"8","name":"State Senate District 8","chamber":"Senate"}},{"type":"Feature","geometry":{"type":"Polygon","coordinates":[[[-68.9831,44.8483],[-68.9589,44.7612],[-68.9462,44.7631],[-68.9466,44.7691],[-68.9411,44.7725],[-68.9462,44.7774],[-68.9388,44.7791],[-68.9208,44.7666],[-68.7918,44.7834],[-68.7812,44.7783],[-68.7662,44.7978],[-68.7187,44.8204],[-68.7308,44.855],[-68.7209,44.8637],[-68.7444,44.8802],[-68.9831,44.8483]]]},"properties":{"geoid":"23009","state":"23","district":"9","name":"State Senate District 9","chamber":"Senate"}},{"type":"Feature","geometry":{"type":"Polygon","coordinates":[[[-69.1026,44.8325],[-69.0953,44.8029],[-69.1019,44.8021],[-69.1006,44.797],[-69.0941,44.7977],[-69.061,44.6639],[-68.8654,44.6942],[-68.8375,44.7021],[-68.8365,44.6918],[-68.8165,44.6858],[-68.8118,44.6705],[-68.8316,44.6516],[-68.8472,44.618],[-68.8267,44.5999],[-68.8126,44.5748],[-68.7983,44.5681],[-68.7733,44.5655],[-68.7415,44.5819],[-68.6512,44.6558],[-68.6245,44.6387],[-68.5551,44.6514],[-68.4187,44.6661],[-68.4918,44.944],[-68.6363,44.9239],[-68.6307,44.918],[-68.6381,44.9114],[-68.6405,44.8971],[-68.6618,44.8806],[-68.6744,44.8583],[-68.699,44.8411],[-68.6968,44.8225],[-68.7212,44.82],[-68.7459,44.8093],[-68.768,44.7964],[-68.7812,44.7783],[-68.7918,44.7834],[-68.9208,44.7666],[-68.9388,44.7791],[-68.9462,44.7774],[-68.9411,44.7725],[-68.9466,44.7691],[-68.9462,44.7631],[-68.9589,44.7612],[-68.9831,44.8483],[-69.1026,44.8325]]]},"properties":{"geoid":"23010","state":"23","district":"10","name":"State Senate District 10","chamber":"Senate"}},{"type":"Feature","geometry":{"type":"Polygon","coordinates":[[[-69.5064,44.3429],[-69.4096,44.328],[-69.4046,44.3329],[-69.4091,44.3364],[-69.4023,44.3431],[-69.3944,44.3429],[-69.3466,44.3083],[-69.2689,44.3647],[-69.1216,44.2556],[-69.0431,44.2595],[-69.0284,44.249],[-69.0132,44.2106],[-69.0048,44.2032],[-69,44.1667],[-68.9166,44.1667],[-68.8934,44.2173],[-68.8843,44.2594],[-68.8618,44.2949],[-68.859,44.3287],[-68.8413,44.3614],[-68.8409,44.3762],[-68.8531,44.4015],[-68.8519,44.416],[-68.8361,44.4356],[-68.8012,44.4617],[-68.7956,44.474],[-68.7925,44.4967],[-68.8033,44.5273],[-68.8062,44.5523],[-68.7982,44.5678],[-68.8126,44.5748],[-68.8236,44.596],[-68.8475,44.6198],[-68.8316,44.6516],[-68.8121,44.6693],[-68.8162,44.6853],[-68.8365,44.6918],[-68.8375,44.7021],[-68.8654,44.6942],[-69.1837,44.644],[-69.2052,44.7296],[-69.3274,44.7144],[-69.3435,44.7498],[-69.3872,44.7532],[-69.3885,44.7473],[-69.398,44.7462],[-69.3954,44.7315],[-69.4145,44.7187],[-69.4168,44.701],[-69.4773,44.6921],[-69.4756,44.6767],[-69.4429,44.6724],[-69.4479,44.6622],[-69.4559,44.6622],[-69.4611,44.6473],[-69.3931,44.6404],[-69.4168,44.5511],[-69.3724,44.5446],[-69.396,44.4571],[-69.4455,44.4638],[-69.5064,44.3429]]]},"properties":{"geoid":"23011","state":"23","district":"11","name":"State Senate District 11","chamber":"Senate"}},{"type":"Feature","geometry":{"type":"Polygon","coordinates":[[[-69.3982,43.8677],[-69.3899,43.8534],[-69.3659,43.8378],[-69.2335,43.778],[-69.2425,43.7998],[-69.2623,43.8154],[-69.2366,43.8256],[-69.2266,43.8122],[-69.1972,43.796],[-69.1498,43.7957],[-69.083,43.8256],[-69.0649,43.8419],[-69.0559,43.8589],[-69.0228,43.8425],[-69.0243,43.8198],[-69.0099,43.7984],[-68.9995,43.7916],[-68.9812,43.7838],[-68.9498,43.7802],[-68.9382,43.7603],[-68.9129,43.7444],[-68.8491,43.7324],[-68.8269,43.7357],[-68.8006,43.7501],[-68.7822,43.7775],[-68.7853,43.8043],[-68.7495,43.8325],[-68.7128,43.8384],[-68.6847,43.8546],[-68.6694,43.8696],[-68.6638,43.8939],[-68.6733,43.9164],[-68.6869,43.9298],[-68.7165,43.942],[-68.7426,43.9431],[-68.7215,43.9619],[-68.7071,43.9638],[-68.6979,44.0001],[-68.7171,44.0623],[-68.7402,44.0971],[-68.7356,44.1192],[-68.7549,44.136],[-68.765,44.1638],[-68.7774,44.1798],[-68.8305,44.21],[-68.871,44.1988],[-68.8964,44.2099],[-68.9166,44.1667],[-69,44.1667],[-69.0048,44.2032],[-69.0132,44.2106],[-69.0284,44.249],[-69.0431,44.2595],[-69.1216,44.2556],[-69.2689,44.3647],[-69.3466,44.3083],[-69.3277,44.2946],[-69.3376,44.2744],[-69.3238,44.2594],[-69.3362,44.2556],[-69.345,44.242],[-69.3446,44.2257],[-69.357,44.2272],[-69.362,44.2164],[-69.368,44.2177],[-69.3738,44.2122],[-69.3695,44.2079],[-69.3722,44.2054],[-69.3377,44.2094],[-69.3037,44.1327],[-69.3115,44.0955],[-69.3038,44.0965],[-69.3011,44.0925],[-69.282,44.0645],[-69.2823,44.0526],[-69.2995,44.0577],[-69.2986,44.0467],[-69.3093,44.0453],[-69.3186,44.0372],[-69.3281,44.0059],[-69.3347,44.0047],[-69.3458,44.0188],[-69.3572,44.0109],[-69.364,44.0129],[-69.3982,43.8677]]]},"properties":{"geoid":"23012","state":"23","district":"12","name":"State Senate District 12","chamber":"Senate"}},{"type":"Feature","geometry":{"type":"Polygon","coordinates":[[[-69.7438,44.0166],[-69.7463,44.0138],[-69.7001,44.0067],[-69.7197,43.9711],[-69.725,43.9346],[-69.7074,43.9273],[-69.7435,43.8935],[-69.7292,43.8762],[-69.7302,43.8678],[-69.7222,43.8524],[-69.7144,43.8506],[-69.6921,43.8572],[-69.6902,43.8534],[-69.6892,43.845],[-69.6977,43.8299],[-69.6957,43.795],[-69.6647,43.7117],[-69.6173,43.6998],[-69.5509,43.7071],[-69.5353,43.7145],[-69.5191,43.7321],[-69.5158,43.761],[-69.5058,43.7785],[-69.4699,43.7939],[-69.4093,43.8108],[-69.3873,43.799],[-69.397,43.773],[-69.3899,43.7401],[-69.3564,43.7109],[-69.3235,43.7037],[-69.2979,43.7077],[-69.262,43.7254],[-69.2381,43.7501],[-69.2335,43.778],[-69.3344,43.8208],[-69.3836,43.8482],[-69.3978,43.8641],[-69.364,44.0129],[-69.3572,44.0109],[-69.3458,44.0188],[-69.3347,44.0047],[-69.3279,44.006],[-69.3186,44.0372],[-69.3093,44.0453],[-69.2986,44.0467],[-69.298,44.059],[-69.2823,44.0526],[-69.282,44.0645],[-69.3037,44.0964],[-69.3115,44.0955],[-69.3037,44.1327],[-69.3377,44.2094],[-69.3722,44.2054],[-69.3695,44.2079],[-69.3738,44.2122],[-69.368,44.2177],[-69.362,44.2164],[-69.357,44.2272],[-69.3446,44.2257],[-69.345,44.242],[-69.3362,44.2556],[-69.3241,44.2588],[-69.3376,44.2744],[-69.3277,44.2945],[-69.3944,44.3429],[-69.4023,44.3431],[-69.4091,44.3364],[-69.4046,44.3329],[-69.4096,44.328],[-69.6257,44.3618],[-69.6654,44.2276],[-69.6567,44.1224],[-69.6663,44.124],[-69.6919,44.0773],[-69.695,44.0805],[-69.7438,44.0166]]]},"properties":{"geoid":"23013","state":"23","district":"13","name":"State Senate District 13","chamber":"Senate"}},{"type":"Feature","geometry":{"type":"Polygon","coordinates":[[[-70.1326,44.3714],[-70.1002,44.3346],[-70.0991,44.3195],[-70.0745,44.2985],[-70.0757,44.2062],[-70.0555,44.1991],[-70.0605,44.1918],[-69.9684,44.1762],[-69.9472,44.2383],[-69.913,44.2326],[-69.9221,44.2239],[-69.9116,44.2102],[-69.8969,44.202],[-69.898,44.1896],[-69.8935,44.1824],[-69.8555,44.1792],[-69.8481,44.1705],[-69.855,44.1679],[-69.7636,44.1532],[-69.7582,44.1393],[-69.6567,44.1224],[-69.6654,44.2276],[-69.6515,44.275],[-69.8017,44.2993],[-69.8005,44.3027],[-69.8106,44.3043],[-69.8089,44.3097],[-69.8271,44.314],[-69.8264,44.3177],[-69.8324,44.3187],[-69.8245,44.3286],[-69.8338,44.3321],[-69.8283,44.3461],[-69.8342,44.3472],[-69.8185,44.3917],[-69.9415,44.4116],[-69.9406,44.4151],[-70.0168,44.4244],[-70.0218,44.3909],[-70.0995,44.3801],[-70.1005,44.3839],[-70.1222,44.3811],[-70.1201,44.3727],[-70.1326,44.3714]]]},"properties":{"geoid":"23014","state":"23","district":"14","name":"State Senate District 14","chamber":"Senate"}},{"type":"Feature","geometry":{"type":"Polygon","coordinates":[[[-70.0464,44.4911],[-70.0422,44.4884],[-70.0423,44.4796],[-70.0361,44.4891],[-70.0308,44.4882],[-70.0345,44.4588],[-70.0212,44.4682],[-70.0157,44.464],[-70.0306,44.4266],[-69.9406,44.4151],[-69.9415,44.4116],[-69.8185,44.3917],[-69.834,44.3483],[-69.8283,44.3461],[-69.8338,44.3321],[-69.8245,44.3286],[-69.8324,44.3187],[-69.8089,44.3097],[-69.8106,44.3043],[-69.8005,44.3027],[-69.8017,44.2993],[-69.6515,44.275],[-69.6257,44.3618],[-69.5064,44.3429],[-69.4455,44.4638],[-69.4697,44.4672],[-69.4697,44.4822],[-69.5153,44.4904],[-69.514,44.4945],[-69.5386,44.4981],[-69.5433,44.4806],[-69.7879,44.5185],[-69.7798,44.5347],[-69.7726,44.5383],[-69.7662,44.5586],[-69.779,44.5604],[-69.7823,44.5759],[-69.8185,44.5813],[-69.817,44.574],[-69.8263,44.5688],[-69.8421,44.5475],[-69.8539,44.5488],[-69.8657,44.5642],[-69.8745,44.5648],[-69.8779,44.5526],[-69.8732,44.5303],[-69.8792,44.5257],[-69.8891,44.5319],[-69.9096,44.5124],[-69.9475,44.5181],[-69.9441,44.5378],[-69.9497,44.5387],[-69.9547,44.527],[-69.9589,44.5277],[-69.9633,44.5206],[-69.9864,44.5211],[-69.9927,44.5251],[-69.9886,44.5211],[-69.9956,44.5166],[-69.9985,44.5021],[-70.0354,44.5082],[-70.0464,44.4911]]]},"properties":{"geoid":"23015","state":"23","district":"15","name":"State Senate District 15","chamber":"Senate"}},{"type":"Feature","geometry":{"type":"Polygon","coordinates":[[[-69.7927,44.5776],[-69.7823,44.5759],[-69.779,44.5604],[-69.7662,44.5586],[-69.7726,44.5383],[-69.7798,44.5347],[-69.7879,44.5185],[-69.5433,44.4806],[-69.5386,44.4981],[-69.514,44.4945],[-69.5153,44.4904],[-69.4697,44.4822],[-69.4697,44.4672],[-69.396,44.4571],[-69.3724,44.5446],[-69.4168,44.5511],[-69.4095,44.5789],[-69.4447,44.5842],[-69.4432,44.5613],[-69.4797,44.5663],[-69.4818,44.5593],[-69.6057,44.5773],[-69.5909,44.5846],[-69.5927,44.6034],[-69.5791,44.627],[-69.617,44.6563],[-69.6288,44.6727],[-69.633,44.6988],[-69.6406,44.6999],[-69.7299,44.6869],[-69.7319,44.6942],[-69.7383,44.6713],[-69.7803,44.6771],[-69.7443,44.6026],[-69.7763,44.6082],[-69.7873,44.5941],[-69.7927,44.5776]]]},"properties":{"geoid":"23016","state":"23","district":"16","name":"State Senate District 16","chamber":"Senate"}},{"type":"Feature","geometry":{"type":"Polygon","coordinates":[[[-70.3219,44.2174],[-70.3252,44.2084],[-70.2125,44.1786],[-70.1998,44.1675],[-70.1153,44.1262],[-70.1268,44.0656],[-70.1431,44.0221],[-70.1586,44.0053],[-70.1278,43.9839],[-70.1046,43.9958],[-70.091,44.0102],[-70.0777,43.9972],[-70.0518,43.991],[-70.0432,44.0025],[-70.033,44.001],[-70.0365,44.0268],[-70.0251,44.0364],[-70.0272,44.0434],[-70.0055,44.1245],[-69.8978,44.1077],[-69.8945,44.1239],[-69.8796,44.1517],[-69.8481,44.1705],[-69.8559,44.1793],[-69.8942,44.1828],[-69.8969,44.202],[-69.9116,44.2102],[-69.9221,44.2239],[-69.913,44.2326],[-69.9472,44.2383],[-69.9684,44.1762],[-70.0605,44.1918],[-70.0555,44.1991],[-70.0757,44.2062],[-70.0745,44.2985],[-70.0991,44.3195],[-70.1002,44.3346],[-70.1327,44.3712],[-70.1201,44.3727],[-70.1222,44.3811],[-70.1005,44.3839],[-70.0995,44.3801],[-70.0218,44.3909],[-70.0168,44.4244],[-70.0306,44.4266],[-70.0157,44.464],[-70.0212,44.4682],[-70.0353,44.4595],[-70.0308,44.4756],[-70.0328,44.49],[-70.0422,44.4796],[-70.0424,44.4852],[-70.1294,44.4872],[-70.2013,44.478],[-70.2744,44.4406],[-70.2683,44.4164],[-70.2787,44.4152],[-70.2652,44.3629],[-70.3219,44.2174]]]},"properties":{"geoid":"23017","state":"23","district":"17","name":"State Senate District 17","chamber":"Senate"}},{"type":"Feature","geometry":{"type":"Polygon","coordinates":[[[-71.0022,44.1106],[-70.9923,43.8863],[-70.8735,43.8891],[-70.8341,43.9102],[-70.7298,43.9283],[-70.7475,43.9459],[-70.7154,43.9618],[-70.7022,43.9477],[-70.6646,43.967],[-70.6854,43.9899],[-70.5956,44.0321],[-70.5745,44.0156],[-70.5639,44.025],[-70.5441,44.0056],[-70.509,44.0415],[-70.5024,44.0426],[-70.4801,44.0321],[-70.479,44.0551],[-70.4853,44.0604],[-70.4512,44.0945],[-70.4353,44.0768],[-70.4238,44.0715],[-70.4074,44.0815],[-70.3768,44.086],[-70.3591,44.1038],[-70.3424,44.0988],[-70.3381,44.0926],[-70.3425,44.09],[-70.334,44.0926],[-70.3299,44.0865],[-70.3079,44.0796],[-70.3162,44.0966],[-70.3048,44.1015],[-70.3009,44.123],[-70.2969,44.1253],[-70.3007,44.1426],[-70.2887,44.1602],[-70.302,44.1702],[-70.29,44.1991],[-70.3252,44.2084],[-70.3145,44.2372],[-70.4318,44.2513],[-70.4571,44.2932],[-70.4474,44.2964],[-70.4568,44.312],[-70.4686,44.3124],[-70.5662,44.2709],[-70.5808,44.2948],[-70.6397,44.2767],[-70.6455,44.2802],[-70.6721,44.2667],[-70.6856,44.2805],[-70.745,44.2487],[-70.7492,44.253],[-70.7854,44.2336],[-70.7815,44.2295],[-70.8039,44.2186],[-70.8004,44.2145],[-70.8158,44.2064],[-70.7918,44.1809],[-70.8312,44.1605],[-70.8988,44.1152],[-70.9655,44.1475],[-71.0022,44.1106]]]},"properties":{"geoid":"23018","state":"23","district":"18","name":"State Senate District 18","chamber":"Senate"}},{"type":"Feature","geometry":{"type":"Polygon","coordinates":[[[-71.0839,45.3055],[-71.0335,44.6976],[-71.0022,44.1106],[-70.9655,44.1475],[-70.8988,44.1152],[-70.8312,44.1605],[-70.7918,44.1809],[-70.8158,44.2064],[-70.8004,44.2145],[-70.8039,44.2186],[-70.7815,44.2295],[-70.7854,44.2336],[-70.7492,44.253],[-70.745,44.2487],[-70.6856,44.2805],[-70.6721,44.2667],[-70.6455,44.2802],[-70.6397,44.2767],[-70.5808,44.2948],[-70.5662,44.2709],[-70.4686,44.3124],[-70.4568,44.312],[-70.4474,44.2964],[-70.4571,44.2932],[-70.4318,44.2513],[-70.3145,44.2372],[-70.2652,44.3629],[-70.2787,44.4152],[-70.2683,44.4164],[-70.2744,44.4406],[-70.2013,44.478],[-70.1294,44.4872],[-70.1525,44.5893],[-70.2807,44.5696],[-70.3476,44.5802],[-70.3169,44.6376],[-70.2515,44.658],[-70.2433,44.6541],[-70.2415,44.6614],[-70.2074,44.6722],[-70.2211,44.6958],[-70.2514,44.8169],[-70.2587,44.8138],[-70.2644,44.828],[-70.2535,44.8311],[-70.2675,44.8842],[-70.3279,44.8649],[-70.3489,44.9044],[-70.5132,44.8374],[-70.5163,44.867],[-70.4874,44.87],[-70.5215,45.0465],[-70.3987,45.0656],[-70.5187,45.5121],[-70.5058,45.5138],[-70.5529,45.6679],[-70.5637,45.6627],[-70.5649,45.6548],[-70.5836,45.6424],[-70.5909,45.6305],[-70.607,45.6257],[-70.6191,45.612],[-70.6446,45.607],[-70.6781,45.5705],[-70.6877,45.5694],[-70.6851,45.5666],[-70.6892,45.5622],[-70.6771,45.5522],[-70.687,45.5493],[-70.6965,45.54],[-70.6991,45.5301],[-70.7236,45.5101],[-70.7116,45.5018],[-70.7164,45.4865],[-70.6917,45.4743],[-70.6929,45.4664],[-70.6818,45.4617],[-70.6811,45.4522],[-70.6507,45.4449],[-70.6404,45.4308],[-70.6298,45.4263],[-70.6278,45.4207],[-70.6351,45.4111],[-70.6214,45.4024],[-70.6363,45.3952],[-70.6389,45.3888],[-70.6349,45.3834],[-70.6588,45.3777],[-70.6617,45.3863],[-70.6782,45.3943],[-70.712,45.3905],[-70.7238,45.3956],[-70.7436,45.4119],[-70.744,45.4212],[-70.7546,45.4283],[-70.7644,45.4259],[-70.7814,45.4312],[-70.7981,45.4265],[-70.8025,45.4179],[-70.8113,45.4162],[-70.8257,45.4003],[-70.8239,45.391],[-70.8138,45.3878],[-70.8025,45.3657],[-70.8145,45.3567],[-70.8098,45.3487],[-70.8199,45.3402],[-70.8181,45.3326],[-70.8076,45.3277],[-70.8061,45.3216],[-70.8084,45.3118],[-70.8146,45.3082],[-70.8115,45.3038],[-70.8163,45.2982],[-70.8355,45.294],[-70.8299,45.2902],[-70.8319,45.2789],[-70.8489,45.2631],[-70.8486,45.2452],[-70.8381,45.2346],[-70.8582,45.2292],[-70.8969,45.2419],[-70.8985,45.2583],[-70.9059,45.2608],[-70.9075,45.2684],[-70.9213,45.2792],[-70.912,45.2963],[-70.9196,45.3053],[-70.9178,45.3117],[-70.9389,45.32],[-70.9524,45.3391],[-70.9673,45.3322],[-70.985,45.3319],[-71.0107,45.3477],[-71.0121,45.3339],[-71.0019,45.3284],[-71.0085,45.3192],[-71.0327,45.3102],[-71.0591,45.3138],[-71.0839,45.3055]]]},"properties":{"geoid":"23019","state":"23","district":"19","name":"State Senate District 19","chamber":"Senate"}},{"type":"Feature","geometry":{"type":"Polygon","coordinates":[[[-70.4853,44.0604],[-70.479,44.0551],[-70.4794,44.0261],[-70.402,43.9901],[-70.4051,43.9869],[-70.3778,43.9716],[-70.3872,43.9614],[-70.2532,43.8934],[-70.2036,43.9479],[-70.1159,43.9067],[-70.0923,43.932],[-70.0808,43.9265],[-70.0342,43.9757],[-70.0496,43.9902],[-70.0807,43.999],[-70.0893,44.01],[-70.1046,43.9958],[-70.1278,43.9839],[-70.1651,44.0084],[-70.1672,44.0192],[-70.1794,44.0254],[-70.1876,44.0452],[-70.2072,44.0644],[-70.2091,44.0803],[-70.2239,44.092],[-70.2229,44.1062],[-70.2012,44.1372],[-70.2107,44.1511],[-70.2002,44.1694],[-70.2125,44.1786],[-70.29,44.1991],[-70.302,44.1702],[-70.2887,44.1602],[-70.3007,44.1426],[-70.2969,44.1253],[-70.3009,44.123],[-70.3048,44.1015],[-70.3162,44.0966],[-70.3078,44.0796],[-70.3299,44.0865],[-70.334,44.0926],[-70.3425,44.09],[-70.3381,44.0926],[-70.3424,44.0988],[-70.3591,44.1038],[-70.3768,44.086],[-70.4074,44.0815],[-70.4238,44.0715],[-70.4353,44.0768],[-70.4512,44.0945],[-70.4853,44.0604]]]},"properties":{"geoid":"23020","state":"23","district":"20","name":"State Senate District 20","chamber":"Senate"}},{"type":"Feature","geometry":{"type":"Polygon","coordinates":[[[-70.2243,44.0939],[-70.2091,44.0803],[-70.2073,44.0647],[-70.1876,44.0452],[-70.1801,44.0262],[-70.1672,44.0192],[-70.1657,44.009],[-70.1586,44.0053],[-70.1431,44.0221],[-70.1268,44.0656],[-70.1153,44.1262],[-70.1998,44.1675],[-70.2107,44.1511],[-70.2009,44.1393],[-70.2025,44.1335],[-70.2229,44.1062],[-70.2243,44.0939]]]},"properties":{"geoid":"23021","state":"23","district":"21","name":"State Senate District 21","chamber":"Senate"}},{"type":"Feature","geometry":{"type":"Polygon","coordinates":[[[-70.9923,43.8863],[-70.9728,43.5704],[-70.9573,43.5613],[-70.9506,43.5513],[-70.9535,43.5406],[-70.9638,43.5394],[-70.9539,43.5223],[-70.9545,43.5097],[-70.9697,43.4806],[-70.9432,43.4613],[-70.9357,43.4639],[-70.926,43.4556],[-70.9051,43.4702],[-70.9003,43.4658],[-70.8289,43.4742],[-70.8315,43.4869],[-70.7803,43.4919],[-70.8147,43.642],[-70.7968,43.6381],[-70.7924,43.6451],[-70.7952,43.6527],[-70.7813,43.6576],[-70.7608,43.653],[-70.7445,43.6408],[-70.7329,43.6475],[-70.7379,43.656],[-70.7478,43.6592],[-70.7446,43.6678],[-70.7131,43.6653],[-70.6923,43.6745],[-70.6836,43.6559],[-70.6318,43.7043],[-70.6145,43.6983],[-70.6121,43.6871],[-70.5953,43.6972],[-70.5774,43.6872],[-70.4987,43.7629],[-70.4486,43.817],[-70.4465,43.8271],[-70.4621,43.8308],[-70.4594,43.8364],[-70.4651,43.8456],[-70.4867,43.8565],[-70.4995,43.8333],[-70.5806,43.9113],[-70.5718,43.9151],[-70.5766,43.9194],[-70.5697,43.9275],[-70.5763,43.9327],[-70.557,43.943],[-70.562,43.9484],[-70.5573,43.9519],[-70.5664,43.9561],[-70.5696,43.9636],[-70.5684,43.9746],[-70.5635,43.9786],[-70.5667,43.9822],[-70.5441,44.0056],[-70.5639,44.025],[-70.5745,44.0156],[-70.594,44.0321],[-70.6854,43.9899],[-70.6646,43.967],[-70.7022,43.9477],[-70.7154,43.9618],[-70.7475,43.9459],[-70.7298,43.9283],[-70.8341,43.9102],[-70.8735,43.8891],[-70.9923,43.8863]],[[-70.5345,43.8362],[-70.53,43.854],[-70.5173,43.8473],[-70.5115,43.8318],[-70.5203,43.8222],[-70.5329,43.8254],[-70.5345,43.8362]]]},"properties":{"geoid":"23022","state":"23","district":"22","name":"State Senate District 22","chamber":"Senate"}},{"type":"Feature","geometry":{"type":"Polygon","coordinates":[[[-70.2486,43.8983],[-70.2112,43.8904],[-70.216,43.8818],[-70.1524,43.8229],[-70.1512,43.8147],[-70.1646,43.8096],[-70.193,43.7833],[-70.1774,43.7757],[-70.1853,43.7664],[-70.1846,43.7597],[-70.1551,43.7383],[-70.169,43.724],[-70.1155,43.698],[-70.0918,43.7133],[-70.0841,43.7],[-70.0954,43.6882],[-70.0652,43.6737],[-69.9759,43.5979],[-69.8819,43.6365],[-69.8881,43.7049],[-69.8873,43.7879],[-69.87,43.8173],[-69.8761,43.8372],[-69.8749,43.8514],[-69.886,43.8559],[-69.896,43.8671],[-69.891,43.8832],[-69.8686,43.911],[-69.857,43.9447],[-69.8747,43.9536],[-69.9047,43.9256],[-69.9306,43.9121],[-69.9567,43.9234],[-69.9777,43.9151],[-69.9923,43.9307],[-70.0202,43.9461],[-70.0342,43.9757],[-70.0808,43.9265],[-70.0923,43.932],[-70.1159,43.9067],[-70.2036,43.9479],[-70.2486,43.8983]]]},"properties":{"geoid":"23023","state":"23","district":"23","name":"State Senate District 23","chamber":"Senate"}},{"type":"Feature","geometry":{"type":"Polygon","coordinates":[[[-70.0516,43.9914],[-70.0326,43.9737],[-70.02,43.9458],[-69.9923,43.9307],[-69.9777,43.9151],[-69.9567,43.9234],[-69.9306,43.9121],[-69.9047,43.9256],[-69.8747,43.9536],[-69.857,43.9447],[-69.8686,43.911],[-69.891,43.8832],[-69.896,43.8671],[-69.886,43.8559],[-69.8749,43.8514],[-69.8761,43.8372],[-69.87,43.8173],[-69.8873,43.7879],[-69.8881,43.7049],[-69.8819,43.6365],[-69.8552,43.6469],[-69.8088,43.6473],[-69.7866,43.6581],[-69.7495,43.654],[-69.7304,43.6573],[-69.7083,43.6682],[-69.6934,43.6834],[-69.6863,43.6982],[-69.6647,43.7117],[-69.6957,43.795],[-69.6977,43.8299],[-69.6892,43.845],[-69.6902,43.8534],[-69.6921,43.8572],[-69.7144,43.8506],[-69.7222,43.8524],[-69.7302,43.8678],[-69.7292,43.8762],[-69.7435,43.8935],[-69.7074,43.9273],[-69.725,43.9346],[-69.7197,43.9711],[-69.7001,44.0067],[-69.7463,44.0138],[-69.695,44.0805],[-69.6919,44.0773],[-69.6663,44.124],[-69.7582,44.1393],[-69.7636,44.1532],[-69.856,44.168],[-69.88,44.1511],[-69.8945,44.1239],[-69.8978,44.1077],[-70.0055,44.1245],[-70.0272,44.0434],[-70.0251,44.0364],[-70.0365,44.0268],[-70.0328,44.0213],[-70.0383,44.0182],[-70.0318,44.0029],[-70.0376,43.9996],[-70.0432,44.0025],[-70.0516,43.9914]]]},"properties":{"geoid":"23024","state":"23","district":"24","name":"State Senate District 24","chamber":"Senate"}},{"type":"Feature","geometry":{"type":"Polygon","coordinates":[[[-70.4454,43.8818],[-70.3244,43.8198],[-70.3368,43.8071],[-70.3432,43.8103],[-70.3612,43.7538],[-70.3502,43.7481],[-70.336,43.7518],[-70.3321,43.7433],[-70.3376,43.7406],[-70.3113,43.7199],[-70.3074,43.7241],[-70.2998,43.7199],[-70.2857,43.7277],[-70.2778,43.7223],[-70.2827,43.7166],[-70.2707,43.7004],[-70.2509,43.7001],[-70.2457,43.6904],[-70.2171,43.6811],[-70.1992,43.7001],[-70.1613,43.6543],[-70.111,43.6631],[-70.1328,43.6835],[-70.1222,43.7013],[-70.169,43.724],[-70.1551,43.7383],[-70.1846,43.7597],[-70.1853,43.7664],[-70.1774,43.7757],[-70.193,43.7833],[-70.1646,43.8096],[-70.1512,43.8147],[-70.1524,43.8229],[-70.216,43.8818],[-70.2112,43.8904],[-70.2486,43.8983],[-70.2532,43.8934],[-70.3745,43.9552],[-70.4454,43.8818]]]},"properties":{"geoid":"23025","state":"23","district":"25","name":"State Senate District 25","chamber":"Senate"}},{"type":"Feature","geometry":{"type":"MultiPolygon","coordinates":[[[[-70.5806,43.913],[-70.5433,43.8715],[-70.4995,43.8333],[-70.4867,43.8565],[-70.4651,43.8456],[-70.4594,43.8364],[-70.4621,43.8308],[-70.4469,43.8284],[-70.4508,43.8089],[-70.4474,43.7996],[-70.455,43.7829],[-70.4436,43.7728],[-70.4492,43.7626],[-70.448,43.7522],[-70.4385,43.7485],[-70.4373,43.7393],[-70.428,43.7381],[-70.4058,43.7154],[-70.4033,43.7058],[-70.3781,43.6974],[-70.392,43.6557],[-70.3712,43.6666],[-70.3658,43.675],[-70.3704,43.6817],[-70.3667,43.6915],[-70.3767,43.7024],[-70.3701,43.7238],[-70.3581,43.7321],[-70.3568,43.6981],[-70.361,43.6886],[-70.3517,43.6831],[-70.3552,43.6818],[-70.3467,43.6737],[-70.3503,43.6721],[-70.3467,43.6657],[-70.3348,43.6619],[-70.3291,43.6795],[-70.3364,43.6901],[-70.3298,43.6932],[-70.3226,43.7055],[-70.3254,43.7081],[-70.3111,43.7198],[-70.3376,43.7406],[-70.3321,43.7433],[-70.336,43.7518],[-70.3502,43.7481],[-70.3612,43.7538],[-70.3432,43.8103],[-70.3368,43.8071],[-70.3244,43.8198],[-70.4454,43.8818],[-70.3745,43.9552],[-70.3872,43.9614],[-70.3778,43.9716],[-70.4051,43.9869],[-70.402,43.9901],[-70.4791,44.0259],[-70.4801,44.0321],[-70.5024,44.0426],[-70.509,44.0415],[-70.5667,43.9822],[-70.5635,43.9786],[-70.5684,43.9746],[-70.5696,43.9636],[-70.5664,43.9561],[-70.5573,43.9519],[-70.562,43.9484],[-70.557,43.943],[-70.5763,43.9327],[-70.5697,43.9275],[-70.5766,43.9194],[-70.5718,43.9151],[-70.5806,43.913]]],[[[-70.5345,43.8363],[-70.5329,43.8254],[-70.5203,43.8222],[-70.5115,43.8318],[-70.5173,43.8473],[-70.53,43.854],[-70.5345,43.8363]]]]},"properties":{"geoid":"23026","state":"23","district":"26","name":"State Senate District 26","chamber":"Senate"}},{"type":"Feature","geometry":{"type":"Polygon","coordinates":[[[-70.3899,43.6547],[-70.3705,43.6424],[-70.3137,43.6496],[-70.3172,43.646],[-70.291,43.6455],[-70.2815,43.6575],[-70.2848,43.6721],[-70.2685,43.6859],[-70.2881,43.6998],[-70.2772,43.7109],[-70.2827,43.7166],[-70.2778,43.7223],[-70.2857,43.7277],[-70.2998,43.7199],[-70.3078,43.724],[-70.3169,43.7177],[-70.3255,43.708],[-70.3226,43.7055],[-70.3298,43.6932],[-70.3364,43.6901],[-70.3291,43.6795],[-70.3351,43.6619],[-70.3467,43.6657],[-70.3503,43.6721],[-70.3467,43.6737],[-70.3552,43.6818],[-70.3517,43.6831],[-70.361,43.6886],[-70.3568,43.6981],[-70.3581,43.7321],[-70.3701,43.7238],[-70.3767,43.7024],[-70.3667,43.6915],[-70.3704,43.6817],[-70.3658,43.675],[-70.3899,43.6547]]]},"properties":{"geoid":"23027","state":"23","district":"27","name":"State Senate District 27","chamber":"Senate"}},{"type":"Feature","geometry":{"type":"Polygon","coordinates":[[[-70.291,43.6455],[-70.2806,43.639],[-70.2622,43.6419],[-70.2384,43.6584],[-70.2286,43.6583],[-70.2196,43.6511],[-70.2158,43.6354],[-70.1828,43.6217],[-70.1072,43.5443],[-69.9759,43.5979],[-70.0652,43.6737],[-70.0954,43.6882],[-70.0841,43.7],[-70.0938,43.7144],[-70.1155,43.698],[-70.1222,43.7013],[-70.1328,43.6835],[-70.111,43.6631],[-70.1613,43.6543],[-70.1992,43.7001],[-70.2171,43.6811],[-70.2457,43.6904],[-70.2509,43.7001],[-70.2707,43.7004],[-70.2772,43.7109],[-70.2881,43.6998],[-70.2685,43.6859],[-70.2848,43.6721],[-70.2815,43.6575],[-70.291,43.6455]]]},"properties":{"geoid":"23028","state":"23","district":"28","name":"State Senate District 28","chamber":"Senate"}},{"type":"Feature","geometry":{"type":"Polygon","coordinates":[[[-70.3705,43.6424],[-70.2879,43.6009],[-70.296,43.5909],[-70.2809,43.5694],[-70.3014,43.5589],[-70.2964,43.5534],[-70.3048,43.5554],[-70.3132,43.5466],[-70.3079,43.5469],[-70.3142,43.5349],[-70.3082,43.5293],[-70.3216,43.5276],[-70.3245,43.5322],[-70.3384,43.5279],[-70.2221,43.4669],[-70.156,43.5244],[-70.1072,43.5443],[-70.1828,43.6217],[-70.2158,43.6354],[-70.2196,43.6511],[-70.2286,43.6583],[-70.2384,43.6584],[-70.2618,43.6421],[-70.2805,43.639],[-70.287,43.6457],[-70.3172,43.646],[-70.3137,43.6496],[-70.3705,43.6424]]]},"properties":{"geoid":"23029","state":"23","district":"29","name":"State Senate District 29","chamber":"Senate"}},{"type":"Feature","geometry":{"type":"Polygon","coordinates":[[[-70.5466,43.7132],[-70.4577,43.6424],[-70.492,43.6068],[-70.3384,43.5279],[-70.3245,43.5322],[-70.3216,43.5276],[-70.3086,43.529],[-70.3142,43.5349],[-70.3079,43.5469],[-70.3132,43.5466],[-70.3048,43.5554],[-70.2964,43.5534],[-70.3014,43.5589],[-70.281,43.5691],[-70.296,43.5909],[-70.2879,43.6009],[-70.392,43.6557],[-70.3781,43.6974],[-70.4033,43.7058],[-70.4058,43.7154],[-70.428,43.7381],[-70.4373,43.7393],[-70.4385,43.7485],[-70.4478,43.7518],[-70.4492,43.7626],[-70.4436,43.7728],[-70.455,43.7829],[-70.4474,43.7996],[-70.4485,43.817],[-70.5466,43.7132]]]},"properties":{"geoid":"23030","state":"23","district":"30","name":"State Senate District 30","chamber":"Senate"}},{"type":"Feature","geometry":{"type":"Polygon","coordinates":[[[-70.6128,43.6858],[-70.5984,43.661],[-70.5915,43.6274],[-70.5747,43.6163],[-70.5513,43.6122],[-70.5604,43.5736],[-70.5438,43.5595],[-70.5481,43.5502],[-70.5295,43.5546],[-70.5198,43.5452],[-70.5122,43.5443],[-70.5287,43.5256],[-70.5041,43.4991],[-70.4747,43.5027],[-70.4526,43.4995],[-70.4518,43.4942],[-70.4107,43.4791],[-70.3863,43.4622],[-70.3134,43.4636],[-70.2593,43.4324],[-70.2221,43.4669],[-70.492,43.6068],[-70.4577,43.6424],[-70.55,43.7158],[-70.5774,43.6872],[-70.5953,43.6972],[-70.6128,43.6858]]]},"properties":{"geoid":"23031","state":"23","district":"31","name":"State Senate District 31","chamber":"Senate"}},{"type":"Feature","geometry":{"type":"Polygon","coordinates":[[[-70.7176,43.5122],[-70.6424,43.4207],[-70.6073,43.4575],[-70.5918,43.4565],[-70.5764,43.4466],[-70.5613,43.4496],[-70.5552,43.4404],[-70.5584,43.4388],[-70.5541,43.4376],[-70.5567,43.435],[-70.5424,43.4288],[-70.5451,43.4231],[-70.5372,43.4187],[-70.5335,43.4059],[-70.5258,43.4024],[-70.5248,43.3928],[-70.5169,43.3826],[-70.4947,43.3722],[-70.4857,43.3735],[-70.4773,43.3817],[-70.4929,43.4151],[-70.4916,43.4284],[-70.4769,43.4525],[-70.4064,43.4198],[-70.393,43.4221],[-70.3903,43.4132],[-70.3971,43.4094],[-70.4035,43.3942],[-70.3462,43.3582],[-70.3189,43.3901],[-70.2876,43.4035],[-70.2593,43.4324],[-70.3134,43.4636],[-70.3863,43.4622],[-70.4107,43.4791],[-70.4518,43.4942],[-70.4526,43.4995],[-70.4747,43.5027],[-70.4821,43.499],[-70.5051,43.4999],[-70.5287,43.5256],[-70.5122,43.5443],[-70.5198,43.5452],[-70.5295,43.5546],[-70.5481,43.5502],[-70.5438,43.5595],[-70.5604,43.5736],[-70.5513,43.6122],[-70.5747,43.6163],[-70.5915,43.6274],[-70.5984,43.661],[-70.6128,43.6855],[-70.6109,43.6931],[-70.629,43.7043],[-70.6836,43.6559],[-70.6478,43.5825],[-70.7176,43.5122]]]},"properties":{"geoid":"23032","state":"23","district":"32","name":"State Senate District 32","chamber":"Senate"}},{"type":"Feature","geometry":{"type":"Polygon","coordinates":[[[-70.9879,43.3902],[-70.9746,43.3636],[-70.9782,43.3587],[-70.972,43.3546],[-70.973,43.3488],[-70.9674,43.3492],[-70.968,43.3446],[-70.9559,43.334],[-70.9312,43.3365],[-70.9311,43.3298],[-70.9239,43.3257],[-70.7916,43.4167],[-70.7576,43.3885],[-70.7491,43.388],[-70.7499,43.3813],[-70.7412,43.3753],[-70.7412,43.3671],[-70.7242,43.3349],[-70.6424,43.4207],[-70.7176,43.5122],[-70.6478,43.5825],[-70.6923,43.6745],[-70.7131,43.6653],[-70.7446,43.6678],[-70.7478,43.6592],[-70.7379,43.656],[-70.7329,43.6475],[-70.7445,43.6408],[-70.7608,43.653],[-70.7813,43.6576],[-70.7952,43.6527],[-70.7924,43.6451],[-70.7968,43.6381],[-70.8147,43.642],[-70.7803,43.4919],[-70.8315,43.4869],[-70.8289,43.4742],[-70.9003,43.4658],[-70.9051,43.4702],[-70.926,43.4556],[-70.9357,43.4639],[-70.9432,43.4613],[-70.9697,43.4806],[-70.9759,43.4786],[-70.9611,43.4692],[-70.9666,43.4513],[-70.9608,43.4393],[-70.9868,43.4138],[-70.9823,43.3983],[-70.9879,43.3902]]]},"properties":{"geoid":"23033","state":"23","district":"33","name":"State Senate District 33","chamber":"Senate"}},{"type":"Feature","geometry":{"type":"Polygon","coordinates":[[[-70.925,43.3247],[-70.9114,43.3197],[-70.9138,43.3089],[-70.8963,43.2986],[-70.9066,43.292],[-70.8973,43.2927],[-70.8967,43.2853],[-70.8836,43.2834],[-70.8833,43.2732],[-70.8629,43.2648],[-70.8575,43.2558],[-70.8428,43.2542],[-70.8379,43.2424],[-70.8274,43.2434],[-70.8176,43.2377],[-70.808,43.245],[-70.8018,43.2425],[-70.7093,43.3024],[-70.7021,43.2835],[-70.6512,43.2601],[-70.6494,43.2644],[-70.6279,43.2627],[-70.6135,43.2677],[-70.6095,43.2645],[-70.5955,43.2716],[-70.5208,43.2521],[-70.5022,43.2681],[-70.4932,43.2868],[-70.4218,43.2975],[-70.3674,43.3233],[-70.3516,43.3391],[-70.3462,43.3582],[-70.4035,43.3942],[-70.3971,43.4094],[-70.3903,43.4132],[-70.393,43.4221],[-70.4064,43.4198],[-70.4769,43.4525],[-70.4916,43.4284],[-70.4929,43.4151],[-70.4773,43.3817],[-70.4857,43.3735],[-70.4947,43.3722],[-70.5169,43.3826],[-70.5248,43.3928],[-70.5258,43.4024],[-70.5335,43.4059],[-70.5372,43.4187],[-70.5451,43.4231],[-70.5424,43.4288],[-70.5567,43.435],[-70.5541,43.4376],[-70.5584,43.4388],[-70.5552,43.4404],[-70.5609,43.4495],[-70.5764,43.4466],[-70.5918,43.4565],[-70.6043,43.458],[-70.7242,43.3349],[-70.7412,43.3671],[-70.7412,43.3753],[-70.7499,43.3813],[-70.7491,43.388],[-70.7576,43.3885],[-70.7916,43.4167],[-70.925,43.3247]]]},"properties":{"geoid":"23034","state":"23","district":"34","name":"State Senate District 34","chamber":"Senate"}},{"type":"Feature","geometry":{"type":"Polygon","coordinates":[[[-70.8336,43.147],[-70.8251,43.1255],[-70.7797,43.0962],[-70.7659,43.0925],[-70.7568,43.0803],[-70.738,43.0737],[-70.7063,43.0753],[-70.7012,43.0452],[-70.6307,42.9853],[-70.6112,42.979],[-70.5876,42.9492],[-70.5751,42.9171],[-70.553,42.9293],[-70.5402,42.944],[-70.5289,43.0058],[-70.5325,43.02],[-70.5521,43.043],[-70.5731,43.0529],[-70.5997,43.0569],[-70.5906,43.0674],[-70.5822,43.0955],[-70.562,43.1099],[-70.5558,43.1215],[-70.5401,43.1305],[-70.5374,43.1059],[-70.5251,43.0893],[-70.493,43.073],[-70.4591,43.0715],[-70.4211,43.0867],[-70.4062,43.1021],[-70.4032,43.1152],[-70.4072,43.1384],[-70.4409,43.1666],[-70.4864,43.1703],[-70.5217,43.1549],[-70.5229,43.1789],[-70.5063,43.2188],[-70.5124,43.2427],[-70.5196,43.2516],[-70.5955,43.2716],[-70.6095,43.2645],[-70.6135,43.2677],[-70.6279,43.2627],[-70.6494,43.2644],[-70.6512,43.2601],[-70.7021,43.2835],[-70.7093,43.3024],[-70.8018,43.2425],[-70.808,43.245],[-70.8176,43.2377],[-70.8172,43.2293],[-70.8095,43.2249],[-70.8169,43.2145],[-70.8193,43.193],[-70.8283,43.1878],[-70.8236,43.1742],[-70.8336,43.147]]]},"properties":{"geoid":"23035","state":"23","district":"35","name":"State Senate District 35","chamber":"Senate"}}]}