{"type":"FeatureCollection","features":[{"type":"Feature","geometry":{"type":"Polygon","coordinates":[[[-83.1698,42.2647],[-83.1577,42.2513],[-83.1609,42.2362],[-83.1283,42.2348],[-83.1116,42.2601],[-83.0986,42.2941],[-83.078,42.3135],[-83.0427,42.3267],[-83.0668,42.3224],[-83.07,42.3279],[-83.0861,42.3281],[-83.0939,42.3461],[-83.1109,42.3556],[-83.1056,42.3584],[-83.1176,42.3702],[-83.1313,42.3644],[-83.1459,42.3715],[-83.1484,42.3447],[-83.157,42.337],[-83.1566,42.328],[-83.1408,42.311],[-83.1405,42.2977],[-83.1671,42.2896],[-83.1582,42.2788],[-83.1698,42.2647]]]},"properties":{"geoid":"26001","state":"26","district":"1","name":"State House District 1","chamber":"House"}},{"type":"Feature","geometry":{"type":"Polygon","coordinates":[[[-83.2319,42.2699],[-83.2289,42.2059],[-83.2025,42.2063],[-83.194,42.2137],[-83.1806,42.2138],[-83.181,42.2229],[-83.1689,42.2233],[-83.1628,42.2328],[-83.1557,42.2342],[-83.1613,42.2367],[-83.1577,42.2513],[-83.1699,42.2646],[-83.1582,42.2788],[-83.1736,42.2973],[-83.1885,42.295],[-83.2007,42.3005],[-83.2216,42.2725],[-83.2319,42.2699]]]},"properties":{"geoid":"26002","state":"26","district":"2","name":"State House District 2","chamber":"House"}},{"type":"Feature","geometry":{"type":"Polygon","coordinates":[[[-83.2634,42.303],[-83.2633,42.2999],[-83.2455,42.3044],[-83.2501,42.3007],[-83.2427,42.2974],[-83.2562,42.2894],[-83.2524,42.2839],[-83.2561,42.2821],[-83.2291,42.2826],[-83.2177,42.2772],[-83.1996,42.301],[-83.1885,42.295],[-83.1736,42.2973],[-83.1689,42.2895],[-83.1518,42.2963],[-83.1445,42.2936],[-83.1397,42.3088],[-83.1567,42.3286],[-83.157,42.337],[-83.1498,42.3403],[-83.1477,42.3519],[-83.1966,42.3509],[-83.1963,42.3437],[-83.2378,42.3431],[-83.235,42.3298],[-83.2489,42.3272],[-83.2561,42.3184],[-83.2538,42.3121],[-83.2634,42.303]]]},"properties":{"geoid":"26003","state":"26","district":"3","name":"State House District 3","chamber":"House"}},{"type":"Feature","geometry":{"type":"Polygon","coordinates":[[[-83.2657,42.3571],[-83.264,42.3417],[-83.1963,42.3437],[-83.1966,42.3509],[-83.1471,42.3519],[-83.1458,42.3713],[-83.1587,42.3767],[-83.1594,42.3952],[-83.1842,42.3947],[-83.1848,42.4092],[-83.199,42.4088],[-83.1993,42.416],[-83.2189,42.4155],[-83.2184,42.4007],[-83.2082,42.3966],[-83.2079,42.3869],[-83.2369,42.3863],[-83.2366,42.3787],[-83.2464,42.379],[-83.2469,42.3574],[-83.2657,42.3571]]]},"properties":{"geoid":"26004","state":"26","district":"4","name":"State House District 4","chamber":"House"}},{"type":"Feature","geometry":{"type":"Polygon","coordinates":[[[-83.2197,42.4419],[-83.2187,42.4156],[-83.1993,42.416],[-83.199,42.4088],[-83.1848,42.4092],[-83.1852,42.4165],[-83.1408,42.4171],[-83.1421,42.4462],[-83.152,42.446],[-83.1523,42.4531],[-83.1569,42.4528],[-83.1556,42.4741],[-83.1826,42.4742],[-83.1834,42.4887],[-83.2024,42.4884],[-83.1961,42.4517],[-83.2007,42.4516],[-83.2005,42.4448],[-83.2197,42.4419]]]},"properties":{"geoid":"26005","state":"26","district":"5","name":"State House District 5","chamber":"House"}},{"type":"Feature","geometry":{"type":"Polygon","coordinates":[[[-83.2408,42.5584],[-83.2357,42.5379],[-83.2219,42.5387],[-83.2226,42.5024],[-83.2031,42.5029],[-83.2024,42.4884],[-83.1834,42.4887],[-83.1826,42.4742],[-83.1109,42.4759],[-83.1169,42.5045],[-83.1449,42.5043],[-83.1455,42.5191],[-83.1649,42.5184],[-83.1658,42.533],[-83.1858,42.5324],[-83.1936,42.5473],[-83.2098,42.5605],[-83.2408,42.5584]]]},"properties":{"geoid":"26006","state":"26","district":"6","name":"State House District 6","chamber":"House"}},{"type":"Feature","geometry":{"type":"Polygon","coordinates":[[[-83.1219,42.4175],[-83.0997,42.3844],[-83.0856,42.3886],[-83.0817,42.3828],[-83.1176,42.3702],[-83.1056,42.3584],[-83.0818,42.3672],[-83.085,42.372],[-83.0766,42.3751],[-83.0734,42.3704],[-83.0538,42.3775],[-83.0501,42.3731],[-83.011,42.392],[-83.0003,42.3809],[-82.9545,42.397],[-82.9602,42.4049],[-82.973,42.4015],[-82.9792,42.412],[-82.971,42.4148],[-82.9748,42.4207],[-82.9874,42.4204],[-82.9777,42.4351],[-83.0047,42.4344],[-83.004,42.4199],[-83.1219,42.4175]]]},"properties":{"geoid":"26007","state":"26","district":"7","name":"State House District 7","chamber":"House"}},{"type":"Feature","geometry":{"type":"Polygon","coordinates":[[[-83.1852,42.4165],[-83.1842,42.3947],[-83.1594,42.3952],[-83.1587,42.3767],[-83.1313,42.3644],[-83.0817,42.3828],[-83.0856,42.3886],[-83.0997,42.3844],[-83.1219,42.4175],[-83.1018,42.4178],[-83.1009,42.4323],[-83.1126,42.4468],[-83.1106,42.4612],[-83.1149,42.4759],[-83.1557,42.4749],[-83.1569,42.4528],[-83.1523,42.4531],[-83.152,42.446],[-83.1421,42.4462],[-83.1408,42.4171],[-83.1852,42.4165]]]},"properties":{"geoid":"26008","state":"26","district":"8","name":"State House District 8","chamber":"House"}},{"type":"Feature","geometry":{"type":"Polygon","coordinates":[[[-83.1109,42.3559],[-83.0939,42.3461],[-83.0861,42.3281],[-83.07,42.3279],[-83.0668,42.3224],[-83.0427,42.3267],[-83.078,42.3135],[-83.1037,42.2879],[-83.0987,42.2861],[-83.08,42.3072],[-83.0636,42.3169],[-83.019,42.3306],[-82.9892,42.3325],[-82.924,42.3521],[-82.9545,42.397],[-83.0003,42.3809],[-83.0106,42.3921],[-83.0501,42.3731],[-83.0538,42.3775],[-83.0734,42.3704],[-83.0766,42.3751],[-83.085,42.372],[-83.0818,42.3672],[-83.1109,42.3559]]]},"properties":{"geoid":"26009","state":"26","district":"9","name":"State House District 9","chamber":"House"}},{"type":"Feature","geometry":{"type":"Polygon","coordinates":[[[-82.9601,42.405],[-82.923,42.3522],[-82.8303,42.3735],[-82.7499,42.4511],[-82.8918,42.4509],[-82.8961,42.4424],[-82.9069,42.4447],[-82.9107,42.4508],[-82.9407,42.4502],[-82.9573,42.4291],[-82.9478,42.4252],[-82.9538,42.4173],[-82.9432,42.4129],[-82.9601,42.405]]]},"properties":{"geoid":"26010","state":"26","district":"10","name":"State House District 10","chamber":"House"}},{"type":"Feature","geometry":{"type":"Polygon","coordinates":[[[-83.1126,42.4468],[-83.1009,42.4323],[-83.1018,42.4178],[-83.004,42.4199],[-83.0047,42.4344],[-82.9777,42.4351],[-82.9679,42.4498],[-82.971,42.4497],[-82.9719,42.4724],[-82.9677,42.4726],[-82.9678,42.4795],[-82.9868,42.4783],[-82.987,42.4855],[-83.0063,42.4851],[-83.006,42.4707],[-83.0389,42.4688],[-83.039,42.4739],[-83.0455,42.4738],[-83.0454,42.4698],[-83.0648,42.4694],[-83.0645,42.4622],[-83.084,42.4618],[-83.0834,42.4472],[-83.1126,42.4468]]]},"properties":{"geoid":"26011","state":"26","district":"11","name":"State House District 11","chamber":"House"}},{"type":"Feature","geometry":{"type":"Polygon","coordinates":[[[-82.9872,42.4207],[-82.9748,42.4207],[-82.971,42.4148],[-82.9792,42.412],[-82.973,42.4015],[-82.9696,42.4023],[-82.9432,42.4129],[-82.9538,42.4173],[-82.9478,42.4252],[-82.9573,42.4291],[-82.9407,42.4502],[-82.9107,42.4508],[-82.9069,42.4447],[-82.8961,42.4424],[-82.8918,42.4509],[-82.8641,42.4513],[-82.8615,42.4626],[-82.8709,42.4849],[-82.8833,42.4842],[-82.8973,42.4906],[-82.9174,42.4878],[-82.9175,42.4804],[-82.9672,42.4802],[-82.9677,42.4726],[-82.9719,42.4724],[-82.971,42.4497],[-82.9679,42.4498],[-82.9872,42.4207]]]},"properties":{"geoid":"26012","state":"26","district":"12","name":"State House District 12","chamber":"House"}},{"type":"Feature","geometry":{"type":"Polygon","coordinates":[[[-83.0082,42.5364],[-83.0063,42.4851],[-82.987,42.4855],[-82.9868,42.4783],[-82.9175,42.4804],[-82.9174,42.4878],[-82.8973,42.4906],[-82.8833,42.4842],[-82.8709,42.4849],[-82.871,42.5095],[-82.9184,42.51],[-82.9119,42.5249],[-82.969,42.5236],[-82.9696,42.5384],[-83.0082,42.5364]]]},"properties":{"geoid":"26013","state":"26","district":"13","name":"State House District 13","chamber":"House"}},{"type":"Feature","geometry":{"type":"Polygon","coordinates":[[[-83.1169,42.5045],[-83.1096,42.447],[-83.0834,42.4472],[-83.084,42.4618],[-83.0645,42.4622],[-83.0648,42.4694],[-83.0454,42.4698],[-83.0455,42.4738],[-83.039,42.4739],[-83.0389,42.4688],[-83.006,42.4707],[-83.0069,42.5071],[-83.0463,42.5061],[-83.0471,42.5207],[-83.0679,42.5204],[-83.0676,42.5124],[-83.0859,42.5121],[-83.0869,42.5348],[-83.1162,42.534],[-83.1169,42.5045]]]},"properties":{"geoid":"26014","state":"26","district":"14","name":"State House District 14","chamber":"House"}},{"type":"Feature","geometry":{"type":"Polygon","coordinates":[[[-83.3122,42.3406],[-83.3109,42.3117],[-83.2911,42.312],[-83.2906,42.3023],[-83.2898,42.2759],[-83.3093,42.2755],[-83.309,42.2682],[-83.2268,42.27],[-83.2177,42.2772],[-83.2291,42.2826],[-83.2561,42.2821],[-83.2524,42.2839],[-83.2562,42.2894],[-83.2427,42.2974],[-83.2501,42.3007],[-83.2448,42.3028],[-83.2633,42.2999],[-83.2489,42.3272],[-83.235,42.3298],[-83.2378,42.3431],[-83.264,42.3417],[-83.2657,42.3571],[-83.2939,42.3564],[-83.3036,42.3535],[-83.3025,42.3408],[-83.3122,42.3406]]]},"properties":{"geoid":"26015","state":"26","district":"15","name":"State House District 15","chamber":"House"}},{"type":"Feature","geometry":{"type":"Polygon","coordinates":[[[-83.3737,42.3973],[-83.3719,42.3634],[-83.3522,42.3639],[-83.3518,42.3543],[-83.2469,42.3574],[-83.2464,42.379],[-83.2366,42.3787],[-83.2369,42.3863],[-83.2079,42.3869],[-83.2082,42.3966],[-83.2184,42.4007],[-83.2192,42.43],[-83.2389,42.4296],[-83.2384,42.4193],[-83.2587,42.4147],[-83.2571,42.4075],[-83.262,42.4074],[-83.2618,42.4003],[-83.2757,42.4001],[-83.2759,42.4073],[-83.2814,42.4072],[-83.2889,42.4069],[-83.2886,42.3998],[-83.3737,42.3973]]]},"properties":{"geoid":"26016","state":"26","district":"16","name":"State House District 16","chamber":"House"}},{"type":"Feature","geometry":{"type":"Polygon","coordinates":[[[-83.4134,42.4107],[-83.4131,42.403],[-83.3919,42.4029],[-83.3916,42.3969],[-83.2886,42.3998],[-83.2889,42.4069],[-83.2814,42.4072],[-83.2759,42.4073],[-83.2757,42.4001],[-83.2618,42.4003],[-83.262,42.4074],[-83.2571,42.4075],[-83.2587,42.4147],[-83.2384,42.4193],[-83.2389,42.4296],[-83.2192,42.43],[-83.2196,42.4443],[-83.3853,42.4403],[-83.3847,42.4259],[-83.3946,42.4257],[-83.3939,42.4112],[-83.4134,42.4107]]]},"properties":{"geoid":"26017","state":"26","district":"17","name":"State House District 17","chamber":"House"}},{"type":"Feature","geometry":{"type":"Polygon","coordinates":[[[-83.3962,42.4691],[-83.3955,42.4546],[-83.3853,42.4476],[-83.3854,42.4434],[-83.3948,42.44],[-83.2009,42.4448],[-83.2007,42.4516],[-83.1958,42.4541],[-83.1967,42.465],[-83.2014,42.4666],[-83.2031,42.5029],[-83.2656,42.5014],[-83.2614,42.487],[-83.3578,42.4847],[-83.3585,42.496],[-83.3901,42.4944],[-83.3922,42.4834],[-83.3782,42.4695],[-83.3962,42.4691]]]},"properties":{"geoid":"26018","state":"26","district":"18","name":"State House District 18","chamber":"House"}},{"type":"Feature","geometry":{"type":"Polygon","coordinates":[[[-83.4375,42.5261],[-83.4362,42.4971],[-83.3977,42.4981],[-83.4007,42.4888],[-83.3962,42.4691],[-83.3782,42.4695],[-83.3922,42.4834],[-83.3901,42.4944],[-83.3585,42.496],[-83.3578,42.4847],[-83.2614,42.487],[-83.2656,42.5014],[-83.2226,42.5024],[-83.2219,42.5387],[-83.2357,42.5379],[-83.2407,42.5497],[-83.2408,42.5584],[-83.2363,42.5598],[-83.2643,42.5592],[-83.2646,42.5671],[-83.2809,42.5668],[-83.2852,42.5588],[-83.3083,42.5584],[-83.308,42.5668],[-83.3033,42.5671],[-83.3035,42.5723],[-83.3085,42.5734],[-83.3229,42.5721],[-83.3209,42.529],[-83.4375,42.5261]]]},"properties":{"geoid":"26019","state":"26","district":"19","name":"State House District 19","chamber":"House"}},{"type":"Feature","geometry":{"type":"Polygon","coordinates":[[[-83.5179,42.611],[-83.5113,42.609],[-83.5111,42.5976],[-83.4913,42.598],[-83.4909,42.591],[-83.4811,42.5913],[-83.4795,42.5696],[-83.4746,42.5697],[-83.4677,42.5484],[-83.4634,42.55],[-83.4664,42.5263],[-83.4375,42.5261],[-83.3209,42.529],[-83.324,42.5953],[-83.3047,42.5966],[-83.305,42.606],[-83.3001,42.6081],[-83.2875,42.6029],[-83.2782,42.6088],[-83.3042,42.611],[-83.3103,42.6187],[-83.3249,42.6183],[-83.3252,42.6258],[-83.3401,42.6257],[-83.3397,42.618],[-83.3568,42.6174],[-83.3591,42.6137],[-83.3737,42.6134],[-83.3755,42.6169],[-83.5179,42.611]]]},"properties":{"geoid":"26020","state":"26","district":"20","name":"State House District 20","chamber":"House"}},{"type":"Feature","geometry":{"type":"Polygon","coordinates":[[[-83.6387,42.4701],[-83.6372,42.4612],[-83.6318,42.4613],[-83.6308,42.4469],[-83.5919,42.4483],[-83.5903,42.4339],[-83.3854,42.4434],[-83.3855,42.4508],[-83.3955,42.4546],[-83.4007,42.4888],[-83.3977,42.4981],[-83.4362,42.4971],[-83.4376,42.5271],[-83.4672,42.5263],[-83.4674,42.5175],[-83.4578,42.5179],[-83.4573,42.5106],[-83.4968,42.5093],[-83.4968,42.5058],[-83.5112,42.5021],[-83.5108,42.4946],[-83.6383,42.4865],[-83.6387,42.4701]]]},"properties":{"geoid":"26021","state":"26","district":"21","name":"State House District 21","chamber":"House"}},{"type":"Feature","geometry":{"type":"Polygon","coordinates":[[[-83.5519,42.4352],[-83.5512,42.4216],[-83.5313,42.422],[-83.5305,42.4075],[-83.4823,42.4103],[-83.4816,42.3957],[-83.5103,42.3941],[-83.5087,42.3586],[-83.5401,42.3498],[-83.3518,42.3543],[-83.3522,42.3639],[-83.3719,42.3634],[-83.3737,42.3973],[-83.4131,42.403],[-83.4134,42.4107],[-83.3939,42.4112],[-83.3946,42.4257],[-83.3847,42.4259],[-83.3853,42.4403],[-83.5519,42.4352]]]},"properties":{"geoid":"26022","state":"26","district":"22","name":"State House District 22","chamber":"House"}},{"type":"Feature","geometry":{"type":"Polygon","coordinates":[[[-83.7522,42.2825],[-83.742,42.2794],[-83.7465,42.2717],[-83.734,42.2663],[-83.7257,42.2706],[-83.7111,42.2593],[-83.686,42.255],[-83.6844,42.2589],[-83.5941,42.2612],[-83.5832,42.2702],[-83.5834,42.2761],[-83.5442,42.2769],[-83.5475,42.3492],[-83.5087,42.3586],[-83.5103,42.3941],[-83.4816,42.3957],[-83.4823,42.4103],[-83.5305,42.4075],[-83.5313,42.422],[-83.5512,42.4216],[-83.5519,42.4352],[-83.5908,42.434],[-83.5919,42.4483],[-83.6308,42.4469],[-83.6376,42.4756],[-83.6441,42.4754],[-83.6389,42.4809],[-83.6638,42.4818],[-83.6633,42.4746],[-83.6677,42.4745],[-83.6612,42.3119],[-83.7117,42.3022],[-83.7298,42.294],[-83.7254,42.2909],[-83.7346,42.2865],[-83.747,42.2903],[-83.7522,42.2825]]]},"properties":{"geoid":"26023","state":"26","district":"23","name":"State House District 23","chamber":"House"}},{"type":"Feature","geometry":{"type":"Polygon","coordinates":[[[-83.5475,42.3492],[-83.5437,42.2625],[-83.5052,42.2634],[-83.5052,42.2779],[-83.4941,42.278],[-83.4945,42.2855],[-83.4861,42.2858],[-83.4865,42.2929],[-83.4569,42.2861],[-83.4324,42.287],[-83.4327,42.2942],[-83.4277,42.2946],[-83.43,42.3525],[-83.5475,42.3492]]]},"properties":{"geoid":"26024","state":"26","district":"24","name":"State House District 24","chamber":"House"}},{"type":"Feature","geometry":{"type":"Polygon","coordinates":[[[-83.5052,42.2779],[-83.5052,42.2634],[-83.3481,42.2675],[-83.3489,42.2892],[-83.378,42.2885],[-83.3784,42.2957],[-83.3881,42.2955],[-83.3887,42.31],[-83.3741,42.3102],[-83.3794,42.3233],[-83.3648,42.3249],[-83.3655,42.3393],[-83.3513,42.3393],[-83.3505,42.3324],[-83.3369,42.3398],[-83.3025,42.3408],[-83.3018,42.356],[-83.43,42.3525],[-83.4277,42.2946],[-83.4327,42.2942],[-83.4324,42.287],[-83.4664,42.2861],[-83.4666,42.2901],[-83.4865,42.2929],[-83.4861,42.2858],[-83.4945,42.2855],[-83.4941,42.278],[-83.5052,42.2779]]]},"properties":{"geoid":"26025","state":"26","district":"25","name":"State House District 25","chamber":"House"}},{"type":"Feature","geometry":{"type":"Polygon","coordinates":[[[-83.4266,42.2659],[-83.424,42.2081],[-83.3811,42.2087],[-83.3813,42.2146],[-83.3656,42.2328],[-83.3083,42.2471],[-83.3093,42.2755],[-83.2898,42.2759],[-83.2911,42.312],[-83.3109,42.3117],[-83.3122,42.3406],[-83.3373,42.3398],[-83.3505,42.3324],[-83.3513,42.3393],[-83.3655,42.3393],[-83.3648,42.3249],[-83.3794,42.3233],[-83.3741,42.3102],[-83.3887,42.31],[-83.3881,42.2955],[-83.3784,42.2957],[-83.378,42.2885],[-83.3489,42.2892],[-83.3481,42.2675],[-83.4266,42.2659]]]},"properties":{"geoid":"26026","state":"26","district":"26","name":"State House District 26","chamber":"House"}},{"type":"Feature","geometry":{"type":"Polygon","coordinates":[[[-83.2294,42.0814],[-83.1958,42.0824],[-83.1692,42.0726],[-83.1353,42.0843],[-83.1217,42.1254],[-83.1339,42.1748],[-83.1283,42.2348],[-83.1604,42.2344],[-83.1686,42.2234],[-83.181,42.2229],[-83.1806,42.2138],[-83.194,42.2137],[-83.2025,42.2063],[-83.2289,42.2059],[-83.2281,42.1843],[-83.2181,42.1844],[-83.2174,42.1624],[-83.2253,42.1574],[-83.2172,42.1553],[-83.2166,42.1374],[-83.2213,42.1335],[-83.2164,42.1326],[-83.2144,42.1119],[-83.225,42.0992],[-83.2294,42.0814]]]},"properties":{"geoid":"26027","state":"26","district":"27","name":"State House District 27","chamber":"House"}},{"type":"Feature","geometry":{"type":"Polygon","coordinates":[[[-83.3812,41.9708],[-83.3743,41.964],[-83.3505,41.9643],[-83.3624,41.9497],[-83.339,41.95],[-83.3388,41.9406],[-83.3451,41.9361],[-83.3401,41.9322],[-83.3248,41.9391],[-83.3183,41.9338],[-83.3274,41.9228],[-83.3147,41.9172],[-83.3245,41.8849],[-83.341,41.875],[-83.2499,41.875],[-83.2499,41.8579],[-83.1125,41.9594],[-83.1494,42.0403],[-83.1353,42.0843],[-83.1692,42.0726],[-83.1958,42.0824],[-83.2294,42.0814],[-83.225,42.0992],[-83.2144,42.1119],[-83.2164,42.1326],[-83.2213,42.1335],[-83.2166,42.1374],[-83.2172,42.1553],[-83.2253,42.1574],[-83.2174,42.1624],[-83.2181,42.1844],[-83.2281,42.1843],[-83.2292,42.2131],[-83.2976,42.2111],[-83.2958,42.1819],[-83.306,42.1812],[-83.3021,42.0223],[-83.3117,42.0222],[-83.3117,42.015],[-83.3405,42.0145],[-83.3404,42.0075],[-83.3541,42.0074],[-83.3812,41.9708]]]},"properties":{"geoid":"26028","state":"26","district":"28","name":"State House District 28","chamber":"House"}},{"type":"Feature","geometry":{"type":"Polygon","coordinates":[[[-83.4616,41.9344],[-83.4386,41.9241],[-83.415,41.9231],[-83.4072,41.9371],[-83.4105,41.9391],[-83.4019,41.942],[-83.4002,41.9326],[-83.3953,41.9369],[-83.387,41.9288],[-83.3814,41.9348],[-83.3843,41.9363],[-83.3719,41.9395],[-83.3748,41.9341],[-83.3648,41.9312],[-83.3708,41.9242],[-83.3618,41.9263],[-83.3612,41.923],[-83.3586,41.9323],[-83.3631,41.9478],[-83.3505,41.9643],[-83.3743,41.964],[-83.383,41.9684],[-83.3541,42.0074],[-83.3404,42.0075],[-83.3405,42.0145],[-83.3117,42.015],[-83.3117,42.0222],[-83.3021,42.0223],[-83.306,42.1812],[-83.2958,42.1819],[-83.2976,42.2111],[-83.2292,42.2131],[-83.2319,42.2699],[-83.309,42.2682],[-83.3083,42.2471],[-83.3279,42.2422],[-83.3255,42.1809],[-83.4232,42.1794],[-83.4187,41.9885],[-83.432,41.9881],[-83.4616,41.9344]]]},"properties":{"geoid":"26029","state":"26","district":"29","name":"State House District 29","chamber":"House"}},{"type":"Feature","geometry":{"type":"Polygon","coordinates":[[[-83.8864,42.0008],[-83.8851,41.8628],[-83.8074,41.8638],[-83.8063,41.82],[-83.7674,41.821],[-83.7631,41.7236],[-83.4159,41.7338],[-83.2499,41.8579],[-83.2499,41.875],[-83.341,41.875],[-83.3256,41.8819],[-83.3147,41.9172],[-83.3274,41.9228],[-83.3183,41.9338],[-83.3248,41.9391],[-83.3401,41.9322],[-83.3451,41.9361],[-83.3388,41.9406],[-83.339,41.95],[-83.3624,41.9497],[-83.3585,41.9319],[-83.3612,41.923],[-83.3618,41.9263],[-83.3708,41.9242],[-83.3648,41.9312],[-83.3748,41.9341],[-83.3719,41.9395],[-83.3843,41.9363],[-83.3814,41.9348],[-83.387,41.9288],[-83.3953,41.9369],[-83.4002,41.9326],[-83.4019,41.942],[-83.4105,41.9391],[-83.4072,41.9371],[-83.415,41.9231],[-83.4386,41.9241],[-83.4623,41.9346],[-83.483,41.8974],[-83.5343,41.8965],[-83.535,41.9115],[-83.6516,41.91],[-83.652,41.9245],[-83.7703,41.9226],[-83.7717,42.0026],[-83.8864,42.0008]]]},"properties":{"geoid":"26030","state":"26","district":"30","name":"State House District 30","chamber":"House"}},{"type":"Feature","geometry":{"type":"Polygon","coordinates":[[[-83.8897,42.0804],[-83.8864,42.0008],[-83.7717,42.0026],[-83.7703,41.9226],[-83.652,41.9245],[-83.6516,41.91],[-83.535,41.9115],[-83.5343,41.8965],[-83.483,41.8974],[-83.432,41.9881],[-83.4187,41.9885],[-83.4232,42.1794],[-83.3255,42.1809],[-83.3279,42.2422],[-83.3694,42.2307],[-83.3811,42.2087],[-83.424,42.2081],[-83.4265,42.2654],[-83.5437,42.2625],[-83.5421,42.1743],[-83.7383,42.1706],[-83.7366,42.1266],[-83.7463,42.1265],[-83.7461,42.1205],[-83.7524,42.1203],[-83.7521,42.1136],[-83.7419,42.1122],[-83.7506,42.1121],[-83.7504,42.1047],[-83.7551,42.1027],[-83.7648,42.1036],[-83.7696,42.0896],[-83.7743,42.097],[-83.7739,42.0824],[-83.8897,42.0804]]]},"properties":{"geoid":"26031","state":"26","district":"31","name":"State House District 31","chamber":"House"}},{"type":"Feature","geometry":{"type":"Polygon","coordinates":[[[-83.7036,42.1823],[-83.6978,42.1713],[-83.5421,42.1743],[-83.5442,42.2769],[-83.5834,42.2761],[-83.5832,42.2702],[-83.5941,42.2612],[-83.6612,42.2594],[-83.6604,42.2245],[-83.6851,42.2255],[-83.6846,42.1935],[-83.6989,42.1932],[-83.6986,42.1826],[-83.7036,42.1823]]]},"properties":{"geoid":"26032","state":"26","district":"32","name":"State House District 32","chamber":"House"}},{"type":"Feature","geometry":{"type":"Polygon","coordinates":[[[-84.0114,42.1654],[-84.0083,42.078],[-83.7739,42.0824],[-83.7743,42.097],[-83.7696,42.0896],[-83.7648,42.1036],[-83.7551,42.1027],[-83.7504,42.1047],[-83.7506,42.1121],[-83.7419,42.1122],[-83.7521,42.1136],[-83.7524,42.1203],[-83.7461,42.1205],[-83.7463,42.1265],[-83.7366,42.1266],[-83.7383,42.1706],[-83.6978,42.1713],[-83.7036,42.1823],[-83.6986,42.1826],[-83.6989,42.1932],[-83.6846,42.1935],[-83.6851,42.2255],[-83.6604,42.2245],[-83.6612,42.2594],[-83.6844,42.2589],[-83.686,42.255],[-83.7111,42.2593],[-83.7257,42.2706],[-83.734,42.2663],[-83.7357,42.2696],[-83.7714,42.268],[-83.7767,42.2742],[-83.7963,42.2739],[-83.7988,42.2557],[-83.8965,42.2533],[-83.8933,42.1682],[-84.0114,42.1654]]]},"properties":{"geoid":"26033","state":"26","district":"33","name":"State House District 33","chamber":"House"}},{"type":"Feature","geometry":{"type":"Polygon","coordinates":[[[-84.3633,42.0735],[-84.3619,41.8644],[-84.3554,41.8622],[-84.3542,41.8695],[-84.3419,41.8696],[-84.3345,41.8661],[-84.3295,41.8551],[-84.3243,41.8551],[-84.324,41.8482],[-84.3617,41.8477],[-84.3604,41.7066],[-83.7631,41.7236],[-83.7674,41.821],[-83.8063,41.82],[-83.8074,41.8638],[-83.8851,41.8628],[-83.8897,42.0804],[-84.0792,42.0722],[-84.3633,42.0735]]]},"properties":{"geoid":"26034","state":"26","district":"34","name":"State House District 34","chamber":"House"}},{"type":"Feature","geometry":{"type":"Polygon","coordinates":[[[-85.2936,42.0715],[-85.2922,41.7599],[-84.8059,41.7602],[-84.806,41.6961],[-84.3604,41.7066],[-84.3617,41.8477],[-84.324,41.8482],[-84.3243,41.8551],[-84.3295,41.8551],[-84.3345,41.8661],[-84.3419,41.8696],[-84.3542,41.8695],[-84.3554,41.8622],[-84.3619,41.8644],[-84.3633,42.0735],[-85.2936,42.0715]]]},"properties":{"geoid":"26035","state":"26","district":"35","name":"State House District 35","chamber":"House"}},{"type":"Feature","geometry":{"type":"Polygon","coordinates":[[[-86.1085,41.7618],[-85.2922,41.7599],[-85.2936,42.0716],[-85.9919,42.0701],[-85.9912,41.9836],[-86.088,41.9837],[-86.0904,41.981],[-86.0831,41.9747],[-86.0878,41.9733],[-86.0856,41.9697],[-86.0929,41.9697],[-86.0931,41.9633],[-86.1073,41.9667],[-86.1085,41.7618]]]},"properties":{"geoid":"26036","state":"26","district":"36","name":"State House District 36","chamber":"House"}},{"type":"Feature","geometry":{"type":"Polygon","coordinates":[[[-86.6688,41.761],[-86.1085,41.7607],[-86.1073,41.9667],[-86.0931,41.9633],[-86.0929,41.9697],[-86.0856,41.9697],[-86.0878,41.9733],[-86.0831,41.9747],[-86.0904,41.981],[-86.088,41.9837],[-85.9912,41.9836],[-85.9919,42.0701],[-86.4365,42.0726],[-86.4386,42.0581],[-86.4489,42.0616],[-86.4559,42.0726],[-86.4558,42.0509],[-86.4656,42.0508],[-86.4657,41.9856],[-86.5143,41.9855],[-86.5138,41.8993],[-86.5704,41.8995],[-86.5712,41.8275],[-86.6682,41.828],[-86.6688,41.761]]]},"properties":{"geoid":"26037","state":"26","district":"37","name":"State House District 37","chamber":"House"}},{"type":"Feature","geometry":{"type":"Polygon","coordinates":[[[-87.2064,41.7663],[-87.2078,41.761],[-86.6688,41.7597],[-86.6682,41.828],[-86.5712,41.8275],[-86.5704,41.8995],[-86.5138,41.8993],[-86.5143,41.9855],[-86.4657,41.9856],[-86.4656,42.0508],[-86.4558,42.0509],[-86.4559,42.0726],[-86.4489,42.0616],[-86.4386,42.0581],[-86.4365,42.0726],[-86.3394,42.0723],[-86.3403,42.243],[-86.2236,42.2434],[-86.2255,42.4194],[-86.129,42.4193],[-86.135,42.6816],[-86.2115,42.6814],[-86.2066,42.7095],[-86.2092,42.7675],[-87.0587,42.7652],[-87.0199,42.4938],[-87.15,42],[-87.2064,41.7663]]]},"properties":{"geoid":"26038","state":"26","district":"38","name":"State House District 38","chamber":"House"}},{"type":"Feature","geometry":{"type":"Polygon","coordinates":[[[-86.3403,42.243],[-86.3394,42.0723],[-85.7629,42.0693],[-85.7647,42.4207],[-85.7011,42.4224],[-85.7006,42.4501],[-85.7134,42.4501],[-85.7203,42.4564],[-85.716,42.4599],[-85.7104,42.4574],[-85.7107,42.4724],[-85.7009,42.4683],[-85.701,42.508],[-86.1296,42.5064],[-86.129,42.4192],[-86.2255,42.4194],[-86.2236,42.2434],[-86.3403,42.243]]]},"properties":{"geoid":"26039","state":"26","district":"39","name":"State House District 39","chamber":"House"}},{"type":"Feature","geometry":{"type":"Polygon","coordinates":[[[-85.7661,42.25],[-85.7646,42.1573],[-85.5303,42.1574],[-85.5305,42.2303],[-85.5455,42.2302],[-85.5455,42.2156],[-85.5503,42.2156],[-85.553,42.23],[-85.565,42.2302],[-85.5578,42.245],[-85.5699,42.2451],[-85.575,42.2386],[-85.5751,42.2451],[-85.5799,42.241],[-85.5774,42.2451],[-85.5951,42.2452],[-85.5945,42.2604],[-85.6139,42.2605],[-85.6141,42.2519],[-85.6233,42.2524],[-85.6282,42.2598],[-85.6484,42.2599],[-85.6481,42.3073],[-85.6556,42.3059],[-85.6627,42.3105],[-85.6481,42.3094],[-85.6483,42.3321],[-85.664,42.3326],[-85.6638,42.3235],[-85.6721,42.3239],[-85.6721,42.3176],[-85.6914,42.3141],[-85.6913,42.31],[-85.7156,42.3099],[-85.721,42.3025],[-85.7273,42.3025],[-85.7273,42.2956],[-85.7424,42.2953],[-85.7453,42.3026],[-85.7658,42.3025],[-85.7661,42.25]]]},"properties":{"geoid":"26040","state":"26","district":"40","name":"State House District 40","chamber":"House"}},{"type":"Feature","geometry":{"type":"Polygon","coordinates":[[[-85.6627,42.3105],[-85.6556,42.3059],[-85.6481,42.3073],[-85.6484,42.2599],[-85.6282,42.2598],[-85.6233,42.2524],[-85.6141,42.2519],[-85.6139,42.2605],[-85.5945,42.2604],[-85.5951,42.2452],[-85.5774,42.2451],[-85.5799,42.241],[-85.5751,42.2451],[-85.575,42.2386],[-85.5699,42.2451],[-85.5578,42.245],[-85.565,42.2302],[-85.553,42.23],[-85.5503,42.2156],[-85.5455,42.2156],[-85.5455,42.2302],[-85.5305,42.2303],[-85.5312,42.3328],[-85.5507,42.3327],[-85.5506,42.3269],[-85.5606,42.3269],[-85.5606,42.3215],[-85.5714,42.3215],[-85.5707,42.3178],[-85.5813,42.3328],[-85.6107,42.3329],[-85.6105,42.318],[-85.6288,42.3179],[-85.6288,42.3138],[-85.6481,42.3247],[-85.6481,42.3094],[-85.6627,42.3105]]]},"properties":{"geoid":"26041","state":"26","district":"41","name":"State House District 41","chamber":"House"}},{"type":"Feature","geometry":{"type":"Polygon","coordinates":[[[-85.7658,42.3091],[-85.7658,42.3025],[-85.7453,42.3026],[-85.7424,42.2953],[-85.7273,42.2956],[-85.7273,42.3025],[-85.721,42.3025],[-85.7156,42.3099],[-85.6913,42.31],[-85.6914,42.3141],[-85.6721,42.3176],[-85.6721,42.3239],[-85.6638,42.3235],[-85.664,42.3326],[-85.6483,42.3321],[-85.6481,42.3247],[-85.6288,42.3138],[-85.6288,42.3179],[-85.6105,42.318],[-85.6107,42.3329],[-85.5813,42.3328],[-85.5707,42.3178],[-85.5714,42.3215],[-85.5606,42.3215],[-85.5606,42.3269],[-85.5506,42.3269],[-85.5507,42.3327],[-85.5312,42.3328],[-85.5303,42.1574],[-85.7646,42.1573],[-85.7629,42.0693],[-85.4112,42.0713],[-85.4142,42.2845],[-85.4056,42.2886],[-85.4039,42.2976],[-85.4145,42.3],[-85.415,42.3329],[-85.2978,42.3328],[-85.2989,42.4198],[-85.5432,42.4214],[-85.5431,42.5088],[-85.701,42.508],[-85.7009,42.4683],[-85.7107,42.4724],[-85.7104,42.4574],[-85.716,42.4599],[-85.7203,42.4564],[-85.7134,42.4501],[-85.7006,42.4501],[-85.7011,42.4224],[-85.7647,42.4207],[-85.7658,42.3091]]]},"properties":{"geoid":"26042","state":"26","district":"42","name":"State House District 42","chamber":"House"}},{"type":"Feature","geometry":{"type":"Polygon","coordinates":[[[-86.1368,42.7577],[-86.1296,42.5064],[-85.5431,42.5088],[-85.5432,42.4214],[-84.954,42.4221],[-84.9544,42.5096],[-85.3084,42.5079],[-85.308,42.5955],[-85.4267,42.5952],[-85.4273,42.6823],[-85.619,42.6813],[-85.6237,42.6885],[-85.6237,42.6849],[-85.6421,42.6847],[-85.6366,42.6812],[-85.6624,42.6811],[-85.6633,42.7681],[-85.7825,42.7682],[-85.7821,42.8563],[-85.8364,42.8564],[-85.837,42.8404],[-85.842,42.8402],[-85.8421,42.8111],[-85.9007,42.8113],[-85.9014,42.7677],[-86.0646,42.7688],[-86.0627,42.762],[-86.0723,42.7599],[-86.0612,42.7584],[-86.0668,42.7477],[-86.0567,42.7433],[-86.0563,42.7316],[-86.0663,42.7345],[-86.0685,42.7293],[-86.0812,42.733],[-86.0814,42.738],[-86.0908,42.7368],[-86.0902,42.7329],[-86.1207,42.7326],[-86.1158,42.7379],[-86.1257,42.7397],[-86.1263,42.7578],[-86.1368,42.7577]]]},"properties":{"geoid":"26043","state":"26","district":"43","name":"State House District 43","chamber":"House"}},{"type":"Feature","geometry":{"type":"Polygon","coordinates":[[[-85.2996,42.4195],[-85.297,42.2461],[-85.179,42.2465],[-85.1797,42.3014],[-85.1505,42.3045],[-85.1504,42.316],[-85.1408,42.3241],[-85.1411,42.3321],[-85.1508,42.3299],[-85.1509,42.3336],[-84.8532,42.3343],[-84.8287,42.3342],[-84.8279,42.2469],[-84.7757,42.2469],[-84.775,42.2321],[-84.7552,42.2308],[-84.7357,42.2322],[-84.7331,42.2466],[-84.7365,42.2468],[-84.7169,42.2469],[-84.7185,42.4215],[-85.2996,42.4195]]]},"properties":{"geoid":"26044","state":"26","district":"44","name":"State House District 44","chamber":"House"}},{"type":"Feature","geometry":{"type":"Polygon","coordinates":[[[-85.415,42.3329],[-85.4145,42.3],[-85.4039,42.2976],[-85.4056,42.2886],[-85.4142,42.2845],[-85.4112,42.0713],[-84.3633,42.0735],[-84.3642,42.1606],[-84.4805,42.1601],[-84.4828,42.3348],[-84.365,42.3346],[-84.365,42.3153],[-84.349,42.3239],[-84.3268,42.3197],[-84.3145,42.3235],[-84.3066,42.3317],[-84.3011,42.3311],[-84.3015,42.3353],[-84.2952,42.3335],[-84.2891,42.3383],[-84.2919,42.3418],[-84.2852,42.3516],[-84.2786,42.3501],[-84.2808,42.3465],[-84.2581,42.3516],[-84.2505,42.3479],[-84.2504,42.4248],[-84.7185,42.4215],[-84.7169,42.2469],[-84.7365,42.2468],[-84.7331,42.2466],[-84.7357,42.2322],[-84.7505,42.2308],[-84.775,42.2321],[-84.7757,42.2469],[-84.8279,42.2469],[-84.8287,42.3342],[-85.1509,42.3336],[-85.1508,42.3299],[-85.1411,42.3321],[-85.1408,42.3241],[-85.1504,42.316],[-85.1505,42.3045],[-85.1797,42.3014],[-85.179,42.2465],[-85.297,42.2461],[-85.2978,42.3328],[-85.415,42.3329]]]},"properties":{"geoid":"26045","state":"26","district":"45","name":"State House District 45","chamber":"House"}},{"type":"Feature","geometry":{"type":"Polygon","coordinates":[[[-84.4833,42.2547],[-84.4823,42.211],[-84.4447,42.2117],[-84.4328,42.2187],[-84.4286,42.2183],[-84.4343,42.2147],[-84.4279,42.2147],[-84.4279,42.211],[-84.4086,42.211],[-84.4035,42.2038],[-84.4085,42.2255],[-84.3745,42.2259],[-84.3745,42.2293],[-84.3648,42.2274],[-84.3647,42.2116],[-84.2883,42.2113],[-84.288,42.1965],[-84.249,42.1964],[-84.2501,42.2462],[-84.219,42.2492],[-84.2104,42.2597],[-84.2041,42.26],[-84.2041,42.2547],[-84.1973,42.2572],[-84.1971,42.249],[-84.1497,42.2496],[-84.1311,42.2426],[-84.1308,42.25],[-84.0136,42.2501],[-84.0143,42.2954],[-84.0055,42.296],[-84.0057,42.3092],[-83.9972,42.3129],[-84.0059,42.3125],[-83.9988,42.3166],[-83.9987,42.321],[-84.0048,42.321],[-84.004,42.3311],[-84.0151,42.3261],[-84.0152,42.3404],[-84.0806,42.3389],[-84.1316,42.3371],[-84.1313,42.3067],[-84.2503,42.3064],[-84.2505,42.3479],[-84.2581,42.3516],[-84.2808,42.3465],[-84.2786,42.3501],[-84.2852,42.3516],[-84.2919,42.3418],[-84.2891,42.3383],[-84.2952,42.3335],[-84.3015,42.3353],[-84.3011,42.3311],[-84.3066,42.3317],[-84.3145,42.3235],[-84.3268,42.3197],[-84.349,42.3239],[-84.365,42.3153],[-84.365,42.3346],[-84.4828,42.3348],[-84.4833,42.2547]]]},"properties":{"geoid":"26046","state":"26","district":"46","name":"State House District 46","chamber":"House"}},{"type":"Feature","geometry":{"type":"Polygon","coordinates":[[[-84.4823,42.211],[-84.4805,42.1601],[-84.3642,42.1606],[-84.3633,42.0735],[-84.0082,42.0736],[-84.0114,42.1654],[-83.8933,42.1682],[-83.8965,42.2533],[-83.7988,42.2557],[-83.7966,42.2739],[-83.7767,42.2742],[-83.7714,42.268],[-83.7397,42.2691],[-83.7465,42.2717],[-83.742,42.2794],[-83.7522,42.282],[-83.7405,42.2998],[-83.7541,42.3075],[-83.7508,42.3081],[-83.7529,42.3142],[-83.7623,42.3187],[-83.7718,42.3191],[-83.7615,42.3127],[-83.7713,42.3152],[-83.7736,42.3079],[-83.7813,42.3078],[-83.7827,42.3421],[-83.8911,42.3401],[-83.888,42.3456],[-83.8967,42.3463],[-83.9005,42.3399],[-84.0152,42.3404],[-84.0151,42.3261],[-84.004,42.3311],[-84.0048,42.321],[-83.9987,42.321],[-83.9988,42.3166],[-84.0059,42.3125],[-83.9972,42.3115],[-84.0057,42.3092],[-84.0055,42.296],[-84.0143,42.2954],[-84.0136,42.2501],[-84.1308,42.25],[-84.1311,42.2426],[-84.1497,42.2496],[-84.1971,42.249],[-84.1973,42.2572],[-84.2041,42.2547],[-84.2041,42.26],[-84.2104,42.2597],[-84.219,42.2492],[-84.2501,42.2462],[-84.249,42.1964],[-84.288,42.1965],[-84.2883,42.2113],[-84.3647,42.2116],[-84.3648,42.2274],[-84.3745,42.2293],[-84.3745,42.2259],[-84.4085,42.2255],[-84.4035,42.2038],[-84.4086,42.211],[-84.4279,42.211],[-84.4279,42.2147],[-84.4343,42.2147],[-84.4286,42.2183],[-84.4328,42.2187],[-84.4447,42.2117],[-84.4823,42.211]]]},"properties":{"geoid":"26047","state":"26","district":"47","name":"State House District 47","chamber":"House"}},{"type":"Feature","geometry":{"type":"Polygon","coordinates":[[[-84.2506,42.3535],[-84.2503,42.3064],[-84.1313,42.3067],[-84.1316,42.3371],[-83.9005,42.3399],[-83.8967,42.3463],[-83.888,42.3456],[-83.8911,42.3401],[-83.7827,42.3421],[-83.7813,42.3078],[-83.7736,42.3079],[-83.7713,42.3152],[-83.7615,42.3127],[-83.7718,42.3191],[-83.7623,42.3187],[-83.7529,42.3142],[-83.7508,42.3081],[-83.7541,42.3075],[-83.7405,42.2998],[-83.7458,42.2894],[-83.7351,42.2863],[-83.7254,42.2909],[-83.7298,42.294],[-83.7117,42.3022],[-83.6612,42.3119],[-83.6648,42.4312],[-83.7872,42.4286],[-83.7924,42.5233],[-83.8,42.5255],[-83.7924,42.5274],[-83.7929,42.5357],[-83.8103,42.5468],[-83.8085,42.5514],[-83.7938,42.5503],[-83.7959,42.6021],[-83.9119,42.6003],[-83.9138,42.5543],[-83.9081,42.4609],[-83.9553,42.464],[-83.9581,42.4422],[-83.9455,42.4387],[-83.9446,42.4241],[-84.2504,42.4248],[-84.2506,42.3535]]]},"properties":{"geoid":"26048","state":"26","district":"48","name":"State House District 48","chamber":"House"}},{"type":"Feature","geometry":{"type":"Polygon","coordinates":[[[-83.8083,42.5468],[-83.7929,42.5357],[-83.7924,42.5274],[-83.8,42.5255],[-83.7924,42.5233],[-83.7872,42.4286],[-83.6648,42.4312],[-83.6677,42.4747],[-83.6633,42.4746],[-83.6638,42.4818],[-83.6428,42.4826],[-83.6389,42.4809],[-83.6441,42.4754],[-83.6376,42.4756],[-83.6383,42.4865],[-83.5108,42.4946],[-83.5112,42.5021],[-83.4968,42.5058],[-83.4968,42.5093],[-83.4573,42.5106],[-83.4578,42.5179],[-83.4674,42.5175],[-83.467,42.5392],[-83.4629,42.5402],[-83.4682,42.556],[-83.474,42.5588],[-83.4787,42.5546],[-83.478,42.5444],[-83.4879,42.5439],[-83.503,42.5472],[-83.5039,42.5616],[-83.5283,42.5586],[-83.528,42.5536],[-83.5586,42.5525],[-83.5568,42.5239],[-83.6709,42.5196],[-83.6771,42.6063],[-83.7959,42.6021],[-83.7938,42.5503],[-83.8085,42.5514],[-83.8083,42.5468]]]},"properties":{"geoid":"26049","state":"26","district":"49","name":"State House District 49","chamber":"House"}},{"type":"Feature","geometry":{"type":"Polygon","coordinates":[[[-84.1582,42.7766],[-84.1417,42.5473],[-84.1407,42.4246],[-83.9446,42.4241],[-83.9455,42.4387],[-83.9581,42.4422],[-83.9553,42.464],[-83.9081,42.4609],[-83.9138,42.5543],[-83.9119,42.6003],[-83.6771,42.6063],[-83.6828,42.6956],[-83.7027,42.6949],[-83.7028,42.7009],[-83.7178,42.7021],[-83.7128,42.7239],[-83.7292,42.7196],[-83.7393,42.7292],[-83.754,42.7302],[-83.754,42.7374],[-83.7685,42.7369],[-83.7688,42.7319],[-83.7736,42.7317],[-83.7675,42.7223],[-83.7729,42.7221],[-83.7726,42.7147],[-83.7917,42.7034],[-83.7878,42.7088],[-83.7945,42.7167],[-83.8018,42.7167],[-83.8054,42.7811],[-84.1582,42.7766]]]},"properties":{"geoid":"26050","state":"26","district":"50","name":"State House District 50","chamber":"House"}},{"type":"Feature","geometry":{"type":"Polygon","coordinates":[[[-83.6828,42.6956],[-83.6709,42.5196],[-83.5568,42.5239],[-83.5586,42.5525],[-83.528,42.5536],[-83.5283,42.5586],[-83.5086,42.5614],[-83.5039,42.5616],[-83.503,42.5472],[-83.478,42.5444],[-83.4746,42.5697],[-83.4795,42.5696],[-83.4811,42.5913],[-83.4909,42.591],[-83.4913,42.598],[-83.5111,42.5976],[-83.5113,42.609],[-83.5178,42.609],[-83.5178,42.6127],[-83.4419,42.6147],[-83.4461,42.7019],[-83.513,42.7005],[-83.5159,42.7112],[-83.5212,42.7111],[-83.5178,42.7148],[-83.5259,42.7147],[-83.5269,42.7365],[-83.5077,42.7511],[-83.511,42.7583],[-83.5064,42.7586],[-83.538,42.7874],[-83.5683,42.786],[-83.5659,42.699],[-83.6828,42.6956]]]},"properties":{"geoid":"26051","state":"26","district":"51","name":"State House District 51","chamber":"House"}},{"type":"Feature","geometry":{"type":"Polygon","coordinates":[[[-83.538,42.7874],[-83.5064,42.7586],[-83.511,42.7583],[-83.5077,42.7511],[-83.5269,42.7365],[-83.5259,42.7147],[-83.5178,42.7148],[-83.5212,42.7111],[-83.5159,42.7112],[-83.513,42.7005],[-83.4461,42.7019],[-83.4433,42.6442],[-83.425,42.6447],[-83.4253,42.652],[-83.4056,42.6526],[-83.4067,42.638],[-83.3901,42.6386],[-83.3885,42.6434],[-83.3844,42.6371],[-83.3691,42.6389],[-83.3736,42.6546],[-83.3462,42.6507],[-83.3468,42.6611],[-83.3424,42.6579],[-83.333,42.664],[-83.3271,42.6619],[-83.3279,42.6839],[-83.3031,42.685],[-83.3068,42.6991],[-83.3287,42.7013],[-83.333,42.7951],[-83.538,42.7874]]]},"properties":{"geoid":"26052","state":"26","district":"52","name":"State House District 52","chamber":"House"}},{"type":"Feature","geometry":{"type":"Polygon","coordinates":[[[-83.4433,42.6442],[-83.4419,42.6147],[-83.3591,42.6137],[-83.3568,42.6174],[-83.3397,42.618],[-83.3401,42.6257],[-83.3252,42.6258],[-83.3249,42.6183],[-83.3103,42.6187],[-83.3042,42.611],[-83.2877,42.6096],[-83.2673,42.6149],[-83.2479,42.6044],[-83.2515,42.6776],[-83.2413,42.6866],[-83.2427,42.7087],[-83.3289,42.706],[-83.3242,42.6996],[-83.3068,42.6991],[-83.3031,42.685],[-83.3279,42.6839],[-83.3271,42.6619],[-83.333,42.664],[-83.3424,42.6579],[-83.3468,42.6611],[-83.3462,42.6507],[-83.3736,42.6546],[-83.3691,42.6389],[-83.3844,42.6371],[-83.3885,42.6434],[-83.3901,42.6386],[-83.4067,42.638],[-83.4056,42.6526],[-83.4253,42.652],[-83.425,42.6447],[-83.4433,42.6442]]]},"properties":{"geoid":"26053","state":"26","district":"53","name":"State House District 53","chamber":"House"}},{"type":"Feature","geometry":{"type":"Polygon","coordinates":[[[-83.333,42.7951],[-83.3289,42.7059],[-83.2427,42.7087],[-83.241,42.6883],[-83.2515,42.6776],[-83.2479,42.6044],[-83.2673,42.6149],[-83.2875,42.6029],[-83.3043,42.6064],[-83.3047,42.5966],[-83.324,42.5953],[-83.3229,42.5721],[-83.3035,42.5723],[-83.3083,42.5584],[-83.2852,42.5588],[-83.2809,42.5668],[-83.2646,42.5671],[-83.2643,42.5592],[-83.2252,42.5601],[-83.226,42.5753],[-83.2212,42.5754],[-83.2216,42.5824],[-83.2075,42.5829],[-83.214,42.7095],[-83.1691,42.7107],[-83.1714,42.7248],[-83.1812,42.7248],[-83.1782,42.7323],[-83.1702,42.7316],[-83.1681,42.7356],[-83.1753,42.7398],[-83.2152,42.7389],[-83.2175,42.7979],[-83.333,42.7951]]]},"properties":{"geoid":"26054","state":"26","district":"54","name":"State House District 54","chamber":"House"}},{"type":"Feature","geometry":{"type":"Polygon","coordinates":[[[-83.2138,42.7095],[-83.2092,42.621],[-83.0914,42.6242],[-83.0967,42.7415],[-83.1016,42.7485],[-83.1212,42.7482],[-83.1215,42.741],[-83.1361,42.7407],[-83.1358,42.7333],[-83.1509,42.7316],[-83.1498,42.7219],[-83.1406,42.7221],[-83.1408,42.7114],[-83.2138,42.7095]]]},"properties":{"geoid":"26055","state":"26","district":"55","name":"State House District 55","chamber":"House"}},{"type":"Feature","geometry":{"type":"Polygon","coordinates":[[[-83.226,42.5753],[-83.2252,42.5601],[-83.2064,42.5586],[-83.1936,42.5473],[-83.1858,42.5324],[-83.1658,42.533],[-83.1649,42.5184],[-83.1455,42.5191],[-83.1449,42.5043],[-83.125,42.5043],[-83.1261,42.5299],[-83.1216,42.532],[-83.1263,42.532],[-83.1269,42.5412],[-83.1159,42.5412],[-83.1173,42.5558],[-83.1035,42.5599],[-83.1035,42.5638],[-83.1082,42.5637],[-83.1101,42.6074],[-83.1298,42.607],[-83.1305,42.6201],[-83.1258,42.6232],[-83.2092,42.621],[-83.2075,42.5829],[-83.2216,42.5824],[-83.2212,42.5754],[-83.226,42.5753]]]},"properties":{"geoid":"26056","state":"26","district":"56","name":"State House District 56","chamber":"House"}},{"type":"Feature","geometry":{"type":"Polygon","coordinates":[[[-83.1305,42.6201],[-83.1298,42.607],[-83.1101,42.6074],[-83.1082,42.5637],[-83.1035,42.5638],[-83.1079,42.5559],[-83.1173,42.5558],[-83.1159,42.5412],[-83.1269,42.5412],[-83.1263,42.532],[-83.1216,42.532],[-83.1261,42.5299],[-83.125,42.5043],[-83.115,42.5045],[-83.1162,42.534],[-83.0293,42.5366],[-83.0306,42.5922],[-83.0232,42.6025],[-83.032,42.6175],[-83.0369,42.6164],[-83.0442,42.6255],[-83.1305,42.6201]]]},"properties":{"geoid":"26057","state":"26","district":"57","name":"State House District 57","chamber":"House"}},{"type":"Feature","geometry":{"type":"Polygon","coordinates":[[[-83.0922,42.6388],[-83.0914,42.6242],[-83.0442,42.6255],[-83.0369,42.6164],[-83.032,42.6175],[-83.0232,42.6025],[-83.0306,42.5922],[-83.0293,42.5366],[-83.0869,42.5348],[-83.0859,42.5121],[-83.0676,42.5124],[-83.0679,42.5204],[-83.0471,42.5207],[-83.0463,42.5061],[-83.0069,42.5071],[-83.0082,42.5367],[-82.9835,42.538],[-82.9843,42.55],[-82.9797,42.5527],[-83.0035,42.5518],[-83.0006,42.5589],[-83.01,42.5601],[-83.0007,42.5604],[-83.0012,42.5723],[-83.0106,42.5743],[-83.0108,42.5809],[-83.0014,42.5811],[-83.0014,42.5742],[-82.9899,42.5743],[-82.9956,42.5817],[-82.9916,42.5997],[-82.9764,42.6031],[-82.9822,42.6044],[-82.9825,42.6108],[-82.9726,42.6101],[-82.9733,42.6272],[-82.9929,42.6268],[-82.9935,42.6412],[-83.0136,42.6408],[-83.0141,42.6553],[-83.0334,42.6551],[-83.0327,42.6348],[-83.0453,42.6325],[-83.0416,42.6311],[-83.0455,42.6271],[-83.0604,42.6393],[-83.0922,42.6388]]]},"properties":{"geoid":"26058","state":"26","district":"58","name":"State House District 58","chamber":"House"}},{"type":"Feature","geometry":{"type":"Polygon","coordinates":[[[-83.0954,42.7125],[-83.0922,42.6388],[-83.0604,42.6393],[-83.0455,42.6271],[-83.0416,42.6311],[-83.0453,42.6325],[-83.0327,42.6348],[-83.0334,42.6551],[-83.0141,42.6553],[-83.0136,42.6408],[-82.9935,42.6412],[-82.9929,42.6268],[-82.9733,42.6272],[-82.9754,42.679],[-82.9325,42.68],[-82.9327,42.6832],[-82.9285,42.6723],[-82.8981,42.6731],[-82.8987,42.6877],[-82.9087,42.6875],[-82.9092,42.7022],[-82.9193,42.7019],[-82.9199,42.7169],[-83.0954,42.7125]]]},"properties":{"geoid":"26059","state":"26","district":"59","name":"State House District 59","chamber":"House"}},{"type":"Feature","geometry":{"type":"Polygon","coordinates":[[[-82.9754,42.679],[-82.9721,42.5975],[-82.9524,42.5983],[-82.9527,42.6053],[-82.9144,42.5954],[-82.9154,42.6004],[-82.9093,42.6003],[-82.9176,42.6052],[-82.9159,42.629],[-82.8561,42.6302],[-82.8593,42.7181],[-82.9199,42.7169],[-82.9193,42.7019],[-82.9092,42.7022],[-82.9087,42.6875],[-82.8987,42.6877],[-82.8981,42.6731],[-82.9285,42.6723],[-82.9327,42.6832],[-82.9325,42.68],[-82.9754,42.679]]]},"properties":{"geoid":"26060","state":"26","district":"60","name":"State House District 60","chamber":"House"}},{"type":"Feature","geometry":{"type":"Polygon","coordinates":[[[-83.0108,42.5809],[-83.0106,42.5743],[-83.0012,42.5723],[-83.0007,42.5604],[-83.0099,42.5586],[-83.0006,42.5589],[-83.0035,42.5518],[-82.9797,42.5527],[-82.9843,42.55],[-82.9835,42.538],[-82.9696,42.5384],[-82.9702,42.5531],[-82.9605,42.5533],[-82.9303,42.554],[-82.9296,42.5393],[-82.9251,42.5394],[-82.9252,42.5467],[-82.9038,42.5479],[-82.8836,42.585],[-82.8713,42.583],[-82.8665,42.5853],[-82.8661,42.5923],[-82.8577,42.5933],[-82.8566,42.6085],[-82.8613,42.6099],[-82.8561,42.6302],[-82.9159,42.629],[-82.9176,42.6052],[-82.9093,42.6003],[-82.9154,42.6004],[-82.9144,42.5954],[-82.9527,42.6053],[-82.9524,42.5983],[-82.9721,42.5975],[-82.9726,42.6101],[-82.9825,42.6108],[-82.9822,42.6044],[-82.9764,42.6031],[-82.9916,42.5997],[-82.9956,42.5817],[-82.9899,42.5743],[-83.0014,42.5742],[-83.0014,42.5811],[-83.0108,42.5809]]]},"properties":{"geoid":"26061","state":"26","district":"61","name":"State House District 61","chamber":"House"}},{"type":"Feature","geometry":{"type":"Polygon","coordinates":[[[-82.9702,42.5531],[-82.969,42.5236],[-82.9119,42.5249],[-82.9184,42.51],[-82.871,42.5095],[-82.8709,42.4849],[-82.8615,42.4626],[-82.8641,42.4513],[-82.7499,42.4511],[-82.7232,42.4778],[-82.726,42.625],[-82.7062,42.6809],[-82.7563,42.6511],[-82.7944,42.6364],[-82.8371,42.6698],[-82.8446,42.6605],[-82.8424,42.6535],[-82.8361,42.6529],[-82.8407,42.6454],[-82.8565,42.6448],[-82.856,42.6215],[-82.8604,42.6215],[-82.8613,42.6099],[-82.8566,42.6085],[-82.8576,42.5935],[-82.8661,42.5923],[-82.8665,42.5853],[-82.8713,42.583],[-82.8836,42.585],[-82.9038,42.5479],[-82.9252,42.5467],[-82.9251,42.5394],[-82.9296,42.5393],[-82.9303,42.554],[-82.9702,42.5531]]]},"properties":{"geoid":"26062","state":"26","district":"62","name":"State House District 62","chamber":"House"}},{"type":"Feature","geometry":{"type":"Polygon","coordinates":[[[-82.8593,42.7181],[-82.8565,42.6448],[-82.8407,42.6454],[-82.8361,42.6529],[-82.8424,42.6535],[-82.8446,42.6605],[-82.8371,42.6698],[-82.7944,42.6364],[-82.7563,42.6511],[-82.7062,42.6809],[-82.726,42.625],[-82.7232,42.4778],[-82.6543,42.5471],[-82.6337,42.5568],[-82.6243,42.5571],[-82.6057,42.5482],[-82.5855,42.5532],[-82.5788,42.566],[-82.5189,42.6137],[-82.51,42.6368],[-82.5109,42.665],[-82.484,42.7179],[-82.4834,42.7335],[-82.4677,42.7619],[-82.4706,42.7837],[-82.4826,42.8086],[-82.4687,42.852],[-82.4695,42.8769],[-82.4774,42.8731],[-82.4756,42.8594],[-82.4877,42.859],[-82.4872,42.8474],[-82.4972,42.8469],[-82.4966,42.8333],[-82.5073,42.8349],[-82.5105,42.8229],[-82.516,42.82],[-82.511,42.8172],[-82.6149,42.8137],[-82.6126,42.7691],[-82.732,42.7653],[-82.73,42.7208],[-82.8593,42.7181]]]},"properties":{"geoid":"26063","state":"26","district":"63","name":"State House District 63","chamber":"House"}},{"type":"Feature","geometry":{"type":"Polygon","coordinates":[[[-82.6485,43.2489],[-82.6314,42.9909],[-82.6245,42.9911],[-82.6149,42.8137],[-82.511,42.8172],[-82.5148,42.8238],[-82.5105,42.8229],[-82.5073,42.8349],[-82.4966,42.8333],[-82.4972,42.8469],[-82.4872,42.8474],[-82.4877,42.859],[-82.4756,42.8594],[-82.4774,42.8731],[-82.4698,42.8775],[-82.4556,42.9269],[-82.4167,42.9664],[-82.4135,42.9769],[-82.4244,42.997],[-82.411,43.0113],[-82.39,43.0622],[-82.3341,43.1704],[-82.5032,43.1689],[-82.5086,43.1972],[-82.5222,43.2237],[-82.5256,43.2542],[-82.6485,43.2489]]]},"properties":{"geoid":"26064","state":"26","district":"64","name":"State House District 64","chamber":"House"}},{"type":"Feature","geometry":{"type":"Polygon","coordinates":[[[-83.2321,43.1487],[-83.2216,42.9728],[-83.2255,42.9727],[-83.2219,42.8855],[-82.9836,42.8937],[-82.9769,42.7159],[-82.73,42.7208],[-82.732,42.7653],[-82.6126,42.7691],[-82.6245,42.9911],[-82.6314,42.9909],[-82.6433,43.164],[-82.9963,43.1541],[-82.9985,43.2123],[-83.0022,43.2139],[-82.9986,43.215],[-83.0004,43.2849],[-83.119,43.2837],[-83.1142,43.152],[-83.2321,43.1487]]]},"properties":{"geoid":"26065","state":"26","district":"65","name":"State House District 65","chamber":"House"}},{"type":"Feature","geometry":{"type":"Polygon","coordinates":[[[-83.4534,42.8804],[-83.4499,42.7926],[-83.2175,42.7979],[-83.2152,42.7389],[-83.1753,42.7398],[-83.1681,42.7356],[-83.1702,42.7316],[-83.1782,42.7323],[-83.1812,42.7248],[-83.1714,42.7248],[-83.1691,42.7107],[-83.1408,42.7114],[-83.1406,42.7221],[-83.1498,42.7219],[-83.1509,42.7316],[-83.1358,42.7333],[-83.1361,42.7407],[-83.1215,42.741],[-83.1212,42.7482],[-83.1017,42.7486],[-83.0968,42.7431],[-83.0954,42.7125],[-82.9769,42.7159],[-82.9836,42.8937],[-83.4534,42.8804]]]},"properties":{"geoid":"26066","state":"26","district":"66","name":"State House District 66","chamber":"House"}},{"type":"Feature","geometry":{"type":"Polygon","coordinates":[[[-83.6955,43.2214],[-83.6945,43.1265],[-83.6874,43.1263],[-83.6873,43.1122],[-83.6944,43.1114],[-83.6941,43.0757],[-83.6462,43.0764],[-83.651,43.0696],[-83.6507,43.0569],[-83.6263,43.0657],[-83.6207,43.0566],[-83.6215,43.0512],[-83.6283,43.0511],[-83.6326,43.06],[-83.6506,43.0544],[-83.6505,43.0509],[-83.6358,43.0511],[-83.6357,43.0474],[-83.5962,43.0479],[-83.5971,43.0771],[-83.5774,43.0772],[-83.5765,43.0482],[-83.4591,43.05],[-83.4534,42.8804],[-83.2218,42.8857],[-83.2255,42.9727],[-83.2216,42.9728],[-83.2352,43.2376],[-83.3517,43.2352],[-83.3544,43.3223],[-83.4616,43.3208],[-83.4607,43.2231],[-83.6955,43.2214]]]},"properties":{"geoid":"26067","state":"26","district":"67","name":"State House District 67","chamber":"House"}},{"type":"Feature","geometry":{"type":"Polygon","coordinates":[[[-83.6829,42.9629],[-83.6828,42.9598],[-83.5738,42.9615],[-83.5733,42.9474],[-83.6327,42.945],[-83.6324,42.9378],[-83.6424,42.9375],[-83.6461,42.9027],[-83.6302,42.9015],[-83.6304,42.8723],[-83.5711,42.8733],[-83.5683,42.786],[-83.4497,42.7893],[-83.4591,43.05],[-83.5765,43.0482],[-83.5774,43.0772],[-83.5971,43.0771],[-83.5962,43.0479],[-83.6357,43.0474],[-83.6345,43.0042],[-83.6441,43.0039],[-83.6437,42.9893],[-83.6534,42.9892],[-83.6532,42.9819],[-83.6823,42.9815],[-83.6829,42.9629]]]},"properties":{"geoid":"26068","state":"26","district":"68","name":"State House District 68","chamber":"House"}},{"type":"Feature","geometry":{"type":"Polygon","coordinates":[[[-83.9306,43.1761],[-83.9288,42.9565],[-83.848,42.9569],[-83.8583,42.9432],[-83.827,42.9494],[-83.8199,42.9576],[-83.7687,42.9583],[-83.7717,42.9626],[-83.7617,42.9655],[-83.7717,42.9652],[-83.7723,42.9874],[-83.7642,42.9874],[-83.7623,42.995],[-83.7529,42.9985],[-83.7578,42.9948],[-83.7488,42.9964],[-83.7387,42.9897],[-83.7329,42.9923],[-83.738,42.9951],[-83.7375,43.0023],[-83.7419,43.0022],[-83.7295,43.0238],[-83.7423,43.0275],[-83.7382,43.0324],[-83.7424,43.0337],[-83.733,43.0379],[-83.7334,43.057],[-83.7377,43.0607],[-83.7334,43.0606],[-83.7334,43.0751],[-83.7173,43.0793],[-83.7174,43.0754],[-83.6941,43.0757],[-83.6944,43.1114],[-83.6873,43.1122],[-83.6874,43.1263],[-83.6945,43.1265],[-83.6953,43.1634],[-83.7268,43.1629],[-83.7248,43.1848],[-83.7521,43.181],[-83.754,43.1484],[-83.7634,43.1483],[-83.7686,43.1776],[-83.8836,43.1762],[-83.8833,43.1833],[-83.893,43.1841],[-83.9033,43.1834],[-83.9028,43.1762],[-83.9306,43.1761]]]},"properties":{"geoid":"26069","state":"26","district":"69","name":"State House District 69","chamber":"House"}},{"type":"Feature","geometry":{"type":"Polygon","coordinates":[[[-83.7723,42.9874],[-83.7717,42.9652],[-83.7617,42.9643],[-83.7717,42.9622],[-83.7687,42.9583],[-83.7511,42.9586],[-83.7467,42.9458],[-83.7316,42.9513],[-83.7322,42.9589],[-83.6828,42.9598],[-83.6823,42.9815],[-83.6532,42.9819],[-83.6534,42.9892],[-83.6437,42.9893],[-83.6441,43.0039],[-83.6345,43.0042],[-83.6358,43.0511],[-83.6505,43.0509],[-83.6506,43.0544],[-83.6326,43.06],[-83.6283,43.0511],[-83.6215,43.0512],[-83.6227,43.062],[-83.6311,43.0656],[-83.632,43.0605],[-83.6507,43.0569],[-83.651,43.0696],[-83.6462,43.0764],[-83.7174,43.0754],[-83.7173,43.0793],[-83.7334,43.0751],[-83.7334,43.0606],[-83.7377,43.0607],[-83.7334,43.057],[-83.733,43.0379],[-83.7424,43.0337],[-83.7382,43.0324],[-83.7423,43.0275],[-83.7295,43.0238],[-83.7419,43.0022],[-83.7375,43.0023],[-83.738,42.9951],[-83.7329,42.9923],[-83.7387,42.9897],[-83.7488,42.9964],[-83.7578,42.9948],[-83.7529,42.9985],[-83.7623,42.995],[-83.7642,42.9874],[-83.7723,42.9874]]]},"properties":{"geoid":"26070","state":"26","district":"70","name":"State House District 70","chamber":"House"}},{"type":"Feature","geometry":{"type":"Polygon","coordinates":[[[-84.3679,43.1285],[-84.3657,42.9551],[-84.2808,42.956],[-84.2725,42.7761],[-83.8054,42.7811],[-83.8088,42.8693],[-83.7488,42.8704],[-83.7448,42.8997],[-83.7696,42.8995],[-83.7706,42.9288],[-83.731,42.9283],[-83.7321,42.9513],[-83.7467,42.9458],[-83.7511,42.9586],[-83.8199,42.9576],[-83.827,42.9494],[-83.8583,42.9432],[-83.848,42.9569],[-83.9288,42.9565],[-83.9321,43.2204],[-84.2873,43.2152],[-84.2854,43.1289],[-84.3679,43.1285]]]},"properties":{"geoid":"26071","state":"26","district":"71","name":"State House District 71","chamber":"House"}},{"type":"Feature","geometry":{"type":"Polygon","coordinates":[[[-83.8088,42.8693],[-83.8018,42.7167],[-83.7945,42.7167],[-83.7878,42.7088],[-83.7917,42.7034],[-83.7726,42.7147],[-83.7729,42.7221],[-83.7675,42.7223],[-83.7736,42.7317],[-83.7688,42.7319],[-83.7685,42.7369],[-83.754,42.7374],[-83.754,42.7302],[-83.7393,42.7292],[-83.7292,42.7196],[-83.7128,42.7239],[-83.7178,42.7021],[-83.7028,42.7009],[-83.7027,42.6949],[-83.5659,42.699],[-83.5711,42.8733],[-83.6304,42.8723],[-83.6302,42.9015],[-83.6461,42.9027],[-83.6424,42.9375],[-83.6324,42.9378],[-83.6327,42.945],[-83.5733,42.9474],[-83.5738,42.9615],[-83.7322,42.9589],[-83.731,42.9283],[-83.7706,42.9288],[-83.7696,42.8995],[-83.7448,42.8997],[-83.7488,42.8704],[-83.8088,42.8693]]]},"properties":{"geoid":"26072","state":"26","district":"72","name":"State House District 72","chamber":"House"}},{"type":"Feature","geometry":{"type":"Polygon","coordinates":[[[-84.6025,42.5968],[-84.6004,42.422],[-84.1407,42.4246],[-84.1417,42.5473],[-84.1582,42.7766],[-84.2725,42.7761],[-84.264,42.6938],[-84.2737,42.6938],[-84.2743,42.701],[-84.2829,42.7009],[-84.2789,42.6964],[-84.2856,42.6973],[-84.2852,42.6897],[-84.2902,42.688],[-84.3086,42.6973],[-84.3057,42.686],[-84.3636,42.6865],[-84.3635,42.7095],[-84.5034,42.7406],[-84.5036,42.7315],[-84.498,42.7299],[-84.5071,42.7283],[-84.5083,42.7336],[-84.5151,42.7336],[-84.5152,42.7277],[-84.5114,42.7277],[-84.5153,42.7237],[-84.5096,42.7193],[-84.5095,42.7119],[-84.4939,42.7046],[-84.4938,42.7007],[-84.4988,42.7007],[-84.4986,42.6829],[-84.4841,42.6828],[-84.4835,42.5966],[-84.6025,42.5968]]]},"properties":{"geoid":"26073","state":"26","district":"73","name":"State House District 73","chamber":"House"}},{"type":"Feature","geometry":{"type":"Polygon","coordinates":[[[-84.6031,42.6941],[-84.6025,42.5968],[-84.4835,42.5966],[-84.4841,42.6828],[-84.4986,42.6829],[-84.4988,42.7007],[-84.4938,42.7007],[-84.4939,42.7046],[-84.5095,42.7119],[-84.5132,42.7239],[-84.5226,42.7166],[-84.5381,42.7181],[-84.5381,42.7119],[-84.5441,42.712],[-84.545,42.7258],[-84.5536,42.7242],[-84.5565,42.7176],[-84.59,42.7199],[-84.6031,42.7085],[-84.6031,42.6941]]]},"properties":{"geoid":"26074","state":"26","district":"74","name":"State House District 74","chamber":"House"}},{"type":"Feature","geometry":{"type":"Polygon","coordinates":[[[-84.6025,42.8599],[-84.6025,42.8567],[-84.4839,42.8569],[-84.4837,42.7986],[-84.4888,42.8019],[-84.4883,42.7986],[-84.4939,42.7986],[-84.4938,42.7877],[-84.4987,42.7841],[-84.5132,42.7877],[-84.505,42.741],[-84.3635,42.7095],[-84.3636,42.6865],[-84.3037,42.6865],[-84.3086,42.6973],[-84.2899,42.688],[-84.2852,42.6897],[-84.2856,42.6973],[-84.2789,42.6964],[-84.2829,42.7009],[-84.2743,42.701],[-84.2737,42.6938],[-84.264,42.6938],[-84.2725,42.7761],[-84.2808,42.956],[-84.3657,42.9551],[-84.3672,43.0307],[-84.6015,43.0314],[-84.6025,42.8599]]]},"properties":{"geoid":"26075","state":"26","district":"75","name":"State House District 75","chamber":"House"}},{"type":"Feature","geometry":{"type":"Polygon","coordinates":[[[-85.0756,42.6794],[-85.075,42.5963],[-84.9558,42.5972],[-84.954,42.4221],[-84.6004,42.422],[-84.6028,42.7699],[-84.7198,42.7702],[-84.7199,42.7409],[-84.7278,42.7409],[-84.7249,42.7481],[-84.7396,42.748],[-84.7396,42.7408],[-84.7577,42.7409],[-84.7593,42.7337],[-84.7691,42.7336],[-84.7692,42.7409],[-84.7589,42.7419],[-84.7728,42.755],[-84.8371,42.7556],[-84.8372,42.683],[-85.0756,42.6836],[-85.0756,42.6794]]]},"properties":{"geoid":"26076","state":"26","district":"76","name":"State House District 76","chamber":"House"}},{"type":"Feature","geometry":{"type":"Polygon","coordinates":[[[-84.8376,42.9389],[-84.8371,42.7556],[-84.7728,42.755],[-84.7589,42.7419],[-84.7692,42.7409],[-84.7691,42.7336],[-84.7593,42.7337],[-84.7577,42.7409],[-84.7396,42.7408],[-84.7396,42.748],[-84.7249,42.7481],[-84.7278,42.7409],[-84.7199,42.7409],[-84.7198,42.7702],[-84.6028,42.7699],[-84.6031,42.7085],[-84.59,42.7199],[-84.5565,42.7176],[-84.5536,42.7242],[-84.5458,42.7258],[-84.5441,42.712],[-84.5381,42.7119],[-84.5381,42.7181],[-84.5188,42.7185],[-84.5114,42.7277],[-84.5152,42.7277],[-84.5151,42.7336],[-84.5083,42.7336],[-84.5071,42.7283],[-84.498,42.7299],[-84.5036,42.7315],[-84.5035,42.7478],[-84.5082,42.7479],[-84.5132,42.7877],[-84.4987,42.7841],[-84.4938,42.7877],[-84.4939,42.7986],[-84.4883,42.7986],[-84.4888,42.8019],[-84.4837,42.7986],[-84.4839,42.8569],[-84.6025,42.8567],[-84.6018,42.9433],[-84.8376,42.9438],[-84.8376,42.9389]]]},"properties":{"geoid":"26077","state":"26","district":"77","name":"State House District 77","chamber":"House"}},{"type":"Feature","geometry":{"type":"Polygon","coordinates":[[[-85.4316,42.9384],[-85.4274,42.769],[-85.3096,42.7699],[-85.309,42.6716],[-85.3142,42.6678],[-85.3128,42.6581],[-85.309,42.6572],[-85.3088,42.6486],[-85.3133,42.6471],[-85.3088,42.6477],[-85.3084,42.5079],[-84.9544,42.5096],[-84.9558,42.5972],[-85.075,42.5963],[-85.0756,42.6836],[-84.8372,42.683],[-84.8376,42.9438],[-84.9562,42.9437],[-84.9557,43.1196],[-85.075,43.1202],[-85.0751,43.0324],[-85.3124,43.0297],[-85.3119,42.944],[-85.3366,42.9439],[-85.3317,42.9523],[-85.3428,42.944],[-85.4315,42.9437],[-85.4316,42.9384]]]},"properties":{"geoid":"26078","state":"26","district":"78","name":"State House District 78","chamber":"House"}},{"type":"Feature","geometry":{"type":"Polygon","coordinates":[[[-85.7829,42.8048],[-85.7825,42.7682],[-85.6633,42.7681],[-85.6624,42.6811],[-85.6366,42.6812],[-85.6421,42.6847],[-85.6237,42.6849],[-85.6237,42.6885],[-85.619,42.6813],[-85.4273,42.6823],[-85.4267,42.5952],[-85.308,42.5955],[-85.3088,42.6477],[-85.3133,42.6471],[-85.3088,42.6486],[-85.3091,42.6582],[-85.3128,42.6581],[-85.3142,42.6678],[-85.309,42.6716],[-85.3096,42.7699],[-85.4274,42.769],[-85.429,42.8563],[-85.6637,42.8549],[-85.6636,42.8261],[-85.6721,42.8263],[-85.679,42.8552],[-85.7525,42.8558],[-85.77,42.8506],[-85.7681,42.8561],[-85.7821,42.8563],[-85.7829,42.8048]]]},"properties":{"geoid":"26079","state":"26","district":"79","name":"State House District 79","chamber":"House"}},{"type":"Feature","geometry":{"type":"Polygon","coordinates":[[[-85.6649,42.8876],[-85.6637,42.8549],[-85.429,42.8563],[-85.4311,42.9239],[-85.4613,42.943],[-85.5507,42.941],[-85.5509,42.9633],[-85.6167,42.9627],[-85.6298,42.9544],[-85.6395,42.9555],[-85.6395,42.9501],[-85.6297,42.9482],[-85.6297,42.941],[-85.6167,42.938],[-85.6192,42.9307],[-85.5995,42.9307],[-85.5997,42.9341],[-85.5885,42.9367],[-85.5891,42.9411],[-85.5803,42.9412],[-85.5796,42.9269],[-85.5696,42.927],[-85.5686,42.9125],[-85.5834,42.9125],[-85.584,42.9197],[-85.5927,42.9197],[-85.5985,42.9084],[-85.6126,42.9088],[-85.6064,42.8837],[-85.6555,42.8839],[-85.6557,42.8876],[-85.6649,42.8876]]]},"properties":{"geoid":"26080","state":"26","district":"80","name":"State House District 80","chamber":"House"}},{"type":"Feature","geometry":{"type":"Polygon","coordinates":[[[-85.6729,43.0118],[-85.6729,42.9992],[-85.6566,42.999],[-85.6674,42.9845],[-85.6632,42.9794],[-85.6571,42.9809],[-85.6596,42.9718],[-85.652,42.9701],[-85.65,42.9628],[-85.6446,42.9628],[-85.6446,42.9679],[-85.6397,42.9679],[-85.6397,42.9627],[-85.6224,42.9608],[-85.5509,42.9633],[-85.5507,42.941],[-85.4613,42.943],[-85.4311,42.9239],[-85.431,43.0288],[-85.5457,43.0282],[-85.5429,43.0328],[-85.5486,43.0438],[-85.5779,43.0635],[-85.5971,43.0561],[-85.6154,43.0629],[-85.6384,43.0594],[-85.6337,43.0626],[-85.6359,43.066],[-85.67,43.0728],[-85.6698,43.029],[-85.6605,43.029],[-85.6729,43.0118]]]},"properties":{"geoid":"26081","state":"26","district":"81","name":"State House District 81","chamber":"House"}},{"type":"Feature","geometry":{"type":"Polygon","coordinates":[[[-85.6823,42.9561],[-85.6717,42.9562],[-85.6791,42.9385],[-85.672,42.9362],[-85.6716,42.9276],[-85.6667,42.9276],[-85.6656,42.9058],[-85.6772,42.906],[-85.678,42.8987],[-85.6455,42.8983],[-85.6405,42.8945],[-85.6459,42.8912],[-85.6456,42.8838],[-85.6064,42.8837],[-85.6126,42.9088],[-85.5985,42.9084],[-85.5927,42.9197],[-85.584,42.9197],[-85.5834,42.9125],[-85.5686,42.9125],[-85.5696,42.927],[-85.5796,42.9269],[-85.5803,42.9412],[-85.5891,42.9411],[-85.5885,42.9367],[-85.5997,42.9341],[-85.5995,42.9307],[-85.6192,42.9307],[-85.6167,42.938],[-85.6297,42.941],[-85.6297,42.9482],[-85.6395,42.9501],[-85.6395,42.9555],[-85.6298,42.9544],[-85.6224,42.9627],[-85.6397,42.9627],[-85.6397,42.9679],[-85.6446,42.9679],[-85.6446,42.9628],[-85.6755,42.9665],[-85.6823,42.9561]]]},"properties":{"geoid":"26082","state":"26","district":"82","name":"State House District 82","chamber":"House"}},{"type":"Feature","geometry":{"type":"Polygon","coordinates":[[[-85.7823,42.8771],[-85.7821,42.8563],[-85.7681,42.8561],[-85.77,42.8506],[-85.7525,42.8558],[-85.679,42.8552],[-85.6721,42.8263],[-85.6636,42.8261],[-85.6649,42.8876],[-85.6458,42.885],[-85.6459,42.8912],[-85.6405,42.8945],[-85.6455,42.8983],[-85.678,42.8987],[-85.6772,42.906],[-85.6656,42.9058],[-85.6667,42.9276],[-85.6716,42.9276],[-85.672,42.9362],[-85.6791,42.9385],[-85.6717,42.9562],[-85.6823,42.9561],[-85.711,42.9474],[-85.7205,42.9382],[-85.7444,42.9273],[-85.7444,42.921],[-85.7348,42.9266],[-85.7336,42.8774],[-85.765,42.8776],[-85.765,42.874],[-85.7823,42.8771]]]},"properties":{"geoid":"26083","state":"26","district":"83","name":"State House District 83","chamber":"House"}},{"type":"Feature","geometry":{"type":"Polygon","coordinates":[[[-85.7885,43.0309],[-85.7823,42.8774],[-85.765,42.874],[-85.765,42.8776],[-85.7336,42.8774],[-85.7348,42.9266],[-85.7444,42.921],[-85.7444,42.9273],[-85.7205,42.9382],[-85.711,42.9474],[-85.6841,42.9547],[-85.6755,42.9665],[-85.6722,42.9632],[-85.6495,42.9651],[-85.6596,42.9718],[-85.6571,42.9809],[-85.6632,42.9794],[-85.6674,42.9845],[-85.6566,42.999],[-85.6729,42.9992],[-85.6724,43.0141],[-85.6638,43.0195],[-85.6605,43.029],[-85.7885,43.0309]]]},"properties":{"geoid":"26084","state":"26","district":"84","name":"State House District 84","chamber":"House"}},{"type":"Feature","geometry":{"type":"Polygon","coordinates":[[[-86.0626,42.7696],[-85.9014,42.7677],[-85.9007,42.8113],[-85.8421,42.8111],[-85.842,42.8402],[-85.837,42.8404],[-85.8364,42.8564],[-85.7821,42.8563],[-85.7822,42.9117],[-85.7957,42.9197],[-85.8014,42.9286],[-85.7995,42.9383],[-85.8119,42.9476],[-85.8598,42.9453],[-85.8761,42.9579],[-85.9039,42.9577],[-85.9006,42.8561],[-86.0496,42.856],[-86.049,42.8268],[-86.0389,42.8268],[-86.0383,42.7979],[-86.05,42.8013],[-86.0479,42.7834],[-86.0578,42.7833],[-86.0626,42.7696]]]},"properties":{"geoid":"26085","state":"26","district":"85","name":"State House District 85","chamber":"House"}},{"type":"Feature","geometry":{"type":"Polygon","coordinates":[[[-86.2127,42.7736],[-86.208,42.7625],[-86.2066,42.7218],[-86.2115,42.6814],[-86.135,42.6816],[-86.1368,42.7577],[-86.1263,42.7578],[-86.1257,42.7397],[-86.1158,42.7379],[-86.1207,42.7326],[-86.0902,42.7329],[-86.0908,42.7368],[-86.0814,42.738],[-86.0812,42.733],[-86.0711,42.733],[-86.071,42.7293],[-86.0663,42.7345],[-86.0563,42.7316],[-86.0567,42.7433],[-86.0668,42.7477],[-86.0612,42.7584],[-86.0723,42.7621],[-86.0627,42.762],[-86.0646,42.7688],[-86.0626,42.7761],[-86.0577,42.7761],[-86.0578,42.7833],[-86.0479,42.7834],[-86.05,42.8013],[-86.0383,42.7979],[-86.0389,42.8268],[-86.049,42.8268],[-86.0496,42.856],[-86.2107,42.8555],[-86.2127,42.7736]]]},"properties":{"geoid":"26086","state":"26","district":"86","name":"State House District 86","chamber":"House"}},{"type":"Feature","geometry":{"type":"Polygon","coordinates":[[[-86.3841,43.2986],[-86.3454,43.2402],[-86.3389,43.2258],[-86.342,43.2229],[-86.3338,43.2213],[-86.3211,43.2034],[-86.2832,43.2056],[-86.2835,43.1908],[-86.2634,43.1908],[-86.2631,43.2053],[-86.2598,43.2052],[-86.2592,43.1907],[-86.2457,43.1907],[-86.2455,43.1862],[-86.2386,43.1852],[-86.2348,43.1905],[-86.2052,43.1902],[-86.2052,43.205],[-86.1449,43.2052],[-86.1438,43.2944],[-86.1581,43.2947],[-86.1575,43.3821],[-86.1968,43.3828],[-86.1971,43.3531],[-86.2366,43.3538],[-86.2366,43.3498],[-86.2479,43.35],[-86.2564,43.3568],[-86.2565,43.3686],[-86.2766,43.3693],[-86.2773,43.2964],[-86.3841,43.2986]]]},"properties":{"geoid":"26087","state":"26","district":"87","name":"State House District 87","chamber":"House"}},{"type":"Feature","geometry":{"type":"Polygon","coordinates":[[[-87.1472,43.3799],[-87.0587,42.7652],[-86.2092,42.7675],[-86.2128,42.7733],[-86.2107,42.8555],[-86.0203,42.8561],[-86.027,43.1183],[-86.2053,43.1178],[-86.2052,43.1902],[-86.2348,43.1905],[-86.2408,43.1853],[-86.2457,43.1907],[-86.2592,43.1907],[-86.2598,43.2052],[-86.2631,43.2053],[-86.2634,43.1908],[-86.2835,43.1908],[-86.2832,43.2056],[-86.3211,43.2034],[-86.3338,43.2213],[-86.342,43.2229],[-86.3389,43.2258],[-86.3454,43.2402],[-86.3926,43.3112],[-86.4266,43.3739],[-86.4613,43.4723],[-87.1403,43.4714],[-87.1472,43.3799]]]},"properties":{"geoid":"26088","state":"26","district":"88","name":"State House District 88","chamber":"House"}},{"type":"Feature","geometry":{"type":"Polygon","coordinates":[[[-86.206,43.1359],[-86.2053,43.1178],[-86.027,43.1183],[-86.0203,42.8561],[-85.9006,42.8561],[-85.9039,42.9577],[-85.8761,42.9579],[-85.8598,42.9453],[-85.8119,42.9476],[-85.7995,42.9383],[-85.8014,42.9286],[-85.7957,42.9197],[-85.7822,42.9117],[-85.7907,43.2052],[-85.7509,43.2049],[-85.7511,43.2122],[-85.7413,43.2123],[-85.7416,43.2268],[-85.7513,43.2268],[-85.7522,43.2932],[-86.1438,43.2944],[-86.1449,43.2052],[-86.2052,43.205],[-86.206,43.1359]]]},"properties":{"geoid":"26089","state":"26","district":"89","name":"State House District 89","chamber":"House"}},{"type":"Feature","geometry":{"type":"Polygon","coordinates":[[[-85.7907,43.2052],[-85.7885,43.0309],[-85.6698,43.029],[-85.67,43.0728],[-85.6359,43.066],[-85.6337,43.0626],[-85.6384,43.0594],[-85.6154,43.0629],[-85.5971,43.0561],[-85.5779,43.0635],[-85.5486,43.0438],[-85.5429,43.0328],[-85.5457,43.0282],[-85.4308,43.0287],[-85.4315,42.9437],[-85.3428,42.944],[-85.3317,42.9523],[-85.3366,42.9439],[-85.3119,42.944],[-85.3125,43.1188],[-85.4312,43.118],[-85.4315,43.206],[-85.6716,43.2053],[-85.673,43.2938],[-85.7522,43.2932],[-85.7513,43.2268],[-85.7416,43.2268],[-85.7413,43.2123],[-85.7511,43.2122],[-85.7509,43.2049],[-85.7907,43.2052]]]},"properties":{"geoid":"26090","state":"26","district":"90","name":"State House District 90","chamber":"House"}},{"type":"Feature","geometry":{"type":"Polygon","coordinates":[[[-85.673,43.2924],[-85.6716,43.2053],[-85.4315,43.206],[-85.4312,43.118],[-85.3125,43.1188],[-85.3124,43.0297],[-85.0751,43.0324],[-85.075,43.1202],[-84.9557,43.1196],[-84.9546,43.2926],[-84.965,43.2926],[-84.9648,43.3792],[-84.845,43.3792],[-84.846,43.4662],[-85.5623,43.4681],[-85.5625,43.2943],[-85.673,43.2924]]]},"properties":{"geoid":"26091","state":"26","district":"91","name":"State House District 91","chamber":"House"}},{"type":"Feature","geometry":{"type":"Polygon","coordinates":[[[-85.0888,43.8137],[-85.085,43.4662],[-84.846,43.4662],[-84.845,43.3792],[-84.7267,43.3793],[-84.7267,43.2921],[-84.6204,43.2917],[-84.6206,43.2771],[-84.6107,43.2772],[-84.6107,43.2699],[-84.6008,43.27],[-84.6008,43.2772],[-84.5829,43.2772],[-84.5831,43.2916],[-84.5798,43.2917],[-84.5817,43.2877],[-84.5631,43.2691],[-84.566,43.2916],[-84.4885,43.2917],[-84.4887,43.4662],[-84.6075,43.466],[-84.606,43.8154],[-85.0888,43.8137]]]},"properties":{"geoid":"26092","state":"26","district":"92","name":"State House District 92","chamber":"House"}},{"type":"Feature","geometry":{"type":"Polygon","coordinates":[[[-84.965,43.3021],[-84.965,43.2926],[-84.9546,43.2926],[-84.9562,42.9437],[-84.6018,42.9433],[-84.6015,43.0314],[-84.3672,43.0307],[-84.3679,43.1285],[-84.2854,43.1289],[-84.2873,43.2152],[-83.9321,43.2204],[-83.935,43.3627],[-83.9477,43.3669],[-83.9591,43.3649],[-83.9832,43.3772],[-83.9657,43.3862],[-83.9836,43.3855],[-84.0424,43.4059],[-84.0466,43.4086],[-83.9951,43.4079],[-83.9951,43.4223],[-84.0296,43.4369],[-84.062,43.4429],[-84.0619,43.4516],[-84.0521,43.4517],[-84.0521,43.4661],[-83.9755,43.4654],[-83.9755,43.48],[-84.3698,43.4816],[-84.3699,43.466],[-84.4887,43.4662],[-84.4885,43.2917],[-84.566,43.2916],[-84.5631,43.2691],[-84.5817,43.2877],[-84.5798,43.2917],[-84.5831,43.2916],[-84.5829,43.2772],[-84.6008,43.2772],[-84.6008,43.27],[-84.6107,43.2699],[-84.6107,43.2772],[-84.6206,43.2771],[-84.6204,43.2917],[-84.7267,43.2921],[-84.7267,43.3793],[-84.9648,43.3792],[-84.965,43.3021]]]},"properties":{"geoid":"26093","state":"26","district":"93","name":"State House District 93","chamber":"House"}},{"type":"Feature","geometry":{"type":"Polygon","coordinates":[[[-84.062,43.4435],[-84.0496,43.4417],[-84.0469,43.4372],[-84.0296,43.4369],[-83.9951,43.4223],[-83.9951,43.4079],[-84.0466,43.4086],[-84.0188,43.3946],[-83.9949,43.3923],[-83.9768,43.3843],[-83.9657,43.3862],[-83.9832,43.3772],[-83.9591,43.3649],[-83.9477,43.3669],[-83.9311,43.3619],[-83.924,43.3514],[-83.8987,43.3516],[-83.8969,43.3562],[-83.8836,43.359],[-83.8819,43.3419],[-83.8666,43.3419],[-83.8675,43.3652],[-83.8766,43.3792],[-83.8175,43.378],[-83.8179,43.4143],[-83.8908,43.4147],[-83.8909,43.4631],[-83.9072,43.4793],[-83.9137,43.4793],[-83.9106,43.4653],[-83.925,43.4656],[-83.931,43.4722],[-83.9359,43.4697],[-83.9359,43.4795],[-83.9755,43.48],[-83.9755,43.4654],[-84.0521,43.4661],[-84.0521,43.4517],[-84.0619,43.4516],[-84.062,43.4435]]]},"properties":{"geoid":"26094","state":"26","district":"94","name":"State House District 94","chamber":"House"}},{"type":"Feature","geometry":{"type":"Polygon","coordinates":[[[-84.6081,43.6267],[-84.6075,43.466],[-84.3699,43.466],[-84.3698,43.4816],[-84.1706,43.482],[-84.1677,43.5977],[-84.1554,43.5975],[-84.1554,43.6048],[-84.1675,43.6101],[-84.1675,43.6143],[-84.1618,43.6145],[-84.1674,43.6161],[-84.1673,43.8259],[-84.2882,43.8276],[-84.2871,43.9129],[-84.3656,43.9142],[-84.3658,43.9006],[-84.6065,43.9018],[-84.6081,43.6267]]]},"properties":{"geoid":"26095","state":"26","district":"95","name":"State House District 95","chamber":"House"}},{"type":"Feature","geometry":{"type":"Polygon","coordinates":[[[-84.1673,43.8259],[-84.1671,43.6545],[-84.0487,43.6535],[-84.051,43.5241],[-83.8172,43.5223],[-83.8177,43.4791],[-83.6988,43.479],[-83.7083,43.8287],[-83.7136,43.8309],[-83.7085,43.8339],[-83.895,43.9064],[-83.9023,43.8753],[-83.8978,43.8534],[-83.906,43.838],[-83.9072,43.8243],[-84.1673,43.8259]]]},"properties":{"geoid":"26096","state":"26","district":"96","name":"State House District 96","chamber":"House"}},{"type":"Feature","geometry":{"type":"Polygon","coordinates":[[[-84.1704,43.4887],[-84.1706,43.482],[-83.9359,43.4795],[-83.9359,43.4697],[-83.931,43.4722],[-83.925,43.4656],[-83.9106,43.4653],[-83.9137,43.4793],[-83.9072,43.4793],[-83.8909,43.4631],[-83.8908,43.4147],[-83.8179,43.4143],[-83.8175,43.378],[-83.8766,43.3792],[-83.8675,43.3652],[-83.8666,43.3419],[-83.8819,43.3419],[-83.8829,43.3589],[-83.8969,43.3562],[-83.8987,43.3516],[-83.903,43.3512],[-83.9024,43.3545],[-83.917,43.3507],[-83.9244,43.3516],[-83.935,43.3627],[-83.9306,43.1761],[-83.9028,43.1762],[-83.9033,43.1834],[-83.893,43.1841],[-83.8833,43.1833],[-83.8836,43.1762],[-83.7686,43.1776],[-83.7634,43.1483],[-83.754,43.1484],[-83.7542,43.1775],[-83.7447,43.1798],[-83.7447,43.1847],[-83.7248,43.1848],[-83.7268,43.1629],[-83.6951,43.1634],[-83.6955,43.2214],[-83.4607,43.2231],[-83.4629,43.4078],[-83.3442,43.4097],[-83.354,43.6697],[-83.4666,43.6676],[-83.4674,43.7289],[-83.7083,43.8287],[-83.6988,43.479],[-83.8177,43.4791],[-83.8172,43.5223],[-84.051,43.5241],[-84.0487,43.6535],[-84.1671,43.6545],[-84.1674,43.6161],[-84.1618,43.6145],[-84.1675,43.6143],[-84.1675,43.6101],[-84.1554,43.6048],[-84.1554,43.5975],[-84.1677,43.5977],[-84.1704,43.4887]]]},"properties":{"geoid":"26097","state":"26","district":"97","name":"State House District 97","chamber":"House"}},{"type":"Feature","geometry":{"type":"Polygon","coordinates":[[[-83.7123,43.8317],[-83.4674,43.7289],[-83.4666,43.6676],[-83.354,43.6697],[-83.3442,43.4097],[-83.4629,43.4078],[-83.4616,43.3208],[-83.3544,43.3223],[-83.3517,43.2352],[-83.2352,43.2376],[-83.2321,43.1487],[-83.1142,43.152],[-83.119,43.2837],[-83.1122,43.2839],[-83.0004,43.2849],[-82.9986,43.215],[-83.0022,43.2139],[-82.9985,43.2123],[-82.9963,43.1541],[-82.6433,43.164],[-82.6485,43.2489],[-82.5256,43.2542],[-82.5222,43.2237],[-82.5086,43.1972],[-82.5032,43.1689],[-82.3341,43.1704],[-82.123,43.5908],[-82.2499,44.1588],[-83,44.1711],[-83.1853,44.1684],[-83.7123,43.8317]]]},"properties":{"geoid":"26098","state":"26","district":"98","name":"State House District 98","chamber":"House"}},{"type":"Feature","geometry":{"type":"Polygon","coordinates":[[[-84.729,44.1482],[-84.7284,43.815],[-84.619,43.8152],[-84.606,43.8154],[-84.6065,43.9018],[-84.3658,43.9006],[-84.3656,43.9142],[-84.2871,43.9129],[-84.2882,43.8276],[-83.9072,43.8243],[-83.906,43.838],[-83.8978,43.8534],[-83.9023,43.8753],[-83.895,43.9064],[-83.7085,43.8339],[-83.1853,44.1684],[-83,44.1711],[-82.2499,44.1588],[-82.2499,44.1651],[-82.3295,44.5128],[-84.3701,44.5072],[-84.368,44.1605],[-84.7288,44.1609],[-84.729,44.1482]]]},"properties":{"geoid":"26099","state":"26","district":"99","name":"State House District 99","chamber":"House"}},{"type":"Feature","geometry":{"type":"Polygon","coordinates":[[[-85.6838,44.1547],[-85.6815,43.8155],[-85.5624,43.8155],[-85.5623,43.4681],[-85.085,43.4662],[-85.0888,43.8137],[-84.7284,43.815],[-84.7288,44.1609],[-85.6066,44.1652],[-85.6838,44.1646],[-85.6838,44.1547]]]},"properties":{"geoid":"26100","state":"26","district":"100","name":"State House District 100","chamber":"House"}},{"type":"Feature","geometry":{"type":"Polygon","coordinates":[[[-86.1602,44.0922],[-86.158,43.6422],[-86.0392,43.6412],[-86.039,43.2935],[-85.5625,43.2943],[-85.5624,43.8155],[-85.6815,43.8155],[-85.6838,44.1646],[-85.3348,44.1651],[-85.3384,44.4254],[-85.8191,44.4245],[-85.8212,44.1642],[-86.1599,44.1708],[-86.1602,44.0922]]]},"properties":{"geoid":"26101","state":"26","district":"101","name":"State House District 101","chamber":"House"}},{"type":"Feature","geometry":{"type":"Polygon","coordinates":[[[-87.1403,43.4723],[-86.4613,43.4723],[-86.4266,43.3739],[-86.3841,43.2986],[-86.2773,43.2964],[-86.2766,43.3693],[-86.2565,43.3686],[-86.2564,43.3568],[-86.2479,43.35],[-86.2366,43.3498],[-86.2366,43.3538],[-86.1971,43.3531],[-86.1968,43.3828],[-86.1702,43.3824],[-86.1575,43.3821],[-86.1581,43.2947],[-86.039,43.2935],[-86.0392,43.6412],[-86.158,43.6422],[-86.1599,44.1708],[-86.0633,44.1679],[-86.0619,44.3421],[-86.2679,44.3467],[-86.267,44.3792],[-86.2557,44.4287],[-86.248,44.4278],[-86.2522,44.458],[-86.2492,44.4829],[-86.2347,44.5183],[-86.8469,44.5194],[-86.8552,44.5003],[-86.8477,44.5003],[-87.0132,44.1319],[-87.1141,43.7341],[-87.1251,43.6704],[-87.1403,43.4723]]]},"properties":{"geoid":"26102","state":"26","district":"102","name":"State House District 102","chamber":"House"}},{"type":"Feature","geometry":{"type":"Polygon","coordinates":[[[-86.6998,44.8508],[-86.7345,44.7731],[-86.0574,44.7783],[-86.059,44.6901],[-85.575,44.6862],[-85.5749,44.6431],[-85.4551,44.6423],[-85.4553,44.7144],[-85.4453,44.7146],[-85.4446,44.7435],[-85.4343,44.7435],[-85.4343,44.758],[-85.428,44.758],[-85.4278,44.769],[-85.422,44.769],[-85.4218,44.8597],[-85.4738,44.8594],[-85.4604,44.8826],[-85.4455,44.93],[-85.4277,44.9653],[-85.4329,45.0215],[-85.4807,45.1203],[-85.4689,45.1307],[-85.4585,45.1965],[-85.4693,45.25],[-85.5585,45.375],[-85.6251,45.4546],[-85.6878,45.5133],[-85.7423,45.5451],[-85.7866,45.5629],[-85.8558,45.5784],[-86.4608,45.5844],[-86.4641,45.3248],[-86.2495,45.2361],[-86.4999,45.0808],[-86.6863,44.881],[-86.6998,44.8508]]]},"properties":{"geoid":"26103","state":"26","district":"103","name":"State House District 103","chamber":"House"}},{"type":"Feature","geometry":{"type":"Polygon","coordinates":[[[-86.8005,44.6248],[-86.8469,44.5194],[-86.2347,44.5183],[-86.2492,44.4829],[-86.2522,44.458],[-86.248,44.4278],[-86.2557,44.4287],[-86.267,44.3792],[-86.2679,44.3467],[-86.0619,44.3421],[-86.0633,44.1679],[-85.8212,44.1642],[-85.8191,44.4245],[-85.3384,44.4254],[-85.3329,44.5984],[-84.972,44.5972],[-84.9689,44.8589],[-85.0914,44.8587],[-85.0915,44.9455],[-84.969,44.9453],[-84.9692,45.031],[-84.9793,45.0312],[-84.9787,45.1184],[-85.2237,45.1179],[-85.2227,45.2056],[-85.4589,45.2066],[-85.4689,45.1307],[-85.4807,45.1203],[-85.4329,45.0215],[-85.4277,44.9653],[-85.4455,44.93],[-85.4604,44.8826],[-85.4738,44.8594],[-85.4218,44.8597],[-85.422,44.769],[-85.4278,44.769],[-85.428,44.758],[-85.4343,44.758],[-85.4343,44.7435],[-85.4446,44.7435],[-85.4453,44.7146],[-85.4553,44.7144],[-85.4551,44.6423],[-85.5749,44.6431],[-85.575,44.6862],[-86.059,44.6901],[-86.0574,44.7783],[-86.7345,44.7731],[-86.8005,44.6248]]]},"properties":{"geoid":"26104","state":"26","district":"104","name":"State House District 104","chamber":"House"}},{"type":"Feature","geometry":{"type":"Polygon","coordinates":[[[-85.3384,44.4254],[-85.3347,44.1648],[-84.368,44.1605],[-84.3706,44.5072],[-83.8866,44.509],[-83.8882,44.6821],[-84.3717,44.681],[-84.3666,45.1987],[-84.7343,45.2019],[-84.7348,45.1149],[-84.9787,45.1184],[-84.9793,45.0312],[-84.9692,45.031],[-84.969,44.9453],[-85.0915,44.9455],[-85.0914,44.8587],[-84.9689,44.8589],[-84.972,44.5972],[-85.3329,44.5984],[-85.3384,44.4254]]]},"properties":{"geoid":"26105","state":"26","district":"105","name":"State House District 105","chamber":"House"}},{"type":"Feature","geometry":{"type":"Polygon","coordinates":[[[-84.7344,45.2026],[-84.3666,45.1987],[-84.3717,44.681],[-83.8882,44.6821],[-83.8866,44.509],[-82.3295,44.5128],[-82.5206,45.3359],[-83,45.5564],[-83.484,45.7719],[-84.1231,45.7777],[-84.25,45.7398],[-84.3575,45.6981],[-84.4252,45.6928],[-84.4973,45.7044],[-84.5688,45.7381],[-84.6432,45.7889],[-84.6822,45.8031],[-84.7233,45.8096],[-84.7241,45.7805],[-84.7194,45.7798],[-84.7243,45.7783],[-84.7185,45.7782],[-84.716,45.7663],[-84.6814,45.7561],[-84.6792,45.749],[-84.6487,45.7426],[-84.6088,45.7239],[-84.7318,45.7238],[-84.7298,45.4031],[-84.7344,45.2026]]]},"properties":{"geoid":"26106","state":"26","district":"106","name":"State House District 106","chamber":"House"}},{"type":"Feature","geometry":{"type":"Polygon","coordinates":[[[-85.8732,45.8179],[-85.8558,45.5784],[-85.766,45.5555],[-85.6795,45.507],[-85.6251,45.4546],[-85.4879,45.2807],[-85.4693,45.25],[-85.4592,45.2066],[-85.2227,45.2056],[-85.2237,45.1179],[-84.7348,45.1149],[-84.7298,45.4031],[-84.7318,45.7238],[-84.6088,45.7239],[-84.6487,45.7426],[-84.6792,45.749],[-84.6814,45.7561],[-84.716,45.7663],[-84.7185,45.7782],[-84.7243,45.7783],[-84.7194,45.7798],[-84.7241,45.7805],[-84.7233,45.8096],[-84.6822,45.8031],[-84.6432,45.7889],[-84.5688,45.7381],[-84.4973,45.7044],[-84.4252,45.6928],[-84.3575,45.6981],[-84.25,45.7398],[-84.1231,45.7777],[-83.6369,45.7739],[-83.4336,45.9989],[-83.5715,46.106],[-83.6546,46.1221],[-83.7595,46.1032],[-83.8262,46.1193],[-83.9035,46.0609],[-83.9554,46.0572],[-83.9761,46.1026],[-84.0059,46.1185],[-84.0057,46.1496],[-84.077,46.1876],[-84.0858,46.21],[-84.1081,46.2412],[-84.0978,46.2565],[-84.1156,46.2682],[-84.1196,46.315],[-84.1062,46.322],[-84.1389,46.3722],[-84.1462,46.4185],[-84.1113,46.5042],[-84.1289,46.5301],[-84.1774,46.5269],[-84.194,46.5401],[-84.2261,46.5339],[-84.2549,46.5008],[-84.2655,46.4944],[-84.293,46.4928],[-84.342,46.5075],[-84.374,46.5091],[-84.3947,46.4992],[-84.4203,46.5011],[-84.4451,46.489],[-84.4893,46.4386],[-84.4889,46.4188],[-84.3642,46.4195],[-84.3641,46.3756],[-84.3849,46.3751],[-84.3838,46.2443],[-84.4884,46.2449],[-84.4883,46.1583],[-85.1125,46.1583],[-85.113,46.0375],[-85.1025,46.0323],[-85.1024,46.0278],[-85.0428,46.0184],[-85.0502,46.0078],[-85.2618,46.0338],[-85.3057,46.0522],[-85.3423,46.0831],[-85.368,46.0671],[-85.4178,46.071],[-85.4375,46.0628],[-85.4604,46.0606],[-85.4962,46.0679],[-85.5067,46.066],[-85.5972,45.9751],[-85.6103,45.9555],[-85.6234,45.9469],[-85.6556,45.9362],[-85.7052,45.9281],[-85.7704,45.9331],[-85.8078,45.9414],[-85.8662,45.9346],[-85.8682,45.8198],[-85.8732,45.8179]]]},"properties":{"geoid":"26107","state":"26","district":"107","name":"State House District 107","chamber":"House"}},{"type":"Feature","geometry":{"type":"Polygon","coordinates":[[[-87.8882,45.3559],[-87.8824,45.3512],[-87.8704,45.3563],[-87.8758,45.365],[-87.8692,45.366],[-87.8635,45.353],[-87.8504,45.3475],[-87.8501,45.3404],[-87.8326,45.3522],[-87.7903,45.3535],[-87.7621,45.3484],[-87.7388,45.3569],[-87.7205,45.3763],[-87.6966,45.3892],[-87.675,45.3825],[-87.6735,45.3769],[-87.6574,45.3688],[-87.6564,45.3584],[-87.6477,45.3507],[-87.648,45.3398],[-87.6616,45.3276],[-87.6617,45.3207],[-87.6719,45.3081],[-87.6875,45.2981],[-87.6982,45.2815],[-87.6988,45.2694],[-87.7104,45.2593],[-87.7113,45.24],[-87.725,45.2321],[-87.7214,45.2268],[-87.727,45.2189],[-87.7262,45.2094],[-87.7417,45.1982],[-87.7361,45.1722],[-87.6839,45.1441],[-87.66,45.1075],[-87.6315,45.1062],[-87.5919,45.0947],[-87.5854,45.0969],[-87.4425,45.0764],[-87.4057,45.202],[-87.3154,45.2407],[-87.1712,45.3525],[-87.1011,45.4442],[-86.7542,45.4436],[-86.4641,45.3248],[-86.4608,45.5844],[-85.8558,45.5784],[-85.8732,45.8179],[-85.8682,45.8198],[-85.8662,45.9346],[-85.8078,45.9414],[-85.7704,45.9331],[-85.7052,45.9281],[-85.6556,45.9362],[-85.6103,45.9555],[-85.5972,45.9751],[-85.5067,46.066],[-85.4962,46.0679],[-85.4604,46.0606],[-85.4375,46.0628],[-85.4178,46.071],[-85.368,46.0671],[-85.3423,46.0831],[-85.3057,46.0522],[-85.2618,46.0338],[-85.0502,46.0078],[-85.0428,46.0184],[-85.1024,46.0278],[-85.1025,46.0323],[-85.113,46.0375],[-85.1125,46.1583],[-84.4883,46.1583],[-84.4884,46.2449],[-84.3838,46.2443],[-84.3849,46.3751],[-84.3641,46.3756],[-84.3642,46.4195],[-84.4889,46.4188],[-84.4893,46.4386],[-84.4756,46.4529],[-84.557,46.4606],[-84.763,46.6343],[-84.8593,46.8888],[-85.2501,47.0565],[-85.8549,47.3055],[-85.8587,47.25],[-85.8546,47.25],[-85.8649,46.5048],[-86.365,46.5059],[-86.365,46.3319],[-86.6154,46.3333],[-86.6156,46.1587],[-87.2415,46.1591],[-87.2429,45.9851],[-87.6171,45.986],[-87.6174,45.8988],[-87.6969,45.8988],[-87.6972,45.723],[-87.8466,45.7225],[-87.8101,45.7102],[-87.8051,45.705],[-87.8091,45.6997],[-87.7822,45.6831],[-87.7816,45.6733],[-87.8242,45.662],[-87.8244,45.6477],[-87.8102,45.6387],[-87.7959,45.6188],[-87.7808,45.6146],[-87.7747,45.602],[-87.7772,45.5885],[-87.7868,45.5828],[-87.7924,45.5631],[-87.8319,45.5677],[-87.833,45.5595],[-87.8034,45.5383],[-87.8022,45.5131],[-87.7928,45.5],[-87.813,45.4642],[-87.8312,45.4572],[-87.8617,45.4345],[-87.8493,45.4039],[-87.8591,45.399],[-87.8594,45.3882],[-87.8754,45.3794],[-87.8715,45.3715],[-87.8882,45.3559]]]},"properties":{"geoid":"26108","state":"26","district":"108","name":"State House District 108","chamber":"House"}},{"type":"Feature","geometry":{"type":"Polygon","coordinates":[[[-88.6795,46.4923],[-88.6794,46.4201],[-88.1166,46.42],[-88.1174,46.2466],[-87.8666,46.2469],[-87.8669,46.1599],[-87.9924,46.1601],[-87.9921,45.8991],[-87.9441,45.8985],[-87.9422,45.7577],[-87.9067,45.7595],[-87.8984,45.7525],[-87.8769,45.7544],[-87.8622,45.745],[-87.8639,45.7364],[-87.8465,45.7225],[-87.6972,45.723],[-87.6969,45.8988],[-87.6174,45.8988],[-87.6171,45.986],[-87.2429,45.9851],[-87.2415,46.1591],[-86.6156,46.1587],[-86.6154,46.3333],[-86.365,46.3319],[-86.365,46.5059],[-85.8649,46.5048],[-85.8546,47.25],[-85.8587,47.25],[-85.8549,47.3055],[-86.0001,47.3673],[-86.0001,47.3619],[-86.0273,47.375],[-86.02,47.375],[-86.1251,47.4167],[-86.1251,47.4235],[-86.2501,47.4744],[-86.2501,47.4779],[-86.5001,47.5683],[-86.6251,47.6178],[-86.6343,47.6249],[-86.6313,47.6249],[-86.7501,47.6749],[-86.9492,47.7499],[-86.9406,47.7499],[-87.1127,47.818],[-87.1121,47.2233],[-88.0466,47.2187],[-88.0437,47.044],[-88.4495,46.9393],[-88.5522,46.9385],[-88.5519,46.8518],[-88.679,46.8518],[-88.6761,46.7301],[-88.6795,46.4923]]]},"properties":{"geoid":"26109","state":"26","district":"109","name":"State House District 109","chamber":"House"}},{"type":"Feature","geometry":{"type":"Polygon","coordinates":[[[-90.4184,46.5661],[-90.415,46.5577],[-90.3922,46.536],[-90.3933,46.5324],[-90.3682,46.5411],[-90.3507,46.5403],[-90.3468,46.5493],[-90.3394,46.5493],[-90.3435,46.5525],[-90.3322,46.5534],[-90.3094,46.5373],[-90.3166,46.5169],[-90.2946,46.5217],[-90.2845,46.5187],[-90.2769,46.5244],[-90.2718,46.5193],[-90.2776,46.5148],[-90.2704,46.5117],[-90.2726,46.5045],[-90.2666,46.5079],[-90.2615,46.5026],[-90.2312,46.5099],[-90.2309,46.5015],[-90.2166,46.5016],[-90.2042,46.4783],[-90.1888,46.4689],[-90.1936,46.4634],[-90.1908,46.4598],[-90.1783,46.4574],[-90.1784,46.4405],[-90.1674,46.4417],[-90.1573,46.4211],[-90.1584,46.4095],[-90.1322,46.3811],[-90.134,46.3718],[-90.1187,46.3593],[-90.1169,46.3507],[-90.1237,46.3463],[-90.118,46.3415],[-90.1206,46.337],[-89.0916,46.1384],[-88.8508,46.0403],[-88.8391,46.03],[-88.8191,46.0263],[-88.816,46.0206],[-88.7965,46.0236],[-88.8007,46.03],[-88.7965,46.0337],[-88.7893,46.0285],[-88.7787,46.0317],[-88.7839,46.0238],[-88.7802,46.0154],[-88.7698,46.0189],[-88.7706,46.0256],[-88.759,46.0196],[-88.739,46.0275],[-88.7213,46.0222],[-88.7183,46.0132],[-88.7037,46.0183],[-88.6789,46.0136],[-88.6635,45.9927],[-88.6708,45.9885],[-88.6385,45.9851],[-88.616,45.9879],[-88.6127,46.0045],[-88.6012,46.0178],[-88.5935,46.0148],[-88.5883,46.0051],[-88.5657,46.0157],[-88.5492,46.0129],[-88.5394,46.0145],[-88.5337,46.0211],[-88.5147,46.02],[-88.5064,46.0176],[-88.5009,46.0006],[-88.4921,45.9921],[-88.4757,45.9929],[-88.4708,46.001],[-88.4587,45.9995],[-88.45,45.9901],[-88.4348,45.9883],[-88.4164,45.9751],[-88.3886,45.9826],[-88.3805,45.9918],[-88.3303,45.9658],[-88.3273,45.955],[-88.3203,45.9637],[-88.2938,45.9509],[-88.2501,45.9636],[-88.2458,45.963],[-88.2438,45.9515],[-88.2334,45.9474],[-88.2099,45.9442],[-88.2019,45.9456],[-88.1978,45.953],[-88.1898,45.9521],[-88.1701,45.9395],[-88.1477,45.9374],[-88.1268,45.926],[-88.1267,45.9218],[-88.1017,45.9211],[-88.0949,45.9153],[-88.1066,45.9022],[-88.1013,45.8823],[-88.0818,45.8802],[-88.07,45.8738],[-88.0758,45.8696],[-88.0748,45.8649],[-88.0825,45.865],[-88.1052,45.8424],[-88.1345,45.8225],[-88.1301,45.8097],[-88.1076,45.803],[-88.1032,45.7913],[-88.0948,45.7858],[-88.0714,45.7799],[-88.05,45.7812],[-88.0409,45.7843],[-88.0397,45.7896],[-87.9914,45.7954],[-87.9809,45.777],[-87.9886,45.771],[-87.967,45.764],[-87.9622,45.7578],[-87.9422,45.7577],[-87.9441,45.8985],[-87.9921,45.8991],[-87.9924,46.1601],[-87.8669,46.1599],[-87.8666,46.2469],[-88.1174,46.2466],[-88.1166,46.42],[-88.6794,46.4201],[-88.6761,46.7301],[-88.679,46.8518],[-88.5519,46.8518],[-88.5522,46.9385],[-88.4495,46.9393],[-88.0437,47.044],[-88.0466,47.2187],[-87.1121,47.2233],[-87.1127,47.818],[-87.5001,47.9681],[-87.6251,48.0211],[-87.7501,48.0639],[-87.8751,48.1147],[-88.0001,48.1559],[-88.0001,48.1641],[-88.3699,48.3061],[-88.6774,48.2454],[-89.3375,47.9743],[-89.4834,48.0137],[-89.9571,47.2911],[-90.0001,47.215],[-90.4184,46.5661]]]},"properties":{"geoid":"26110","state":"26","district":"110","name":"State House District 110","chamber":"House"}}]}