{"type":"FeatureCollection","features":[{"type":"Feature","geometry":{"type":"Polygon","coordinates":[[[-83.2027,42.2459],[-83.2004,42.2209],[-83.1809,42.2211],[-83.1796,42.185],[-83.1544,42.1854],[-83.143,42.2029],[-83.1315,42.2028],[-83.128,42.2387],[-83.1116,42.2601],[-83.0977,42.2897],[-83.0782,42.3086],[-83.0327,42.3311],[-83.0581,42.3684],[-83.0689,42.3638],[-83.0856,42.3886],[-83.0994,42.3843],[-83.1219,42.4175],[-83.1852,42.4165],[-83.1886,42.3945],[-83.1842,42.3947],[-83.183,42.3729],[-83.1507,42.3735],[-83.1475,42.3499],[-83.1501,42.3398],[-83.157,42.337],[-83.1566,42.3272],[-83.1408,42.311],[-83.1405,42.2977],[-83.1671,42.2896],[-83.1582,42.2788],[-83.1615,42.2744],[-83.1699,42.2646],[-83.1841,42.2714],[-83.2027,42.2459]]]},"properties":{"geoid":"26001","state":"26","district":"1","name":"State Senate District 1","chamber":"Senate"}},{"type":"Feature","geometry":{"type":"Polygon","coordinates":[[[-83.3128,42.3552],[-83.3109,42.3117],[-83.2911,42.312],[-83.2906,42.3023],[-83.2898,42.2759],[-83.3093,42.2755],[-83.3075,42.2249],[-83.2083,42.228],[-83.2005,42.2234],[-83.2028,42.2457],[-83.1967,42.2563],[-83.1841,42.2714],[-83.168,42.2666],[-83.1582,42.2788],[-83.1671,42.2896],[-83.1407,42.297],[-83.1408,42.311],[-83.1566,42.3272],[-83.157,42.337],[-83.1498,42.3403],[-83.1477,42.3519],[-83.2159,42.3506],[-83.2157,42.3434],[-83.264,42.3417],[-83.2657,42.3571],[-83.3128,42.3552]]]},"properties":{"geoid":"26002","state":"26","district":"2","name":"State Senate District 2","chamber":"Senate"}},{"type":"Feature","geometry":{"type":"Polygon","coordinates":[[[-83.142,42.4462],[-83.1408,42.4171],[-83.1219,42.4175],[-83.0994,42.3843],[-83.0856,42.3886],[-83.0689,42.3638],[-83.0581,42.3684],[-83.0327,42.3311],[-83.0428,42.3267],[-83.0408,42.324],[-82.9892,42.3325],[-82.924,42.3521],[-82.9469,42.387],[-82.9217,42.3953],[-82.9104,42.419],[-82.9514,42.4358],[-82.9407,42.4502],[-83.142,42.4462]]]},"properties":{"geoid":"26003","state":"26","district":"3","name":"State Senate District 3","chamber":"Senate"}},{"type":"Feature","geometry":{"type":"Polygon","coordinates":[[[-83.5445,42.2471],[-83.5394,42.0856],[-83.4206,42.0878],[-83.4208,42.0936],[-83.2951,42.0942],[-83.2835,42.0897],[-83.2771,42.0825],[-83.28,42.0802],[-83.2748,42.0801],[-83.2773,42.0763],[-83.2693,42.0754],[-83.2676,42.0691],[-83.2581,42.074],[-83.2516,42.068],[-83.2548,42.064],[-83.2344,42.059],[-83.2289,42.0545],[-83.2304,42.0487],[-83.2197,42.0491],[-83.1991,42.0348],[-83.1846,42.0285],[-83.144,42.0279],[-83.1494,42.0403],[-83.1217,42.1254],[-83.1339,42.1748],[-83.1315,42.2028],[-83.143,42.2029],[-83.1544,42.1854],[-83.1796,42.185],[-83.1809,42.2211],[-83.2004,42.2209],[-83.2083,42.228],[-83.3075,42.2249],[-83.309,42.2682],[-83.3481,42.2675],[-83.3489,42.2892],[-83.378,42.2885],[-83.3784,42.2957],[-83.4036,42.2951],[-83.4017,42.288],[-83.4274,42.2875],[-83.4265,42.2654],[-83.5437,42.2625],[-83.5445,42.2471]]]},"properties":{"geoid":"26004","state":"26","district":"4","name":"State Senate District 4","chamber":"Senate"}},{"type":"Feature","geometry":{"type":"Polygon","coordinates":[[[-83.5497,42.3926],[-83.5437,42.2625],[-83.4265,42.2654],[-83.4274,42.2875],[-83.4017,42.288],[-83.4036,42.2951],[-83.3784,42.2957],[-83.378,42.2885],[-83.3489,42.2892],[-83.3481,42.2675],[-83.309,42.2682],[-83.3093,42.2755],[-83.2898,42.2759],[-83.2911,42.312],[-83.3109,42.3117],[-83.3128,42.3552],[-83.43,42.3525],[-83.4318,42.396],[-83.5497,42.3926]]]},"properties":{"geoid":"26005","state":"26","district":"5","name":"State Senate District 5","chamber":"Senate"}},{"type":"Feature","geometry":{"type":"Polygon","coordinates":[[[-83.3168,42.442],[-83.3128,42.3552],[-83.2657,42.3571],[-83.264,42.3417],[-83.2157,42.3434],[-83.2159,42.3506],[-83.1496,42.3519],[-83.1507,42.3735],[-83.183,42.3729],[-83.1892,42.4091],[-83.1848,42.4092],[-83.1852,42.4165],[-83.1408,42.4171],[-83.1421,42.4462],[-83.3168,42.442]]]},"properties":{"geoid":"26006","state":"26","district":"6","name":"State Senate District 6","chamber":"Senate"}},{"type":"Feature","geometry":{"type":"Polygon","coordinates":[[[-83.3739,42.6818],[-83.3524,42.6756],[-83.3523,42.6704],[-83.3425,42.671],[-83.333,42.664],[-83.3347,42.6592],[-83.3265,42.6497],[-83.3254,42.6295],[-83.3345,42.6303],[-83.3341,42.6257],[-83.3252,42.6258],[-83.3168,42.442],[-83.2005,42.4448],[-83.2044,42.5319],[-83.1858,42.5324],[-83.1936,42.5473],[-83.1863,42.5474],[-83.1867,42.5542],[-83.2063,42.5572],[-83.214,42.7095],[-83.3719,42.7047],[-83.3739,42.6818]]]},"properties":{"geoid":"26007","state":"26","district":"7","name":"State Senate District 7","chamber":"Senate"}},{"type":"Feature","geometry":{"type":"Polygon","coordinates":[[[-83.5552,42.4932],[-83.5497,42.3926],[-83.4318,42.396],[-83.43,42.3525],[-83.3128,42.3552],[-83.3208,42.529],[-83.4375,42.5261],[-83.4349,42.468],[-83.4747,42.4666],[-83.4759,42.4869],[-83.5159,42.4944],[-83.5552,42.4932]]]},"properties":{"geoid":"26008","state":"26","district":"8","name":"State Senate District 8","chamber":"Senate"}},{"type":"Feature","geometry":{"type":"Polygon","coordinates":[[[-83.2138,42.7095],[-83.2063,42.5572],[-83.1867,42.5542],[-83.1863,42.5474],[-83.1936,42.5473],[-83.1865,42.5371],[-83.1662,42.5403],[-83.1666,42.5479],[-83.147,42.5483],[-83.1467,42.5406],[-83.1269,42.5412],[-83.1266,42.5338],[-83.0293,42.5366],[-83.0293,42.5978],[-83.014,42.608],[-83.0127,42.6262],[-82.9929,42.6268],[-82.9933,42.634],[-83.023,42.6372],[-83.0229,42.6333],[-83.0445,42.633],[-83.0416,42.6311],[-83.0455,42.6271],[-83.0595,42.639],[-83.0726,42.6392],[-83.0732,42.6568],[-83.0502,42.6548],[-83.0536,42.6692],[-83.0806,42.6683],[-83.0934,42.6745],[-83.0954,42.7125],[-83.2138,42.7095]]]},"properties":{"geoid":"26009","state":"26","district":"9","name":"State Senate District 9","chamber":"Senate"}},{"type":"Feature","geometry":{"type":"Polygon","coordinates":[[[-83.2044,42.5319],[-83.2005,42.4448],[-83.0149,42.4484],[-83.0162,42.4919],[-83.0278,42.4918],[-83.0293,42.5366],[-83.1266,42.5338],[-83.1269,42.5412],[-83.1467,42.5406],[-83.147,42.5483],[-83.1666,42.5479],[-83.1662,42.5403],[-83.1859,42.5399],[-83.1858,42.5324],[-83.2044,42.5319]]]},"properties":{"geoid":"26010","state":"26","district":"10","name":"State Senate District 10","chamber":"Senate"}},{"type":"Feature","geometry":{"type":"Polygon","coordinates":[[[-83.0306,42.5919],[-83.0278,42.4918],[-83.0162,42.4919],[-83.0149,42.4484],[-82.9286,42.4506],[-82.9165,42.473],[-82.9184,42.51],[-82.9034,42.5103],[-82.9043,42.5398],[-82.9093,42.5397],[-82.892,42.5694],[-82.9393,42.5683],[-82.9644,42.559],[-82.9709,42.5664],[-82.9733,42.6272],[-83.0127,42.6262],[-83.0124,42.611],[-83.0282,42.5995],[-83.0306,42.5919]]]},"properties":{"geoid":"26011","state":"26","district":"11","name":"State Senate District 11","chamber":"Senate"}},{"type":"Feature","geometry":{"type":"Polygon","coordinates":[[[-82.9513,42.4367],[-82.9104,42.419],[-82.9217,42.3953],[-82.9469,42.387],[-82.924,42.3521],[-82.8303,42.3735],[-82.6598,42.5433],[-82.6337,42.5568],[-82.6243,42.5571],[-82.6057,42.5482],[-82.5841,42.554],[-82.5788,42.566],[-82.5234,42.6073],[-82.51,42.6368],[-82.5104,42.6532],[-82.5477,42.6672],[-82.6079,42.6655],[-82.6106,42.7247],[-82.8593,42.7181],[-82.8561,42.6302],[-82.8869,42.6292],[-82.8878,42.6179],[-82.8986,42.614],[-82.8987,42.5712],[-82.9111,42.5708],[-82.892,42.5694],[-82.9093,42.5397],[-82.9043,42.5398],[-82.9034,42.5103],[-82.9184,42.51],[-82.917,42.4711],[-82.9286,42.4506],[-82.9407,42.4502],[-82.9513,42.4367]]]},"properties":{"geoid":"26012","state":"26","district":"12","name":"State Senate District 12","chamber":"Senate"}},{"type":"Feature","geometry":{"type":"Polygon","coordinates":[[[-83.6771,42.6063],[-83.6648,42.4312],[-83.5519,42.4352],[-83.5552,42.4932],[-83.5159,42.4944],[-83.4759,42.4869],[-83.4747,42.4666],[-83.4349,42.468],[-83.4375,42.5261],[-83.3209,42.529],[-83.3252,42.6258],[-83.3341,42.6257],[-83.3345,42.6303],[-83.3254,42.6295],[-83.3265,42.6497],[-83.3347,42.6592],[-83.333,42.664],[-83.3473,42.6734],[-83.3523,42.6704],[-83.3524,42.6756],[-83.3801,42.658],[-83.3862,42.6601],[-83.3869,42.675],[-83.4445,42.6691],[-83.4425,42.6146],[-83.6771,42.6063]]]},"properties":{"geoid":"26013","state":"26","district":"13","name":"State Senate District 13","chamber":"Senate"}},{"type":"Feature","geometry":{"type":"Polygon","coordinates":[[[-84.6005,42.3348],[-84.5929,42.0718],[-84.132,42.0716],[-84.1341,42.1602],[-83.8933,42.1682],[-83.8963,42.2464],[-83.8378,42.2489],[-83.8326,42.2417],[-83.8225,42.2419],[-83.8266,42.2272],[-83.8122,42.2276],[-83.8143,42.213],[-83.7926,42.2164],[-83.7929,42.2209],[-83.7784,42.2194],[-83.7774,42.2563],[-83.784,42.2628],[-83.7843,42.2726],[-83.7584,42.2736],[-83.7586,42.2808],[-83.7278,42.2912],[-83.7246,42.2871],[-83.6773,42.2885],[-83.6863,42.2982],[-83.687,42.3066],[-83.6612,42.3119],[-83.6621,42.346],[-83.5475,42.3492],[-83.5519,42.4352],[-83.9446,42.4241],[-84.6004,42.422],[-84.6005,42.3348]]]},"properties":{"geoid":"26014","state":"26","district":"14","name":"State Senate District 14","chamber":"Senate"}},{"type":"Feature","geometry":{"type":"Polygon","coordinates":[[[-84.1341,42.1602],[-84.132,42.0716],[-84.0082,42.0736],[-84.0046,41.9911],[-83.9362,41.9891],[-83.9361,41.9923],[-83.8861,41.9935],[-83.8864,42.0008],[-83.7717,42.0026],[-83.7739,42.0824],[-83.7119,42.0836],[-83.711,42.0688],[-83.6848,42.0734],[-83.6823,42.0666],[-83.6758,42.0662],[-83.6793,42.0735],[-83.662,42.07],[-83.6616,42.0845],[-83.5394,42.0856],[-83.5475,42.3492],[-83.6621,42.346],[-83.6612,42.3119],[-83.687,42.3066],[-83.6863,42.2982],[-83.6773,42.2885],[-83.7246,42.2871],[-83.7278,42.2912],[-83.7586,42.2808],[-83.7584,42.2736],[-83.7843,42.2726],[-83.784,42.2628],[-83.7774,42.2563],[-83.7784,42.2194],[-83.7929,42.2209],[-83.7926,42.2164],[-83.8143,42.213],[-83.8122,42.2276],[-83.8266,42.2272],[-83.8225,42.2419],[-83.8326,42.2417],[-83.8378,42.2489],[-83.8963,42.2464],[-83.8933,42.1682],[-84.1341,42.1602]]]},"properties":{"geoid":"26015","state":"26","district":"15","name":"State Senate District 15","chamber":"Senate"}},{"type":"Feature","geometry":{"type":"Polygon","coordinates":[[[-84.7096,41.9826],[-84.7087,41.6991],[-83.4159,41.7338],[-83.1125,41.9594],[-83.144,42.0279],[-83.1846,42.0285],[-83.1991,42.0348],[-83.2197,42.0491],[-83.2304,42.0487],[-83.2289,42.0545],[-83.2344,42.059],[-83.2548,42.064],[-83.2516,42.068],[-83.2581,42.074],[-83.2676,42.0691],[-83.2693,42.0754],[-83.2773,42.0763],[-83.2748,42.0801],[-83.28,42.0802],[-83.2771,42.0825],[-83.2835,42.0897],[-83.2973,42.0943],[-83.4208,42.0936],[-83.4206,42.0878],[-83.6616,42.0845],[-83.662,42.07],[-83.6793,42.0735],[-83.6758,42.0662],[-83.6823,42.0666],[-83.6848,42.0734],[-83.711,42.0688],[-83.7119,42.0836],[-83.7739,42.0824],[-83.7717,42.0026],[-83.8864,42.0008],[-83.8861,41.9935],[-83.9361,41.9923],[-83.9362,41.9891],[-84.0046,41.9911],[-84.0082,42.0736],[-84.5929,42.0718],[-84.5928,41.9997],[-84.7094,41.9999],[-84.7096,41.9826]]]},"properties":{"geoid":"26016","state":"26","district":"16","name":"State Senate District 16","chamber":"Senate"}},{"type":"Feature","geometry":{"type":"Polygon","coordinates":[[[-87.2064,41.7663],[-87.2078,41.761],[-87.125,41.7604],[-84.8059,41.7602],[-84.806,41.6961],[-84.7087,41.6991],[-84.7094,41.9999],[-84.5928,41.9997],[-84.6004,42.422],[-84.9469,42.4222],[-84.9447,42.2833],[-84.9388,42.2823],[-84.9364,42.2869],[-84.9362,42.2773],[-84.9446,42.2737],[-84.9408,42.2549],[-84.9443,42.2549],[-84.9441,42.2433],[-84.9358,42.2465],[-84.936,42.2387],[-84.9439,42.2339],[-84.9422,42.0726],[-86.2229,42.0715],[-86.2228,41.9846],[-86.3395,41.9856],[-86.3395,41.9767],[-86.3574,41.9684],[-86.3677,41.9861],[-86.3791,41.983],[-86.5628,41.9857],[-86.5088,42.0726],[-86.5105,42.0848],[-86.5015,42.0846],[-86.4996,42.1157],[-86.4814,42.1271],[-86.4788,42.1232],[-86.4604,42.1397],[-86.3646,42.2431],[-87,42.2404],[-87,42.2355],[-87.0883,42.2353],[-87.2064,41.7663]]]},"properties":{"geoid":"26017","state":"26","district":"17","name":"State Senate District 17","chamber":"Senate"}},{"type":"Feature","geometry":{"type":"Polygon","coordinates":[[[-85.8964,42.5063],[-85.895,42.4198],[-85.2989,42.4198],[-85.297,42.2461],[-85.4135,42.2453],[-85.4112,42.0713],[-84.9422,42.0726],[-84.9439,42.2339],[-84.936,42.2387],[-84.9358,42.2465],[-84.9441,42.2433],[-84.9443,42.2549],[-84.9408,42.2549],[-84.9446,42.2737],[-84.9362,42.2773],[-84.9364,42.2869],[-84.9388,42.2823],[-84.9447,42.2833],[-84.9469,42.4222],[-85.0716,42.4214],[-85.0749,42.8571],[-85.1936,42.8571],[-85.1937,42.9439],[-85.3119,42.944],[-85.3124,43.0297],[-85.4308,43.0287],[-85.429,42.8563],[-85.5458,42.8545],[-85.5456,42.7681],[-85.6633,42.7681],[-85.663,42.5943],[-85.781,42.5948],[-85.7793,42.5079],[-85.8964,42.5063]]]},"properties":{"geoid":"26018","state":"26","district":"18","name":"State Senate District 18","chamber":"Senate"}},{"type":"Feature","geometry":{"type":"Polygon","coordinates":[[[-85.8787,42.2448],[-85.8777,42.1572],[-85.7646,42.1573],[-85.7629,42.0693],[-85.4112,42.0713],[-85.4135,42.2453],[-85.297,42.2461],[-85.2989,42.4198],[-85.7647,42.4207],[-85.7661,42.2447],[-85.8787,42.2448]]]},"properties":{"geoid":"26019","state":"26","district":"19","name":"State Senate District 19","chamber":"Senate"}},{"type":"Feature","geometry":{"type":"Polygon","coordinates":[[[-87.0846,42.25],[-87.0883,42.2353],[-87,42.2355],[-87,42.2404],[-86.3646,42.2431],[-86.4604,42.1397],[-86.4788,42.1232],[-86.4814,42.1271],[-86.4996,42.1157],[-86.5015,42.0846],[-86.5105,42.0848],[-86.5088,42.0726],[-86.5628,41.9857],[-86.3791,41.983],[-86.3677,41.9861],[-86.3574,41.9684],[-86.3395,41.9767],[-86.3395,41.9856],[-86.2228,41.9846],[-86.2229,42.0715],[-85.7629,42.0693],[-85.7646,42.1573],[-85.8777,42.1572],[-85.8787,42.2448],[-85.7661,42.2447],[-85.7647,42.4207],[-85.895,42.4198],[-85.8964,42.5063],[-85.7793,42.5079],[-85.781,42.5948],[-85.663,42.5943],[-85.6633,42.7681],[-85.5456,42.7681],[-85.5458,42.8545],[-85.674,42.8551],[-85.6739,42.8498],[-85.6785,42.8552],[-85.7005,42.8521],[-85.7525,42.8558],[-85.77,42.8506],[-85.7681,42.8561],[-85.7821,42.8563],[-85.7825,42.7682],[-86.0181,42.7689],[-86.0148,42.6821],[-86.2115,42.6814],[-86.2287,42.6386],[-86.2261,42.5909],[-86.237,42.5567],[-86.2471,42.491],[-86.258,42.4527],[-86.2739,42.4193],[-87.04,42.417],[-87.0846,42.25]]]},"properties":{"geoid":"26020","state":"26","district":"20","name":"State Senate District 20","chamber":"Senate"}},{"type":"Feature","geometry":{"type":"Polygon","coordinates":[[[-85.0756,42.6794],[-85.0716,42.4214],[-84.2583,42.4247],[-84.2598,42.601],[-84.364,42.6006],[-84.3636,42.6831],[-84.4986,42.6829],[-84.4988,42.6893],[-84.5134,42.6864],[-84.5234,42.6901],[-84.5233,42.7119],[-84.5095,42.7119],[-84.5096,42.7193],[-84.5132,42.7239],[-84.538,42.7259],[-84.5378,42.7436],[-84.5446,42.7439],[-84.5446,42.7529],[-84.5323,42.7594],[-84.5325,42.7697],[-85.0742,42.7708],[-85.0756,42.6794]]]},"properties":{"geoid":"26021","state":"26","district":"21","name":"State Senate District 21","chamber":"Senate"}},{"type":"Feature","geometry":{"type":"Polygon","coordinates":[[[-84.2636,42.6863],[-84.2583,42.4247],[-83.9446,42.4241],[-83.6648,42.4312],[-83.6865,42.7833],[-83.5683,42.786],[-83.5711,42.8733],[-84.1618,42.8649],[-84.1503,42.6852],[-84.2636,42.6863]]]},"properties":{"geoid":"26022","state":"26","district":"22","name":"State Senate District 22","chamber":"Senate"}},{"type":"Feature","geometry":{"type":"Polygon","coordinates":[[[-83.6865,42.7833],[-83.6771,42.6063],[-83.4419,42.6147],[-83.4445,42.6691],[-83.3869,42.675],[-83.3862,42.6601],[-83.3801,42.658],[-83.3688,42.668],[-83.3571,42.6711],[-83.3563,42.676],[-83.374,42.6816],[-83.3719,42.7047],[-83.0954,42.7125],[-83.1029,42.8886],[-82.9836,42.8937],[-82.9878,42.9824],[-83.5738,42.9615],[-83.5683,42.786],[-83.6865,42.7833]]]},"properties":{"geoid":"26023","state":"26","district":"23","name":"State Senate District 23","chamber":"Senate"}},{"type":"Feature","geometry":{"type":"Polygon","coordinates":[[[-83.1029,42.8886],[-83.0938,42.6757],[-83.0808,42.6683],[-83.0536,42.6692],[-83.0502,42.6548],[-83.0732,42.6568],[-83.0726,42.6392],[-83.0595,42.639],[-83.0455,42.6271],[-83.0416,42.6311],[-83.0445,42.633],[-83.0229,42.6333],[-83.023,42.6372],[-83.018,42.6372],[-83.0132,42.6336],[-82.9933,42.634],[-82.9929,42.6268],[-82.9733,42.6272],[-82.9709,42.5664],[-82.9644,42.559],[-82.9393,42.5683],[-82.8987,42.5712],[-82.8986,42.614],[-82.8878,42.6179],[-82.8869,42.6292],[-82.8561,42.6302],[-82.8631,42.8067],[-82.9801,42.8049],[-82.9836,42.8937],[-83.1029,42.8886]]]},"properties":{"geoid":"26024","state":"26","district":"24","name":"State Senate District 24","chamber":"Senate"}},{"type":"Feature","geometry":{"type":"Polygon","coordinates":[[[-83.7123,43.8317],[-83.7083,43.8287],[-83.6999,43.6118],[-83.6746,43.6081],[-83.6499,43.6189],[-83.5858,43.6776],[-83.5854,43.669],[-83.5805,43.6676],[-83.5835,43.6702],[-83.5701,43.6745],[-83.5723,43.6788],[-83.5673,43.6782],[-83.5547,43.7009],[-83.5348,43.7073],[-83.5253,43.7159],[-83.5348,43.7226],[-83.5251,43.7163],[-83.5134,43.7185],[-83.5066,43.7109],[-83.5,43.7124],[-83.4999,43.722],[-83.4875,43.7219],[-83.4806,43.7345],[-83.4674,43.7289],[-83.4666,43.6679],[-83.4865,43.6679],[-83.4863,43.6528],[-83.486,43.6392],[-83.4661,43.6393],[-83.4629,43.4078],[-83.2257,43.4122],[-83.223,43.3248],[-83.1204,43.327],[-83.119,43.2837],[-83.0004,43.2849],[-82.9986,43.215],[-83.0022,43.2139],[-82.9985,43.2123],[-82.99,43.0552],[-82.9801,42.8049],[-82.8631,42.8067],[-82.8593,42.7181],[-82.6106,42.7247],[-82.6079,42.6655],[-82.5477,42.6672],[-82.5104,42.6532],[-82.5109,42.665],[-82.484,42.7179],[-82.4834,42.7335],[-82.4677,42.7619],[-82.4706,42.7837],[-82.4826,42.8086],[-82.4687,42.852],[-82.4697,42.8875],[-82.456,42.9258],[-82.4167,42.9664],[-82.4135,42.9769],[-82.423,42.9884],[-82.4237,42.9985],[-82.411,43.0113],[-82.39,43.0622],[-82.123,43.5908],[-82.2499,44.1588],[-83,44.1711],[-83.1853,44.1684],[-83.7123,43.8317]]]},"properties":{"geoid":"26025","state":"26","district":"25","name":"State Senate District 25","chamber":"Senate"}},{"type":"Feature","geometry":{"type":"Polygon","coordinates":[[[-84.2908,43.4814],[-84.2904,43.3902],[-84.1704,43.3951],[-84.1686,43.1575],[-84.1536,43.1581],[-84.1536,43.129],[-83.6946,43.1343],[-83.6945,43.1265],[-83.6874,43.1263],[-83.6873,43.1122],[-83.6944,43.1114],[-83.6941,43.0757],[-83.6462,43.0764],[-83.651,43.0696],[-83.6507,43.0569],[-83.6263,43.0657],[-83.6215,43.0512],[-83.6283,43.0511],[-83.6326,43.06],[-83.6506,43.0544],[-83.6505,43.0509],[-83.6358,43.0511],[-83.6357,43.0474],[-83.6159,43.0475],[-83.6153,43.0263],[-83.63,43.0262],[-83.6347,43.0138],[-83.6249,43.0142],[-83.6295,43.0085],[-83.6198,43.0087],[-83.6197,43.0041],[-83.6105,43.0042],[-83.6042,42.9972],[-83.5908,42.9961],[-83.5803,42.9978],[-83.5853,43.005],[-83.5758,43.0048],[-83.5753,43.009],[-83.5738,42.9615],[-82.9866,42.9824],[-82.9985,43.2123],[-83.0021,43.212],[-82.9986,43.215],[-83.0004,43.2849],[-83.119,43.2837],[-83.1204,43.327],[-83.223,43.3248],[-83.2257,43.4122],[-83.4629,43.4078],[-83.4661,43.6393],[-83.486,43.6392],[-83.4863,43.6528],[-83.4865,43.6679],[-83.4666,43.6679],[-83.4674,43.7289],[-83.4806,43.7345],[-83.4875,43.7219],[-83.4999,43.722],[-83.5,43.7124],[-83.5066,43.7109],[-83.5134,43.7185],[-83.5251,43.7163],[-83.5348,43.7226],[-83.5253,43.7159],[-83.5348,43.7073],[-83.5547,43.7009],[-83.5673,43.6782],[-83.5723,43.6788],[-83.5701,43.6745],[-83.5835,43.6702],[-83.5805,43.6676],[-83.5854,43.669],[-83.5858,43.6776],[-83.6546,43.616],[-83.6746,43.6081],[-83.6999,43.6118],[-83.6988,43.479],[-83.8177,43.4791],[-83.8178,43.3926],[-83.9282,43.3932],[-83.9239,43.3868],[-83.9288,43.3868],[-83.9333,43.3896],[-83.9296,43.3933],[-83.9555,43.3932],[-83.9554,43.3865],[-83.9397,43.3875],[-83.9364,43.3799],[-83.9422,43.3799],[-83.9456,43.3869],[-83.9836,43.3855],[-83.9949,43.3923],[-84.0188,43.3946],[-84.0469,43.4086],[-84.0433,43.4198],[-84.0493,43.4253],[-84.0474,43.4396],[-84.0615,43.4423],[-84.0927,43.4624],[-84.0964,43.4678],[-84.0926,43.4813],[-84.2908,43.4814]]]},"properties":{"geoid":"26026","state":"26","district":"26","name":"State Senate District 26","chamber":"Senate"}},{"type":"Feature","geometry":{"type":"Polygon","coordinates":[[[-83.9299,42.9565],[-83.9272,42.8683],[-83.5711,42.8733],[-83.5753,43.009],[-83.5758,43.0048],[-83.5853,43.005],[-83.5803,42.9978],[-83.5908,42.9961],[-83.6042,42.9972],[-83.6105,43.0042],[-83.6197,43.0041],[-83.6198,43.0087],[-83.6295,43.0085],[-83.6247,43.0139],[-83.6347,43.0138],[-83.6348,43.0187],[-83.63,43.0187],[-83.63,43.0262],[-83.6153,43.0263],[-83.6159,43.0475],[-83.6357,43.0474],[-83.6358,43.0511],[-83.6505,43.0509],[-83.6506,43.0544],[-83.6326,43.06],[-83.6283,43.0511],[-83.6215,43.0512],[-83.6227,43.062],[-83.6311,43.0656],[-83.632,43.0605],[-83.6507,43.0569],[-83.651,43.0696],[-83.6462,43.0764],[-83.6941,43.0757],[-83.6944,43.1114],[-83.6873,43.1122],[-83.6874,43.1263],[-83.6945,43.1265],[-83.6946,43.1343],[-83.9291,43.1328],[-83.9299,42.9565]]]},"properties":{"geoid":"26027","state":"26","district":"27","name":"State Senate District 27","chamber":"Senate"}},{"type":"Feature","geometry":{"type":"Polygon","coordinates":[[[-84.8376,42.9389],[-84.8371,42.7705],[-84.5325,42.7697],[-84.5323,42.7594],[-84.5446,42.7529],[-84.5446,42.7439],[-84.5378,42.7436],[-84.538,42.7259],[-84.5132,42.7239],[-84.5096,42.7193],[-84.5095,42.7119],[-84.5233,42.7119],[-84.5234,42.6901],[-84.5134,42.6864],[-84.4988,42.6893],[-84.4986,42.6829],[-84.3636,42.6831],[-84.364,42.6006],[-84.2598,42.601],[-84.2636,42.6863],[-84.1503,42.6852],[-84.1618,42.8649],[-83.9272,42.8683],[-83.9291,43.1328],[-84.3679,43.1285],[-84.3678,43.1179],[-84.6005,43.1177],[-84.6015,43.0314],[-84.8376,43.0326],[-84.8376,42.9389]]]},"properties":{"geoid":"26028","state":"26","district":"28","name":"State Senate District 28","chamber":"Senate"}},{"type":"Feature","geometry":{"type":"Polygon","coordinates":[[[-85.7823,42.8771],[-85.7821,42.8563],[-85.7681,42.8561],[-85.77,42.8506],[-85.7525,42.8558],[-85.7005,42.8521],[-85.6785,42.8552],[-85.6739,42.8498],[-85.674,42.8551],[-85.5458,42.8545],[-85.5507,42.9409],[-85.5663,42.9411],[-85.5683,42.9533],[-85.5775,42.962],[-85.6224,42.9608],[-85.6397,42.9627],[-85.6397,42.9679],[-85.6446,42.9679],[-85.6446,42.9628],[-85.6755,42.9665],[-85.6841,42.9547],[-85.711,42.9474],[-85.7219,42.9375],[-85.7629,42.9277],[-85.7678,42.9143],[-85.7822,42.9113],[-85.7823,42.8771]]]},"properties":{"geoid":"26029","state":"26","district":"29","name":"State Senate District 29","chamber":"Senate"}},{"type":"Feature","geometry":{"type":"Polygon","coordinates":[[[-86.0272,43.0708],[-86.0229,42.9427],[-85.9034,42.9433],[-85.9039,42.9577],[-85.8761,42.9579],[-85.8598,42.9453],[-85.8119,42.9476],[-85.7995,42.9383],[-85.8014,42.9286],[-85.7957,42.9197],[-85.7756,42.9107],[-85.7678,42.9143],[-85.7629,42.9277],[-85.7219,42.9375],[-85.711,42.9474],[-85.6841,42.9547],[-85.6755,42.9665],[-85.6446,42.9628],[-85.6446,42.9679],[-85.6397,42.9679],[-85.6397,42.9627],[-85.6224,42.9608],[-85.5775,42.962],[-85.5683,42.9533],[-85.5663,42.9411],[-85.5507,42.941],[-85.5458,42.8545],[-85.429,42.8563],[-85.4307,43.0286],[-85.5457,43.0282],[-85.5429,43.0328],[-85.5508,43.0453],[-85.5513,43.1115],[-85.5508,43.1081],[-85.5445,43.1115],[-85.5462,43.1179],[-85.5426,43.1181],[-85.5475,43.1283],[-85.5356,43.132],[-85.5471,43.1465],[-85.5659,43.1392],[-85.5658,43.1297],[-85.58,43.1318],[-85.5782,43.1172],[-86.027,43.1183],[-86.0272,43.0708]]]},"properties":{"geoid":"26030","state":"26","district":"30","name":"State Senate District 30","chamber":"Senate"}},{"type":"Feature","geometry":{"type":"Polygon","coordinates":[[[-87.1077,43.1182],[-87.0204,42.5],[-87.04,42.417],[-86.2739,42.4193],[-86.258,42.4527],[-86.2471,42.491],[-86.237,42.5567],[-86.2261,42.5909],[-86.2287,42.6386],[-86.2115,42.6814],[-86.0148,42.6821],[-86.0181,42.7689],[-85.7825,42.7682],[-85.7822,42.9117],[-85.7957,42.9197],[-85.8014,42.9286],[-85.7992,42.9377],[-85.8095,42.9462],[-85.8598,42.9453],[-85.8761,42.9579],[-85.9039,42.9577],[-85.9034,42.9433],[-86.0229,42.9427],[-86.027,43.1183],[-87.1077,43.1182]]]},"properties":{"geoid":"26031","state":"26","district":"31","name":"State Senate District 31","chamber":"Senate"}},{"type":"Feature","geometry":{"type":"Polygon","coordinates":[[[-87.1472,43.3799],[-87.1077,43.1182],[-86.027,43.1183],[-86.0279,43.2933],[-86.039,43.2935],[-86.0407,44.1102],[-86.0435,44.1671],[-86.0633,44.1679],[-86.0602,44.429],[-85.9395,44.4262],[-85.9389,44.5132],[-85.8178,44.513],[-85.8151,44.7745],[-86.1251,44.7786],[-86.7345,44.7731],[-86.8552,44.5003],[-86.8477,44.5003],[-87.0132,44.1319],[-87.1141,43.7341],[-87.1251,43.6704],[-87.1472,43.3799]]]},"properties":{"geoid":"26032","state":"26","district":"32","name":"State Senate District 32","chamber":"Senate"}},{"type":"Feature","geometry":{"type":"Polygon","coordinates":[[[-86.0435,44.1671],[-86.0379,43.8162],[-86.039,43.2935],[-86.0279,43.2933],[-86.027,43.1183],[-85.5782,43.1172],[-85.58,43.1318],[-85.5658,43.1297],[-85.5659,43.1392],[-85.5471,43.1465],[-85.5356,43.132],[-85.5475,43.1283],[-85.5426,43.1181],[-85.5462,43.1179],[-85.5445,43.1115],[-85.5508,43.1081],[-85.5513,43.1115],[-85.5508,43.0453],[-85.5429,43.0328],[-85.5457,43.0282],[-85.3124,43.0297],[-85.3119,42.944],[-85.1937,42.9439],[-85.1936,42.8571],[-85.0749,42.8571],[-85.0742,42.7708],[-84.8371,42.7705],[-84.8353,43.2922],[-84.8456,43.2922],[-84.846,43.4662],[-85.5623,43.4681],[-85.5624,43.8155],[-85.8003,43.8142],[-85.8014,43.9877],[-85.6819,43.988],[-85.6838,44.1646],[-86.0435,44.1671]]]},"properties":{"geoid":"26033","state":"26","district":"33","name":"State Senate District 33","chamber":"Senate"}},{"type":"Feature","geometry":{"type":"Polygon","coordinates":[[[-85.8018,43.8956],[-85.8003,43.8142],[-85.5624,43.8155],[-85.5623,43.4681],[-84.846,43.4662],[-84.8456,43.2922],[-84.8353,43.2922],[-84.8375,43.0326],[-84.6015,43.0314],[-84.6005,43.1177],[-84.3678,43.1179],[-84.3679,43.1285],[-84.1536,43.129],[-84.1536,43.1581],[-84.1686,43.1575],[-84.1704,43.3951],[-84.2904,43.3902],[-84.2908,43.4814],[-84.3698,43.4816],[-84.3678,43.7424],[-84.0472,43.7392],[-84.0454,43.997],[-84.1664,43.9969],[-84.1661,44.1618],[-85.6838,44.1646],[-85.6819,43.988],[-85.8014,43.9877],[-85.8018,43.8956]]]},"properties":{"geoid":"26034","state":"26","district":"34","name":"State Senate District 34","chamber":"Senate"}},{"type":"Feature","geometry":{"type":"Polygon","coordinates":[[[-84.3698,43.5203],[-84.3698,43.4816],[-84.0926,43.4813],[-84.0964,43.4678],[-84.0927,43.4624],[-84.0615,43.4423],[-84.0474,43.4396],[-84.0493,43.4253],[-84.0433,43.4198],[-84.0469,43.4086],[-84.0188,43.3946],[-83.9949,43.3923],[-83.9836,43.3855],[-83.9456,43.3869],[-83.9422,43.3799],[-83.9364,43.3799],[-83.9397,43.3875],[-83.9554,43.3865],[-83.9555,43.3932],[-83.9296,43.3933],[-83.9333,43.3896],[-83.9288,43.3868],[-83.9239,43.3868],[-83.9282,43.3932],[-83.8178,43.3926],[-83.8177,43.4791],[-83.6988,43.479],[-83.7083,43.8287],[-83.7136,43.8309],[-83.7085,43.8339],[-83.895,43.9064],[-83.9023,43.8753],[-83.8978,43.8534],[-83.906,43.838],[-83.9072,43.8237],[-83.9022,43.8161],[-83.9078,43.8124],[-83.9144,43.7696],[-83.9294,43.7377],[-84.3678,43.7424],[-84.3698,43.5203]]]},"properties":{"geoid":"26035","state":"26","district":"35","name":"State Senate District 35","chamber":"Senate"}},{"type":"Feature","geometry":{"type":"Polygon","coordinates":[[[-86.0633,44.1778],[-86.0633,44.1679],[-85.9063,44.1645],[-84.1661,44.1618],[-84.1664,43.9969],[-84.0454,43.997],[-84.0472,43.7392],[-83.9294,43.7377],[-83.9144,43.7696],[-83.9078,43.8124],[-83.9022,43.8161],[-83.9072,43.8237],[-83.906,43.838],[-83.8978,43.8534],[-83.9023,43.8753],[-83.895,43.9064],[-83.7085,43.8339],[-83.1853,44.1684],[-83,44.1711],[-82.2499,44.1588],[-82.3749,44.7164],[-82.5206,45.3359],[-83,45.5564],[-83.484,45.7719],[-84.1231,45.7777],[-84.2011,45.7523],[-84.2043,45.6262],[-84.252,45.626],[-84.2466,45.1987],[-84.7343,45.2019],[-84.7348,45.1149],[-84.8575,45.1167],[-84.8573,45.0298],[-84.8495,45.0296],[-84.8473,44.858],[-85.2917,44.8596],[-85.3277,44.8507],[-85.3164,44.8225],[-85.3328,44.8124],[-85.334,44.5123],[-85.9389,44.5132],[-85.9395,44.4262],[-86.0602,44.429],[-86.0633,44.1778]]]},"properties":{"geoid":"26036","state":"26","district":"36","name":"State Senate District 36","chamber":"Senate"}},{"type":"Feature","geometry":{"type":"Polygon","coordinates":[[[-86.6998,44.8508],[-86.7345,44.7731],[-86.1251,44.7786],[-85.8151,44.7745],[-85.8178,44.513],[-85.334,44.5123],[-85.3328,44.8124],[-85.3164,44.8225],[-85.3277,44.8507],[-85.2917,44.8596],[-84.8473,44.858],[-84.8495,45.0296],[-84.8573,45.0298],[-84.8575,45.1167],[-84.7348,45.1149],[-84.7343,45.2019],[-84.2466,45.1987],[-84.252,45.626],[-84.2043,45.6262],[-84.2011,45.7523],[-84.1231,45.7777],[-83.6369,45.7739],[-83.4336,45.9989],[-83.5715,46.106],[-83.6546,46.1221],[-83.7595,46.1032],[-83.8262,46.1193],[-83.9035,46.0609],[-83.9554,46.0572],[-83.9761,46.1026],[-84.0059,46.1185],[-84.0057,46.1496],[-84.077,46.1876],[-84.0858,46.21],[-84.1081,46.2412],[-84.0978,46.2565],[-84.1156,46.2682],[-84.1196,46.315],[-84.1062,46.322],[-84.1389,46.3722],[-84.1462,46.4185],[-84.1112,46.5041],[-84.1289,46.5301],[-84.1394,46.5322],[-84.1774,46.5269],[-84.194,46.5401],[-84.2261,46.5339],[-84.2549,46.5008],[-84.2758,46.4928],[-84.293,46.4928],[-84.342,46.5075],[-84.374,46.5091],[-84.3947,46.4992],[-84.4203,46.5011],[-84.4451,46.489],[-84.4893,46.4386],[-84.4888,46.3609],[-84.5306,46.361],[-84.53,46.332],[-84.5097,46.332],[-84.5097,46.3173],[-84.4887,46.3176],[-84.4883,46.3029],[-84.3842,46.3026],[-84.3838,46.2443],[-84.551,46.2449],[-84.5512,46.2741],[-85.1135,46.2747],[-85.113,46.0375],[-85.1518,46.0507],[-85.2016,46.0431],[-85.2201,46.062],[-85.2342,46.0582],[-85.2875,46.0721],[-85.292,46.07],[-85.2978,46.0786],[-85.3425,46.0933],[-85.3423,46.0829],[-85.368,46.0671],[-85.4178,46.071],[-85.4375,46.0628],[-85.4604,46.0606],[-85.4962,46.0679],[-85.5067,46.066],[-85.5972,45.9751],[-85.6103,45.9555],[-85.6556,45.9362],[-85.7052,45.9281],[-85.7704,45.9331],[-85.8078,45.9414],[-85.8662,45.9346],[-85.8682,45.8198],[-85.8732,45.8179],[-85.8558,45.5784],[-86.4608,45.5844],[-86.4641,45.3248],[-86.2495,45.2361],[-86.4999,45.0808],[-86.6863,44.881],[-86.6998,44.8508]]]},"properties":{"geoid":"26037","state":"26","district":"37","name":"State Senate District 37","chamber":"Senate"}},{"type":"Feature","geometry":{"type":"Polygon","coordinates":[[[-90.4184,46.5661],[-90.415,46.5577],[-90.3922,46.536],[-90.3933,46.5324],[-90.3682,46.5411],[-90.3507,46.5403],[-90.3468,46.5493],[-90.3394,46.5493],[-90.3435,46.5525],[-90.3322,46.5534],[-90.3094,46.5373],[-90.3166,46.5169],[-90.2946,46.5217],[-90.2845,46.5187],[-90.2769,46.5244],[-90.2718,46.5193],[-90.2776,46.5148],[-90.2704,46.5117],[-90.2726,46.5045],[-90.2666,46.5079],[-90.2615,46.5026],[-90.2312,46.5099],[-90.2309,46.5015],[-90.2166,46.5016],[-90.2042,46.4783],[-90.1888,46.4689],[-90.1936,46.4634],[-90.1908,46.4598],[-90.1783,46.4574],[-90.1784,46.4405],[-90.1674,46.4417],[-90.1573,46.4211],[-90.1584,46.4095],[-90.1322,46.3811],[-90.134,46.3718],[-90.1187,46.3593],[-90.1169,46.3507],[-90.1237,46.3463],[-90.118,46.3415],[-90.1206,46.337],[-89.0916,46.1384],[-88.8508,46.0403],[-88.8391,46.03],[-88.8191,46.0263],[-88.816,46.0206],[-88.7965,46.0236],[-88.8007,46.03],[-88.7965,46.0337],[-88.7893,46.0285],[-88.7787,46.0317],[-88.7839,46.0238],[-88.7802,46.0154],[-88.7698,46.0189],[-88.7706,46.0256],[-88.759,46.0196],[-88.739,46.0275],[-88.7213,46.0222],[-88.7183,46.0132],[-88.7037,46.0183],[-88.6789,46.0136],[-88.6635,45.9927],[-88.6708,45.9885],[-88.6385,45.9851],[-88.616,45.9879],[-88.6127,46.0045],[-88.6012,46.0178],[-88.5935,46.0148],[-88.5883,46.0051],[-88.5657,46.0157],[-88.5492,46.0129],[-88.5394,46.0145],[-88.5337,46.0211],[-88.5147,46.02],[-88.5064,46.0176],[-88.498,45.9958],[-88.4894,45.9914],[-88.4752,45.9931],[-88.4708,46.001],[-88.4587,45.9995],[-88.45,45.9901],[-88.4348,45.9883],[-88.4164,45.9751],[-88.3886,45.9826],[-88.3805,45.9918],[-88.3303,45.9658],[-88.3273,45.955],[-88.3203,45.9637],[-88.2938,45.9509],[-88.2469,45.9635],[-88.2448,45.9529],[-88.2371,45.9483],[-88.2099,45.9442],[-88.1921,45.9527],[-88.1701,45.9395],[-88.1477,45.9374],[-88.1268,45.926],[-88.1267,45.9218],[-88.1025,45.9215],[-88.0949,45.9153],[-88.1066,45.9022],[-88.1013,45.8823],[-88.0818,45.8802],[-88.0698,45.8729],[-88.0758,45.8696],[-88.0748,45.8649],[-88.0825,45.865],[-88.1052,45.8424],[-88.1345,45.8225],[-88.1301,45.8097],[-88.1076,45.803],[-88.1032,45.7913],[-88.0948,45.7858],[-88.0722,45.7801],[-88.05,45.7812],[-88.0409,45.7843],[-88.0397,45.7896],[-87.9914,45.7954],[-87.9809,45.777],[-87.9897,45.772],[-87.967,45.764],[-87.9635,45.7582],[-87.9067,45.7595],[-87.8984,45.7525],[-87.8769,45.7544],[-87.8622,45.745],[-87.8643,45.7371],[-87.8555,45.7269],[-87.8373,45.7169],[-87.8101,45.7102],[-87.8051,45.705],[-87.8091,45.6997],[-87.7808,45.6803],[-87.7816,45.6733],[-87.8242,45.662],[-87.8247,45.6532],[-87.8241,45.6471],[-87.8102,45.6387],[-87.7959,45.6188],[-87.7808,45.6146],[-87.7747,45.602],[-87.7772,45.5885],[-87.7868,45.5828],[-87.7924,45.5631],[-87.8293,45.5688],[-87.8337,45.5616],[-87.8034,45.5383],[-87.8022,45.5131],[-87.7928,45.5],[-87.813,45.4642],[-87.8312,45.4572],[-87.8617,45.4345],[-87.8493,45.4039],[-87.8591,45.399],[-87.8594,45.3882],[-87.8754,45.3794],[-87.8715,45.3715],[-87.8849,45.3628],[-87.8876,45.3538],[-87.8811,45.3513],[-87.8704,45.3563],[-87.8759,45.3648],[-87.8717,45.3666],[-87.8658,45.3629],[-87.8635,45.353],[-87.8504,45.3475],[-87.8501,45.3404],[-87.8326,45.3522],[-87.7541,45.3494],[-87.6998,45.3879],[-87.6903,45.3898],[-87.675,45.3825],[-87.6735,45.3769],[-87.6574,45.3688],[-87.6564,45.3584],[-87.6477,45.3507],[-87.648,45.3398],[-87.6616,45.3276],[-87.6617,45.3207],[-87.6719,45.3081],[-87.6875,45.2981],[-87.6982,45.2815],[-87.6988,45.2694],[-87.7104,45.2593],[-87.7113,45.24],[-87.725,45.2321],[-87.7214,45.2268],[-87.727,45.2189],[-87.7262,45.2094],[-87.7417,45.1982],[-87.7361,45.1722],[-87.6839,45.1441],[-87.66,45.1075],[-87.6315,45.1062],[-87.5919,45.0947],[-87.5854,45.0969],[-87.4425,45.0764],[-87.4057,45.202],[-87.3154,45.2407],[-87.1712,45.3525],[-87.1011,45.4442],[-86.7542,45.4436],[-86.4641,45.3248],[-86.4608,45.5844],[-85.8558,45.5784],[-85.8732,45.8179],[-85.8682,45.8198],[-85.8662,45.9346],[-85.8078,45.9414],[-85.7704,45.9331],[-85.7052,45.9281],[-85.6556,45.9362],[-85.6103,45.9555],[-85.5972,45.9751],[-85.5067,46.066],[-85.4962,46.0679],[-85.4604,46.0606],[-85.4375,46.0628],[-85.4178,46.071],[-85.368,46.0671],[-85.3423,46.0829],[-85.3425,46.0933],[-85.2978,46.0786],[-85.292,46.07],[-85.2875,46.0721],[-85.2342,46.0582],[-85.2201,46.062],[-85.2016,46.0431],[-85.1518,46.0507],[-85.113,46.0375],[-85.1135,46.2747],[-84.5512,46.2741],[-84.551,46.2449],[-84.3838,46.2443],[-84.3842,46.3026],[-84.4883,46.3029],[-84.4887,46.3176],[-84.5097,46.3173],[-84.5097,46.332],[-84.53,46.332],[-84.5306,46.361],[-84.4888,46.3609],[-84.4893,46.4386],[-84.4756,46.4529],[-84.557,46.4606],[-84.763,46.6343],[-84.8593,46.8888],[-85.2501,47.0565],[-85.8751,47.3163],[-86.0001,47.3673],[-86.0001,47.3619],[-86.0273,47.375],[-86.02,47.375],[-86.1251,47.4167],[-86.1251,47.4235],[-86.2501,47.4744],[-86.2501,47.4779],[-86.5001,47.5683],[-86.6251,47.6178],[-86.6343,47.6249],[-86.6313,47.6249],[-86.7501,47.6749],[-86.9492,47.7499],[-86.9406,47.7499],[-87.0631,47.8],[-87.5001,47.9681],[-87.6251,48.0211],[-87.7501,48.0639],[-87.8751,48.1147],[-88.0001,48.1559],[-88.0001,48.1641],[-88.3699,48.3061],[-88.6774,48.2454],[-89.3375,47.9743],[-89.4834,48.0137],[-89.9571,47.2911],[-90.0001,47.215],[-90.4184,46.5661]]]},"properties":{"geoid":"26038","state":"26","district":"38","name":"State Senate District 38","chamber":"Senate"}}]}