{"type":"FeatureCollection","features":[{"type":"Feature","geometry":{"type":"Polygon","coordinates":[[[-97.2391,48.9683],[-97.2275,48.9624],[-97.2341,48.9476],[-97.2266,48.9458],[-97.2246,48.9338],[-97.2144,48.9316],[-97.2198,48.9221],[-97.2108,48.916],[-97.2115,48.9057],[-97.1899,48.8952],[-97.2016,48.8919],[-97.1973,48.8873],[-97.1995,48.8812],[-97.1778,48.8757],[-97.1906,48.8643],[-97.1792,48.8628],[-97.1731,48.8506],[-97.1829,48.8469],[-97.1758,48.8448],[-97.1739,48.838],[-97.1842,48.8339],[-97.178,48.8228],[-97.1903,48.8152],[-97.1575,48.8081],[-97.1815,48.7982],[-97.1633,48.8006],[-97.1625,48.7967],[-97.174,48.7939],[-97.1582,48.7912],[-97.1589,48.7833],[-97.1475,48.7814],[-97.159,48.7757],[-97.1455,48.7648],[-97.1544,48.7582],[-97.1538,48.754],[-97.1375,48.7496],[-97.1367,48.7425],[-97.1421,48.7362],[-97.1283,48.7321],[-97.1374,48.7266],[-97.1101,48.708],[-97.1199,48.7012],[-97.1087,48.691],[-97.0903,48.6844],[-97.1013,48.6823],[-97.1006,48.6684],[-97.1092,48.6642],[-97.0987,48.661],[-97.1157,48.6446],[-97.1094,48.6325],[-97.1311,48.6315],[-97.1195,48.6186],[-97.1339,48.6228],[-97.1296,48.6137],[-97.1506,48.6117],[-97.1343,48.6074],[-97.154,48.5954],[-97.1423,48.5926],[-97.1439,48.5821],[-97.1606,48.5809],[-97.1487,48.5764],[-97.1492,48.57],[-97.1754,48.562],[-97.139,48.5551],[-97.1416,48.5513],[-97.1639,48.554],[-97.166,48.5489],[-97.161,48.542],[-97.1414,48.5355],[-97.1536,48.5295],[-97.1524,48.5204],[-97.1268,48.5202],[-97.1366,48.5122],[-97.1503,48.5116],[-97.1492,48.5008],[-97.1315,48.489],[-97.143,48.4923],[-97.1403,48.4847],[-97.1627,48.4778],[-97.1282,48.4744],[-97.1474,48.4728],[-97.143,48.4638],[-97.1285,48.4603],[-97.1307,48.4522],[-97.1506,48.4408],[-97.1248,48.4419],[-97.1278,48.4313],[-97.1459,48.4311],[-97.1226,48.4179],[-97.1384,48.4216],[-97.154,48.4181],[-97.1505,48.4127],[-97.1399,48.4185],[-97.1312,48.4073],[-97.1457,48.3974],[-97.1634,48.3929],[-97.152,48.3829],[-97.1333,48.3822],[-97.1414,48.3785],[-97.1379,48.3712],[-97.1525,48.371],[-97.1563,48.3656],[-97.1362,48.3522],[-97.1401,48.3446],[-97.1259,48.3406],[-97.129,48.3329],[-97.1417,48.3257],[-97.1292,48.3281],[-97.1156,48.3239],[-97.1326,48.3191],[-97.1377,48.3097],[-97.1242,48.3111],[-97.1267,48.304],[-97.1122,48.2965],[-97.1192,48.2942],[-97.1276,48.299],[-97.1373,48.2918],[-97.1355,48.2871],[-97.1231,48.2908],[-97.1166,48.2797],[-97.1251,48.2767],[-97.1253,48.2704],[-97.145,48.2688],[-97.123,48.2617],[-97.1306,48.259],[-97.1251,48.25],[-97.1467,48.2445],[-97.1337,48.2391],[-97.1446,48.2336],[-97.1207,48.2248],[-97.1372,48.227],[-97.1522,48.2196],[-97.1391,48.222],[-97.1229,48.2165],[-97.1178,48.2098],[-97.1237,48.2076],[-97.1314,48.2172],[-97.1393,48.2168],[-97.1293,48.2084],[-97.1409,48.2045],[-97.1357,48.1971],[-97.1498,48.1835],[-97.1384,48.1823],[-97.136,48.1767],[-97.1475,48.1706],[-97.142,48.1602],[-97.1254,48.1628],[-97.121,48.1596],[-97.1403,48.1509],[-97.1465,48.1422],[-97.1229,48.1398],[-97.1335,48.1371],[-97.1207,48.115],[-97.1232,48.1067],[-97.1115,48.1059],[-97.1019,48.0959],[-97.1099,48.0914],[-97.0998,48.0859],[-97.1045,48.0724],[-97.0723,48.0481],[-97.0687,48.0277],[-97.0722,48.0191],[-97.0633,48.015],[-97.0668,48.0096],[-97.0639,47.9977],[-97.0531,47.9904],[-97.0618,47.9647],[-97.0525,47.9574],[-97.0553,47.9475],[-97.0365,47.9396],[-97.0364,47.9308],[-97.0179,47.9199],[-97.0238,47.9156],[-97.0153,47.9067],[-97.0252,47.9077],[-97.0198,47.9013],[-97.025,47.8952],[-97.0188,47.8905],[-97.0254,47.8849],[-97.018,47.8787],[-97.0231,47.8741],[-97.0018,47.8681],[-97.0059,47.8645],[-96.9983,47.8592],[-96.994,47.846],[-96.9983,47.8419],[-96.9863,47.8371],[-96.9815,47.8296],[-96.9871,47.8256],[-96.9741,47.8235],[-96.9805,47.8219],[-96.9787,47.8099],[-96.9916,47.8082],[-96.9723,47.8028],[-96.9763,47.7978],[-96.9665,47.7996],[-96.9571,47.791],[-96.9651,47.7835],[-96.958,47.7857],[-96.9591,47.7806],[-96.9524,47.7794],[-96.9563,47.7751],[-96.9468,47.7751],[-96.9349,47.7672],[-96.9383,47.7608],[-96.9289,47.7553],[-96.9397,47.7548],[-96.9292,47.7504],[-96.9328,47.7375],[-96.9184,47.724],[-96.931,47.7155],[-96.9198,47.7169],[-96.9199,47.7104],[-96.9119,47.7068],[-96.9209,47.7],[-96.912,47.7015],[-96.907,47.6944],[-96.9095,47.6892],[-96.8992,47.6896],[-96.8962,47.6742],[-96.8851,47.6738],[-96.8899,47.6697],[-96.8824,47.6427],[-96.8882,47.6389],[-96.8744,47.6278],[-96.8805,47.626],[-96.8759,47.6234],[-96.8797,47.6193],[-96.871,47.6181],[-96.8736,47.6135],[-96.8571,47.6107],[-96.8568,47.6018],[-96.851,47.5985],[-96.8589,47.5957],[-96.8499,47.5908],[-96.8537,47.5789],[-96.8605,47.575],[-96.8516,47.5687],[-96.8689,47.567],[-96.8631,47.5625],[-96.8475,47.5662],[-96.8617,47.5593],[-96.8498,47.5532],[-96.8604,47.5459],[-96.8453,47.5388],[-96.8623,47.5412],[-96.8535,47.5362],[-96.8712,47.5273],[-96.8609,47.5155],[-96.8424,47.5161],[-96.8536,47.5115],[-96.8423,47.5086],[-96.8525,47.5075],[-96.8535,47.5016],[-96.8488,47.4981],[-96.865,47.4917],[-96.8522,47.4864],[-96.8685,47.4785],[-96.8519,47.4791],[-96.861,47.4726],[-96.8539,47.4604],[-96.8636,47.457],[-96.8543,47.4546],[-96.8593,47.4517],[-96.8559,47.4392],[-96.8629,47.4364],[-96.8528,47.432],[-96.8647,47.4281],[-96.8553,47.4243],[-96.8718,47.4191],[-96.861,47.4177],[-96.8568,47.4097],[-96.8419,47.4115],[-96.8527,47.4062],[-96.8391,47.3994],[-96.8491,47.3939],[-96.8396,47.3927],[-96.8375,47.389],[-96.8422,47.386],[-96.838,47.3826],[-96.8492,47.3824],[-96.8435,47.3759],[-96.8546,47.3738],[-96.8367,47.372],[-96.8582,47.3675],[-96.8484,47.3646],[-96.8505,47.3571],[-96.8374,47.3555],[-96.8446,47.3543],[-96.8471,47.3477],[-96.8306,47.3388],[-96.8458,47.328],[-96.8288,47.328],[-96.8369,47.3248],[-96.8355,47.3191],[-96.847,47.3158],[-96.843,47.3088],[-96.8365,47.3115],[-96.8307,47.3061],[-96.8438,47.2931],[-96.8401,47.2756],[-96.8477,47.2712],[-96.8347,47.2662],[-96.8474,47.2619],[-96.8358,47.2622],[-96.8452,47.2585],[-96.8385,47.2562],[-96.8444,47.2512],[-96.8373,47.253],[-96.8322,47.2468],[-96.8437,47.2398],[-96.8365,47.2424],[-96.8287,47.2333],[-96.8415,47.2332],[-96.8414,47.2295],[-96.8315,47.2267],[-96.8458,47.2201],[-96.8336,47.2216],[-96.8372,47.2159],[-96.8303,47.2103],[-96.8372,47.2073],[-96.8272,47.2013],[-96.834,47.2035],[-96.8448,47.1936],[-96.8402,47.191],[-96.838,47.1965],[-96.8262,47.1913],[-96.836,47.1851],[-96.8219,47.185],[-96.8276,47.1819],[-96.825,47.1779],[-96.8335,47.1766],[-96.8229,47.1737],[-96.825,47.167],[-96.8189,47.1646],[-96.8319,47.1598],[-96.8231,47.1556],[-96.8362,47.1566],[-96.8406,47.1508],[-96.5641,47.1514],[-96.5634,47.0644],[-96.1942,47.0639],[-96.1947,47.1511],[-96.0671,47.1518],[-96.0676,47.4991],[-95.5542,47.4999],[-95.5534,47.6736],[-95.5788,47.6737],[-95.5829,48.0207],[-95.5925,48.0206],[-95.5931,48.3654],[-95.6016,48.3654],[-95.6023,48.5389],[-95.3425,48.5402],[-95.3427,48.713],[-95.0899,48.7131],[-95.0915,48.9206],[-95.1164,48.9036],[-95.1484,48.8923],[-95.2265,48.8817],[-95.2549,48.8845],[-95.301,48.9042],[-95.2964,48.9083],[-95.3196,48.9293],[-95.3225,48.9409],[-95.3071,48.946],[-95.3115,48.949],[-95.3047,48.9464],[-95.3177,48.9524],[-95.3256,48.97],[-95.3269,48.9816],[-95.3177,48.9961],[-95.3199,48.9989],[-97.229,49.0005],[-97.2342,48.9963],[-97.2266,48.9932],[-97.2376,48.9851],[-97.2391,48.9683]]]},"properties":{"geoid":"27001","state":"27","district":"1","name":"State Senate District 1","chamber":"Senate"}},{"type":"Feature","geometry":{"type":"Polygon","coordinates":[[[-96.0677,47.4848],[-96.066,46.9773],[-95.2967,46.9776],[-95.2973,47.1518],[-95.0459,47.1528],[-95.0461,47.2395],[-94.9769,47.2398],[-94.6843,47.2368],[-94.6839,47.1518],[-94.6676,47.1481],[-94.6639,47.1431],[-94.6636,46.9769],[-94.4691,46.9803],[-94.0289,46.9773],[-94.0298,47.1534],[-93.9024,47.1512],[-93.9018,47.2381],[-93.8067,47.2372],[-93.8103,47.2341],[-93.8027,47.2333],[-93.7987,47.222],[-93.7983,47.2371],[-93.774,47.2368],[-93.7737,47.2544],[-93.7026,47.257],[-93.7024,47.2883],[-93.6983,47.2943],[-93.7033,47.2966],[-93.702,47.3184],[-93.7074,47.3186],[-93.7084,47.3261],[-93.7667,47.3267],[-93.7604,47.3235],[-93.7738,47.3247],[-93.7741,47.3136],[-93.7796,47.3151],[-93.7753,47.3176],[-93.8002,47.3205],[-93.8008,47.4113],[-93.7742,47.4113],[-93.7738,47.6731],[-94.4182,47.6721],[-94.4177,48.0125],[-94.4178,48.0198],[-94.4236,48.0198],[-94.4303,48.7009],[-94.4524,48.6924],[-94.5385,48.7027],[-94.549,48.7147],[-94.5877,48.7176],[-94.6192,48.7373],[-94.6413,48.7412],[-94.652,48.7561],[-94.6909,48.778],[-94.6951,48.8092],[-94.7043,48.8242],[-94.702,48.8318],[-94.6856,48.84],[-94.6931,48.8534],[-94.6924,48.869],[-94.6843,48.8724],[-94.6835,48.8841],[-94.7496,49.0987],[-94.7728,49.1205],[-94.798,49.1979],[-94.7973,49.2143],[-94.8255,49.2944],[-94.8244,49.309],[-94.8163,49.3214],[-94.8541,49.3243],[-94.9574,49.3702],[-94.989,49.3689],[-95.0142,49.3565],[-95.0583,49.3533],[-95.1287,49.3705],[-95.1534,49.3845],[-95.1532,48.9989],[-95.3199,48.9989],[-95.3177,48.9961],[-95.3269,48.9816],[-95.3182,48.953],[-95.3048,48.9476],[-95.3115,48.949],[-95.3071,48.946],[-95.3229,48.9402],[-95.3161,48.9244],[-95.2964,48.9083],[-95.301,48.9042],[-95.2549,48.8845],[-95.2265,48.8817],[-95.1484,48.8923],[-95.1164,48.9036],[-95.0915,48.9206],[-95.0899,48.7131],[-95.3427,48.713],[-95.3425,48.5402],[-95.6023,48.5389],[-95.6016,48.3654],[-95.5931,48.3654],[-95.5925,48.0206],[-95.5829,48.0207],[-95.5788,47.6737],[-95.5534,47.6736],[-95.5542,47.4999],[-96.0676,47.4991],[-96.0677,47.4848]]]},"properties":{"geoid":"27002","state":"27","district":"2","name":"State Senate District 2","chamber":"Senate"}},{"type":"Feature","geometry":{"type":"Polygon","coordinates":[[[-94.4303,48.5119],[-94.4236,48.0198],[-94.4178,48.0198],[-94.4182,47.6721],[-93.7738,47.6731],[-93.7741,47.5443],[-93.278,47.5443],[-93.2795,47.4573],[-93.0692,47.4577],[-93.0642,47.5238],[-93.0615,47.7204],[-93.082,47.7206],[-93.0837,47.8065],[-92.8374,47.8081],[-92.439,47.8019],[-92.4381,47.7149],[-92.1829,47.7142],[-92.1811,47.5432],[-92.1745,47.4662],[-92.1753,47.2852],[-92.3032,47.2848],[-92.3025,47.111],[-92.4283,47.1112],[-92.4285,46.7648],[-92.3017,46.7641],[-92.3013,46.6669],[-92.2929,46.6635],[-92.2874,46.6673],[-92.2862,46.6603],[-92.2744,46.6574],[-92.2706,46.6507],[-92.2566,46.6587],[-92.2425,46.6492],[-92.2263,46.6528],[-92.2265,46.6703],[-92.2355,46.6703],[-92.2356,46.6762],[-92.2555,46.6723],[-92.2694,46.6907],[-92.2641,46.6864],[-92.2588,46.6898],[-92.2589,46.7025],[-92.2537,46.7025],[-92.2537,46.7097],[-92.2379,46.7062],[-92.238,46.7206],[-92.217,46.7208],[-92.2171,46.7497],[-92.2118,46.7497],[-92.2117,46.7568],[-92.217,46.7569],[-92.2168,46.7641],[-92.1747,46.7641],[-92.1748,46.8365],[-92.1853,46.8366],[-92.1887,46.83],[-92.1958,46.8313],[-92.1919,46.8366],[-92.2118,46.8367],[-92.2065,46.851],[-92.2012,46.851],[-92.2119,46.8619],[-92.196,46.8619],[-92.1959,46.851],[-92.176,46.851],[-92.1749,46.8655],[-92.1607,46.8619],[-92.1607,46.8656],[-92.1561,46.8619],[-92.164,46.8583],[-92.164,46.851],[-92.0901,46.851],[-92.0903,46.8655],[-92.0585,46.8656],[-92.0586,46.8765],[-92.048,46.8765],[-92.048,46.8656],[-91.9736,46.8658],[-91.9736,46.8731],[-91.9629,46.8731],[-91.9629,46.8804],[-91.9207,46.8807],[-91.9202,46.8715],[-91.8475,46.9071],[-91.8392,46.9152],[-91.8155,46.9146],[-91.7945,46.9288],[-91.7963,46.7948],[-91.5002,46.9133],[-90.6547,47.3098],[-89.9571,47.2911],[-89.4834,48.0137],[-89.5643,48.0029],[-89.581,47.9959],[-89.5855,48.0018],[-89.6081,48.0069],[-89.6107,48.0179],[-89.6184,48.0109],[-89.638,48.0091],[-89.6371,48.0041],[-89.6509,48.0036],[-89.662,48.0108],[-89.7024,48.0064],[-89.7161,48.0094],[-89.7162,48.0169],[-89.7242,48.0138],[-89.7195,48.0185],[-89.7237,48.0208],[-89.7754,48.0229],[-89.7968,48.0149],[-89.8199,48.0155],[-89.8313,47.9996],[-89.8448,48.0031],[-89.8425,47.9973],[-89.8472,47.9926],[-89.8682,47.9902],[-89.8719,47.9855],[-89.8955,47.9873],[-89.9221,47.9972],[-89.9346,48.0158],[-89.9506,48.0162],[-89.9531,48.0108],[-89.9938,48.0281],[-89.9981,48.0579],[-90.0087,48.0685],[-90.0148,48.0671],[-90.0233,48.0847],[-90.0741,48.1012],[-90.116,48.1042],[-90.1408,48.1126],[-90.2252,48.1082],[-90.2892,48.0991],[-90.31,48.1056],[-90.3301,48.1023],[-90.3443,48.0943],[-90.3743,48.0909],[-90.4032,48.1051],[-90.4385,48.0987],[-90.4674,48.1087],[-90.4867,48.0991],[-90.5567,48.0959],[-90.5697,48.1068],[-90.5555,48.1169],[-90.5591,48.1217],[-90.5797,48.1238],[-90.5913,48.1174],[-90.6271,48.1118],[-90.6415,48.1035],[-90.7516,48.091],[-90.7614,48.0984],[-90.7687,48.1166],[-90.7898,48.1301],[-90.7822,48.1359],[-90.7982,48.1369],[-90.7778,48.1483],[-90.7779,48.1638],[-90.7964,48.1592],[-90.8041,48.1778],[-90.8175,48.1794],[-90.821,48.1847],[-90.8258,48.1836],[-90.8247,48.1768],[-90.8325,48.1735],[-90.8364,48.177],[-90.8393,48.2396],[-90.8477,48.2445],[-90.8751,48.2378],[-90.8858,48.246],[-90.9151,48.2308],[-90.977,48.2196],[-91.0237,48.1904],[-91.0825,48.1812],[-91.1199,48.1607],[-91.1426,48.1546],[-91.1373,48.1493],[-91.1829,48.1222],[-91.1901,48.1251],[-91.2149,48.1029],[-91.2668,48.0788],[-91.3313,48.0696],[-91.34,48.0736],[-91.365,48.0671],[-91.3708,48.0697],[-91.3909,48.0572],[-91.4296,48.0487],[-91.4386,48.0503],[-91.45,48.0691],[-91.4882,48.0684],[-91.5675,48.0438],[-91.5755,48.0489],[-91.5754,48.0667],[-91.5694,48.0937],[-91.5528,48.1032],[-91.5591,48.1086],[-91.6399,48.0971],[-91.6531,48.1098],[-91.6518,48.114],[-91.6651,48.1071],[-91.6876,48.1119],[-91.6821,48.1225],[-91.7034,48.1137],[-91.7118,48.1146],[-91.6978,48.1416],[-91.7081,48.153],[-91.7048,48.1707],[-91.7244,48.1705],[-91.7104,48.1925],[-91.7154,48.1995],[-91.7421,48.2046],[-91.7415,48.1993],[-91.7484,48.1987],[-91.7559,48.206],[-91.7886,48.1963],[-91.7911,48.2025],[-91.8095,48.2063],[-91.8155,48.2118],[-91.8644,48.2069],[-91.8676,48.2192],[-91.8843,48.2274],[-91.8931,48.238],[-91.9149,48.2389],[-91.9421,48.2304],[-91.9584,48.2331],[-91.9583,48.2438],[-91.948,48.2459],[-91.9541,48.2523],[-91.97,48.2538],[-91.9756,48.2443],[-91.9892,48.2603],[-92.0065,48.2654],[-92.013,48.2974],[-92.0001,48.3211],[-92.0308,48.3257],[-92.0377,48.3331],[-92.0469,48.3348],[-92.0451,48.3457],[-92.0552,48.3594],[-92.0782,48.358],[-92.0836,48.3537],[-92.1437,48.356],[-92.1449,48.3657],[-92.1774,48.3571],[-92.1785,48.3518],[-92.1928,48.3487],[-92.2039,48.3518],[-92.2067,48.3456],[-92.217,48.345],[-92.2625,48.3549],[-92.2888,48.3428],[-92.2954,48.3239],[-92.3045,48.3228],[-92.3062,48.3162],[-92.2945,48.3062],[-92.3014,48.2883],[-92.2932,48.276],[-92.2946,48.2712],[-92.2736,48.2565],[-92.2696,48.2482],[-92.3366,48.2357],[-92.3699,48.2203],[-92.3873,48.2443],[-92.3859,48.2513],[-92.3924,48.2512],[-92.3892,48.2537],[-92.4156,48.2951],[-92.4367,48.3089],[-92.4698,48.3521],[-92.4765,48.3719],[-92.4564,48.4011],[-92.4564,48.4141],[-92.4755,48.4186],[-92.5075,48.448],[-92.6562,48.4365],[-92.6881,48.4437],[-92.7127,48.463],[-92.6987,48.4948],[-92.627,48.5033],[-92.6319,48.5067],[-92.6255,48.5179],[-92.6349,48.5426],[-92.6578,48.5462],[-92.7284,48.5394],[-92.8945,48.595],[-92.9101,48.5964],[-92.9296,48.6069],[-92.95,48.6083],[-92.9498,48.6303],[-92.9548,48.6315],[-92.9846,48.6238],[-93.0903,48.6278],[-93.1784,48.6233],[-93.2075,48.6425],[-93.2547,48.6428],[-93.3487,48.6265],[-93.3527,48.6135],[-93.362,48.614],[-93.3715,48.6059],[-93.3954,48.6038],[-93.4057,48.6098],[-93.4398,48.5937],[-93.4655,48.5916],[-93.4577,48.5597],[-93.4674,48.5465],[-93.5425,48.53],[-93.5762,48.527],[-93.5901,48.5304],[-93.6123,48.5224],[-93.6285,48.5319],[-93.6434,48.519],[-93.6593,48.5164],[-93.788,48.5158],[-93.8185,48.5314],[-93.811,48.5409],[-93.812,48.5503],[-93.8042,48.5702],[-93.8063,48.5795],[-93.8334,48.6256],[-93.8444,48.6302],[-93.953,48.6341],[-94.007,48.6433],[-94.0356,48.641],[-94.0659,48.6461],[-94.1261,48.6443],[-94.2242,48.6495],[-94.2509,48.6569],[-94.2547,48.6614],[-94.253,48.6863],[-94.2645,48.699],[-94.2829,48.7056],[-94.3088,48.7103],[-94.3431,48.7034],[-94.3841,48.7118],[-94.4158,48.711],[-94.4303,48.7009],[-94.4303,48.5119]]]},"properties":{"geoid":"27003","state":"27","district":"3","name":"State Senate District 3","chamber":"Senate"}},{"type":"Feature","geometry":{"type":"Polygon","coordinates":[[[-96.8401,47.1505],[-96.8286,47.1464],[-96.8346,47.1439],[-96.8263,47.1349],[-96.8304,47.1292],[-96.8207,47.1304],[-96.8258,47.1231],[-96.8376,47.122],[-96.8284,47.1208],[-96.8212,47.1158],[-96.8221,47.1089],[-96.8162,47.1085],[-96.821,47.1009],[-96.8173,47.0921],[-96.8264,47.0889],[-96.816,47.0885],[-96.8204,47.083],[-96.8158,47.079],[-96.8293,47.0746],[-96.8196,47.0753],[-96.8245,47.0715],[-96.8197,47.0617],[-96.8304,47.0608],[-96.8222,47.0595],[-96.8251,47.0556],[-96.8177,47.0523],[-96.8276,47.0463],[-96.8179,47.0471],[-96.8227,47.0369],[-96.8127,47.0386],[-96.8171,47.0333],[-96.8273,47.0321],[-96.8148,47.0244],[-96.8295,47.0216],[-96.8348,47.0174],[-96.8335,47.0101],[-96.8395,47.0067],[-96.821,47.0033],[-96.8195,46.9974],[-96.8239,46.9974],[-96.8223,46.9906],[-96.8264,46.9879],[-96.8201,46.9794],[-96.8227,46.97],[-96.8098,46.9638],[-96.8065,46.9676],[-96.795,46.9658],[-96.8038,46.9582],[-96.799,46.9511],[-96.8041,46.9469],[-96.7921,46.9459],[-96.7915,46.9277],[-96.7868,46.9302],[-96.7852,46.9244],[-96.7797,46.9283],[-96.7767,46.9257],[-96.7749,46.9305],[-96.7622,46.9349],[-96.7563,46.9286],[-96.7649,46.9269],[-96.7527,46.9235],[-96.7629,46.9235],[-96.7545,46.9144],[-96.7597,46.9164],[-96.7651,46.9054],[-96.7712,46.9063],[-96.7738,46.9036],[-96.7703,46.9007],[-96.776,46.898],[-96.7694,46.8926],[-96.7747,46.8894],[-96.7736,46.8847],[-96.7674,46.884],[-96.7692,46.8782],[-96.7813,46.8797],[-96.7761,46.8742],[-96.7817,46.8714],[-96.784,46.8617],[-96.7759,46.8546],[-96.7855,46.8534],[-96.7735,46.8517],[-96.7818,46.8456],[-96.7746,46.8396],[-96.7868,46.8412],[-96.7845,46.8333],[-96.794,46.8331],[-96.7801,46.8254],[-96.7924,46.8273],[-96.8028,46.8117],[-96.7957,46.8077],[-96.8029,46.8056],[-96.7956,46.8012],[-96.8021,46.7967],[-96.7949,46.7958],[-96.7962,46.7899],[-96.7871,46.7857],[-96.7968,46.777],[-96.7838,46.7782],[-96.7892,46.7712],[-96.7755,46.7668],[-96.7895,46.766],[-96.7779,46.7616],[-96.7864,46.7619],[-96.7829,46.7567],[-96.7898,46.7567],[-96.7829,46.7542],[-96.7894,46.752],[-96.7804,46.7455],[-96.7874,46.7431],[-96.7805,46.7418],[-96.7846,46.7319],[-96.7791,46.7266],[-96.7912,46.7189],[-96.7821,46.7169],[-96.7896,46.7096],[-96.7838,46.706],[-96.7912,46.7037],[-96.7842,46.7014],[-96.7906,46.6891],[-96.7841,46.6853],[-96.7948,46.6833],[-96.7875,46.6771],[-96.7991,46.6785],[-96.7989,46.674],[-96.7913,46.6724],[-96.795,46.6672],[-96.8022,46.6679],[-96.7952,46.6662],[-96.8,46.6611],[-96.7989,46.6541],[-96.7858,46.6405],[-96.7974,46.6288],[-96.1724,46.6306],[-96.1746,46.7179],[-95.7948,46.7165],[-95.7957,46.7694],[-95.7904,46.7694],[-95.7957,46.7791],[-95.7957,46.7746],[-95.7945,46.9773],[-96.066,46.9773],[-96.0671,47.1518],[-96.1947,47.1511],[-96.1971,47.0639],[-96.5634,47.0644],[-96.5641,47.1514],[-96.8401,47.1505]]]},"properties":{"geoid":"27004","state":"27","district":"4","name":"State Senate District 4","chamber":"Senate"}},{"type":"Feature","geometry":{"type":"Polygon","coordinates":[[[-95.7961,46.799],[-95.7957,46.7746],[-95.7957,46.7791],[-95.7905,46.7743],[-95.7904,46.7694],[-95.7957,46.7694],[-95.7948,46.7165],[-95.1637,46.7176],[-95.1634,46.6299],[-95.1555,46.6299],[-95.1543,46.2824],[-95.1458,46.2824],[-95.1463,45.9328],[-95.1388,45.9327],[-95.1397,45.7734],[-94.644,45.7739],[-94.6435,45.9324],[-94.6488,45.9335],[-94.6477,46.1941],[-94.3804,46.1945],[-94.3948,46.2094],[-94.3937,46.23],[-94.3877,46.239],[-94.3727,46.243],[-94.3553,46.2551],[-94.3548,46.2642],[-94.3389,46.2713],[-94.3408,46.2833],[-94.3325,46.2796],[-94.3273,46.2898],[-94.3309,46.6311],[-94.3454,46.6313],[-94.3429,46.8055],[-94.4075,46.8059],[-94.4057,46.9801],[-94.6636,46.9769],[-94.6639,47.1431],[-94.6676,47.1481],[-94.6839,47.1518],[-94.6843,47.2368],[-95.0461,47.2395],[-95.0459,47.1528],[-95.2973,47.1518],[-95.2967,46.9776],[-95.7945,46.9773],[-95.7961,46.799]]]},"properties":{"geoid":"27005","state":"27","district":"5","name":"State Senate District 5","chamber":"Senate"}},{"type":"Feature","geometry":{"type":"Polygon","coordinates":[[[-94.4076,46.8102],[-94.4075,46.8059],[-94.3429,46.8055],[-94.3454,46.6313],[-94.3309,46.6311],[-94.3273,46.2898],[-94.3196,46.2977],[-94.314,46.2962],[-94.3139,46.2436],[-94.1885,46.244],[-94.1888,46.3239],[-94.1776,46.3228],[-94.1812,46.3307],[-93.9371,46.3302],[-93.9371,46.2433],[-93.7963,46.2432],[-93.7982,46.2483],[-93.8066,46.2478],[-93.8108,46.2533],[-93.8115,46.5842],[-93.7779,46.5897],[-93.7753,47.0304],[-93.4439,47.0284],[-93.4488,47.196],[-93.4683,47.1959],[-93.4833,47.2092],[-93.4802,47.2174],[-93.485,47.2201],[-93.4747,47.2224],[-93.4885,47.2501],[-93.4832,47.2635],[-93.4984,47.2822],[-93.7023,47.2822],[-93.7026,47.257],[-93.7737,47.2544],[-93.774,47.2368],[-93.7983,47.2371],[-93.7987,47.222],[-93.8027,47.2333],[-93.8103,47.2341],[-93.8067,47.2372],[-93.9018,47.2381],[-93.9024,47.1512],[-94.0298,47.1534],[-94.0289,46.9773],[-94.4057,46.9801],[-94.4076,46.8102]]]},"properties":{"geoid":"27006","state":"27","district":"6","name":"State Senate District 6","chamber":"Senate"}},{"type":"Feature","geometry":{"type":"Polygon","coordinates":[[[-93.8008,47.4113],[-93.8002,47.3205],[-93.7958,47.3175],[-93.7754,47.3176],[-93.7796,47.3151],[-93.7739,47.3136],[-93.7738,47.3247],[-93.7604,47.3235],[-93.7656,47.3269],[-93.7081,47.326],[-93.7074,47.3186],[-93.702,47.3184],[-93.7033,47.2966],[-93.6983,47.2943],[-93.7023,47.2822],[-93.4984,47.2822],[-93.4832,47.2635],[-93.4885,47.2501],[-93.4747,47.2224],[-93.485,47.2201],[-93.4802,47.2174],[-93.4833,47.2092],[-93.4683,47.1959],[-93.4488,47.196],[-93.4492,47.1091],[-93.4454,47.1091],[-93.4443,47.0748],[-93.4439,47.0284],[-93.7753,47.0304],[-93.778,46.5949],[-93.0627,46.5933],[-93.0615,46.7666],[-92.8082,46.766],[-92.8064,46.9391],[-92.5546,46.9397],[-92.5548,46.853],[-92.4281,46.8513],[-92.4283,47.1112],[-92.3025,47.111],[-92.3032,47.2848],[-92.1752,47.2854],[-92.1745,47.4662],[-92.1811,47.5432],[-92.1829,47.7142],[-92.4381,47.7149],[-92.439,47.8019],[-92.8374,47.8081],[-93.0837,47.8065],[-93.082,47.7206],[-93.0615,47.7204],[-93.0687,47.4579],[-93.2795,47.4573],[-93.278,47.5443],[-93.7741,47.5443],[-93.7742,47.4113],[-93.8008,47.4113]]]},"properties":{"geoid":"27007","state":"27","district":"7","name":"State Senate District 7","chamber":"Senate"}},{"type":"Feature","geometry":{"type":"Polygon","coordinates":[[[-92.2694,46.6907],[-92.2555,46.6723],[-92.2356,46.6762],[-92.2355,46.6703],[-92.2265,46.6703],[-92.2263,46.6528],[-92.2124,46.6499],[-92.2023,46.655],[-92.2041,46.6669],[-92.1759,46.6865],[-92.183,46.6957],[-92.2052,46.6983],[-92.2047,46.704],[-92.1891,46.7175],[-92.1673,46.7199],[-92.1467,46.7158],[-92.1415,46.7253],[-92.1433,46.7346],[-92.1166,46.7486],[-92.0895,46.7492],[-92.034,46.7089],[-92.0203,46.704],[-91.9813,46.7231],[-91.7963,46.7948],[-91.7945,46.9288],[-91.8155,46.9146],[-91.8392,46.9152],[-91.8475,46.9071],[-91.9202,46.8715],[-91.9207,46.8807],[-91.9629,46.8804],[-91.9629,46.8731],[-91.9736,46.8731],[-91.9736,46.8658],[-92.048,46.8656],[-92.048,46.8765],[-92.0586,46.8765],[-92.0585,46.8656],[-92.0903,46.8655],[-92.0901,46.851],[-92.164,46.851],[-92.164,46.8583],[-92.1561,46.8619],[-92.1607,46.8656],[-92.1607,46.8619],[-92.1749,46.8655],[-92.176,46.851],[-92.1959,46.851],[-92.196,46.8619],[-92.2119,46.8619],[-92.2012,46.851],[-92.2065,46.851],[-92.2118,46.8367],[-92.1919,46.8366],[-92.1958,46.8313],[-92.1887,46.83],[-92.1853,46.8366],[-92.1748,46.8365],[-92.1747,46.7641],[-92.2168,46.7641],[-92.217,46.7569],[-92.2117,46.7568],[-92.2118,46.7497],[-92.2171,46.7497],[-92.217,46.7208],[-92.238,46.7206],[-92.2379,46.7062],[-92.2537,46.7097],[-92.2537,46.7025],[-92.2589,46.7025],[-92.2588,46.6898],[-92.2641,46.6864],[-92.2694,46.6907]]]},"properties":{"geoid":"27008","state":"27","district":"8","name":"State Senate District 8","chamber":"Senate"}},{"type":"Feature","geometry":{"type":"Polygon","coordinates":[[[-96.8568,45.6056],[-96.8355,45.5861],[-96.253,45.5855],[-96.254,45.7598],[-95.5099,45.7589],[-95.5099,45.9335],[-95.5058,45.9298],[-95.4956,45.9298],[-95.4948,45.9334],[-95.3954,45.9335],[-95.3953,45.9514],[-95.4152,45.9484],[-95.417,45.9526],[-95.4062,45.9669],[-95.4073,45.9733],[-95.4157,45.9776],[-95.3955,45.9769],[-95.3955,46.0202],[-95.271,46.0204],[-95.2716,46.1075],[-95.1459,46.1068],[-95.1458,46.2824],[-95.1543,46.2824],[-95.1549,46.3109],[-95.1555,46.6299],[-95.1634,46.6299],[-95.1637,46.7176],[-96.1746,46.7179],[-96.1724,46.6306],[-96.7849,46.6303],[-96.7913,46.625],[-96.7783,46.6254],[-96.7873,46.6194],[-96.7755,46.6212],[-96.7812,46.6154],[-96.7708,46.6153],[-96.7725,46.6093],[-96.7788,46.6075],[-96.7682,46.6063],[-96.7722,46.6038],[-96.7716,46.5962],[-96.756,46.5954],[-96.7626,46.5893],[-96.7508,46.5859],[-96.7609,46.5818],[-96.7472,46.5819],[-96.7575,46.5778],[-96.7558,46.5743],[-96.7466,46.5755],[-96.7528,46.5714],[-96.7454,46.5708],[-96.7474,46.5675],[-96.7418,46.564],[-96.752,46.5626],[-96.7468,46.5588],[-96.7544,46.5568],[-96.746,46.5561],[-96.7492,46.5496],[-96.7406,46.5468],[-96.7505,46.5441],[-96.7387,46.5432],[-96.7501,46.5408],[-96.7383,46.5393],[-96.7427,46.5381],[-96.738,46.5346],[-96.7462,46.5349],[-96.7421,46.5293],[-96.7453,46.525],[-96.7367,46.5241],[-96.7452,46.5202],[-96.7342,46.5121],[-96.7404,46.5111],[-96.7335,46.5035],[-96.7424,46.5],[-96.7334,46.497],[-96.737,46.4916],[-96.7341,46.4886],[-96.7397,46.4867],[-96.7325,46.4829],[-96.7389,46.4787],[-96.7336,46.4805],[-96.7236,46.4709],[-96.7146,46.4723],[-96.7231,46.4667],[-96.7132,46.4665],[-96.7187,46.4619],[-96.7116,46.4598],[-96.7176,46.4544],[-96.7131,46.4502],[-96.7217,46.4488],[-96.7133,46.4488],[-96.7164,46.4446],[-96.7123,46.4413],[-96.7219,46.4398],[-96.7154,46.434],[-96.7157,46.4373],[-96.7033,46.4373],[-96.7077,46.4298],[-96.6989,46.4264],[-96.7046,46.418],[-96.6933,46.4221],[-96.6922,46.4161],[-96.7015,46.4151],[-96.6854,46.4142],[-96.6891,46.4068],[-96.6805,46.4071],[-96.6725,46.3953],[-96.6751,46.391],[-96.6677,46.3912],[-96.671,46.3895],[-96.6671,46.3756],[-96.6578,46.3744],[-96.6604,46.3716],[-96.655,46.3659],[-96.6432,46.3619],[-96.6485,46.3581],[-96.6452,46.3507],[-96.6294,46.3543],[-96.6278,46.3494],[-96.6167,46.3474],[-96.6202,46.3402],[-96.5994,46.33],[-96.6061,46.3266],[-96.6,46.3268],[-96.6012,46.3195],[-96.5968,46.317],[-96.6036,46.3025],[-96.5973,46.2978],[-96.6058,46.2939],[-96.5962,46.291],[-96.602,46.2859],[-96.5949,46.2863],[-96.6005,46.2811],[-96.5953,46.2742],[-96.6004,46.2617],[-96.5929,46.2573],[-96.5923,46.2503],[-96.5837,46.2498],[-96.5987,46.2423],[-96.5958,46.2198],[-96.5884,46.2129],[-96.5911,46.2087],[-96.5838,46.2081],[-96.589,46.2049],[-96.5843,46.2041],[-96.5846,46.1975],[-96.5912,46.1957],[-96.5851,46.1946],[-96.5916,46.1847],[-96.5862,46.1818],[-96.5927,46.1752],[-96.5806,46.1773],[-96.5835,46.1727],[-96.5766,46.1739],[-96.5839,46.1706],[-96.5753,46.169],[-96.5806,46.1676],[-96.5763,46.1596],[-96.5803,46.1511],[-96.5687,46.1332],[-96.572,46.1246],[-96.5602,46.1166],[-96.5669,46.1148],[-96.5579,46.1025],[-96.5544,46.0841],[-96.5591,46.0585],[-96.5779,46.0272],[-96.5703,45.9636],[-96.5613,45.9457],[-96.564,45.9196],[-96.57,45.9135],[-96.5645,45.9095],[-96.5747,45.8668],[-96.5745,45.844],[-96.5837,45.8193],[-96.6278,45.7862],[-96.6395,45.7716],[-96.6419,45.7599],[-96.6626,45.7387],[-96.7451,45.7016],[-96.7609,45.6875],[-96.8386,45.6475],[-96.8568,45.6056]]]},"properties":{"geoid":"27009","state":"27","district":"9","name":"State Senate District 9","chamber":"Senate"}},{"type":"Feature","geometry":{"type":"Polygon","coordinates":[[[-94.6488,45.9339],[-94.6435,45.9324],[-94.644,45.7739],[-94.2718,45.7752],[-94.2728,45.7677],[-94.2642,45.7621],[-94.2667,45.7546],[-94.2597,45.7424],[-94.2374,45.7303],[-94.2152,45.7263],[-94.2145,45.7216],[-94.2239,45.7167],[-94.224,45.7117],[-94.2105,45.7019],[-94.203,45.6782],[-94.1827,45.6796],[-94.1974,45.6705],[-94.1973,45.6537],[-94.2039,45.6474],[-94.0086,45.6472],[-94.0069,45.5592],[-93.7594,45.5596],[-93.7605,45.6488],[-93.3889,45.6444],[-93.3895,45.9817],[-93.1813,45.981],[-93.179,46.1586],[-93.054,46.1583],[-93.0548,46.5932],[-93.778,46.5949],[-93.7781,46.5893],[-93.8115,46.5842],[-93.8108,46.2533],[-93.8066,46.2478],[-93.7982,46.2483],[-93.7963,46.2432],[-93.9371,46.2433],[-93.9371,46.3302],[-94.1812,46.3307],[-94.1776,46.3228],[-94.1888,46.3239],[-94.1885,46.244],[-94.3139,46.2436],[-94.314,46.2961],[-94.3191,46.2979],[-94.3325,46.2796],[-94.3408,46.2833],[-94.3389,46.2713],[-94.3548,46.2642],[-94.3553,46.2551],[-94.3727,46.243],[-94.3889,46.2382],[-94.3957,46.2119],[-94.3804,46.1945],[-94.6477,46.1941],[-94.6488,45.9339]]]},"properties":{"geoid":"27010","state":"27","district":"10","name":"State Senate District 10","chamber":"Senate"}},{"type":"Feature","geometry":{"type":"Polygon","coordinates":[[[-93.3895,45.939],[-93.389,45.7307],[-93.1418,45.7307],[-93.1418,45.6443],[-92.8881,45.6441],[-92.8701,45.6968],[-92.8692,45.7176],[-92.8098,45.7442],[-92.7846,45.7642],[-92.7765,45.79],[-92.7578,45.8066],[-92.7651,45.8302],[-92.74,45.8463],[-92.7382,45.862],[-92.7125,45.8917],[-92.6774,45.9058],[-92.6762,45.9121],[-92.6595,45.9229],[-92.6391,45.9246],[-92.6388,45.9342],[-92.6143,45.9345],[-92.5519,45.9517],[-92.5498,45.968],[-92.5271,45.9832],[-92.4698,45.9736],[-92.4616,45.9789],[-92.4645,45.985],[-92.4534,45.9929],[-92.4423,46.0162],[-92.4286,46.0242],[-92.4119,46.0275],[-92.3727,46.0142],[-92.3504,46.0164],[-92.3329,46.0627],[-92.294,46.0744],[-92.2916,46.6341],[-92.2923,46.6639],[-92.3013,46.6669],[-92.3017,46.7641],[-92.4285,46.7648],[-92.4281,46.8513],[-92.5548,46.853],[-92.5546,46.9397],[-92.6799,46.9421],[-92.8064,46.9391],[-92.8082,46.766],[-93.0615,46.7666],[-93.0627,46.5933],[-93.0548,46.5932],[-93.054,46.1583],[-93.179,46.1586],[-93.1813,45.981],[-93.3895,45.9817],[-93.3895,45.939]]]},"properties":{"geoid":"27011","state":"27","district":"11","name":"State Senate District 11","chamber":"Senate"}},{"type":"Feature","geometry":{"type":"Polygon","coordinates":[[[-96.8351,45.5861],[-96.7634,45.52],[-96.7327,45.4587],[-96.69,45.4155],[-96.6805,45.4105],[-96.6198,45.4089],[-96.5621,45.3861],[-96.5218,45.3756],[-96.4891,45.3571],[-96.4531,45.3008],[-96.4529,45.2689],[-96.4191,45.2678],[-96.4065,45.2564],[-96.3764,45.261],[-96.3381,45.256],[-96.3277,45.2501],[-96.3117,45.2519],[-96.3133,45.2474],[-96.2837,45.2471],[-96.2886,45.2381],[-96.2803,45.2361],[-96.2749,45.2227],[-96.2586,45.2236],[-96.2426,45.2177],[-96.2239,45.2208],[-96.2049,45.2057],[-96.1727,45.1927],[-96.1321,45.1919],[-96.1076,45.1832],[-96.0889,45.1674],[-96.0367,45.1521],[-95.2465,45.1524],[-95.2467,45.2387],[-95.2552,45.2387],[-95.2553,45.4127],[-94.6399,45.413],[-94.6397,45.4265],[-94.6452,45.4266],[-94.6453,45.4374],[-94.6399,45.4373],[-94.6389,45.5774],[-94.6441,45.5961],[-94.644,45.7739],[-95.1397,45.7734],[-95.1386,45.9257],[-95.1388,45.9327],[-95.1463,45.9328],[-95.1459,46.1068],[-95.2716,46.1075],[-95.271,46.0204],[-95.3955,46.0202],[-95.3955,45.9769],[-95.4157,45.9776],[-95.4073,45.9733],[-95.4062,45.9669],[-95.417,45.9526],[-95.4152,45.9484],[-95.3953,45.9514],[-95.3954,45.9335],[-95.4948,45.9334],[-95.4956,45.9298],[-95.5058,45.9298],[-95.5099,45.9335],[-95.5099,45.7589],[-96.254,45.7598],[-96.253,45.5855],[-96.8351,45.5861]]]},"properties":{"geoid":"27012","state":"27","district":"12","name":"State Senate District 12","chamber":"Senate"}},{"type":"Feature","geometry":{"type":"Polygon","coordinates":[[[-94.7632,45.3693],[-94.7631,45.3261],[-94.3836,45.3266],[-94.3834,45.2828],[-94.2608,45.2839],[-94.2615,45.2977],[-94.2551,45.2999],[-94.2571,45.306],[-94.2526,45.3083],[-94.1943,45.3189],[-94.1799,45.3132],[-94.1749,45.3021],[-94.1619,45.3012],[-94.1167,45.3281],[-94.1065,45.3399],[-94.0927,45.3425],[-94.0895,45.3466],[-94.096,45.3524],[-94.0814,45.3668],[-94.0859,45.3799],[-94.0666,45.3988],[-94.0689,45.4041],[-94.056,45.4161],[-94.0569,45.4208],[-94.048,45.4233],[-94.0522,45.4353],[-94.0639,45.4321],[-94.0694,45.4385],[-94.0803,45.4381],[-94.0815,45.4467],[-94.1019,45.4561],[-94.1133,45.4525],[-94.1166,45.4561],[-94.1382,45.4564],[-94.1382,45.413],[-94.2614,45.4141],[-94.2604,45.4991],[-94.2829,45.5166],[-94.3098,45.5296],[-94.2975,45.5372],[-94.3023,45.5439],[-94.3162,45.549],[-94.3189,45.5677],[-94.2964,45.5666],[-94.2703,45.5585],[-94.26,45.5611],[-94.2634,45.5903],[-94.1869,45.5845],[-94.1815,45.5887],[-94.1866,45.5888],[-94.1781,45.5901],[-94.1741,45.5888],[-94.1793,45.5861],[-94.1687,45.5861],[-94.1656,45.5742],[-94.1531,45.5737],[-94.1532,45.5776],[-94.1346,45.5738],[-94.1326,45.5846],[-94.1272,45.5848],[-94.1272,45.5957],[-94.1202,45.5867],[-94.1218,45.6031],[-94.1329,45.6001],[-94.1331,45.6066],[-94.1252,45.6039],[-94.1173,45.6073],[-94.1173,45.614],[-94.1336,45.6185],[-94.134,45.6473],[-94.2039,45.6474],[-94.1973,45.6537],[-94.1974,45.6705],[-94.1827,45.6796],[-94.203,45.6782],[-94.2105,45.7019],[-94.224,45.7117],[-94.2239,45.7167],[-94.2145,45.7216],[-94.2152,45.7263],[-94.2374,45.7303],[-94.2597,45.7424],[-94.2667,45.7546],[-94.2642,45.7621],[-94.2728,45.7677],[-94.2718,45.7752],[-94.644,45.7739],[-94.6441,45.5961],[-94.6389,45.5774],[-94.6399,45.4373],[-94.6453,45.4374],[-94.6452,45.4266],[-94.6397,45.4265],[-94.64,45.4123],[-94.7629,45.4129],[-94.7632,45.3693]]]},"properties":{"geoid":"27013","state":"27","district":"13","name":"State Senate District 13","chamber":"Senate"}},{"type":"Feature","geometry":{"type":"Polygon","coordinates":[[[-94.3189,45.5673],[-94.3162,45.549],[-94.3023,45.5439],[-94.2975,45.5372],[-94.3098,45.5296],[-94.2829,45.5166],[-94.2604,45.4991],[-94.2614,45.4141],[-94.1382,45.413],[-94.1382,45.4564],[-94.1073,45.4525],[-94.1019,45.4561],[-94.1003,45.4666],[-94.142,45.4932],[-94.1395,45.5164],[-94.1501,45.5314],[-94.1365,45.5351],[-94.1351,45.5301],[-94.1202,45.5301],[-94.124,45.5358],[-94.1097,45.5359],[-94.1097,45.5421],[-94.0875,45.5231],[-94.0479,45.5231],[-94.0429,45.5409],[-94.0482,45.5409],[-94.0483,45.5592],[-94.0069,45.5592],[-94.0086,45.6472],[-94.134,45.6473],[-94.1336,45.6185],[-94.1224,45.6185],[-94.1172,45.6091],[-94.1252,45.6039],[-94.1331,45.6066],[-94.1329,45.6001],[-94.1218,45.6031],[-94.1202,45.5867],[-94.1272,45.5957],[-94.1272,45.5848],[-94.1326,45.5846],[-94.1346,45.5738],[-94.1532,45.5776],[-94.1531,45.5737],[-94.1656,45.5742],[-94.1687,45.5861],[-94.1793,45.5861],[-94.1741,45.5888],[-94.1781,45.5901],[-94.1866,45.5888],[-94.1815,45.5887],[-94.1869,45.5845],[-94.2634,45.5903],[-94.26,45.5611],[-94.2703,45.5585],[-94.2964,45.5666],[-94.3189,45.5673]]]},"properties":{"geoid":"27014","state":"27","district":"14","name":"State Senate District 14","chamber":"Senate"}},{"type":"Feature","geometry":{"type":"Polygon","coordinates":[[[-96.4529,45.2689],[-96.4516,44.6313],[-96.0929,44.6305],[-96.0932,44.5437],[-96.0803,44.5434],[-96.0786,44.1966],[-95.101,44.1949],[-95.1002,44.108],[-94.2502,44.1084],[-94.2487,44.1413],[-94.2417,44.1415],[-94.2288,44.1413],[-94.2262,44.1234],[-94.1787,44.123],[-94.1813,44.1087],[-94.1281,44.1086],[-94.1291,44.1849],[-94.1432,44.194],[-94.1874,44.1972],[-94.1995,44.2028],[-94.2128,44.2006],[-94.223,44.2061],[-94.219,44.2136],[-94.2241,44.2168],[-94.2247,44.2116],[-94.2383,44.2095],[-94.2522,44.2151],[-94.2475,44.2199],[-94.2673,44.2238],[-94.269,44.2308],[-94.2735,44.2241],[-94.2803,44.2274],[-94.2765,44.2302],[-94.279,44.2328],[-94.2866,44.2281],[-94.2853,44.2331],[-94.2916,44.24],[-94.2972,44.2337],[-94.3,44.2426],[-94.3084,44.2424],[-94.311,44.2471],[-94.3115,44.2428],[-94.3197,44.2434],[-94.3203,44.251],[-94.3237,44.2469],[-94.3359,44.2564],[-94.344,44.2524],[-94.3424,44.2578],[-94.3558,44.2616],[-94.3599,44.2569],[-94.3605,44.262],[-94.3751,44.2664],[-94.3807,44.2613],[-94.3847,44.2665],[-94.4121,44.2736],[-94.4142,44.287],[-94.4322,44.2933],[-94.4249,44.2994],[-94.4323,44.2963],[-94.4416,44.3064],[-94.4322,44.3118],[-94.4431,44.3086],[-94.4518,44.3166],[-94.4517,44.3333],[-94.4624,44.3327],[-94.4828,44.345],[-94.4913,44.3512],[-94.492,44.36],[-94.4992,44.3608],[-94.4963,44.3545],[-94.501,44.3522],[-94.5018,44.3575],[-94.5092,44.3552],[-94.52,44.3596],[-94.5182,44.3703],[-94.523,44.3654],[-94.5462,44.3645],[-94.5557,44.3759],[-94.5585,44.3714],[-94.5655,44.3768],[-94.5781,44.3714],[-94.5822,44.378],[-94.5866,44.3738],[-94.5933,44.3771],[-94.5971,44.3854],[-94.6231,44.3822],[-94.6277,44.3913],[-94.6417,44.3904],[-94.6401,44.3967],[-94.6552,44.3931],[-94.6551,44.4006],[-94.6661,44.394],[-94.6768,44.3966],[-94.6699,44.4031],[-94.6792,44.409],[-94.694,44.4024],[-94.6971,44.4091],[-94.6848,44.4108],[-94.6896,44.4175],[-94.6965,44.4164],[-94.694,44.4111],[-94.7013,44.4118],[-94.6987,44.4137],[-94.7028,44.4166],[-94.6952,44.4284],[-94.7079,44.4345],[-94.7267,44.4339],[-94.7313,44.4417],[-94.7484,44.4496],[-94.7664,44.4427],[-94.7862,44.4511],[-94.781,44.4575],[-94.7905,44.4564],[-94.8056,44.4655],[-94.7977,44.4691],[-94.8099,44.4712],[-94.8112,44.4816],[-94.8176,44.4794],[-94.8149,44.4845],[-94.8276,44.483],[-94.8322,44.4891],[-94.8454,44.4925],[-94.8538,44.4898],[-94.8521,44.4955],[-94.8731,44.4989],[-94.8736,44.5056],[-94.8796,44.5064],[-94.8808,44.517],[-94.8902,44.5122],[-94.8976,44.5208],[-94.9204,44.5166],[-94.9296,44.5245],[-94.9379,44.5236],[-94.9379,44.5304],[-94.944,44.5258],[-94.9681,44.5331],[-94.9696,44.5403],[-94.9771,44.5354],[-94.9754,44.5405],[-94.9842,44.5398],[-94.9821,44.5422],[-94.9878,44.5421],[-94.9888,44.5464],[-95.0167,44.5429],[-95.012,44.5501],[-95.0241,44.5458],[-95.0258,44.5532],[-95.0294,44.5505],[-95.0328,44.5571],[-95.0496,44.5582],[-95.0676,44.572],[-95.0982,44.572],[-95.0884,44.5794],[-95.1002,44.5784],[-95.1041,44.5872],[-95.115,44.5893],[-95.1186,44.5953],[-95.132,44.5959],[-95.1509,44.6154],[-95.1856,44.624],[-95.2442,44.6671],[-95.2669,44.6593],[-95.2934,44.6608],[-95.3121,44.6758],[-95.3106,44.6872],[-95.3144,44.692],[-95.3782,44.7031],[-95.3821,44.7057],[-95.3797,44.7113],[-95.3985,44.714],[-95.4018,44.7197],[-95.3975,44.7243],[-95.4159,44.7345],[-95.421,44.7314],[-95.4278,44.7393],[-95.4416,44.7436],[-95.4581,44.7409],[-95.4772,44.7561],[-95.49,44.7514],[-95.4895,44.7641],[-95.5049,44.7729],[-95.5097,44.7654],[-95.5156,44.7666],[-95.5163,44.7717],[-95.5292,44.7708],[-95.5306,44.7745],[-95.5224,44.7758],[-95.5255,44.7831],[-95.4976,44.7888],[-95.5237,44.8048],[-95.4934,44.7888],[-95.4831,44.789],[-95.4832,44.8037],[-95.4985,44.8036],[-95.4984,44.8109],[-95.5183,44.8111],[-95.5343,44.8222],[-95.5459,44.8198],[-95.5546,44.8262],[-95.5641,44.8262],[-95.5736,44.8403],[-95.6005,44.8432],[-95.5966,44.8485],[-95.6004,44.8509],[-95.6153,44.8507],[-95.6146,44.8596],[-95.6198,44.8667],[-95.6332,44.8781],[-95.6364,44.8734],[-95.6419,44.8745],[-95.6546,44.8851],[-95.6485,44.8872],[-95.6502,44.891],[-95.6575,44.8891],[-95.674,44.8971],[-95.6715,44.9031],[-95.6791,44.9086],[-95.6841,44.9095],[-95.6802,44.9073],[-95.6889,44.902],[-95.721,44.9072],[-95.7192,44.9214],[-95.7336,44.9348],[-95.7448,44.9387],[-95.7412,44.9397],[-95.7441,44.9446],[-95.7495,44.9407],[-95.7578,44.9469],[-95.7555,44.9418],[-95.766,44.942],[-95.7607,44.9428],[-95.7691,44.948],[-95.7762,44.9422],[-95.7864,44.9489],[-95.8043,44.9492],[-95.8107,44.9536],[-95.8069,44.9548],[-95.811,44.9615],[-95.8231,44.9647],[-95.8203,44.9684],[-95.824,44.9693],[-95.8244,44.9863],[-95.8311,44.9897],[-95.8254,44.9919],[-95.8324,44.9912],[-95.8304,44.995],[-95.8361,44.9949],[-95.8333,44.998],[-95.8381,44.9963],[-95.8607,45.0074],[-95.8702,45.0248],[-95.8802,45.0237],[-95.8775,45.0261],[-95.8845,45.0293],[-95.882,45.0332],[-95.8948,45.0365],[-95.9803,45.0975],[-95.9929,45.1108],[-96.0003,45.1122],[-96,45.1195],[-96.0125,45.1237],[-96.0415,45.1561],[-96.0559,45.1564],[-96.0745,45.1659],[-96.0889,45.1674],[-96.1076,45.1832],[-96.1321,45.1919],[-96.1727,45.1927],[-96.2049,45.2057],[-96.2239,45.2208],[-96.2426,45.2177],[-96.2586,45.2236],[-96.2749,45.2227],[-96.2803,45.2361],[-96.2888,45.2387],[-96.2833,45.2468],[-96.2914,45.2492],[-96.3133,45.2474],[-96.3117,45.2519],[-96.3277,45.2501],[-96.3381,45.256],[-96.3764,45.261],[-96.4065,45.2564],[-96.4191,45.2678],[-96.4529,45.2689]]]},"properties":{"geoid":"27015","state":"27","district":"15","name":"State Senate District 15","chamber":"Senate"}},{"type":"Feature","geometry":{"type":"Polygon","coordinates":[[[-96.037,45.1511],[-96.0125,45.1237],[-96,45.1195],[-96.0003,45.1122],[-95.9929,45.1108],[-95.9803,45.0975],[-95.8948,45.0365],[-95.882,45.0332],[-95.8845,45.0293],[-95.8775,45.0261],[-95.8802,45.0237],[-95.8702,45.0248],[-95.8607,45.0074],[-95.8381,44.9963],[-95.8333,44.998],[-95.8361,44.9949],[-95.8304,44.995],[-95.8324,44.9912],[-95.8254,44.9919],[-95.8311,44.9897],[-95.8244,44.9863],[-95.824,44.9693],[-95.8203,44.9684],[-95.8231,44.9647],[-95.811,44.9615],[-95.8069,44.9548],[-95.8107,44.9536],[-95.8043,44.9492],[-95.7864,44.9489],[-95.7762,44.9422],[-95.7691,44.948],[-95.7607,44.9428],[-95.766,44.942],[-95.7555,44.9418],[-95.7578,44.9469],[-95.7495,44.9407],[-95.7441,44.9446],[-95.7412,44.9397],[-95.7448,44.9387],[-95.7336,44.9348],[-95.7192,44.9214],[-95.721,44.9072],[-95.6889,44.902],[-95.6802,44.9073],[-95.6841,44.9095],[-95.6791,44.9086],[-95.6715,44.9031],[-95.674,44.8971],[-95.6575,44.8891],[-95.6502,44.891],[-95.6485,44.8872],[-95.6546,44.8851],[-95.6419,44.8745],[-95.6364,44.8734],[-95.6332,44.8781],[-95.6198,44.8667],[-95.6146,44.8596],[-95.6153,44.8507],[-95.6004,44.8509],[-95.5966,44.8485],[-95.6005,44.8432],[-95.5736,44.8403],[-95.5641,44.8262],[-95.5546,44.8262],[-95.5459,44.8198],[-95.5343,44.8222],[-95.5183,44.8111],[-95.4984,44.8109],[-95.4985,44.8036],[-95.4832,44.8037],[-95.4831,44.789],[-95.4934,44.7888],[-95.5237,44.8048],[-95.4976,44.7888],[-95.5255,44.7831],[-95.5224,44.7758],[-95.5308,44.774],[-95.5254,44.7695],[-95.5163,44.7717],[-95.5116,44.7653],[-95.5057,44.7729],[-95.4951,44.7697],[-95.4895,44.7639],[-95.49,44.7514],[-95.4772,44.7561],[-95.4581,44.7409],[-95.4416,44.7436],[-95.4278,44.7393],[-95.421,44.7314],[-95.4159,44.7345],[-95.3975,44.7243],[-95.4018,44.7197],[-95.3985,44.714],[-95.3799,44.7114],[-95.3821,44.7057],[-95.3742,44.7017],[-95.3144,44.692],[-95.3106,44.6872],[-95.3121,44.6758],[-95.2934,44.6608],[-95.2669,44.6593],[-95.2442,44.6671],[-95.1856,44.624],[-95.1509,44.6154],[-95.132,44.5959],[-95.1186,44.5953],[-95.115,44.5893],[-95.1041,44.5872],[-95.1002,44.5784],[-95.0884,44.5794],[-95.0982,44.572],[-95.0676,44.572],[-95.0496,44.5582],[-95.0328,44.5571],[-95.0294,44.5505],[-95.0258,44.5532],[-95.0241,44.5458],[-95.012,44.5501],[-95.0167,44.5429],[-94.9888,44.5464],[-94.9878,44.5421],[-94.9821,44.5422],[-94.9842,44.5398],[-94.9754,44.5405],[-94.9771,44.5354],[-94.9696,44.5403],[-94.9681,44.5331],[-94.944,44.5258],[-94.9379,44.5304],[-94.9379,44.5236],[-94.9296,44.5245],[-94.9204,44.5166],[-94.8976,44.5208],[-94.8902,44.5122],[-94.8808,44.517],[-94.8736,44.4992],[-94.8521,44.4955],[-94.8538,44.4898],[-94.8454,44.4925],[-94.8322,44.4891],[-94.8276,44.483],[-94.8149,44.4845],[-94.8176,44.4794],[-94.8112,44.4816],[-94.8099,44.4712],[-94.7977,44.4689],[-94.8062,44.466],[-94.7905,44.4564],[-94.6242,44.456],[-94.6243,44.5421],[-94.6293,44.5423],[-94.6295,44.7167],[-94.4981,44.7172],[-94.5024,45.1206],[-94.4881,45.1176],[-94.488,45.1211],[-94.4953,45.1228],[-94.4924,45.1273],[-94.5025,45.1273],[-94.5013,45.2389],[-94.3833,45.2389],[-94.3836,45.3266],[-94.7631,45.3261],[-94.7629,45.4129],[-95.2553,45.4127],[-95.2552,45.2387],[-95.2467,45.2387],[-95.2465,45.1524],[-96.037,45.1511]]]},"properties":{"geoid":"27016","state":"27","district":"16","name":"State Senate District 16","chamber":"Senate"}},{"type":"Feature","geometry":{"type":"Polygon","coordinates":[[[-94.6295,44.7167],[-94.6293,44.5423],[-94.6243,44.5421],[-94.6242,44.456],[-93.9295,44.4566],[-93.9228,44.4587],[-93.924,44.463],[-93.9168,44.4626],[-93.9268,44.4703],[-93.9212,44.4743],[-93.9073,44.4724],[-93.9032,44.4893],[-93.8915,44.4974],[-93.8965,44.5009],[-93.887,44.5053],[-93.8879,44.5262],[-93.901,44.5295],[-93.9028,44.5382],[-93.9122,44.5381],[-93.9113,44.5465],[-93.9047,44.552],[-93.8996,44.5514],[-93.8986,44.5447],[-93.8912,44.547],[-93.8924,44.5529],[-93.9003,44.5554],[-93.8911,44.5666],[-93.9014,44.5709],[-93.8942,44.5751],[-93.8927,44.585],[-93.9025,44.5876],[-93.8901,44.5968],[-93.8824,44.5962],[-93.8819,44.6008],[-93.8766,44.6005],[-93.8779,44.6057],[-93.8689,44.6024],[-93.8613,44.6054],[-93.8541,44.6171],[-93.8577,44.6211],[-93.8426,44.6175],[-93.8444,44.6257],[-93.8365,44.6185],[-93.8147,44.6333],[-93.7976,44.6347],[-93.7909,44.6286],[-93.7742,44.6378],[-93.7725,44.6303],[-93.7637,44.6341],[-93.7702,44.6401],[-93.7548,44.636],[-93.7595,44.6439],[-93.7382,44.646],[-93.7269,44.657],[-93.7184,44.6553],[-93.7151,44.6587],[-93.7214,44.6636],[-93.6977,44.6698],[-93.6752,44.6926],[-93.6615,44.6961],[-93.6552,44.6901],[-93.6294,44.6982],[-93.6292,44.7026],[-93.6178,44.7078],[-93.6262,44.7156],[-93.6256,44.7236],[-93.6327,44.7241],[-93.6285,44.7322],[-93.6314,44.7387],[-93.6206,44.7538],[-93.6139,44.7489],[-93.6085,44.754],[-93.6219,44.7625],[-93.6014,44.7693],[-93.5943,44.7762],[-93.6425,44.7765],[-93.6421,44.8054],[-93.7676,44.8038],[-93.7681,44.717],[-93.8886,44.717],[-93.8882,44.8773],[-93.8984,44.8773],[-93.9033,44.8844],[-93.9141,44.8865],[-93.9089,44.8865],[-93.909,44.8914],[-93.8745,44.8954],[-93.8643,44.8954],[-93.8643,44.8912],[-93.7684,44.8909],[-93.7675,44.9776],[-94.1343,44.9788],[-94.1346,45.1522],[-94.379,45.1524],[-94.3784,45.2385],[-94.5013,45.2389],[-94.5025,45.1273],[-94.4924,45.1273],[-94.4953,45.1228],[-94.488,45.1211],[-94.4881,45.1176],[-94.5024,45.1206],[-94.4981,44.7172],[-94.6295,44.7167]]]},"properties":{"geoid":"27017","state":"27","district":"17","name":"State Senate District 17","chamber":"Senate"}},{"type":"Feature","geometry":{"type":"Polygon","coordinates":[[[-94.7867,44.4521],[-94.7664,44.4427],[-94.7486,44.4497],[-94.7313,44.4417],[-94.7267,44.4339],[-94.7059,44.4338],[-94.6943,44.4259],[-94.7028,44.4166],[-94.6987,44.4137],[-94.7013,44.4118],[-94.6937,44.4113],[-94.6938,44.4176],[-94.6852,44.4124],[-94.6886,44.408],[-94.6971,44.4091],[-94.6946,44.4027],[-94.6764,44.4083],[-94.6699,44.4031],[-94.6764,44.3964],[-94.6661,44.394],[-94.6549,44.4006],[-94.6552,44.3931],[-94.6395,44.3966],[-94.6417,44.3904],[-94.6277,44.3913],[-94.6231,44.3822],[-94.5971,44.3854],[-94.5933,44.3771],[-94.5866,44.3738],[-94.5822,44.378],[-94.5781,44.3714],[-94.5649,44.3768],[-94.5585,44.3714],[-94.5553,44.3758],[-94.5462,44.3645],[-94.523,44.3654],[-94.5182,44.3703],[-94.52,44.3596],[-94.5092,44.3552],[-94.5018,44.3575],[-94.501,44.3522],[-94.4963,44.3545],[-94.4995,44.3605],[-94.4939,44.3609],[-94.4913,44.3512],[-94.4828,44.345],[-94.4624,44.3327],[-94.4517,44.3333],[-94.4518,44.3166],[-94.4431,44.3086],[-94.4322,44.3118],[-94.4416,44.3064],[-94.4323,44.2963],[-94.4249,44.2994],[-94.4322,44.2933],[-94.4142,44.287],[-94.4121,44.2736],[-94.3847,44.2665],[-94.3807,44.2613],[-94.3751,44.2664],[-94.3605,44.262],[-94.3599,44.2569],[-94.3558,44.2616],[-94.3424,44.2578],[-94.344,44.2524],[-94.3359,44.2564],[-94.3237,44.2469],[-94.3203,44.251],[-94.3197,44.2434],[-94.3115,44.2428],[-94.311,44.2471],[-94.3084,44.2424],[-94.3,44.2426],[-94.2972,44.2337],[-94.2916,44.24],[-94.2853,44.2331],[-94.2866,44.2281],[-94.279,44.2328],[-94.2765,44.2302],[-94.2803,44.2274],[-94.2735,44.2241],[-94.269,44.2308],[-94.2673,44.2238],[-94.2475,44.2199],[-94.2522,44.2151],[-94.2383,44.2095],[-94.2247,44.2116],[-94.2241,44.2168],[-94.219,44.2136],[-94.223,44.2061],[-94.2128,44.2006],[-94.1995,44.2028],[-94.1874,44.1972],[-94.1422,44.1937],[-94.1249,44.1841],[-94.1249,44.1798],[-94.1112,44.1795],[-94.109,44.174],[-94.1153,44.176],[-94.1137,44.1734],[-94.0995,44.1753],[-94.1044,44.1699],[-94.0927,44.1681],[-94.0845,44.1608],[-94.073,44.1585],[-94.0614,44.1627],[-94.0542,44.1539],[-94.0351,44.1574],[-94.0323,44.1496],[-94.0431,44.1459],[-94.0392,44.1373],[-94.0453,44.134],[-94.0431,44.1283],[-94.0292,44.1389],[-94.0289,44.1321],[-94.0203,44.129],[-94.0188,44.1229],[-93.9892,44.1233],[-93.9892,44.1305],[-93.9791,44.1306],[-93.9791,44.1378],[-93.9639,44.1379],[-93.9586,44.1329],[-93.9541,44.1451],[-93.9238,44.1452],[-93.8891,44.1376],[-93.8887,44.1524],[-93.8786,44.1523],[-93.8786,44.148],[-93.8732,44.1467],[-93.8736,44.1627],[-93.8686,44.1614],[-93.8686,44.174],[-93.8886,44.1714],[-93.8885,44.2394],[-93.9591,44.2394],[-93.959,44.2733],[-93.955,44.2898],[-93.9475,44.2902],[-93.9549,44.2901],[-93.9598,44.3073],[-93.9508,44.3204],[-93.9508,44.3288],[-93.9436,44.3313],[-93.9452,44.339],[-93.9365,44.3392],[-93.9327,44.3449],[-93.9394,44.3527],[-93.9557,44.3585],[-93.953,44.3662],[-93.9617,44.3641],[-93.9624,44.3704],[-93.955,44.375],[-93.9633,44.3832],[-93.9523,44.3862],[-93.9658,44.3906],[-93.95,44.3936],[-93.9542,44.4094],[-93.9397,44.4128],[-93.9279,44.4445],[-93.9335,44.4508],[-93.9285,44.4566],[-94.7806,44.4567],[-94.7867,44.4521]]]},"properties":{"geoid":"27018","state":"27","district":"18","name":"State Senate District 18","chamber":"Senate"}},{"type":"Feature","geometry":{"type":"Polygon","coordinates":[[[-93.7684,44.0799],[-93.7682,44.0221],[-93.0459,44.0228],[-93.0459,44.1967],[-92.7912,44.1965],[-92.7908,44.2906],[-92.7814,44.2914],[-92.7861,44.2978],[-92.7669,44.2976],[-92.7669,44.3018],[-92.7816,44.3051],[-92.7818,44.3122],[-92.7907,44.3123],[-92.7906,44.3699],[-93.5247,44.3703],[-93.5255,44.1961],[-93.768,44.1958],[-93.7684,44.0799]]]},"properties":{"geoid":"27019","state":"27","district":"19","name":"State Senate District 19","chamber":"Senate"}},{"type":"Feature","geometry":{"type":"Polygon","coordinates":[[[-92.9208,44.5133],[-92.9192,44.3706],[-92.7906,44.3699],[-92.7907,44.3123],[-92.7818,44.3122],[-92.7816,44.3051],[-92.7669,44.3018],[-92.7669,44.2976],[-92.7861,44.2978],[-92.7814,44.2914],[-92.7908,44.2906],[-92.7912,44.1965],[-92.6787,44.1955],[-92.6783,44.1083],[-92.5583,44.1083],[-92.5582,44.1731],[-92.5435,44.1731],[-92.5435,44.1767],[-92.5592,44.1752],[-92.562,44.1811],[-92.5484,44.181],[-92.5456,44.183],[-92.5559,44.1839],[-92.5558,44.1875],[-92.5485,44.1875],[-92.5485,44.1949],[-92.541,44.1949],[-92.4384,44.1945],[-92.4387,44.108],[-92.319,44.1077],[-92.3189,44.021],[-92.3991,44.0214],[-92.3944,44.0118],[-92.3889,44.0104],[-92.3889,44.0069],[-92.3989,44.007],[-92.3989,43.988],[-92.3938,43.9889],[-92.3988,43.9853],[-92.3929,43.9826],[-92.3906,43.9729],[-92.3988,43.9733],[-92.3972,43.9782],[-92.404,43.9817],[-92.4188,43.9782],[-92.4188,43.9737],[-92.4288,43.9749],[-92.4288,43.9818],[-92.4386,43.9782],[-92.4385,43.9565],[-92.4288,43.9493],[-92.4337,43.9493],[-92.4316,43.9446],[-92.4384,43.9457],[-92.4385,43.8482],[-91.9593,43.847],[-91.9594,43.9699],[-91.9395,43.97],[-91.9396,43.9844],[-91.9593,43.9844],[-91.9594,44.0204],[-91.839,44.0203],[-91.8388,44.1825],[-91.8752,44.2006],[-91.8774,44.2129],[-91.8927,44.2311],[-91.887,44.2518],[-91.896,44.2629],[-91.8964,44.2747],[-91.9246,44.2918],[-91.9135,44.3114],[-91.9256,44.3335],[-91.9413,44.341],[-91.9702,44.3658],[-92.0381,44.3887],[-92.0565,44.4027],[-92.0786,44.4049],[-92.1245,44.4221],[-92.1954,44.4338],[-92.2309,44.4445],[-92.291,44.4855],[-92.3022,44.5003],[-92.303,44.5186],[-92.3141,44.538],[-92.3327,44.5526],[-92.3615,44.5589],[-92.4157,44.5605],[-92.4386,44.5526],[-92.4589,44.5627],[-92.481,44.5684],[-92.4937,44.5661],[-92.5192,44.5753],[-92.5472,44.5675],[-92.5515,44.5715],[-92.55,44.5815],[-92.5678,44.6025],[-92.5772,44.605],[-92.5862,44.6001],[-92.6016,44.612],[-92.6198,44.6136],[-92.6236,44.6192],[-92.6218,44.639],[-92.632,44.6492],[-92.661,44.6609],[-92.732,44.7143],[-92.732,44.6295],[-92.9137,44.6301],[-92.9138,44.5434],[-92.919,44.5432],[-92.9208,44.5133]]]},"properties":{"geoid":"27020","state":"27","district":"20","name":"State Senate District 20","chamber":"Senate"}},{"type":"Feature","geometry":{"type":"Polygon","coordinates":[[[-96.4535,43.9064],[-96.4533,43.5004],[-94.8588,43.5006],[-94.8546,43.5009],[-94.8546,43.6748],[-94.6147,43.6774],[-94.6144,43.8482],[-94.6194,43.8482],[-94.6195,43.9684],[-94.6089,43.9715],[-94.617,43.9715],[-94.6195,43.9787],[-94.6079,43.9767],[-94.6061,43.9826],[-94.6118,43.986],[-94.5995,43.9933],[-94.6195,43.9905],[-94.6196,44.109],[-95.1002,44.108],[-95.101,44.1949],[-96.0786,44.1966],[-96.0803,44.5434],[-96.0932,44.5437],[-96.0929,44.6305],[-96.4516,44.6313],[-96.4535,43.9064]]]},"properties":{"geoid":"27021","state":"27","district":"21","name":"State Senate District 21","chamber":"Senate"}},{"type":"Feature","geometry":{"type":"Polygon","coordinates":[[[-94.8547,43.5735],[-94.8546,43.5009],[-94.1281,43.5001],[-94.1279,43.5868],[-94.008,43.5868],[-94.0065,43.8481],[-93.7678,43.848],[-93.768,44.1958],[-93.5255,44.1961],[-93.5247,44.3703],[-93.4031,44.3705],[-93.4025,44.4573],[-93.5245,44.4571],[-93.5243,44.5436],[-93.6458,44.5439],[-93.6441,44.6441],[-93.6542,44.645],[-93.6545,44.6521],[-93.6444,44.6523],[-93.6445,44.6741],[-93.6547,44.6741],[-93.6545,44.6816],[-93.6442,44.6816],[-93.6467,44.6955],[-93.6552,44.6901],[-93.6615,44.6961],[-93.6752,44.6926],[-93.6977,44.6698],[-93.7214,44.6636],[-93.7151,44.6587],[-93.7184,44.6553],[-93.7269,44.657],[-93.7382,44.646],[-93.7595,44.6439],[-93.7548,44.636],[-93.7702,44.6401],[-93.7637,44.6341],[-93.7725,44.6303],[-93.7742,44.6378],[-93.7909,44.6286],[-93.8031,44.6346],[-93.8155,44.633],[-93.8365,44.6185],[-93.8444,44.6257],[-93.8426,44.6175],[-93.8485,44.6218],[-93.8584,44.6208],[-93.8539,44.6179],[-93.8613,44.6054],[-93.8689,44.6024],[-93.8779,44.6057],[-93.8766,44.6005],[-93.9028,44.5871],[-93.8927,44.585],[-93.8942,44.5751],[-93.9014,44.5709],[-93.8911,44.5666],[-93.9003,44.5554],[-93.8924,44.5529],[-93.8912,44.547],[-93.8986,44.5447],[-93.8996,44.5514],[-93.9047,44.552],[-93.9113,44.5465],[-93.9122,44.5381],[-93.9028,44.5382],[-93.901,44.5295],[-93.8879,44.5262],[-93.8871,44.5048],[-93.8965,44.5009],[-93.8915,44.4974],[-93.9032,44.4893],[-93.9073,44.4724],[-93.9212,44.4743],[-93.9268,44.4703],[-93.9168,44.4626],[-93.924,44.463],[-93.9228,44.4587],[-93.9334,44.4514],[-93.9279,44.4445],[-93.9397,44.4128],[-93.9541,44.4096],[-93.9504,44.3931],[-93.9658,44.3905],[-93.9523,44.3862],[-93.9633,44.3832],[-93.955,44.375],[-93.9624,44.3704],[-93.9617,44.3641],[-93.953,44.3662],[-93.9557,44.3585],[-93.9394,44.3527],[-93.9327,44.3449],[-93.9365,44.3392],[-93.9452,44.339],[-93.9436,44.3313],[-93.9508,44.3288],[-93.9508,44.3204],[-93.9598,44.3073],[-93.9549,44.2901],[-93.9475,44.2902],[-93.955,44.2898],[-93.959,44.2733],[-93.9591,44.2394],[-93.8885,44.2394],[-93.8886,44.1714],[-93.8686,44.174],[-93.8686,44.1614],[-93.8736,44.1627],[-93.8732,44.1467],[-93.8786,44.148],[-93.8786,44.1523],[-93.8887,44.1524],[-93.8891,44.1376],[-93.9238,44.1452],[-93.9541,44.1451],[-93.9586,44.1329],[-93.9639,44.1379],[-93.9791,44.1378],[-93.9791,44.1306],[-93.9892,44.1305],[-93.9892,44.1233],[-94.0188,44.1229],[-94.0203,44.129],[-94.0289,44.1321],[-94.0292,44.1389],[-94.0426,44.1285],[-94.0456,44.1318],[-94.0392,44.1373],[-94.0431,44.1459],[-94.0327,44.1483],[-94.0351,44.1574],[-94.0542,44.1539],[-94.0614,44.1627],[-94.073,44.1585],[-94.0845,44.1608],[-94.0927,44.1681],[-94.1044,44.1699],[-94.0995,44.1753],[-94.1137,44.1734],[-94.1153,44.176],[-94.109,44.174],[-94.1112,44.1795],[-94.1247,44.1797],[-94.1291,44.1849],[-94.1281,44.1086],[-94.1813,44.1087],[-94.1787,44.123],[-94.2262,44.1234],[-94.2288,44.1413],[-94.2417,44.1415],[-94.2487,44.1413],[-94.2502,44.1084],[-94.6196,44.109],[-94.6195,43.9905],[-94.5995,43.9933],[-94.6118,43.986],[-94.6061,43.9826],[-94.6079,43.9767],[-94.6195,43.9787],[-94.617,43.9715],[-94.6089,43.9715],[-94.6195,43.9684],[-94.6194,43.8482],[-94.6144,43.8482],[-94.6147,43.6774],[-94.8546,43.6748],[-94.8547,43.5735]]]},"properties":{"geoid":"27022","state":"27","district":"22","name":"State Senate District 22","chamber":"Senate"}},{"type":"Feature","geometry":{"type":"Polygon","coordinates":[[[-94.1282,43.5076],[-94.1281,43.5001],[-92.5689,43.5003],[-92.5697,43.7012],[-92.5595,43.7031],[-92.5594,43.7103],[-92.5697,43.7109],[-92.5695,43.8341],[-92.6893,43.8338],[-92.6894,43.8486],[-93.046,43.8485],[-93.0459,44.0228],[-93.7682,44.0221],[-93.7678,43.848],[-94.0065,43.8481],[-94.008,43.5868],[-94.1279,43.5868],[-94.1282,43.5076]]]},"properties":{"geoid":"27023","state":"27","district":"23","name":"State Senate District 23","chamber":"Senate"}},{"type":"Feature","geometry":{"type":"Polygon","coordinates":[[[-93.0458,43.8486],[-92.6894,43.8486],[-92.6893,43.8338],[-92.449,43.8341],[-92.4489,43.8483],[-92.4384,43.8487],[-92.4384,43.9457],[-92.4316,43.9446],[-92.4337,43.9493],[-92.4288,43.9493],[-92.4385,43.9565],[-92.4386,43.9782],[-92.4288,43.9818],[-92.4288,43.9749],[-92.4188,43.9737],[-92.4188,43.9782],[-92.404,43.9817],[-92.3972,43.9782],[-92.3988,43.9733],[-92.3906,43.9729],[-92.3929,43.9826],[-92.3988,43.9853],[-92.3938,43.9889],[-92.3989,43.988],[-92.3989,44.007],[-92.3889,44.0069],[-92.3889,44.0104],[-92.3944,44.0118],[-92.3991,44.0213],[-92.4193,44.0214],[-92.4191,44.0119],[-92.4632,44.0071],[-92.4647,44],[-92.4835,44.0015],[-92.4876,44.0433],[-92.5583,44.0433],[-92.5583,44.0742],[-92.5633,44.0742],[-92.5632,44.0793],[-92.5734,44.0795],[-92.5583,44.0794],[-92.5583,44.1083],[-92.6783,44.1083],[-92.6787,44.1955],[-93.0459,44.1967],[-93.0458,43.8486]]]},"properties":{"geoid":"27024","state":"27","district":"24","name":"State Senate District 24","chamber":"Senate"}},{"type":"Feature","geometry":{"type":"Polygon","coordinates":[[[-92.5734,44.0795],[-92.5632,44.0793],[-92.5633,44.0742],[-92.5583,44.0742],[-92.5583,44.0433],[-92.4876,44.0433],[-92.4835,44.0015],[-92.4647,44],[-92.4632,44.0071],[-92.4191,44.0119],[-92.4193,44.0214],[-92.3189,44.021],[-92.319,44.1077],[-92.4387,44.108],[-92.4384,44.1945],[-92.5485,44.1949],[-92.5485,44.1875],[-92.5558,44.1875],[-92.5559,44.1839],[-92.5456,44.183],[-92.562,44.1811],[-92.5592,44.1752],[-92.5435,44.1767],[-92.5435,44.1731],[-92.5582,44.1731],[-92.5583,44.0794],[-92.5734,44.0795]]]},"properties":{"geoid":"27025","state":"27","district":"25","name":"State Senate District 25","chamber":"Senate"}},{"type":"Feature","geometry":{"type":"Polygon","coordinates":[[[-92.5698,43.7499],[-92.5697,43.7109],[-92.5594,43.7103],[-92.5595,43.7031],[-92.5697,43.7012],[-92.5689,43.5003],[-91.2177,43.5006],[-91.2183,43.5144],[-91.2329,43.524],[-91.2432,43.5403],[-91.2432,43.5507],[-91.2328,43.5648],[-91.2319,43.5818],[-91.269,43.6166],[-91.2624,43.6418],[-91.2717,43.6549],[-91.2733,43.6666],[-91.2685,43.7098],[-91.2559,43.7298],[-91.2554,43.7449],[-91.2441,43.7747],[-91.2624,43.7922],[-91.2777,43.8377],[-91.311,43.8674],[-91.319,43.8867],[-91.3393,43.8987],[-91.3477,43.912],[-91.3574,43.9172],[-91.3666,43.9375],[-91.3858,43.9542],[-91.4074,43.9651],[-91.4374,44],[-91.4635,44.009],[-91.4809,44.0081],[-91.5071,44.019],[-91.5921,44.0314],[-91.6105,44.0493],[-91.6479,44.0641],[-91.6815,44.0974],[-91.7075,44.1039],[-91.71,44.1193],[-91.7191,44.1289],[-91.7517,44.1348],[-91.802,44.1565],[-91.8388,44.1825],[-91.839,44.0203],[-91.9594,44.0204],[-91.9593,43.9844],[-91.9396,43.9844],[-91.9395,43.97],[-91.9594,43.9699],[-91.9593,43.847],[-92.4489,43.8483],[-92.449,43.8341],[-92.5695,43.8341],[-92.5698,43.7499]]]},"properties":{"geoid":"27026","state":"27","district":"26","name":"State Senate District 26","chamber":"Senate"}},{"type":"Feature","geometry":{"type":"Polygon","coordinates":[[[-94.1504,45.5302],[-94.1395,45.5164],[-94.142,45.4932],[-94.1017,45.4686],[-94.1017,45.4548],[-94.0816,45.4468],[-94.0804,45.4382],[-94.0694,45.4385],[-94.0639,45.4321],[-94.0522,45.4353],[-94.0443,45.4186],[-94.0261,45.4045],[-94.0063,45.4039],[-94.0108,45.3916],[-94.0056,45.3914],[-94.0029,45.3989],[-93.9962,45.4017],[-93.9855,45.3993],[-93.9574,45.3779],[-93.9449,45.3851],[-93.9185,45.3844],[-93.9093,45.3726],[-93.8889,45.3631],[-93.8822,45.3494],[-93.8676,45.3393],[-93.8308,45.3348],[-93.8051,45.3123],[-93.7569,45.2949],[-93.7356,45.2999],[-93.7046,45.2977],[-93.6858,45.3051],[-93.6697,45.2952],[-93.6343,45.2957],[-93.6341,45.3858],[-93.3733,45.3847],[-93.3782,45.3783],[-93.3525,45.3779],[-93.3524,45.3849],[-93.2653,45.3848],[-93.2654,45.3957],[-93.2603,45.3957],[-93.2609,45.41],[-93.2655,45.4137],[-93.3063,45.4137],[-93.3108,45.4208],[-93.3219,45.4208],[-93.3219,45.4137],[-93.3424,45.4136],[-93.3065,45.4388],[-93.3065,45.4459],[-93.2811,45.4604],[-93.281,45.4714],[-93.3888,45.4711],[-93.389,45.558],[-93.5107,45.5588],[-93.5128,45.6452],[-93.7605,45.6488],[-93.7594,45.5596],[-94.0483,45.5592],[-94.0482,45.5409],[-94.0429,45.5409],[-94.0429,45.5336],[-94.0482,45.5228],[-94.0875,45.5231],[-94.1097,45.5421],[-94.1097,45.5359],[-94.124,45.5358],[-94.1202,45.5301],[-94.1351,45.5301],[-94.1365,45.5351],[-94.1504,45.5302]]]},"properties":{"geoid":"27027","state":"27","district":"27","name":"State Senate District 27","chamber":"Senate"}},{"type":"Feature","geometry":{"type":"Polygon","coordinates":[[[-93.5128,45.6452],[-93.5107,45.5588],[-93.389,45.558],[-93.3888,45.4711],[-93.2509,45.4713],[-93.2517,45.4676],[-93.2473,45.4676],[-93.245,45.4712],[-93.1424,45.4712],[-93.1422,45.4136],[-93.0196,45.4118],[-93.0194,45.2969],[-92.7457,45.296],[-92.7048,45.3265],[-92.699,45.3364],[-92.7027,45.3585],[-92.6792,45.3727],[-92.6641,45.3933],[-92.6503,45.3988],[-92.6465,45.4403],[-92.6527,45.4545],[-92.6802,45.4643],[-92.7129,45.5048],[-92.7267,45.5145],[-92.7274,45.5421],[-92.7734,45.5682],[-92.8233,45.5609],[-92.8711,45.5676],[-92.8811,45.5734],[-92.8864,45.5949],[-92.8825,45.6102],[-92.888,45.625],[-92.8871,45.6441],[-93.1418,45.6443],[-93.1418,45.7307],[-93.389,45.7307],[-93.3889,45.6444],[-93.5128,45.6452]]]},"properties":{"geoid":"27028","state":"27","district":"28","name":"State Senate District 28","chamber":"Senate"}},{"type":"Feature","geometry":{"type":"Polygon","coordinates":[[[-94.3835,45.273],[-94.3833,45.2389],[-94.3784,45.2385],[-94.379,45.1524],[-94.1346,45.1522],[-94.1343,44.9788],[-93.7675,44.9776],[-93.7667,45.0602],[-93.7612,45.0688],[-93.7646,45.071],[-93.7584,45.0732],[-93.7619,45.0812],[-93.7486,45.079],[-93.7309,45.0839],[-93.7274,45.0807],[-93.7275,45.0865],[-93.7173,45.0867],[-93.7174,45.0903],[-93.7275,45.0883],[-93.7296,45.0974],[-93.7241,45.1077],[-93.7458,45.1043],[-93.7431,45.0971],[-93.7521,45.0941],[-93.7531,45.1006],[-93.7663,45.1065],[-93.7659,45.0947],[-93.7619,45.0934],[-93.7705,45.0934],[-93.7733,45.0998],[-93.7766,45.097],[-93.7664,45.0909],[-93.7915,45.097],[-93.7895,45.0895],[-93.8059,45.087],[-93.8074,45.083],[-93.8314,45.0859],[-93.8392,45.0761],[-93.8551,45.076],[-93.859,45.081],[-93.8562,45.0845],[-93.8621,45.0858],[-93.8635,45.0914],[-93.8696,45.0897],[-93.8708,45.0974],[-93.88,45.0982],[-93.8906,45.1085],[-93.8901,45.151],[-93.8821,45.1467],[-93.8839,45.144],[-93.8736,45.144],[-93.8744,45.1378],[-93.8689,45.1388],[-93.8685,45.1479],[-93.8626,45.1468],[-93.8638,45.151],[-93.766,45.1511],[-93.7659,45.2378],[-93.7043,45.2379],[-93.7045,45.2595],[-93.7148,45.2666],[-93.7046,45.2667],[-93.7044,45.2977],[-93.7356,45.2999],[-93.7543,45.2949],[-93.7695,45.2979],[-93.8051,45.3123],[-93.8308,45.3348],[-93.8676,45.3393],[-93.8822,45.3494],[-93.8889,45.3631],[-93.9093,45.3726],[-93.9151,45.3829],[-93.9449,45.3851],[-93.9574,45.3779],[-93.9855,45.3993],[-93.9962,45.4017],[-94.0091,45.3909],[-94.0124,45.3946],[-94.0063,45.4039],[-94.0261,45.4045],[-94.048,45.4233],[-94.0569,45.4208],[-94.056,45.4161],[-94.0689,45.4041],[-94.0666,45.3988],[-94.0859,45.3799],[-94.0814,45.3668],[-94.096,45.3524],[-94.0895,45.3466],[-94.0923,45.3429],[-94.1065,45.3399],[-94.1167,45.3281],[-94.1613,45.3014],[-94.1757,45.3026],[-94.1866,45.3182],[-94.2131,45.317],[-94.2233,45.3114],[-94.257,45.3063],[-94.2546,45.3007],[-94.2615,45.2977],[-94.2608,45.2839],[-94.3834,45.2828],[-94.3835,45.273]]]},"properties":{"geoid":"27029","state":"27","district":"29","name":"State Senate District 29","chamber":"Senate"}},{"type":"Feature","geometry":{"type":"Polygon","coordinates":[[[-93.8906,45.1087],[-93.88,45.0982],[-93.8708,45.0974],[-93.8696,45.0897],[-93.8635,45.0914],[-93.8621,45.0858],[-93.8562,45.0845],[-93.859,45.081],[-93.8551,45.076],[-93.8398,45.0759],[-93.8347,45.0852],[-93.8172,45.0871],[-93.8074,45.083],[-93.8059,45.087],[-93.7942,45.0874],[-93.7895,45.0895],[-93.7915,45.097],[-93.7664,45.0909],[-93.7766,45.097],[-93.7733,45.0998],[-93.7705,45.0934],[-93.7619,45.0934],[-93.7659,45.0947],[-93.7663,45.1065],[-93.7531,45.1006],[-93.7521,45.0941],[-93.7431,45.0971],[-93.7458,45.1043],[-93.7276,45.1046],[-93.7007,45.1364],[-93.6819,45.1511],[-93.6763,45.151],[-93.6764,45.1451],[-93.6355,45.1453],[-93.6354,45.1525],[-93.6304,45.1526],[-93.6299,45.1742],[-93.6387,45.1742],[-93.6513,45.1825],[-93.6585,45.1915],[-93.6568,45.1978],[-93.647,45.1997],[-93.6377,45.2101],[-93.6285,45.2024],[-93.6234,45.2039],[-93.625,45.2096],[-93.6127,45.2115],[-93.6114,45.208],[-93.6045,45.213],[-93.5969,45.2074],[-93.5927,45.2183],[-93.5875,45.2146],[-93.57,45.2185],[-93.5606,45.2273],[-93.548,45.2266],[-93.5426,45.2326],[-93.5273,45.2232],[-93.5199,45.2383],[-93.5217,45.2466],[-93.5122,45.2457],[-93.511,45.2993],[-93.3777,45.2987],[-93.3755,45.3126],[-93.3692,45.3196],[-93.373,45.3275],[-93.3474,45.32],[-93.3505,45.3549],[-93.3473,45.3849],[-93.3524,45.3849],[-93.3525,45.3779],[-93.3782,45.3783],[-93.3733,45.3847],[-93.6341,45.3858],[-93.634,45.2961],[-93.6697,45.2952],[-93.6858,45.3051],[-93.7044,45.2977],[-93.7046,45.2667],[-93.7148,45.2666],[-93.7045,45.2595],[-93.7043,45.2379],[-93.7659,45.2378],[-93.766,45.1511],[-93.8638,45.151],[-93.8626,45.1468],[-93.8685,45.1479],[-93.8689,45.1388],[-93.8744,45.1378],[-93.8736,45.144],[-93.8839,45.144],[-93.8821,45.1467],[-93.8901,45.151],[-93.8906,45.1087]]]},"properties":{"geoid":"27030","state":"27","district":"30","name":"State Senate District 30","chamber":"Senate"}},{"type":"Feature","geometry":{"type":"Polygon","coordinates":[[[-93.5126,45.247],[-93.4855,45.2257],[-93.4676,45.2258],[-93.4264,45.2149],[-93.4202,45.2175],[-93.4202,45.2266],[-93.3897,45.2233],[-93.3892,45.23],[-93.3963,45.2332],[-93.3886,45.2411],[-93.3887,45.2373],[-93.3777,45.2336],[-93.3778,45.2271],[-93.3675,45.2272],[-93.3661,45.2211],[-93.3575,45.2195],[-93.3576,45.2123],[-93.3324,45.2124],[-93.3364,45.2195],[-93.3061,45.2193],[-93.3063,45.2337],[-93.2345,45.237],[-93.2344,45.2662],[-93.1523,45.2654],[-93.1522,45.2823],[-93.1423,45.2852],[-93.1428,45.3264],[-93.0193,45.3257],[-93.0196,45.4118],[-93.1422,45.4136],[-93.1424,45.4712],[-93.245,45.4712],[-93.2517,45.4676],[-93.2509,45.4713],[-93.281,45.4714],[-93.2811,45.4604],[-93.3065,45.4459],[-93.3065,45.4388],[-93.3424,45.4136],[-93.3219,45.4137],[-93.3219,45.4208],[-93.3108,45.4208],[-93.3063,45.4137],[-93.2655,45.4137],[-93.2609,45.41],[-93.2603,45.3957],[-93.2654,45.3957],[-93.2653,45.3848],[-93.3473,45.3849],[-93.3505,45.3549],[-93.3474,45.32],[-93.373,45.3275],[-93.3692,45.3196],[-93.3755,45.3126],[-93.3777,45.2987],[-93.511,45.2993],[-93.5126,45.247]]]},"properties":{"geoid":"27031","state":"27","district":"31","name":"State Senate District 31","chamber":"Senate"}},{"type":"Feature","geometry":{"type":"Polygon","coordinates":[[[-93.2668,45.1277],[-93.2669,45.1246],[-93.1534,45.1242],[-93.1585,45.1278],[-93.1584,45.1387],[-93.1636,45.1388],[-93.1633,45.1532],[-93.1429,45.1529],[-93.1423,45.211],[-93.0197,45.2107],[-93.0193,45.3257],[-93.1428,45.3264],[-93.1423,45.2852],[-93.1522,45.2823],[-93.1523,45.2654],[-93.2344,45.2662],[-93.2345,45.237],[-93.2655,45.2333],[-93.2668,45.1277]]]},"properties":{"geoid":"27032","state":"27","district":"32","name":"State Senate District 32","chamber":"Senate"}},{"type":"Feature","geometry":{"type":"Polygon","coordinates":[[[-93.0204,45.1246],[-92.9846,45.1238],[-92.9848,45.0659],[-92.9696,45.058],[-92.9697,45.0538],[-92.9752,45.0539],[-92.9753,45.0575],[-92.9848,45.0539],[-92.9848,45.0354],[-92.9648,45.0321],[-92.9549,45.0469],[-92.9447,45.0468],[-92.9449,45.0888],[-92.9088,45.0833],[-92.9144,45.1083],[-92.8686,45.108],[-92.8635,45.1034],[-92.8629,45.0361],[-92.8588,45.0351],[-92.8629,45.0354],[-92.8626,45.0314],[-92.8536,45.036],[-92.8581,45.0314],[-92.8562,45.0265],[-92.8227,45.0288],[-92.8176,45.0252],[-92.8175,45.0288],[-92.8073,45.0288],[-92.8071,45.0214],[-92.7935,45.0215],[-92.7975,45.0179],[-92.793,45.0171],[-92.7974,45.017],[-92.7937,45.005],[-92.7822,45.007],[-92.7815,44.9997],[-92.7777,44.9998],[-92.7784,45.0066],[-92.7754,45.0029],[-92.7719,45.0124],[-92.7777,45.0269],[-92.7701,45.0181],[-92.7712,45.0286],[-92.7648,45.0289],[-92.7971,45.0506],[-92.8029,45.0654],[-92.7927,45.0788],[-92.7396,45.1156],[-92.7522,45.1425],[-92.7491,45.1487],[-92.7524,45.1739],[-92.7649,45.1828],[-92.7674,45.1902],[-92.7639,45.2049],[-92.7517,45.2187],[-92.7603,45.2517],[-92.7519,45.2659],[-92.762,45.2882],[-92.7457,45.296],[-93.0195,45.2969],[-93.0204,45.1246]]]},"properties":{"geoid":"27033","state":"27","district":"33","name":"State Senate District 33","chamber":"Senate"}},{"type":"Feature","geometry":{"type":"Polygon","coordinates":[[[-93.6589,45.1936],[-93.6484,45.1804],[-93.6299,45.1742],[-93.6304,45.1526],[-93.4016,45.152],[-93.4021,45.1232],[-93.3359,45.1215],[-93.3412,45.098],[-93.2904,45.0944],[-93.288,45.0872],[-93.2809,45.0869],[-93.2844,45.0776],[-93.2816,45.0717],[-93.2783,45.1034],[-93.2943,45.1144],[-93.2961,45.1217],[-93.2772,45.1188],[-93.28,45.1245],[-93.2658,45.1246],[-93.2666,45.1434],[-93.2744,45.1522],[-93.2992,45.1291],[-93.3115,45.1438],[-93.3462,45.1602],[-93.3588,45.175],[-93.3754,45.1787],[-93.412,45.1982],[-93.4259,45.2147],[-93.4676,45.2258],[-93.4855,45.2257],[-93.5014,45.2414],[-93.514,45.2461],[-93.5217,45.2466],[-93.5199,45.2383],[-93.5287,45.2224],[-93.5344,45.2309],[-93.5426,45.2326],[-93.548,45.2266],[-93.5606,45.2273],[-93.57,45.2185],[-93.5875,45.2146],[-93.5927,45.2183],[-93.5969,45.2074],[-93.6045,45.213],[-93.6114,45.208],[-93.6127,45.2115],[-93.625,45.2096],[-93.6234,45.2039],[-93.6285,45.2024],[-93.6384,45.21],[-93.6589,45.1936]]]},"properties":{"geoid":"27034","state":"27","district":"34","name":"State Senate District 34","chamber":"Senate"}},{"type":"Feature","geometry":{"type":"Polygon","coordinates":[[[-93.4264,45.2149],[-93.412,45.1982],[-93.3754,45.1787],[-93.3588,45.175],[-93.3462,45.1602],[-93.3115,45.1438],[-93.2992,45.1291],[-93.2744,45.1522],[-93.2666,45.1434],[-93.2655,45.2333],[-93.3063,45.2337],[-93.3061,45.2193],[-93.3364,45.2195],[-93.3324,45.2124],[-93.3576,45.2123],[-93.3575,45.2195],[-93.3661,45.2211],[-93.3675,45.2272],[-93.3778,45.2271],[-93.3777,45.2336],[-93.3897,45.2411],[-93.3963,45.2332],[-93.3892,45.23],[-93.3897,45.2233],[-93.4202,45.2266],[-93.4202,45.2175],[-93.4264,45.2149]]]},"properties":{"geoid":"27035","state":"27","district":"35","name":"State Senate District 35","chamber":"Senate"}},{"type":"Feature","geometry":{"type":"Polygon","coordinates":[[[-93.1636,45.1398],[-93.1584,45.1387],[-93.1585,45.1278],[-93.1534,45.1242],[-93.107,45.1241],[-93.1069,45.112],[-93.1273,45.1082],[-93.1272,45.101],[-93.1265,45.091],[-93.1168,45.0883],[-93.1172,45.0793],[-93.1065,45.0791],[-93.1063,45.0431],[-93.0868,45.0431],[-93.0868,45.0359],[-92.9848,45.034],[-92.9848,45.0539],[-92.9753,45.0575],[-92.9752,45.0539],[-92.9697,45.0538],[-92.9718,45.0607],[-92.9848,45.0659],[-92.9846,45.1238],[-93.0205,45.1239],[-93.0197,45.2107],[-93.1423,45.211],[-93.1429,45.1529],[-93.1633,45.1532],[-93.1636,45.1398]]]},"properties":{"geoid":"27036","state":"27","district":"36","name":"State Senate District 36","chamber":"Senate"}},{"type":"Feature","geometry":{"type":"Polygon","coordinates":[[[-93.7675,44.9776],[-93.6455,44.9786],[-93.6456,45.0005],[-93.5224,44.9998],[-93.522,45.0804],[-93.5121,45.0779],[-93.4954,45.0844],[-93.4812,45.0836],[-93.478,45.0815],[-93.4841,45.0714],[-93.4817,45.0658],[-93.4007,45.0657],[-93.4023,45.1107],[-93.4136,45.1235],[-93.4021,45.1232],[-93.4016,45.152],[-93.6354,45.1525],[-93.6359,45.1453],[-93.6764,45.1451],[-93.6763,45.151],[-93.683,45.1506],[-93.7208,45.1141],[-93.7296,45.0974],[-93.7275,45.0883],[-93.7174,45.0903],[-93.7173,45.0867],[-93.7275,45.0865],[-93.7274,45.0807],[-93.7309,45.0839],[-93.7486,45.079],[-93.7619,45.0812],[-93.7584,45.0732],[-93.7646,45.071],[-93.7612,45.0688],[-93.7667,45.0602],[-93.7675,44.9776]]]},"properties":{"geoid":"27037","state":"27","district":"37","name":"State Senate District 37","chamber":"Senate"}},{"type":"Feature","geometry":{"type":"Polygon","coordinates":[[[-93.4136,45.1235],[-93.4023,45.1107],[-93.4007,45.0657],[-93.3397,45.0657],[-93.3398,45.0403],[-93.3194,45.0419],[-93.3195,45.0513],[-93.2822,45.0512],[-93.2852,45.0585],[-93.2811,45.0872],[-93.288,45.0872],[-93.2904,45.0944],[-93.3412,45.098],[-93.3359,45.1215],[-93.4136,45.1235]]]},"properties":{"geoid":"27038","state":"27","district":"38","name":"State Senate District 38","chamber":"Senate"}},{"type":"Feature","geometry":{"type":"Polygon","coordinates":[[[-93.2961,45.1217],[-93.2943,45.1144],[-93.2783,45.1034],[-93.2852,45.0585],[-93.2808,45.0436],[-93.2834,45.0354],[-93.2269,45.0357],[-93.2268,45.0132],[-93.2179,45.0134],[-93.2177,45.006],[-93.2076,45.0062],[-93.2081,45.0357],[-93.1877,45.0357],[-93.1827,45.0502],[-93.1877,45.0502],[-93.1859,45.067],[-93.2183,45.0644],[-93.2188,45.0754],[-93.2274,45.0751],[-93.2278,45.1113],[-93.2211,45.1122],[-93.228,45.1162],[-93.2277,45.1245],[-93.28,45.1245],[-93.2772,45.1188],[-93.2961,45.1217]]]},"properties":{"geoid":"27039","state":"27","district":"39","name":"State Senate District 39","chamber":"Senate"}},{"type":"Feature","geometry":{"type":"Polygon","coordinates":[[[-93.2279,45.1163],[-93.2211,45.1122],[-93.2278,45.1113],[-93.2274,45.0751],[-93.2188,45.0754],[-93.2183,45.0644],[-93.1859,45.067],[-93.1877,45.0502],[-93.1827,45.0502],[-93.1877,45.0357],[-93.2081,45.0357],[-93.2076,45.0062],[-93.1988,45.0104],[-93.1465,45.0104],[-93.1464,45.0064],[-93.1363,45.0063],[-93.1414,44.9919],[-93.1059,44.9919],[-93.1065,45.0791],[-93.1172,45.0793],[-93.1168,45.0883],[-93.1265,45.091],[-93.1272,45.101],[-93.1273,45.1082],[-93.1069,45.112],[-93.107,45.1241],[-93.2277,45.1245],[-93.2279,45.1163]]]},"properties":{"geoid":"27040","state":"27","district":"40","name":"State Senate District 40","chamber":"Senate"}},{"type":"Feature","geometry":{"type":"Polygon","coordinates":[[[-93.0215,44.7872],[-93.0129,44.7738],[-92.9748,44.7723],[-92.9743,44.7168],[-92.8734,44.7168],[-92.8734,44.7095],[-92.8431,44.7096],[-92.8431,44.7023],[-92.833,44.7049],[-92.8267,44.7003],[-92.8228,44.7095],[-92.8329,44.7096],[-92.8329,44.7168],[-92.8126,44.7167],[-92.8126,44.7473],[-92.802,44.7457],[-92.8084,44.7516],[-92.8056,44.7684],[-92.7856,44.7919],[-92.7808,44.8123],[-92.7656,44.8372],[-92.7696,44.8601],[-92.7634,44.8741],[-92.7746,44.8981],[-92.7587,44.909],[-92.7506,44.9373],[-92.7546,44.9558],[-92.7694,44.9721],[-92.7712,45.0014],[-92.7621,45.0243],[-92.7712,45.0287],[-92.7701,45.0181],[-92.7777,45.027],[-92.7721,45.0105],[-92.7736,45.0142],[-92.7754,45.003],[-92.7783,45.0068],[-92.7777,44.9998],[-92.7815,44.9997],[-92.7822,45.007],[-92.7937,45.005],[-92.7974,45.017],[-92.793,45.0171],[-92.7975,45.0179],[-92.7935,45.0215],[-92.8071,45.0214],[-92.8073,45.0288],[-92.8175,45.0288],[-92.8176,45.0252],[-92.8227,45.0288],[-92.8562,45.0265],[-92.8581,45.0314],[-92.8536,45.036],[-92.8626,45.0314],[-92.8629,45.0354],[-92.8588,45.0351],[-92.8629,45.0361],[-92.8635,45.1034],[-92.8683,45.1078],[-92.9144,45.1083],[-92.9088,45.0833],[-92.9449,45.0888],[-92.9447,45.036],[-92.9542,45.0288],[-92.9541,45.0212],[-92.9443,45.0129],[-92.9441,44.9634],[-92.9339,44.9634],[-92.9342,44.949],[-92.8627,44.9492],[-92.8624,44.8619],[-92.984,44.862],[-92.984,44.8474],[-92.9346,44.8153],[-92.9363,44.8101],[-92.9646,44.8118],[-92.9647,44.8011],[-92.9714,44.801],[-92.9838,44.8159],[-92.9838,44.8009],[-92.9775,44.7997],[-92.9838,44.7901],[-93.0089,44.7939],[-93.0088,44.7901],[-93.0215,44.7872]]]},"properties":{"geoid":"27041","state":"27","district":"41","name":"State Senate District 41","chamber":"Senate"}},{"type":"Feature","geometry":{"type":"Polygon","coordinates":[[[-93.5227,45.0363],[-93.5225,44.9816],[-93.512,44.9818],[-93.5105,44.9782],[-93.5022,44.9823],[-93.5021,44.9784],[-93.4208,44.9787],[-93.417,44.9934],[-93.4033,44.9989],[-93.4106,45.0075],[-93.4008,45.0075],[-93.4007,45.0657],[-93.4817,45.0658],[-93.4841,45.0714],[-93.478,45.0815],[-93.4812,45.0836],[-93.4954,45.0844],[-93.5121,45.0779],[-93.5201,45.0811],[-93.5227,45.0363]]]},"properties":{"geoid":"27042","state":"27","district":"42","name":"State Senate District 42","chamber":"Senate"}},{"type":"Feature","geometry":{"type":"Polygon","coordinates":[[[-93.4208,44.9851],[-93.4208,44.9787],[-93.4006,44.9785],[-93.4006,44.9713],[-93.3495,44.9711],[-93.344,44.9666],[-93.3287,44.9665],[-93.3287,44.9771],[-93.3184,44.9772],[-93.3193,45.0404],[-93.3398,45.0403],[-93.3397,45.0657],[-93.4007,45.0657],[-93.4008,45.0075],[-93.4106,45.0075],[-93.4033,44.9989],[-93.4157,44.9944],[-93.4208,44.9851]]]},"properties":{"geoid":"27043","state":"27","district":"43","name":"State Senate District 43","chamber":"Senate"}},{"type":"Feature","geometry":{"type":"Polygon","coordinates":[[[-93.1063,45.0431],[-93.1059,44.9919],[-93.0051,44.992],[-93.0001,44.9699],[-92.9848,44.9757],[-92.9847,44.9485],[-92.9342,44.949],[-92.9339,44.9634],[-92.9441,44.9634],[-92.9443,45.0129],[-92.9541,45.0212],[-92.9542,45.0288],[-92.9447,45.036],[-92.9447,45.0468],[-92.9549,45.0469],[-92.9648,45.0321],[-93.0142,45.0372],[-93.0868,45.0359],[-93.0868,45.0431],[-93.1063,45.0431]]]},"properties":{"geoid":"27044","state":"27","district":"44","name":"State Senate District 44","chamber":"Senate"}},{"type":"Feature","geometry":{"type":"Polygon","coordinates":[[[-93.7684,44.891],[-93.5234,44.8915],[-93.5231,44.9114],[-93.5111,44.9106],[-93.4226,44.9316],[-93.416,44.9392],[-93.4248,44.9446],[-93.421,44.9489],[-93.4109,44.9495],[-93.411,44.9405],[-93.4006,44.9387],[-93.4008,44.964],[-93.4056,44.9641],[-93.4043,44.973],[-93.4105,44.9729],[-93.4105,44.9786],[-93.5021,44.9784],[-93.5022,44.9823],[-93.5105,44.9782],[-93.512,44.9818],[-93.5225,44.9816],[-93.5224,44.9998],[-93.6456,45.0005],[-93.6455,44.9786],[-93.7664,44.9781],[-93.7684,44.891]]]},"properties":{"geoid":"27045","state":"27","district":"45","name":"State Senate District 45","chamber":"Senate"}},{"type":"Feature","geometry":{"type":"Polygon","coordinates":[[[-93.4289,44.9292],[-93.427,44.9208],[-93.4228,44.9208],[-93.422,44.9063],[-93.4013,44.9061],[-93.4016,44.8916],[-93.35,44.8898],[-93.3497,44.9197],[-93.3393,44.9197],[-93.3392,44.9306],[-93.3291,44.9306],[-93.3287,44.9665],[-93.344,44.9666],[-93.3495,44.9711],[-93.4006,44.9713],[-93.4006,44.9785],[-93.4105,44.9786],[-93.4105,44.9729],[-93.4043,44.973],[-93.4056,44.9641],[-93.4008,44.964],[-93.3987,44.9405],[-93.411,44.9405],[-93.4109,44.9495],[-93.4254,44.9475],[-93.416,44.9392],[-93.4289,44.9292]]]},"properties":{"geoid":"27046","state":"27","district":"46","name":"State Senate District 46","chamber":"Senate"}},{"type":"Feature","geometry":{"type":"Polygon","coordinates":[[[-93.0051,44.9703],[-93.0044,44.8908],[-92.9842,44.8908],[-92.9796,44.8946],[-92.9794,44.8892],[-92.9739,44.8893],[-92.9739,44.8834],[-92.9841,44.8874],[-92.984,44.862],[-92.8624,44.8619],[-92.8627,44.9492],[-92.9847,44.9485],[-92.9848,44.9757],[-92.9999,44.9698],[-93.0044,44.9811],[-93.0051,44.9703]]]},"properties":{"geoid":"27047","state":"27","district":"47","name":"State Senate District 47","chamber":"Senate"}},{"type":"Feature","geometry":{"type":"Polygon","coordinates":[[[-93.9148,44.8847],[-93.8882,44.8773],[-93.8886,44.717],[-93.7681,44.717],[-93.7676,44.8038],[-93.6421,44.8054],[-93.6425,44.7765],[-93.6018,44.7762],[-93.5943,44.7762],[-93.5987,44.7829],[-93.5821,44.7823],[-93.5772,44.795],[-93.5549,44.7998],[-93.5474,44.7956],[-93.5412,44.7987],[-93.5405,44.8048],[-93.5202,44.805],[-93.5207,44.8915],[-93.8643,44.8912],[-93.8643,44.8954],[-93.8745,44.8954],[-93.909,44.8914],[-93.9089,44.8865],[-93.9148,44.8847]]]},"properties":{"geoid":"27048","state":"27","district":"48","name":"State Senate District 48","chamber":"Senate"}},{"type":"Feature","geometry":{"type":"Polygon","coordinates":[[[-93.5234,44.8915],[-93.5202,44.8022],[-93.5032,44.8048],[-93.4984,44.8104],[-93.4915,44.8046],[-93.4832,44.8079],[-93.4804,44.8044],[-93.4507,44.8035],[-93.438,44.8131],[-93.4116,44.807],[-93.3991,44.7987],[-93.4013,44.9061],[-93.422,44.9063],[-93.4228,44.9208],[-93.4278,44.9218],[-93.4264,44.9317],[-93.5111,44.9106],[-93.5231,44.9114],[-93.5234,44.8915]]]},"properties":{"geoid":"27049","state":"27","district":"49","name":"State Senate District 49","chamber":"Senate"}},{"type":"Feature","geometry":{"type":"Polygon","coordinates":[[[-93.3995,44.8906],[-93.3991,44.7987],[-93.3848,44.7973],[-93.3798,44.7852],[-93.3651,44.7892],[-93.3556,44.7855],[-93.3492,44.7913],[-93.3349,44.7869],[-93.3296,44.7911],[-93.3317,44.7968],[-93.327,44.8048],[-93.3194,44.8047],[-93.3193,44.813],[-93.3086,44.8187],[-93.3087,44.8621],[-93.3188,44.862],[-93.3188,44.9052],[-93.329,44.9053],[-93.3291,44.9306],[-93.3392,44.9306],[-93.3393,44.9197],[-93.3497,44.9197],[-93.35,44.8898],[-93.3995,44.8906]]]},"properties":{"geoid":"27050","state":"27","district":"50","name":"State Senate District 50","chamber":"Senate"}},{"type":"Feature","geometry":{"type":"Polygon","coordinates":[[[-93.3316,44.7969],[-93.3296,44.7911],[-93.3045,44.7945],[-93.2818,44.8061],[-93.2519,44.8115],[-93.2205,44.8311],[-93.2218,44.8377],[-93.2114,44.8397],[-93.1983,44.8582],[-93.2,44.8655],[-93.1786,44.8803],[-93.1832,44.8861],[-93.1772,44.8939],[-93.1874,44.8951],[-93.194,44.9054],[-93.2076,44.9054],[-93.2076,44.9018],[-93.2578,44.8998],[-93.2541,44.8929],[-93.2585,44.8905],[-93.3188,44.8908],[-93.3188,44.862],[-93.3087,44.8621],[-93.3086,44.8187],[-93.3193,44.813],[-93.3194,44.8047],[-93.327,44.8048],[-93.3316,44.7969]]]},"properties":{"geoid":"27051","state":"27","district":"51","name":"State Senate District 51","chamber":"Senate"}},{"type":"Feature","geometry":{"type":"Polygon","coordinates":[[[-93.29,44.8001],[-93.2884,44.7822],[-93.2656,44.7902],[-93.2582,44.7903],[-93.2583,44.7837],[-93.2481,44.7873],[-93.248,44.7595],[-93.2225,44.7758],[-93.187,44.7759],[-93.1875,44.7812],[-93.1709,44.7902],[-93.1063,44.7901],[-93.1059,44.8981],[-93.1264,44.898],[-93.1261,44.9089],[-93.1439,44.8944],[-93.1825,44.8872],[-93.1786,44.8803],[-93.2,44.8655],[-93.1983,44.8582],[-93.2114,44.8397],[-93.2218,44.8377],[-93.2205,44.8311],[-93.2519,44.8115],[-93.2818,44.8061],[-93.29,44.8001]]]},"properties":{"geoid":"27052","state":"27","district":"52","name":"State Senate District 52","chamber":"Senate"}},{"type":"Feature","geometry":{"type":"Polygon","coordinates":[[[-93.1528,44.8938],[-93.1366,44.8979],[-93.1261,44.9089],[-93.1264,44.898],[-93.1059,44.8981],[-93.1063,44.7757],[-93.016,44.7756],[-93.0214,44.7897],[-93.0088,44.7901],[-93.0089,44.7939],[-92.9838,44.7901],[-92.9838,44.7952],[-92.9788,44.7959],[-92.9775,44.8009],[-92.9838,44.8009],[-92.9838,44.8159],[-92.9714,44.801],[-92.9647,44.8011],[-92.9646,44.8118],[-92.9363,44.8101],[-92.9346,44.8153],[-92.984,44.8474],[-92.9841,44.8874],[-92.9739,44.8834],[-92.9796,44.8946],[-92.9842,44.8908],[-93.02,44.8908],[-93.0347,44.8978],[-93.0516,44.9195],[-93.0654,44.9195],[-93.0654,44.9124],[-93.0757,44.9124],[-93.0755,44.9052],[-93.1059,44.9053],[-93.107,44.9198],[-93.1287,44.9196],[-93.1365,44.9061],[-93.1528,44.8938]]]},"properties":{"geoid":"27053","state":"27","district":"53","name":"State Senate District 53","chamber":"Senate"}},{"type":"Feature","geometry":{"type":"Polygon","coordinates":[[[-93.6547,44.6753],[-93.6445,44.6741],[-93.6444,44.6523],[-93.6545,44.6521],[-93.6542,44.645],[-93.6441,44.6441],[-93.6437,44.6305],[-93.3995,44.6307],[-93.3991,44.6984],[-93.3953,44.7032],[-93.3989,44.7278],[-93.3868,44.7334],[-93.3797,44.7463],[-93.399,44.7466],[-93.3986,44.7979],[-93.4116,44.807],[-93.4382,44.8131],[-93.4439,44.8056],[-93.4548,44.8031],[-93.4832,44.8079],[-93.4915,44.8046],[-93.4984,44.8104],[-93.5032,44.8048],[-93.5202,44.8022],[-93.5405,44.8048],[-93.5412,44.7987],[-93.5472,44.7957],[-93.5549,44.7998],[-93.5793,44.7941],[-93.5821,44.7823],[-93.5994,44.7827],[-93.5963,44.7731],[-93.6217,44.7628],[-93.6085,44.7538],[-93.6139,44.7489],[-93.6209,44.7536],[-93.6314,44.7387],[-93.6285,44.7322],[-93.6328,44.7243],[-93.6256,44.7236],[-93.6262,44.7156],[-93.6178,44.7075],[-93.6438,44.6927],[-93.6442,44.6816],[-93.6545,44.6816],[-93.6547,44.6753]]]},"properties":{"geoid":"27054","state":"27","district":"54","name":"State Senate District 54","chamber":"Senate"}},{"type":"Feature","geometry":{"type":"Polygon","coordinates":[[[-93.399,44.7477],[-93.3797,44.7463],[-93.3868,44.7334],[-93.3989,44.7278],[-93.3989,44.7173],[-93.2483,44.7175],[-93.2481,44.7873],[-93.2583,44.7837],[-93.2582,44.7903],[-93.2656,44.7902],[-93.2884,44.7822],[-93.29,44.8001],[-93.3273,44.7922],[-93.336,44.7865],[-93.3492,44.7913],[-93.3556,44.7855],[-93.3651,44.7892],[-93.3793,44.7851],[-93.3848,44.7973],[-93.3988,44.7984],[-93.399,44.7477]]]},"properties":{"geoid":"27055","state":"27","district":"55","name":"State Senate District 55","chamber":"Senate"}},{"type":"Feature","geometry":{"type":"Polygon","coordinates":[[[-93.2483,44.7207],[-93.2483,44.7175],[-93.1467,44.7174],[-93.1466,44.7233],[-93.1365,44.7229],[-93.1364,44.7317],[-93.1162,44.7324],[-93.1076,44.7391],[-93.0347,44.739],[-93.0349,44.7755],[-93.1063,44.7757],[-93.1063,44.7901],[-93.1709,44.7902],[-93.1875,44.7812],[-93.187,44.7759],[-93.2225,44.7758],[-93.248,44.7595],[-93.2483,44.7207]]]},"properties":{"geoid":"27056","state":"27","district":"56","name":"State Senate District 56","chamber":"Senate"}},{"type":"Feature","geometry":{"type":"Polygon","coordinates":[[[-93.4004,44.5443],[-93.1569,44.5437],[-93.1572,44.6308],[-93.2075,44.6308],[-93.2073,44.6885],[-93.1565,44.6886],[-93.1565,44.7174],[-93.3988,44.7173],[-93.3953,44.7032],[-93.3991,44.6984],[-93.4004,44.5443]]]},"properties":{"geoid":"27057","state":"27","district":"57","name":"State Senate District 57","chamber":"Senate"}},{"type":"Feature","geometry":{"type":"Polygon","coordinates":[[[-93.6458,44.5442],[-93.5243,44.5436],[-93.5245,44.4571],[-93.4025,44.4573],[-93.4031,44.3705],[-92.9192,44.3706],[-92.9208,44.5133],[-92.919,44.5432],[-92.9138,44.5434],[-92.9137,44.6301],[-92.732,44.6295],[-92.732,44.7143],[-92.8126,44.7473],[-92.8126,44.7167],[-92.8329,44.7168],[-92.8329,44.7096],[-92.8228,44.7095],[-92.8267,44.7003],[-92.833,44.7049],[-92.8431,44.7023],[-92.8431,44.7096],[-92.8734,44.7095],[-92.8734,44.7168],[-92.9743,44.7168],[-92.9748,44.7723],[-93.0349,44.7755],[-93.0347,44.739],[-93.107,44.7392],[-93.1162,44.7324],[-93.1364,44.7317],[-93.1365,44.7229],[-93.1466,44.7233],[-93.1467,44.7174],[-93.1565,44.7174],[-93.1565,44.6886],[-93.2073,44.6885],[-93.2075,44.6308],[-93.1572,44.6308],[-93.1569,44.5437],[-93.4005,44.5438],[-93.4003,44.6307],[-93.6439,44.6306],[-93.6458,44.5442]]]},"properties":{"geoid":"27058","state":"27","district":"58","name":"State Senate District 58","chamber":"Senate"}},{"type":"Feature","geometry":{"type":"Polygon","coordinates":[[[-93.3232,45.0406],[-93.3188,45.0355],[-93.3185,44.9807],[-93.276,44.982],[-93.253,44.97],[-93.2466,44.9764],[-93.2514,44.9797],[-93.2477,44.9839],[-93.2526,44.9872],[-93.2502,44.9926],[-93.2676,44.9895],[-93.2758,44.9965],[-93.2751,45.0147],[-93.2832,45.0335],[-93.2822,45.0512],[-93.3195,45.0513],[-93.3194,45.0419],[-93.3232,45.0406]]]},"properties":{"geoid":"27059","state":"27","district":"59","name":"State Senate District 59","chamber":"Senate"}},{"type":"Feature","geometry":{"type":"Polygon","coordinates":[[[-93.2834,45.0354],[-93.2751,45.0147],[-93.2736,44.9929],[-93.2614,44.9889],[-93.2495,44.9912],[-93.2526,44.9872],[-93.2477,44.9839],[-93.2514,44.9797],[-93.2454,44.9789],[-93.2567,44.9657],[-93.2212,44.9673],[-93.2078,44.96],[-93.2076,45.0062],[-93.2177,45.006],[-93.2179,45.0134],[-93.2268,45.0132],[-93.2269,45.0357],[-93.2834,45.0354]]]},"properties":{"geoid":"27060","state":"27","district":"60","name":"State Senate District 60","chamber":"Senate"}},{"type":"Feature","geometry":{"type":"Polygon","coordinates":[[[-93.3292,44.9414],[-93.329,44.9053],[-93.3188,44.9052],[-93.3188,44.8944],[-93.3087,44.8943],[-93.3036,44.8979],[-93.3036,44.9051],[-93.2883,44.9051],[-93.288,44.9655],[-93.2567,44.9657],[-93.253,44.97],[-93.276,44.982],[-93.3287,44.9771],[-93.3292,44.9414]]]},"properties":{"geoid":"27061","state":"27","district":"61","name":"State Senate District 61","chamber":"Senate"}},{"type":"Feature","geometry":{"type":"Polygon","coordinates":[[[-93.2883,44.9232],[-93.2883,44.9196],[-93.275,44.9197],[-93.2751,44.916],[-93.2473,44.9179],[-93.2474,44.9484],[-93.2383,44.9484],[-93.252,44.966],[-93.288,44.9655],[-93.2883,44.9232]]]},"properties":{"geoid":"27062","state":"27","district":"62","name":"State Senate District 62","chamber":"Senate"}},{"type":"Feature","geometry":{"type":"Polygon","coordinates":[[[-93.3188,44.8909],[-93.2585,44.8905],[-93.2541,44.8929],[-93.2578,44.8998],[-93.194,44.9054],[-93.2004,44.9096],[-93.2001,44.9415],[-93.2078,44.96],[-93.2212,44.9673],[-93.252,44.966],[-93.2383,44.9484],[-93.2474,44.9484],[-93.2473,44.9179],[-93.2883,44.9196],[-93.2883,44.9051],[-93.3036,44.9051],[-93.3036,44.8979],[-93.3188,44.8944],[-93.3188,44.8909]]]},"properties":{"geoid":"27063","state":"27","district":"63","name":"State Senate District 63","chamber":"Senate"}},{"type":"Feature","geometry":{"type":"Polygon","coordinates":[[[-93.2078,44.9564],[-93.2001,44.9415],[-93.2004,44.9096],[-93.1874,44.8951],[-93.1772,44.8939],[-93.1757,44.8874],[-93.1539,44.8929],[-93.1365,44.9061],[-93.1287,44.9196],[-93.1175,44.9239],[-93.116,44.9341],[-93.1267,44.9341],[-93.1043,44.9468],[-93.1161,44.9507],[-93.1161,44.9474],[-93.1568,44.9475],[-93.1568,44.9513],[-93.1799,44.952],[-93.2017,44.9597],[-93.2078,44.9564]]]},"properties":{"geoid":"27064","state":"27","district":"64","name":"State Senate District 64","chamber":"Senate"}},{"type":"Feature","geometry":{"type":"Polygon","coordinates":[[[-93.167,44.9629],[-93.167,44.9512],[-93.1568,44.9513],[-93.1568,44.9475],[-93.1161,44.9474],[-93.1161,44.9507],[-93.1047,44.9477],[-93.1267,44.9341],[-93.116,44.9341],[-93.1159,44.9306],[-93.1175,44.9239],[-93.1286,44.9196],[-93.1058,44.9197],[-93.1059,44.9053],[-93.0755,44.9052],[-93.0757,44.9124],[-93.0654,44.9124],[-93.0654,44.9195],[-93.0499,44.9199],[-93.0521,44.9386],[-93.0766,44.952],[-93.0761,44.9655],[-93.0893,44.9667],[-93.0888,44.9771],[-93.12,44.9774],[-93.1212,44.9684],[-93.1415,44.9702],[-93.1466,44.963],[-93.167,44.9629]]]},"properties":{"geoid":"27065","state":"27","district":"65","name":"State Senate District 65","chamber":"Senate"}},{"type":"Feature","geometry":{"type":"Polygon","coordinates":[[[-93.2078,44.9597],[-93.167,44.9516],[-93.167,44.9629],[-93.1466,44.963],[-93.1415,44.9702],[-93.1212,44.9684],[-93.12,44.9774],[-93.0888,44.9771],[-93.0893,44.9667],[-93.0761,44.9655],[-93.0761,44.9702],[-93.066,44.9703],[-93.0661,44.992],[-93.1414,44.9919],[-93.1363,45.0063],[-93.1464,45.0064],[-93.1465,45.0104],[-93.2004,45.0102],[-93.2076,45.0062],[-93.2078,44.9597]]]},"properties":{"geoid":"27066","state":"27","district":"66","name":"State Senate District 66","chamber":"Senate"}},{"type":"Feature","geometry":{"type":"Polygon","coordinates":[[[-93.0789,44.9556],[-93.0521,44.9386],[-93.0516,44.9195],[-93.0347,44.8978],[-93.02,44.8908],[-93.0044,44.8908],[-93.0051,44.992],[-93.0661,44.992],[-93.066,44.9703],[-93.0761,44.9702],[-93.0789,44.9556]]]},"properties":{"geoid":"27067","state":"27","district":"67","name":"State Senate District 67","chamber":"Senate"}}]}