{"type":"FeatureCollection","features":[{"type":"Feature","geometry":{"type":"Polygon","coordinates":[[[-90.3984,38.5593],[-90.3981,38.5445],[-90.3799,38.5442],[-90.3803,38.5133],[-90.3902,38.5088],[-90.3799,38.5041],[-90.3826,38.491],[-90.3773,38.4939],[-90.3558,38.4856],[-90.3729,38.4646],[-90.3765,38.4529],[-90.3536,38.4582],[-90.3361,38.4535],[-90.3486,38.4301],[-90.3486,38.4071],[-90.3421,38.3873],[-90.2911,38.4309],[-90.2574,38.5319],[-90.271,38.5387],[-90.2723,38.5484],[-90.2924,38.559],[-90.2977,38.5536],[-90.3083,38.5644],[-90.3339,38.567],[-90.3326,38.5722],[-90.339,38.5731],[-90.3358,38.592],[-90.326,38.601],[-90.3342,38.6038],[-90.3355,38.6101],[-90.344,38.6106],[-90.351,38.6049],[-90.3586,38.6093],[-90.3597,38.6003],[-90.3723,38.6017],[-90.3773,38.5826],[-90.3912,38.5828],[-90.3915,38.5679],[-90.3975,38.5678],[-90.3984,38.5593]]]},"properties":{"geoid":"29001","state":"29","district":"1","name":"State Senate District 1","chamber":"Senate"}},{"type":"Feature","geometry":{"type":"Polygon","coordinates":[[[-90.9644,38.5492],[-90.9477,38.5389],[-90.9268,38.5343],[-90.8949,38.541],[-90.8419,38.566],[-90.813,38.5856],[-90.7687,38.5977],[-90.7424,38.6346],[-90.7287,38.6429],[-90.7123,38.6457],[-90.7003,38.6591],[-90.6817,38.6643],[-90.6682,38.6849],[-90.6326,38.6911],[-90.596,38.6799],[-90.5507,38.6824],[-90.5328,38.6958],[-90.5339,38.7207],[-90.542,38.7169],[-90.5478,38.7235],[-90.5584,38.7202],[-90.5598,38.7254],[-90.5691,38.7255],[-90.5754,38.7192],[-90.6177,38.7207],[-90.621,38.7319],[-90.6276,38.7297],[-90.6317,38.7346],[-90.6366,38.7255],[-90.6286,38.7286],[-90.6271,38.7239],[-90.6432,38.7243],[-90.6406,38.733],[-90.6444,38.7401],[-90.637,38.7413],[-90.6365,38.7562],[-90.6248,38.7628],[-90.6298,38.7742],[-90.6328,38.7707],[-90.6381,38.7736],[-90.6444,38.7649],[-90.6614,38.7647],[-90.666,38.7689],[-90.6584,38.7705],[-90.6607,38.7745],[-90.6523,38.7812],[-90.653,38.7865],[-90.6645,38.7873],[-90.6601,38.7829],[-90.667,38.783],[-90.6755,38.7887],[-90.671,38.7964],[-90.6763,38.8025],[-90.6533,38.7996],[-90.651,38.8148],[-90.695,38.8429],[-90.6846,38.85],[-90.6893,38.8618],[-90.6991,38.8616],[-90.6992,38.8546],[-90.6893,38.8507],[-90.6993,38.8509],[-90.6993,38.8474],[-90.7064,38.8542],[-90.7145,38.8733],[-90.7225,38.8729],[-90.7266,38.8795],[-90.7222,38.8802],[-90.7269,38.88],[-90.751,38.923],[-90.7588,38.9196],[-90.7764,38.923],[-90.7927,38.9174],[-90.8044,38.9111],[-90.7975,38.9044],[-90.8082,38.9],[-90.8103,38.8864],[-90.8065,38.8785],[-90.8271,38.8777],[-90.8238,38.8644],[-90.8317,38.8624],[-90.8313,38.8314],[-90.8115,38.8208],[-90.8101,38.8099],[-90.8009,38.8089],[-90.7975,38.8172],[-90.7937,38.8106],[-90.7795,38.8106],[-90.7758,38.805],[-90.8082,38.8054],[-90.8166,38.8034],[-90.8167,38.7959],[-90.8266,38.7984],[-90.8265,38.7924],[-90.8333,38.7877],[-90.8334,38.772],[-90.843,38.7725],[-90.8431,38.7667],[-90.8479,38.7672],[-90.8467,38.7778],[-90.8657,38.7742],[-90.8691,38.7841],[-90.8748,38.778],[-90.8692,38.7924],[-90.8794,38.7959],[-90.8827,38.7872],[-90.8756,38.7854],[-90.8829,38.7817],[-90.8877,38.7821],[-90.8878,38.7877],[-90.883,38.7892],[-90.8862,38.7924],[-90.8971,38.7887],[-90.8971,38.785],[-90.9109,38.7888],[-90.9109,38.7924],[-90.9248,38.789],[-90.9218,38.7962],[-90.9301,38.8034],[-90.9618,38.7917],[-90.9644,38.5492]]]},"properties":{"geoid":"29002","state":"29","district":"2","name":"State Senate District 2","chamber":"Senate"}},{"type":"Feature","geometry":{"type":"Polygon","coordinates":[[[-91.5353,38.2108],[-91.5344,38.1526],[-91.525,38.1524],[-91.5288,37.789],[-91.3083,37.7872],[-91.3107,37.7],[-91.147,37.6972],[-91.1465,37.7408],[-90.9825,37.7403],[-90.8741,37.7342],[-90.7621,37.7385],[-90.6451,37.7348],[-90.6479,37.6428],[-90.1468,37.6416],[-90.1106,37.6713],[-89.9998,37.8217],[-89.9377,37.8751],[-89.953,37.884],[-89.9749,37.926],[-89.9598,37.9401],[-89.9473,37.9403],[-89.9253,37.9542],[-89.9246,37.9598],[-89.9359,37.9596],[-89.9407,37.9709],[-89.965,37.9644],[-89.9968,37.9632],[-90.0594,38.0155],[-90.0883,38.0158],[-90.1105,38.0265],[-90.1262,38.0407],[-90.1296,38.0614],[-90.1583,38.075],[-90.176,38.0707],[-90.217,38.0935],[-90.2426,38.1121],[-90.2748,38.1576],[-90.2906,38.1704],[-90.3272,38.1843],[-90.3554,38.2163],[-90.3697,38.2187],[-90.3736,38.2109],[-90.3831,38.2091],[-90.3798,38.2059],[-90.3855,38.1995],[-90.3776,38.1961],[-90.3846,38.1907],[-90.3805,38.1829],[-90.3837,38.1799],[-90.3982,38.1939],[-90.407,38.1935],[-90.405,38.2018],[-90.4153,38.1924],[-90.4214,38.1952],[-90.4264,38.1906],[-90.4271,38.1994],[-90.4169,38.2053],[-90.4257,38.2042],[-90.4259,38.211],[-90.4196,38.2121],[-90.4335,38.2139],[-90.4617,38.2308],[-90.4968,38.2294],[-90.5155,38.222],[-90.5158,38.2506],[-90.5532,38.2497],[-90.5533,38.2578],[-90.5596,38.2579],[-90.5641,38.2503],[-90.5723,38.262],[-90.5886,38.2622],[-90.6172,38.2756],[-90.6099,38.28],[-90.6079,38.2897],[-90.6306,38.2957],[-90.6307,38.3264],[-90.7556,38.3301],[-90.7802,38.2041],[-91.3676,38.204],[-91.3675,38.2097],[-91.5353,38.2108]]]},"properties":{"geoid":"29003","state":"29","district":"3","name":"State Senate District 3","chamber":"Senate"}},{"type":"Feature","geometry":{"type":"Polygon","coordinates":[[[-90.4013,38.6109],[-90.4015,38.6035],[-90.3778,38.6053],[-90.3597,38.6003],[-90.3586,38.6093],[-90.351,38.6049],[-90.344,38.6106],[-90.3354,38.6101],[-90.3342,38.6038],[-90.326,38.601],[-90.3358,38.592],[-90.339,38.5731],[-90.3326,38.5722],[-90.3339,38.567],[-90.3083,38.5644],[-90.2977,38.5536],[-90.2924,38.559],[-90.28,38.5518],[-90.2658,38.5534],[-90.2651,38.5598],[-90.2476,38.5693],[-90.2518,38.5715],[-90.2491,38.5748],[-90.2558,38.5756],[-90.2597,38.5899],[-90.2511,38.5915],[-90.2508,38.5956],[-90.2405,38.5952],[-90.2372,38.6043],[-90.2419,38.6049],[-90.24,38.6134],[-90.2607,38.6198],[-90.2579,38.6299],[-90.2659,38.6319],[-90.2648,38.6439],[-90.2746,38.645],[-90.2726,38.6575],[-90.2783,38.6581],[-90.2762,38.6631],[-90.2831,38.6669],[-90.2788,38.6729],[-90.2828,38.6797],[-90.3029,38.6495],[-90.3149,38.6516],[-90.3161,38.6459],[-90.3294,38.6472],[-90.3347,38.6567],[-90.3538,38.657],[-90.3488,38.6562],[-90.3513,38.6391],[-90.3619,38.6411],[-90.3633,38.614],[-90.3789,38.6141],[-90.3797,38.6093],[-90.4013,38.6109]]]},"properties":{"geoid":"29004","state":"29","district":"4","name":"State Senate District 4","chamber":"Senate"}},{"type":"Feature","geometry":{"type":"Polygon","coordinates":[[[-90.2831,38.6669],[-90.2762,38.6631],[-90.2783,38.6581],[-90.2726,38.6575],[-90.2746,38.645],[-90.2648,38.6439],[-90.2646,38.6297],[-90.2579,38.6299],[-90.2599,38.6186],[-90.24,38.6134],[-90.2419,38.6049],[-90.2372,38.6043],[-90.2405,38.5952],[-90.2508,38.5956],[-90.2511,38.5915],[-90.2597,38.5899],[-90.2558,38.5756],[-90.2491,38.5748],[-90.2518,38.5715],[-90.2476,38.5693],[-90.2651,38.5598],[-90.2658,38.5534],[-90.28,38.5518],[-90.2723,38.5484],[-90.2669,38.5343],[-90.2578,38.532],[-90.2242,38.5751],[-90.196,38.5945],[-90.1845,38.6116],[-90.178,38.6338],[-90.1811,38.6596],[-90.1864,38.6748],[-90.2092,38.7028],[-90.2119,38.718],[-90.2052,38.7322],[-90.1763,38.7545],[-90.1667,38.7723],[-90.1842,38.7743],[-90.1864,38.7615],[-90.2081,38.7398],[-90.2517,38.7189],[-90.2828,38.6797],[-90.2788,38.6729],[-90.2831,38.6669]]]},"properties":{"geoid":"29005","state":"29","district":"5","name":"State Senate District 5","chamber":"Senate"}},{"type":"Feature","geometry":{"type":"Polygon","coordinates":[[[-93.0821,38.1878],[-93.0591,38.1857],[-93.0724,37.9026],[-92.6202,37.8925],[-92.6187,37.8738],[-92.6087,37.8561],[-92.5992,37.8518],[-92.6001,37.8403],[-92.5854,37.828],[-92.5716,37.8236],[-92.5653,37.8068],[-92.5593,37.8032],[-92.5489,37.8005],[-92.5396,37.8021],[-92.5312,37.8114],[-92.5135,37.8109],[-92.5036,37.8265],[-92.4922,37.8296],[-92.4535,37.8246],[-92.4482,37.8367],[-92.4266,37.851],[-92.4222,37.8587],[-92.4092,37.8593],[-92.4063,38.0206],[-92.1851,38.0162],[-92.1814,38.161],[-92.1978,38.1613],[-92.1932,38.3708],[-92.1806,38.3785],[-92.1606,38.377],[-92.1353,38.3838],[-92.1218,38.3913],[-92.115,38.4019],[-92.1216,38.4173],[-92.1577,38.439],[-92.1689,38.4668],[-92.162,38.473],[-92.1473,38.4741],[-92.1276,38.4609],[-92.1104,38.4574],[-92.0266,38.4726],[-92.0126,38.4841],[-92.0083,38.4971],[-92.0271,38.5287],[-92.0277,38.5466],[-92.0189,38.559],[-92.0035,38.5603],[-92.009,38.5709],[-92.0639,38.5574],[-92.1072,38.5611],[-92.1388,38.5693],[-92.1693,38.5817],[-92.2007,38.6017],[-92.2031,38.6266],[-92.2157,38.6413],[-92.2294,38.646],[-92.2591,38.6453],[-92.2934,38.6666],[-92.3578,38.6795],[-92.363,38.6887],[-92.3433,38.7051],[-92.3457,38.7177],[-92.3602,38.7301],[-92.3975,38.7405],[-92.4086,38.7582],[-92.4071,38.7726],[-92.383,38.7897],[-92.3796,38.8015],[-92.3844,38.8155],[-92.4212,38.8198],[-92.4399,38.8313],[-92.4567,38.8603],[-92.4796,38.8774],[-92.4746,38.9024],[-92.4984,38.9221],[-92.6167,38.6945],[-92.6171,38.68],[-92.9505,38.6858],[-93.06,38.6931],[-93.0821,38.1878]]]},"properties":{"geoid":"29006","state":"29","district":"6","name":"State Senate District 6","chamber":"Senate"}},{"type":"Feature","geometry":{"type":"Polygon","coordinates":[[[-94.6084,38.98],[-94.608,38.8472],[-94.4312,38.8396],[-94.4296,38.8692],[-94.4713,38.8707],[-94.4696,38.8993],[-94.489,38.8999],[-94.4886,38.9072],[-94.5155,38.9093],[-94.5114,38.9227],[-94.523,38.9249],[-94.5226,38.9385],[-94.5352,38.9426],[-94.5439,38.9385],[-94.5873,38.9412],[-94.5867,38.9556],[-94.582,38.9555],[-94.5795,39.007],[-94.5749,39.0073],[-94.5726,39.0996],[-94.5298,39.0981],[-94.5378,39.0942],[-94.5267,39.0942],[-94.5276,39.0835],[-94.5153,39.0831],[-94.5144,39.1013],[-94.5307,39.1056],[-94.5303,39.1128],[-94.5093,39.1121],[-94.5078,39.1194],[-94.5156,39.1224],[-94.5341,39.1459],[-94.5583,39.1258],[-94.5957,39.11],[-94.6074,39.1134],[-94.6084,38.98]]]},"properties":{"geoid":"29007","state":"29","district":"7","name":"State Senate District 7","chamber":"Senate"}},{"type":"Feature","geometry":{"type":"Polygon","coordinates":[[[-94.4889,38.9018],[-94.4696,38.8993],[-94.4713,38.8707],[-94.4296,38.8692],[-94.4312,38.8396],[-94.1188,38.8332],[-94.1115,38.9829],[-94.1279,38.9831],[-94.1305,38.976],[-94.1378,38.9833],[-94.1344,38.9903],[-94.1452,38.9943],[-94.153,38.9882],[-94.1577,38.991],[-94.1526,39.0049],[-94.1783,39.0186],[-94.1874,39.0102],[-94.1985,39.0076],[-94.199,38.9924],[-94.2083,38.9927],[-94.2086,38.9855],[-94.2178,38.9893],[-94.2141,38.9929],[-94.2317,38.9899],[-94.231,39.0079],[-94.2404,39.0082],[-94.2402,39.0117],[-94.226,39.0184],[-94.2271,39.0245],[-94.2217,39.0238],[-94.2215,39.0292],[-94.2298,39.0342],[-94.2229,39.0395],[-94.2296,39.0404],[-94.2339,39.0514],[-94.2479,39.0483],[-94.2569,39.0522],[-94.2582,39.0487],[-94.2613,39.0569],[-94.2567,39.0577],[-94.2775,39.0662],[-94.2708,39.0528],[-94.3153,39.0541],[-94.3054,39.0356],[-94.3319,39.0383],[-94.3371,39.0292],[-94.3278,39.027],[-94.3314,39.0215],[-94.3328,39.025],[-94.3634,39.0263],[-94.3869,39.0176],[-94.3899,38.973],[-94.3854,38.9728],[-94.3861,38.9581],[-94.3957,38.9581],[-94.407,38.9658],[-94.4048,38.9622],[-94.4144,38.9556],[-94.4102,38.9408],[-94.4479,38.9426],[-94.45,38.9238],[-94.4754,38.9222],[-94.4839,38.9159],[-94.4889,38.9018]]]},"properties":{"geoid":"29008","state":"29","district":"8","name":"State Senate District 8","chamber":"Senate"}},{"type":"Feature","geometry":{"type":"Polygon","coordinates":[[[-94.5875,38.9509],[-94.5873,38.9412],[-94.5439,38.9385],[-94.5352,38.9426],[-94.5226,38.9385],[-94.523,38.9249],[-94.5114,38.9227],[-94.5155,38.9093],[-94.4874,38.9072],[-94.4754,38.9222],[-94.45,38.9238],[-94.4479,38.9426],[-94.4102,38.9408],[-94.4144,38.9556],[-94.4048,38.9622],[-94.407,38.9658],[-94.3957,38.9581],[-94.3861,38.9581],[-94.3854,38.9728],[-94.3899,38.973],[-94.387,39.0353],[-94.425,39.0352],[-94.4254,39.0263],[-94.4377,39.0268],[-94.4333,39.0417],[-94.4364,39.0438],[-94.4768,39.0622],[-94.5228,39.0723],[-94.5267,39.0942],[-94.5378,39.0942],[-94.5298,39.0981],[-94.5726,39.0996],[-94.5749,39.0073],[-94.5795,39.007],[-94.582,38.9555],[-94.5867,38.9556],[-94.5875,38.9509]]]},"properties":{"geoid":"29009","state":"29","district":"9","name":"State Senate District 9","chamber":"Senate"}},{"type":"Feature","geometry":{"type":"Polygon","coordinates":[[[-92.226,38.6986],[-92.2185,38.6891],[-92.2207,38.6432],[-92.2048,38.6303],[-92.2007,38.6017],[-92.1693,38.5817],[-92.1386,38.5693],[-92.1072,38.5611],[-92.0639,38.5574],[-92.0156,38.5674],[-91.9775,38.5896],[-91.9439,38.5971],[-91.8937,38.6341],[-91.8774,38.6577],[-91.8606,38.6682],[-91.8144,38.6818],[-91.7602,38.685],[-91.7323,38.7059],[-91.638,38.7035],[-91.5877,38.6822],[-91.5506,38.6763],[-91.5026,38.695],[-91.5011,38.7047],[-91.4878,38.7131],[-91.4718,38.7075],[-91.4527,38.7095],[-91.4576,38.7063],[-91.4186,38.7098],[-91.4158,38.8453],[-91.2649,38.8438],[-91.2643,38.9928],[-91.1884,38.9921],[-91.1893,38.9322],[-91.1102,38.9319],[-91.1113,38.8727],[-90.9585,38.8709],[-90.9618,38.7917],[-90.9301,38.8034],[-90.9218,38.7962],[-90.9248,38.789],[-90.9109,38.7924],[-90.9109,38.7888],[-90.8971,38.785],[-90.8971,38.7887],[-90.8862,38.7924],[-90.883,38.7892],[-90.8878,38.7877],[-90.8877,38.7821],[-90.8829,38.7817],[-90.8756,38.7854],[-90.8827,38.7872],[-90.8794,38.7959],[-90.8692,38.7924],[-90.8748,38.778],[-90.8691,38.7841],[-90.8657,38.7742],[-90.8467,38.7778],[-90.8479,38.7672],[-90.8431,38.7667],[-90.843,38.7725],[-90.8334,38.772],[-90.8333,38.7877],[-90.8265,38.7924],[-90.8266,38.7984],[-90.8167,38.7959],[-90.8166,38.8034],[-90.8082,38.8054],[-90.7758,38.805],[-90.7795,38.8106],[-90.7937,38.8106],[-90.7975,38.8172],[-90.8009,38.8089],[-90.8101,38.8099],[-90.8115,38.8208],[-90.8313,38.8314],[-90.8317,38.8624],[-90.8238,38.8644],[-90.8271,38.8777],[-90.8063,38.8787],[-90.8103,38.8864],[-90.8082,38.9],[-90.7975,38.9044],[-90.8042,38.9115],[-90.7774,38.9228],[-90.7575,38.9197],[-90.7438,38.9301],[-90.7288,38.9311],[-90.7238,38.9252],[-90.7356,38.9158],[-90.7246,38.9152],[-90.7241,38.9088],[-90.7142,38.9099],[-90.7076,38.9027],[-90.6994,38.9084],[-90.7062,38.9135],[-90.7167,38.9129],[-90.7143,38.9182],[-90.7059,38.9215],[-90.6962,38.9156],[-90.6838,38.916],[-90.6975,38.9282],[-90.6966,38.9328],[-90.6632,38.9342],[-90.6759,38.9621],[-90.679,38.9939],[-90.7136,39.054],[-90.6827,39.0883],[-90.6811,39.1006],[-90.6861,39.1178],[-90.7079,39.1509],[-90.727,39.2512],[-90.736,39.2604],[-90.7516,39.2654],[-90.7935,39.3095],[-90.8169,39.3205],[-90.8422,39.3419],[-90.8938,39.3673],[-90.9049,39.3794],[-90.9287,39.3875],[-90.9426,39.4051],[-90.9938,39.423],[-91.0383,39.4484],[-91.0594,39.4689],[-91.0643,39.4946],[-91.0798,39.5077],[-91.1003,39.5387],[-91.1536,39.5482],[-91.1684,39.5649],[-91.178,39.5982],[-91.2037,39.5984],[-91.4604,39.4507],[-91.409,39.1425],[-91.6296,39.1479],[-91.634,39.0591],[-92.1315,39.0645],[-92.1286,39.0478],[-92.1408,39.0301],[-92.1302,39.0236],[-92.1339,39.011],[-92.1405,39.0068],[-92.1366,38.9996],[-92.1381,38.9853],[-92.1464,38.9807],[-92.1433,38.9679],[-92.1528,38.9466],[-92.1539,38.9243],[-92.1608,38.9254],[-92.155,38.9155],[-92.169,38.8966],[-92.1587,38.8946],[-92.1554,38.8844],[-92.1482,38.8855],[-92.1487,38.8803],[-92.1561,38.8807],[-92.1625,38.8656],[-92.1493,38.8662],[-92.1478,38.8573],[-92.1542,38.8535],[-92.1454,38.8543],[-92.1485,38.8456],[-92.1403,38.8453],[-92.1505,38.8392],[-92.1454,38.8331],[-92.1529,38.8263],[-92.1428,38.8218],[-92.1457,38.815],[-92.1384,38.8178],[-92.1352,38.8139],[-92.151,38.806],[-92.1452,38.7963],[-92.1505,38.7975],[-92.152,38.8038],[-92.1583,38.8021],[-92.1582,38.7851],[-92.1642,38.7839],[-92.1678,38.7768],[-92.1624,38.776],[-92.1629,38.7652],[-92.1719,38.7644],[-92.1759,38.7541],[-92.1861,38.7479],[-92.1818,38.7386],[-92.1942,38.7366],[-92.1924,38.7261],[-92.2122,38.7201],[-92.2168,38.7136],[-92.2157,38.7025],[-92.226,38.6986]]]},"properties":{"geoid":"29010","state":"29","district":"10","name":"State Senate District 10","chamber":"Senate"}},{"type":"Feature","geometry":{"type":"Polygon","coordinates":[[[-94.5341,39.1459],[-94.5156,39.1224],[-94.5077,39.1193],[-94.5093,39.1121],[-94.5303,39.1128],[-94.5307,39.1056],[-94.5144,39.1013],[-94.5153,39.0831],[-94.5234,39.0834],[-94.5231,39.0725],[-94.4768,39.0622],[-94.4364,39.0438],[-94.4333,39.0417],[-94.4377,39.0268],[-94.4254,39.0263],[-94.425,39.0352],[-94.387,39.0353],[-94.3869,39.0176],[-94.3634,39.0263],[-94.3328,39.025],[-94.3314,39.0215],[-94.3278,39.027],[-94.3371,39.0292],[-94.3319,39.0383],[-94.3054,39.0356],[-94.3153,39.0541],[-94.2708,39.0528],[-94.2773,39.0646],[-94.2742,39.0661],[-94.2567,39.0577],[-94.2613,39.0569],[-94.2582,39.0487],[-94.2569,39.0522],[-94.2479,39.0483],[-94.2339,39.0514],[-94.2296,39.0404],[-94.2229,39.0395],[-94.2298,39.0342],[-94.2215,39.0292],[-94.2217,39.0238],[-94.2271,39.0245],[-94.226,39.0184],[-94.2402,39.0117],[-94.2404,39.0082],[-94.231,39.0079],[-94.2317,38.9899],[-94.2141,38.9929],[-94.2178,38.9893],[-94.2086,38.9855],[-94.2083,38.9927],[-94.199,38.9924],[-94.1985,39.0076],[-94.1874,39.0102],[-94.1783,39.0186],[-94.1526,39.0049],[-94.1577,38.991],[-94.153,38.9882],[-94.1452,38.9943],[-94.1344,38.9903],[-94.1378,38.9833],[-94.1305,38.976],[-94.1279,38.9831],[-94.1115,38.9829],[-94.1048,39.1435],[-94.1337,39.1712],[-94.1858,39.181],[-94.1851,39.1893],[-94.1702,39.2045],[-94.1723,39.2134],[-94.1863,39.2141],[-94.2115,39.2068],[-94.2288,39.2146],[-94.2384,39.2282],[-94.25,39.2348],[-94.2899,39.2371],[-94.3089,39.2274],[-94.3282,39.1912],[-94.3636,39.1637],[-94.3785,39.1704],[-94.3897,39.1935],[-94.4072,39.1953],[-94.3999,39.1748],[-94.4023,39.1648],[-94.4304,39.138],[-94.4616,39.1204],[-94.4846,39.1455],[-94.4954,39.1504],[-94.5341,39.1459]]]},"properties":{"geoid":"29011","state":"29","district":"11","name":"State Senate District 11","chamber":"Senate"}},{"type":"Feature","geometry":{"type":"Polygon","coordinates":[[[-95.7747,40.5736],[-95.7638,40.5539],[-95.7687,40.5341],[-95.7527,40.5249],[-95.7175,40.5278],[-95.7086,40.5216],[-95.6955,40.532],[-95.6941,40.5569],[-95.6787,40.5626],[-95.6718,40.5626],[-95.6558,40.5466],[-95.6523,40.5381],[-95.6617,40.5173],[-95.7,40.5053],[-95.6948,40.4947],[-95.6947,40.4715],[-95.6677,40.4535],[-95.6566,40.4387],[-95.6606,40.4124],[-95.6439,40.3869],[-95.641,40.3664],[-95.6227,40.3423],[-95.6276,40.3324],[-95.6537,40.3226],[-95.6573,40.3109],[-95.6453,40.3057],[-95.6104,40.314],[-95.5818,40.2996],[-95.5622,40.2974],[-95.5516,40.2887],[-95.5563,40.2708],[-95.5525,40.2619],[-95.521,40.2501],[-95.489,40.2487],[-95.4762,40.2413],[-95.4699,40.2227],[-95.4823,40.2007],[-95.4792,40.1857],[-95.4638,40.1712],[-95.4363,40.1587],[-95.4274,40.1346],[-95.4003,40.1273],[-95.3933,40.1192],[-95.3942,40.1083],[-95.4101,40.094],[-95.4087,40.077],[-95.4216,40.059],[-95.4168,40.0432],[-95.4073,40.0331],[-95.3872,40.0268],[-95.3569,40.0315],[-95.3153,40.0121],[-95.3058,39.9879],[-95.2699,39.9694],[-95.2503,39.9486],[-95.2053,39.9397],[-95.2004,39.931],[-95.2061,39.9121],[-95.2027,39.9051],[-95.1812,39.9],[-95.1497,39.9059],[-95.1428,39.9004],[-95.1406,39.8817],[-95.1245,39.8729],[-95.0816,39.8615],[-95.0394,39.8648],[-95.0267,39.8723],[-95.0252,39.8897],[-95.0151,39.8996],[-94.9871,39.8963],[-94.9552,39.9013],[-94.9291,39.8884],[-94.9278,39.8778],[-94.9407,39.8652],[-94.9426,39.857],[-94.9168,39.8358],[-94.8865,39.8333],[-94.8766,39.8209],[-94.7564,39.8206],[-94.759,39.7656],[-94.7568,39.7554],[-94.748,39.7554],[-94.7451,39.7484],[-94.7591,39.7485],[-94.759,39.719],[-94.7886,39.7191],[-94.7884,39.5317],[-94.6012,39.5302],[-94.5979,39.4558],[-94.2106,39.4547],[-94.2084,39.5272],[-93.7592,39.5246],[-93.7585,39.207],[-93.7023,39.2088],[-93.6856,39.2286],[-93.6619,39.2358],[-93.6522,39.2483],[-93.5858,39.2408],[-93.5632,39.22],[-93.5515,39.217],[-93.5002,39.218],[-93.4866,39.2339],[-93.4962,39.2649],[-93.4943,39.2784],[-93.4858,39.2888],[-93.4733,39.2933],[-93.4587,39.2883],[-93.4442,39.2685],[-93.4139,39.2678],[-93.4048,39.2633],[-93.4045,39.2542],[-93.4152,39.2418],[-93.4114,39.2311],[-93.3963,39.2263],[-93.3731,39.2313],[-93.3291,39.2551],[-93.329,39.2655],[-93.3444,39.2894],[-93.3369,39.307],[-93.2777,39.3115],[-93.2526,39.3389],[-93.2415,39.337],[-93.2301,39.3279],[-93.2212,39.3317],[-93.1896,39.3704],[-93.1895,39.3798],[-93.2007,39.4018],[-93.1931,39.4093],[-93.1806,39.4118],[-93.1643,39.405],[-93.152,39.3872],[-93.1396,39.3786],[-93.1252,39.3777],[-93.1061,39.3837],[-93.0878,39.3789],[-93.0771,39.3655],[-93.0744,39.338],[-93.052,39.3207],[-93.0238,39.3131],[-92.9598,39.3125],[-92.9534,39.3028],[-92.9578,39.2793],[-92.9474,39.2701],[-92.9167,39.2579],[-92.9196,39.2316],[-92.9061,39.2223],[-92.8866,39.2243],[-92.8629,39.2364],[-92.8507,39.2331],[-92.8492,39.2262],[-92.7904,39.3436],[-92.7074,39.3216],[-92.6984,39.5757],[-92.6966,39.6104],[-92.6921,39.6103],[-92.6893,39.6981],[-92.8579,39.7],[-92.8475,40.0373],[-92.8562,40.0373],[-92.8553,40.3859],[-93.3669,40.383],[-93.3669,40.4715],[-93.3748,40.4722],[-93.3744,40.5803],[-94.546,40.5708],[-95.7656,40.5852],[-95.7747,40.5736]]]},"properties":{"geoid":"29012","state":"29","district":"12","name":"State Senate District 12","chamber":"Senate"}},{"type":"Feature","geometry":{"type":"Polygon","coordinates":[[[-90.3951,38.8227],[-90.3663,38.8053],[-90.3745,38.7907],[-90.3643,38.7856],[-90.3689,38.7809],[-90.3765,38.7821],[-90.3506,38.7769],[-90.3514,38.7648],[-90.3493,38.7739],[-90.3439,38.7733],[-90.34,38.7649],[-90.3249,38.7647],[-90.3237,38.772],[-90.3118,38.7667],[-90.3052,38.77],[-90.3078,38.7728],[-90.2606,38.7709],[-90.259,38.7639],[-90.2644,38.764],[-90.2615,38.7576],[-90.2699,38.7589],[-90.2769,38.7494],[-90.2756,38.7411],[-90.2693,38.7433],[-90.2645,38.7384],[-90.2779,38.7347],[-90.2768,38.7273],[-90.2926,38.7251],[-90.29,38.718],[-90.2807,38.7189],[-90.2855,38.7114],[-90.2652,38.7019],[-90.2517,38.7189],[-90.2218,38.7301],[-90.1989,38.7479],[-90.1864,38.7615],[-90.1842,38.7743],[-90.1667,38.7723],[-90.1324,38.7909],[-90.1177,38.8057],[-90.1246,38.8199],[-90.1403,38.8291],[-90.1552,38.8298],[-90.1802,38.8178],[-90.197,38.8211],[-90.2629,38.855],[-90.289,38.8842],[-90.3162,38.8917],[-90.3354,38.8849],[-90.345,38.8494],[-90.3622,38.8279],[-90.3747,38.8221],[-90.3951,38.8227]]]},"properties":{"geoid":"29013","state":"29","district":"13","name":"State Senate District 13","chamber":"Senate"}},{"type":"Feature","geometry":{"type":"Polygon","coordinates":[[[-90.4813,38.7669],[-90.4491,38.7511],[-90.4569,38.7517],[-90.4689,38.7418],[-90.4641,38.7363],[-90.4531,38.7438],[-90.4393,38.7433],[-90.4298,38.7374],[-90.4293,38.729],[-90.4073,38.7223],[-90.4088,38.7076],[-90.3912,38.6987],[-90.3946,38.6611],[-90.3347,38.6567],[-90.3294,38.6472],[-90.3161,38.6459],[-90.3149,38.6516],[-90.3029,38.6495],[-90.2652,38.7019],[-90.2855,38.7114],[-90.2807,38.7189],[-90.29,38.718],[-90.2926,38.7251],[-90.2768,38.7273],[-90.2779,38.7347],[-90.2645,38.7384],[-90.2693,38.7433],[-90.2756,38.7411],[-90.2769,38.7494],[-90.2699,38.7589],[-90.2615,38.7576],[-90.2644,38.764],[-90.259,38.7639],[-90.2606,38.7709],[-90.3078,38.7728],[-90.3052,38.77],[-90.3118,38.7667],[-90.3237,38.772],[-90.3249,38.7647],[-90.34,38.7649],[-90.3439,38.7733],[-90.3493,38.7739],[-90.3514,38.7648],[-90.3506,38.7769],[-90.3765,38.7821],[-90.3689,38.7809],[-90.3643,38.7856],[-90.3745,38.7907],[-90.3663,38.8053],[-90.3951,38.8227],[-90.4231,38.8288],[-90.4417,38.8263],[-90.4732,38.791],[-90.4813,38.7669]]]},"properties":{"geoid":"29014","state":"29","district":"14","name":"State Senate District 14","chamber":"Senate"}},{"type":"Feature","geometry":{"type":"Polygon","coordinates":[[[-90.7356,38.4925],[-90.6904,38.5039],[-90.69,38.5112],[-90.6808,38.5109],[-90.6804,38.5182],[-90.6529,38.5172],[-90.6527,38.5215],[-90.6459,38.5216],[-90.631,38.5167],[-90.6336,38.5242],[-90.6259,38.5171],[-90.6256,38.523],[-90.608,38.5166],[-90.6129,38.5047],[-90.6076,38.5018],[-90.5104,38.5013],[-90.5154,38.5301],[-90.5112,38.5389],[-90.514,38.5463],[-90.5207,38.5469],[-90.5206,38.552],[-90.507,38.5548],[-90.5083,38.5604],[-90.4959,38.5662],[-90.4843,38.5629],[-90.4781,38.5693],[-90.482,38.5725],[-90.4742,38.5709],[-90.4651,38.5788],[-90.4668,38.5848],[-90.4628,38.5885],[-90.4674,38.5857],[-90.4675,38.5914],[-90.4716,38.5915],[-90.4675,38.5969],[-90.474,38.5994],[-90.4486,38.6077],[-90.4484,38.6187],[-90.4297,38.6185],[-90.4333,38.6387],[-90.467,38.6408],[-90.467,38.6445],[-90.4691,38.6408],[-90.481,38.6408],[-90.4797,38.6525],[-90.4842,38.6541],[-90.4774,38.6659],[-90.4816,38.6712],[-90.4914,38.6709],[-90.4922,38.6761],[-90.4855,38.6827],[-90.497,38.6923],[-90.5307,38.6795],[-90.5401,38.6874],[-90.5547,38.6816],[-90.57,38.6841],[-90.596,38.6799],[-90.6326,38.6911],[-90.6682,38.6849],[-90.6817,38.6643],[-90.7022,38.658],[-90.7132,38.6452],[-90.7331,38.6409],[-90.7356,38.4925]]]},"properties":{"geoid":"29015","state":"29","district":"15","name":"State Senate District 15","chamber":"Senate"}},{"type":"Feature","geometry":{"type":"Polygon","coordinates":[[[-92.8599,37.7214],[-92.8463,37.721],[-92.8535,37.484],[-92.6867,37.4815],[-92.6923,37.2635],[-92.679,37.2631],[-92.6859,37.0671],[-92.2514,37.0597],[-92.2472,37.2549],[-92.253,37.2548],[-92.2495,37.6045],[-91.7548,37.5988],[-91.755,37.4241],[-91.4271,37.418],[-91.2119,37.4153],[-91.211,37.5019],[-91.3142,37.5051],[-91.3125,37.5928],[-91.1551,37.5881],[-91.1533,37.6973],[-91.3107,37.7],[-91.3083,37.7872],[-91.5288,37.789],[-91.525,38.1524],[-91.6449,38.1537],[-91.6447,38.2885],[-91.8631,38.2936],[-92.0105,38.2881],[-92.1952,38.2922],[-92.1978,38.1613],[-92.1814,38.161],[-92.1851,38.0162],[-92.4063,38.0206],[-92.4092,37.8593],[-92.4222,37.8587],[-92.4266,37.851],[-92.4482,37.8367],[-92.4535,37.8246],[-92.5015,37.8277],[-92.5135,37.8109],[-92.5316,37.8113],[-92.5396,37.8021],[-92.5642,37.8057],[-92.5716,37.8236],[-92.5854,37.828],[-92.6001,37.8403],[-92.5992,37.8518],[-92.6087,37.8561],[-92.6187,37.8738],[-92.6202,37.8925],[-92.8554,37.8957],[-92.8599,37.7214]]]},"properties":{"geoid":"29016","state":"29","district":"16","name":"State Senate District 16","chamber":"Senate"}},{"type":"Feature","geometry":{"type":"Polygon","coordinates":[[[-94.6085,39.1162],[-94.6039,39.1109],[-94.5922,39.1112],[-94.555,39.1274],[-94.5342,39.1459],[-94.5127,39.1505],[-94.4846,39.1455],[-94.4616,39.1204],[-94.4258,39.1418],[-94.4023,39.1648],[-94.3999,39.1748],[-94.409,39.1921],[-94.4017,39.1975],[-94.4205,39.1903],[-94.4346,39.1938],[-94.4462,39.1851],[-94.4486,39.1758],[-94.4543,39.1866],[-94.4457,39.1945],[-94.4567,39.1947],[-94.4567,39.202],[-94.4705,39.2019],[-94.4705,39.2056],[-94.4799,39.2077],[-94.4739,39.2156],[-94.4658,39.2168],[-94.4657,39.2235],[-94.4699,39.2235],[-94.4562,39.2461],[-94.4546,39.2687],[-94.4475,39.2657],[-94.4454,39.281],[-94.4372,39.2809],[-94.4371,39.2882],[-94.4213,39.2882],[-94.4214,39.2954],[-94.4448,39.2954],[-94.4448,39.3031],[-94.4594,39.3032],[-94.4593,39.3171],[-94.469,39.3135],[-94.4732,39.3168],[-94.4733,39.3333],[-94.6008,39.3333],[-94.6017,39.1596],[-94.5907,39.1548],[-94.5884,39.1489],[-94.5903,39.1381],[-94.6085,39.1162]]]},"properties":{"geoid":"29017","state":"29","district":"17","name":"State Senate District 17","chamber":"Senate"}},{"type":"Feature","geometry":{"type":"Polygon","coordinates":[[[-93.3752,40.5527],[-93.3748,40.4722],[-93.3669,40.4715],[-93.3669,40.383],[-92.8553,40.3859],[-92.8562,40.0373],[-92.8475,40.0373],[-92.8579,39.7],[-92.6893,39.6981],[-92.6921,39.6103],[-92.6966,39.6104],[-92.6984,39.5757],[-92.7074,39.3216],[-92.4303,39.2488],[-92.1044,39.2398],[-92.1104,39.0642],[-91.634,39.0591],[-91.6296,39.1479],[-91.409,39.1425],[-91.4604,39.4507],[-91.2037,39.5984],[-91.178,39.5982],[-91.1859,39.6051],[-91.2293,39.6209],[-91.2761,39.6658],[-91.3553,39.717],[-91.37,39.7325],[-91.3616,39.7875],[-91.368,39.8004],[-91.3837,39.8146],[-91.4304,39.8389],[-91.4365,39.8471],[-91.4469,39.883],[-91.4435,39.8936],[-91.4209,39.9149],[-91.4194,39.9277],[-91.4653,39.984],[-91.4949,40.0365],[-91.4896,40.0574],[-91.5108,40.1261],[-91.5082,40.1577],[-91.5131,40.1785],[-91.5045,40.1983],[-91.5065,40.2363],[-91.4905,40.2595],[-91.4899,40.286],[-91.4621,40.3424],[-91.4449,40.3631],[-91.4194,40.3783],[-91.4412,40.3863],[-91.4487,40.3768],[-91.4639,40.3757],[-91.4636,40.3855],[-91.4803,40.3818],[-91.4853,40.3847],[-91.4909,40.393],[-91.4885,40.4043],[-91.4981,40.4019],[-91.5246,40.4108],[-91.527,40.4182],[-91.5191,40.4328],[-91.5336,40.4383],[-91.5241,40.4484],[-91.5239,40.4563],[-91.5568,40.4595],[-91.576,40.4668],[-91.5908,40.4923],[-91.6214,40.5101],[-91.618,40.534],[-91.6219,40.5423],[-91.6887,40.5574],[-91.6916,40.5649],[-91.6864,40.5809],[-91.7168,40.5985],[-91.7291,40.6136],[-92.6594,40.5903],[-93.3702,40.5805],[-93.3744,40.5803],[-93.3752,40.5527]]]},"properties":{"geoid":"29018","state":"29","district":"18","name":"State Senate District 18","chamber":"Senate"}},{"type":"Feature","geometry":{"type":"Polygon","coordinates":[[[-92.5702,38.9797],[-92.4777,38.9063],[-92.4745,38.8986],[-92.4796,38.8774],[-92.4567,38.8603],[-92.4399,38.8313],[-92.4212,38.8198],[-92.3844,38.8155],[-92.3796,38.8015],[-92.383,38.7897],[-92.4071,38.7726],[-92.4086,38.7582],[-92.3975,38.7405],[-92.3602,38.7301],[-92.3441,38.7151],[-92.3433,38.7051],[-92.3614,38.692],[-92.3609,38.6818],[-92.3453,38.6749],[-92.2934,38.6666],[-92.2591,38.6453],[-92.2207,38.6432],[-92.2185,38.6891],[-92.226,38.6986],[-92.2157,38.7025],[-92.2168,38.7136],[-92.2122,38.7201],[-92.1924,38.7261],[-92.1942,38.7366],[-92.1818,38.7386],[-92.1861,38.7479],[-92.1759,38.7541],[-92.1719,38.7644],[-92.1629,38.7652],[-92.1624,38.776],[-92.1678,38.7768],[-92.1642,38.7839],[-92.1582,38.7851],[-92.1583,38.8021],[-92.152,38.8038],[-92.1505,38.7975],[-92.1452,38.7963],[-92.151,38.806],[-92.1352,38.8141],[-92.1384,38.8178],[-92.1457,38.815],[-92.1428,38.8218],[-92.1529,38.8263],[-92.1454,38.8331],[-92.1505,38.8392],[-92.1403,38.8453],[-92.1485,38.8456],[-92.1454,38.8543],[-92.1542,38.8535],[-92.1478,38.8573],[-92.1493,38.8662],[-92.1625,38.8656],[-92.1561,38.8807],[-92.1487,38.8803],[-92.1482,38.8855],[-92.1554,38.8844],[-92.1587,38.8946],[-92.169,38.8966],[-92.155,38.9155],[-92.1608,38.9254],[-92.1539,38.9243],[-92.1528,38.9466],[-92.1433,38.9679],[-92.1464,38.9807],[-92.1381,38.9853],[-92.1366,38.9996],[-92.1405,39.0068],[-92.1339,39.011],[-92.1302,39.0236],[-92.1408,39.0301],[-92.1286,39.0478],[-92.1315,39.0645],[-92.1104,39.0642],[-92.1044,39.2398],[-92.4302,39.2488],[-92.5652,38.9986],[-92.5639,38.9869],[-92.5565,38.9854],[-92.5702,38.9797]]]},"properties":{"geoid":"29019","state":"29","district":"19","name":"State Senate District 19","chamber":"Senate"}},{"type":"Feature","geometry":{"type":"Polygon","coordinates":[[[-94.6177,37.6536],[-94.6176,37.3642],[-94.0821,37.3493],[-94.0838,37.2909],[-93.6051,37.2815],[-93.6089,37.0982],[-93.2721,37.0939],[-93.2757,37.0973],[-93.2702,37.0982],[-93.2683,37.1104],[-93.2931,37.1089],[-93.3028,37.1163],[-93.3013,37.1272],[-93.3195,37.1258],[-93.3194,37.1294],[-93.3149,37.1262],[-93.3147,37.1347],[-93.3445,37.1365],[-93.3407,37.1423],[-93.3321,37.1412],[-93.3338,37.1471],[-93.328,37.1457],[-93.3231,37.1566],[-93.3453,37.1564],[-93.3455,37.1532],[-93.3538,37.1564],[-93.3593,37.1521],[-93.3565,37.1472],[-93.369,37.1535],[-93.3695,37.1426],[-93.3741,37.139],[-93.3931,37.1394],[-93.393,37.1431],[-93.4033,37.1395],[-93.4065,37.1432],[-93.4063,37.1502],[-93.3926,37.1552],[-93.3924,37.1599],[-93.4016,37.1604],[-93.3968,37.1666],[-93.3922,37.1666],[-93.3959,37.1613],[-93.3779,37.1603],[-93.3776,37.1723],[-93.3732,37.1722],[-93.3711,37.1609],[-93.3644,37.1592],[-93.3636,37.1687],[-93.3563,37.1757],[-93.3608,37.1758],[-93.3599,37.1879],[-93.3657,37.1886],[-93.3593,37.1903],[-93.3592,37.1994],[-93.3789,37.1997],[-93.3787,37.2053],[-93.3861,37.2063],[-93.385,37.2126],[-93.39,37.2089],[-93.3878,37.2121],[-93.4042,37.2124],[-93.4037,37.2203],[-93.4132,37.2203],[-93.413,37.2246],[-93.4038,37.2248],[-93.4034,37.2349],[-93.4101,37.2349],[-93.407,37.2567],[-93.4114,37.2568],[-93.4104,37.2772],[-93.3969,37.2774],[-93.3806,37.2693],[-93.3491,37.2452],[-93.3427,37.2487],[-93.3429,37.2451],[-93.3207,37.2448],[-93.3264,37.2595],[-93.3104,37.2561],[-93.2895,37.2625],[-93.2696,37.2586],[-93.2648,37.263],[-93.2603,37.2629],[-93.2627,37.2585],[-93.2482,37.2579],[-93.2492,37.266],[-93.244,37.2578],[-93.2379,37.2612],[-93.2381,37.2539],[-93.2368,37.2597],[-93.2288,37.2609],[-93.2233,37.2482],[-93.2197,37.2607],[-93.2121,37.2567],[-93.2122,37.2498],[-93.1999,37.2479],[-93.188,37.2499],[-93.1878,37.2561],[-93.174,37.2555],[-93.1836,37.24],[-93.1882,37.2383],[-93.188,37.2475],[-93.2013,37.2385],[-93.2156,37.2383],[-93.2067,37.231],[-93.2092,37.2237],[-93.2158,37.2259],[-93.22,37.2094],[-93.2094,37.2091],[-93.2049,37.2015],[-93.2103,37.2018],[-93.2073,37.1944],[-93.2163,37.1946],[-93.2121,37.1835],[-93.2168,37.1763],[-93.2035,37.1649],[-93.208,37.1595],[-93.208,37.1651],[-93.2169,37.169],[-93.2128,37.1577],[-93.2218,37.1577],[-93.222,37.1469],[-93.2084,37.1425],[-93.2224,37.1262],[-93.2226,37.1075],[-93.2092,37.0992],[-93.2183,37.0983],[-93.2181,37.0922],[-92.9029,37.0852],[-92.9033,37.0707],[-92.6859,37.0671],[-92.679,37.2631],[-92.6923,37.2635],[-92.6867,37.4815],[-93.0716,37.4874],[-93.0737,37.4148],[-93.6212,37.4274],[-93.616,37.5727],[-94.0754,37.5816],[-94.0737,37.6398],[-94.6177,37.6536]]]},"properties":{"geoid":"29020","state":"29","district":"20","name":"State Senate District 20","chamber":"Senate"}},{"type":"Feature","geometry":{"type":"Polygon","coordinates":[[[-94.601,39.3849],[-94.6008,39.3333],[-94.4733,39.3333],[-94.4732,39.3168],[-94.469,39.3135],[-94.4593,39.3171],[-94.4594,39.3032],[-94.4448,39.3031],[-94.4448,39.2954],[-94.4214,39.2954],[-94.4213,39.2882],[-94.4371,39.2882],[-94.4372,39.2809],[-94.4454,39.281],[-94.4475,39.2657],[-94.4546,39.2687],[-94.4562,39.2461],[-94.4699,39.2235],[-94.4657,39.2235],[-94.4658,39.2168],[-94.4739,39.2156],[-94.4799,39.2077],[-94.4705,39.2056],[-94.4705,39.2019],[-94.4567,39.202],[-94.4567,39.1947],[-94.4457,39.1945],[-94.4543,39.1866],[-94.4486,39.1758],[-94.4462,39.1851],[-94.4346,39.1938],[-94.4205,39.1903],[-94.4017,39.1975],[-94.3897,39.1935],[-94.3785,39.1704],[-94.3636,39.1637],[-94.3282,39.1912],[-94.3089,39.2274],[-94.2899,39.2371],[-94.25,39.2348],[-94.2384,39.2282],[-94.2288,39.2146],[-94.2115,39.2068],[-94.1863,39.2141],[-94.1705,39.2123],[-94.1702,39.2045],[-94.1851,39.1893],[-94.1858,39.181],[-94.1337,39.1712],[-94.1048,39.1435],[-94.1142,38.9173],[-93.8363,38.9087],[-93.8347,38.9379],[-93.4976,38.9283],[-93.4964,38.9428],[-93.0505,38.9283],[-93.06,38.6931],[-92.9506,38.6858],[-92.6171,38.68],[-92.6167,38.6945],[-92.4984,38.9221],[-92.5592,38.9732],[-92.5661,38.9742],[-92.57,38.98],[-92.5564,38.9857],[-92.5639,38.9869],[-92.5652,38.9986],[-92.4302,39.2488],[-92.7904,39.3436],[-92.8492,39.2262],[-92.8507,39.2331],[-92.8629,39.2364],[-92.8866,39.2243],[-92.9061,39.2223],[-92.9196,39.2316],[-92.9167,39.2579],[-92.9474,39.2701],[-92.9578,39.2793],[-92.9534,39.3028],[-92.9598,39.3125],[-93.0238,39.3131],[-93.052,39.3207],[-93.0744,39.338],[-93.0771,39.3655],[-93.0878,39.3789],[-93.1061,39.3837],[-93.1252,39.3777],[-93.1396,39.3786],[-93.152,39.3872],[-93.1643,39.405],[-93.1806,39.4118],[-93.1931,39.4093],[-93.2007,39.4018],[-93.1895,39.3798],[-93.1896,39.3704],[-93.2212,39.3317],[-93.2301,39.3279],[-93.2415,39.337],[-93.2526,39.3389],[-93.2777,39.3115],[-93.3369,39.307],[-93.3444,39.2894],[-93.329,39.2655],[-93.3291,39.2551],[-93.3731,39.2313],[-93.3963,39.2263],[-93.4114,39.2311],[-93.4152,39.2418],[-93.4045,39.2542],[-93.4048,39.2633],[-93.4139,39.2678],[-93.4442,39.2685],[-93.4587,39.2883],[-93.4733,39.2933],[-93.4858,39.2888],[-93.4943,39.2784],[-93.4962,39.2649],[-93.4866,39.2339],[-93.5002,39.218],[-93.5515,39.217],[-93.5632,39.22],[-93.5858,39.2408],[-93.6522,39.2483],[-93.6619,39.2358],[-93.6856,39.2286],[-93.7023,39.2088],[-93.7585,39.207],[-93.7595,39.5246],[-94.2084,39.5272],[-94.2106,39.4547],[-94.6008,39.4562],[-94.601,39.3849]]]},"properties":{"geoid":"29021","state":"29","district":"21","name":"State Senate District 21","chamber":"Senate"}},{"type":"Feature","geometry":{"type":"Polygon","coordinates":[[[-90.7555,38.3306],[-90.6307,38.3264],[-90.6306,38.2957],[-90.6079,38.2897],[-90.6099,38.28],[-90.6171,38.2755],[-90.5886,38.2622],[-90.5723,38.262],[-90.5641,38.2503],[-90.5596,38.2579],[-90.5533,38.2578],[-90.5532,38.2497],[-90.5158,38.2506],[-90.5155,38.222],[-90.4964,38.2295],[-90.4619,38.2308],[-90.4517,38.2273],[-90.4335,38.2139],[-90.4196,38.2121],[-90.4259,38.211],[-90.4257,38.2042],[-90.4169,38.2053],[-90.4271,38.1994],[-90.4264,38.1906],[-90.4214,38.1952],[-90.4153,38.1924],[-90.405,38.2018],[-90.407,38.1935],[-90.3982,38.1939],[-90.3837,38.1799],[-90.3805,38.1829],[-90.3846,38.1907],[-90.3776,38.1961],[-90.3855,38.1995],[-90.3798,38.2059],[-90.3831,38.2091],[-90.3736,38.2109],[-90.3697,38.2187],[-90.3554,38.2163],[-90.3651,38.2407],[-90.3724,38.2837],[-90.3715,38.3309],[-90.3421,38.3873],[-90.3486,38.4071],[-90.3486,38.4301],[-90.3361,38.4535],[-90.3536,38.4582],[-90.391,38.4506],[-90.3947,38.4585],[-90.4112,38.4534],[-90.4228,38.4825],[-90.4096,38.4819],[-90.405,38.5006],[-90.5907,38.5018],[-90.6027,38.4796],[-90.6141,38.4712],[-90.6262,38.4758],[-90.6339,38.4859],[-90.6556,38.4867],[-90.6607,38.4792],[-90.6546,38.4562],[-90.6642,38.4489],[-90.6798,38.4457],[-90.6875,38.4477],[-90.6802,38.454],[-90.6911,38.4537],[-90.6876,38.4594],[-90.6962,38.4715],[-90.718,38.4691],[-90.7145,38.4744],[-90.7174,38.4785],[-90.7319,38.4825],[-90.7363,38.4666],[-90.7376,38.4155],[-90.7555,38.3306]]]},"properties":{"geoid":"29022","state":"29","district":"22","name":"State Senate District 22","chamber":"Senate"}},{"type":"Feature","geometry":{"type":"Polygon","coordinates":[[[-90.751,38.923],[-90.7269,38.88],[-90.7222,38.8802],[-90.7266,38.8795],[-90.7225,38.8729],[-90.7145,38.8733],[-90.7064,38.8542],[-90.6993,38.8474],[-90.6993,38.8509],[-90.6893,38.8507],[-90.6992,38.8546],[-90.6991,38.8616],[-90.6893,38.8618],[-90.6846,38.85],[-90.695,38.8429],[-90.6588,38.8227],[-90.6496,38.8127],[-90.6533,38.7996],[-90.6763,38.8025],[-90.671,38.7964],[-90.6755,38.7887],[-90.667,38.783],[-90.6601,38.7829],[-90.6645,38.7873],[-90.653,38.7865],[-90.6523,38.7812],[-90.6607,38.7745],[-90.6584,38.7705],[-90.666,38.7689],[-90.6614,38.7647],[-90.6444,38.7649],[-90.6381,38.7736],[-90.6328,38.7707],[-90.6298,38.7742],[-90.6248,38.7628],[-90.6365,38.7562],[-90.637,38.7413],[-90.6444,38.7401],[-90.6406,38.733],[-90.6432,38.7243],[-90.6389,38.7213],[-90.6271,38.7239],[-90.6286,38.7286],[-90.6366,38.7255],[-90.6317,38.7346],[-90.6276,38.7297],[-90.621,38.7319],[-90.6177,38.7207],[-90.5754,38.7192],[-90.5691,38.7255],[-90.5598,38.7254],[-90.5584,38.7202],[-90.5478,38.7235],[-90.542,38.7169],[-90.5339,38.7207],[-90.5296,38.7322],[-90.4875,38.7567],[-90.4732,38.791],[-90.4417,38.8263],[-90.4231,38.8288],[-90.3779,38.8218],[-90.3622,38.8279],[-90.345,38.8494],[-90.3364,38.8834],[-90.3238,38.8912],[-90.2902,38.885],[-90.2608,38.8536],[-90.1897,38.8186],[-90.1765,38.8188],[-90.1552,38.8298],[-90.1403,38.8291],[-90.1246,38.8199],[-90.1177,38.8057],[-90.1091,38.8374],[-90.1133,38.8493],[-90.1976,38.8876],[-90.223,38.9074],[-90.2502,38.9193],[-90.3095,38.9241],[-90.3927,38.9591],[-90.4392,38.9673],[-90.4513,38.9677],[-90.4717,38.9592],[-90.4831,38.9431],[-90.4871,38.9259],[-90.5075,38.9028],[-90.5468,38.874],[-90.561,38.8695],[-90.5834,38.869],[-90.6234,38.8871],[-90.637,38.9051],[-90.663,38.9263],[-90.6632,38.9342],[-90.6966,38.9328],[-90.6975,38.9282],[-90.6838,38.916],[-90.6962,38.9156],[-90.7059,38.9215],[-90.7143,38.9182],[-90.7167,38.9129],[-90.7062,38.9135],[-90.6994,38.9084],[-90.7076,38.9027],[-90.7142,38.9099],[-90.7241,38.9088],[-90.7246,38.9152],[-90.7356,38.9158],[-90.7238,38.9252],[-90.7288,38.9311],[-90.7438,38.9301],[-90.751,38.923]]]},"properties":{"geoid":"29023","state":"29","district":"23","name":"State Senate District 23","chamber":"Senate"}},{"type":"Feature","geometry":{"type":"Polygon","coordinates":[[[-90.5401,38.6874],[-90.5307,38.6795],[-90.4954,38.6918],[-90.4855,38.6827],[-90.4922,38.6761],[-90.4914,38.6709],[-90.4816,38.6712],[-90.4774,38.6659],[-90.4842,38.6541],[-90.4797,38.6525],[-90.481,38.6408],[-90.4691,38.6408],[-90.467,38.6445],[-90.467,38.6408],[-90.4333,38.6387],[-90.4335,38.624],[-90.4296,38.624],[-90.4297,38.6185],[-90.4484,38.6187],[-90.4486,38.6077],[-90.4716,38.6023],[-90.474,38.5968],[-90.4675,38.5969],[-90.4712,38.5908],[-90.4628,38.5866],[-90.4742,38.5709],[-90.48,38.5735],[-90.4782,38.5691],[-90.4843,38.5629],[-90.4959,38.5662],[-90.5083,38.5604],[-90.507,38.5548],[-90.5206,38.552],[-90.5207,38.5469],[-90.514,38.5463],[-90.5112,38.5389],[-90.5154,38.5301],[-90.5104,38.5013],[-90.405,38.5006],[-90.4096,38.4819],[-90.4228,38.4825],[-90.4144,38.457],[-90.4077,38.4525],[-90.3929,38.4581],[-90.391,38.4506],[-90.3765,38.4529],[-90.3729,38.4646],[-90.3558,38.4856],[-90.3773,38.4939],[-90.3826,38.491],[-90.3799,38.5041],[-90.3902,38.5088],[-90.3803,38.5133],[-90.3799,38.5442],[-90.3981,38.5445],[-90.3984,38.5593],[-90.3975,38.5678],[-90.3915,38.5679],[-90.3912,38.5828],[-90.3773,38.5826],[-90.3723,38.6024],[-90.4015,38.6035],[-90.4013,38.6109],[-90.3797,38.6093],[-90.3789,38.6141],[-90.3633,38.614],[-90.3619,38.6411],[-90.3513,38.6391],[-90.3488,38.6562],[-90.3946,38.6611],[-90.3912,38.6987],[-90.4088,38.7076],[-90.4073,38.7223],[-90.4293,38.729],[-90.4298,38.7374],[-90.4393,38.7433],[-90.4531,38.7438],[-90.4641,38.7363],[-90.4689,38.7418],[-90.4569,38.7517],[-90.4491,38.7511],[-90.4823,38.7643],[-90.4942,38.7503],[-90.5335,38.7286],[-90.5317,38.6997],[-90.5401,38.6874]]]},"properties":{"geoid":"29024","state":"29","district":"24","name":"State Senate District 24","chamber":"Senate"}},{"type":"Feature","geometry":{"type":"Polygon","coordinates":[[[-91.6783,36.6255],[-91.678,36.6068],[-91.672,36.6062],[-91.6723,36.4994],[-90.1523,36.498],[-90.1535,36.493],[-90.1601,36.4944],[-90.1562,36.4891],[-90.1601,36.4875],[-90.1595,36.4802],[-90.1442,36.4762],[-90.1424,36.4714],[-90.153,36.4708],[-90.1554,36.4638],[-90.145,36.4629],[-90.143,36.468],[-90.141,36.4585],[-90.134,36.4538],[-90.1373,36.4502],[-90.1343,36.4365],[-90.1443,36.426],[-90.1344,36.4229],[-90.1385,36.4137],[-90.1274,36.4167],[-90.1287,36.4114],[-90.1189,36.4125],[-90.1136,36.4096],[-90.1156,36.4058],[-90.0815,36.4011],[-90.0635,36.3841],[-90.0667,36.378],[-90.0628,36.3772],[-90.0635,36.3671],[-90.068,36.3565],[-90.078,36.3493],[-90.0755,36.3343],[-90.0824,36.322],[-90.0695,36.3133],[-90.0642,36.3025],[-90.079,36.2899],[-90.0757,36.2811],[-90.0835,36.2721],[-90.1171,36.2635],[-90.124,36.2431],[-90.1309,36.2414],[-90.1248,36.2353],[-90.1263,36.2292],[-90.1419,36.2277],[-90.1557,36.2138],[-90.1695,36.2141],[-90.1881,36.2055],[-90.2002,36.1965],[-90.2044,36.1869],[-90.2203,36.1845],[-90.2353,36.1595],[-90.2312,36.1536],[-90.2354,36.1394],[-90.273,36.1168],[-90.2931,36.1144],[-90.3002,36.0977],[-90.3196,36.0896],[-90.3206,36.0713],[-90.3333,36.0675],[-90.3369,36.0472],[-90.3482,36.0416],[-90.3483,36.0351],[-90.3543,36.0303],[-90.3518,36.0251],[-90.3779,35.9957],[-89.7069,36.001],[-89.6886,36.0292],[-89.6788,36.0846],[-89.6666,36.0958],[-89.6019,36.1195],[-89.5935,36.1281],[-89.5916,36.1421],[-89.5936,36.154],[-89.607,36.1712],[-89.6926,36.225],[-89.7053,36.2366],[-89.7018,36.246],[-89.6952,36.2528],[-89.678,36.2483],[-89.6514,36.2507],[-89.6024,36.2381],[-89.5775,36.2423],[-89.5622,36.2509],[-89.5447,36.2475],[-89.5347,36.2528],[-89.5395,36.2774],[-89.5543,36.2778],[-89.5785,36.2883],[-89.6118,36.3091],[-89.6203,36.323],[-89.6158,36.3361],[-89.6057,36.3422],[-89.5318,36.3392],[-89.519,36.3486],[-89.5097,36.3736],[-89.5453,36.4271],[-89.5434,36.4388],[-89.5234,36.4566],[-89.5199,36.4771],[-89.5604,36.5244],[-89.571,36.5502],[-89.567,36.565],[-89.5511,36.5781],[-89.5306,36.5817],[-89.4799,36.5691],[-89.4678,36.547],[-89.4659,36.53],[-89.4867,36.495],[-89.4939,36.4736],[-89.4862,36.4621],[-89.4644,36.4577],[-89.4437,36.4692],[-89.4173,36.499],[-89.3827,36.5837],[-89.3761,36.6141],[-89.3658,36.6251],[-89.3439,36.6319],[-89.3246,36.631],[-89.2947,36.5938],[-89.2635,36.5663],[-89.2363,36.5669],[-89.219,36.5751],[-89.2028,36.6017],[-89.1978,36.629],[-89.1591,36.6664],[-89.1719,36.6726],[-89.168,36.6791],[-89.1705,36.69],[-89.1993,36.7156],[-89.1979,36.7398],[-89.1853,36.7533],[-89.1698,36.7596],[-89.126,36.7518],[-89.1171,36.7658],[-89.1166,36.7745],[-89.1244,36.7858],[-89.1571,36.7896],[-89.1706,36.7975],[-89.1791,36.8109],[-89.1792,36.8299],[-89.1704,36.8418],[-89.1381,36.8473],[-89.1171,36.8887],[-89.0993,36.9626],[-89.1092,36.9765],[-89.1254,36.9835],[-89.17,36.9703],[-89.1855,36.9735],[-89.1921,36.98],[-89.2008,37.0162],[-89.2341,37.0373],[-89.2549,37.072],[-89.2599,37.0641],[-89.3077,37.0697],[-89.3108,37.0579],[-89.3048,37.0476],[-89.26,37.0233],[-89.2576,37.0155],[-89.2635,37],[-89.2742,36.9905],[-89.2921,36.9922],[-89.3133,37.0095],[-89.3472,37.0091],[-89.3473,37.002],[-89.3743,36.9943],[-89.3751,36.9649],[-89.4113,36.9648],[-89.4115,36.9501],[-89.4299,36.9503],[-89.43,36.9356],[-89.4654,36.9358],[-89.4652,36.9062],[-89.5015,36.9063],[-89.5015,36.8769],[-89.5199,36.8769],[-89.5198,36.8696],[-89.5676,36.8709],[-89.6046,36.8662],[-89.6059,36.8617],[-89.6916,36.8595],[-89.6897,36.8679],[-89.6974,36.8744],[-89.6898,36.8859],[-89.6866,36.8847],[-89.6938,36.8996],[-89.6847,36.9228],[-89.69,36.9244],[-89.6867,36.9284],[-89.6922,36.9407],[-89.6956,36.9387],[-89.7152,36.9525],[-89.7206,36.9689],[-89.718,36.9747],[-89.7225,36.9758],[-89.7188,36.9824],[-89.7212,36.9905],[-89.737,37.0071],[-89.7461,37.0277],[-89.7539,37.0299],[-89.758,37.0515],[-89.7678,37.052],[-89.7781,37.0759],[-89.7861,37.0838],[-89.7853,37.0903],[-89.7741,37.0976],[-89.7729,37.1124],[-89.7656,37.1186],[-89.7652,37.1261],[-89.9596,37.1274],[-89.9592,37.0544],[-89.9959,37.0547],[-89.9957,37.0401],[-90.1112,37.0412],[-90.1104,37.0859],[-90.2232,37.0865],[-90.2177,37.315],[-90.5497,37.3176],[-90.5506,37.2726],[-90.6618,37.2748],[-90.7355,37.271],[-90.7371,37.1664],[-90.7559,37.1667],[-90.7568,37.1377],[-90.779,37.1379],[-90.7796,37.0503],[-90.9645,37.0536],[-90.9636,37.0974],[-90.9999,37.1004],[-91.036,37.0937],[-91.0667,37.0938],[-91.0654,37.0885],[-91.1097,37.0841],[-91.2171,37.0862],[-91.2228,36.8839],[-91.6581,36.8887],[-91.66,36.7875],[-91.6742,36.7878],[-91.6783,36.6255]]]},"properties":{"geoid":"29025","state":"29","district":"25","name":"State Senate District 25","chamber":"Senate"}},{"type":"Feature","geometry":{"type":"Polygon","coordinates":[[[-92.1952,38.2932],[-92.0121,38.2882],[-91.8631,38.2936],[-91.6447,38.2885],[-91.6449,38.1537],[-91.5344,38.1526],[-91.5353,38.211],[-91.3675,38.2097],[-91.3676,38.204],[-90.7802,38.2041],[-90.7376,38.4155],[-90.7321,38.4823],[-90.7174,38.4785],[-90.7145,38.4744],[-90.718,38.4691],[-90.6966,38.4717],[-90.6876,38.4594],[-90.6911,38.4537],[-90.6802,38.454],[-90.6873,38.4474],[-90.6745,38.4463],[-90.6546,38.4562],[-90.6607,38.4792],[-90.6556,38.4867],[-90.6339,38.4859],[-90.6262,38.4758],[-90.6141,38.4712],[-90.6027,38.4796],[-90.5911,38.5017],[-90.6076,38.5018],[-90.6129,38.5047],[-90.608,38.5166],[-90.6256,38.523],[-90.6259,38.5171],[-90.6336,38.5242],[-90.631,38.5167],[-90.6459,38.5216],[-90.6527,38.5215],[-90.6529,38.5172],[-90.6804,38.5182],[-90.6808,38.5109],[-90.69,38.5112],[-90.6904,38.5039],[-90.7356,38.4924],[-90.7331,38.6393],[-90.7424,38.6346],[-90.7596,38.6065],[-90.7736,38.5946],[-90.813,38.5856],[-90.8419,38.566],[-90.8949,38.541],[-90.9268,38.5343],[-90.9645,38.5472],[-90.9585,38.8709],[-91.1113,38.8727],[-91.1102,38.9319],[-91.1893,38.9322],[-91.1884,38.9921],[-91.2643,38.9928],[-91.2649,38.8438],[-91.4158,38.8453],[-91.4186,38.7098],[-91.4576,38.7063],[-91.4527,38.7095],[-91.4718,38.7075],[-91.4878,38.7131],[-91.5011,38.7047],[-91.5026,38.695],[-91.5506,38.6763],[-91.5877,38.6822],[-91.638,38.7035],[-91.7262,38.7067],[-91.7602,38.685],[-91.8144,38.6818],[-91.8695,38.6639],[-91.8937,38.6341],[-91.9439,38.5971],[-91.9862,38.5854],[-92.009,38.5709],[-92.0035,38.5603],[-92.0189,38.559],[-92.0249,38.5536],[-92.0271,38.5287],[-92.0083,38.4971],[-92.0126,38.4841],[-92.0231,38.4746],[-92.0435,38.4665],[-92.0737,38.4667],[-92.1104,38.4574],[-92.1276,38.4609],[-92.1473,38.4741],[-92.1674,38.4697],[-92.1577,38.439],[-92.1216,38.4173],[-92.115,38.4019],[-92.1218,38.3913],[-92.1353,38.3838],[-92.1606,38.377],[-92.1806,38.3785],[-92.1932,38.3708],[-92.1952,38.2932]]]},"properties":{"geoid":"29026","state":"29","district":"26","name":"State Senate District 26","chamber":"Senate"}},{"type":"Feature","geometry":{"type":"Polygon","coordinates":[[[-91.3141,37.5104],[-91.3142,37.5051],[-91.211,37.5019],[-91.2119,37.4153],[-91.1754,37.4148],[-91.1762,37.3126],[-91.1584,37.3129],[-91.1593,37.2549],[-91.1232,37.2545],[-91.126,37.1995],[-91.0883,37.2032],[-91.0889,37.1742],[-91.0706,37.1776],[-91.071,37.1627],[-91.0343,37.1693],[-91.0351,37.1402],[-91.0169,37.1435],[-91.0178,37.0957],[-90.9999,37.1004],[-90.9636,37.0974],[-90.9645,37.0536],[-90.7796,37.0503],[-90.779,37.1379],[-90.7568,37.1377],[-90.7559,37.1667],[-90.7371,37.1664],[-90.7355,37.271],[-90.6618,37.2748],[-90.5506,37.2726],[-90.5497,37.3176],[-90.2364,37.3163],[-90.2177,37.315],[-90.2232,37.0865],[-90.1104,37.0859],[-90.1112,37.0412],[-89.9957,37.0401],[-89.9959,37.0547],[-89.9592,37.0544],[-89.9596,37.1274],[-89.7652,37.1261],[-89.7656,37.1186],[-89.7729,37.1124],[-89.7741,37.0976],[-89.7853,37.0903],[-89.7861,37.0838],[-89.7781,37.0759],[-89.7678,37.052],[-89.758,37.0515],[-89.7539,37.0299],[-89.7461,37.0277],[-89.737,37.0071],[-89.7212,36.9905],[-89.7188,36.9824],[-89.7225,36.9758],[-89.718,36.9747],[-89.7206,36.9689],[-89.7152,36.9525],[-89.6956,36.9387],[-89.6922,36.9407],[-89.6867,36.9284],[-89.69,36.9244],[-89.6847,36.9228],[-89.6938,36.8996],[-89.6866,36.8847],[-89.6898,36.8859],[-89.6974,36.8744],[-89.6897,36.8679],[-89.6916,36.8595],[-89.6059,36.8617],[-89.6046,36.8662],[-89.5676,36.8709],[-89.5198,36.8696],[-89.5199,36.8769],[-89.5015,36.8769],[-89.5015,36.9063],[-89.4652,36.9062],[-89.4654,36.9358],[-89.43,36.9356],[-89.4299,36.9503],[-89.4115,36.9501],[-89.4113,36.9648],[-89.3751,36.9649],[-89.3743,36.9943],[-89.3473,37.002],[-89.3472,37.0091],[-89.3133,37.0095],[-89.3624,37.0302],[-89.3816,37.043],[-89.3854,37.0562],[-89.3757,37.0805],[-89.3771,37.0908],[-89.388,37.1075],[-89.4117,37.1225],[-89.4256,37.1382],[-89.4561,37.1881],[-89.4676,37.2182],[-89.4588,37.2487],[-89.4705,37.2534],[-89.4899,37.2513],[-89.518,37.2842],[-89.5108,37.3127],[-89.489,37.3334],[-89.4328,37.3471],[-89.4205,37.388],[-89.4398,37.4372],[-89.4755,37.4714],[-89.5171,37.5373],[-89.5219,37.5607],[-89.5198,37.5827],[-89.4861,37.5809],[-89.4775,37.5859],[-89.4759,37.593],[-89.5177,37.6412],[-89.5143,37.6899],[-89.5257,37.6984],[-89.5833,37.7133],[-89.5975,37.7335],[-89.6157,37.7427],[-89.6173,37.7497],[-89.6495,37.7455],[-89.6634,37.7501],[-89.668,37.7595],[-89.6604,37.7863],[-89.6696,37.7999],[-89.7174,37.8257],[-89.7399,37.8469],[-89.7541,37.8464],[-89.782,37.8551],[-89.7863,37.8517],[-89.7975,37.8621],[-89.7993,37.8815],[-89.8426,37.9052],[-89.8619,37.8977],[-89.8797,37.8807],[-89.8988,37.8708],[-89.9386,37.8743],[-89.9998,37.8217],[-90.1106,37.6713],[-90.1468,37.6416],[-90.6479,37.6428],[-90.6451,37.7348],[-90.7621,37.7385],[-90.8741,37.7342],[-90.9825,37.7403],[-91.1465,37.7408],[-91.147,37.6972],[-91.1533,37.6973],[-91.1551,37.5881],[-91.3125,37.5928],[-91.3141,37.5104]]]},"properties":{"geoid":"29027","state":"29","district":"27","name":"State Senate District 27","chamber":"Senate"}},{"type":"Feature","geometry":{"type":"Polygon","coordinates":[[[-94.618,37.6822],[-94.6177,37.6536],[-94.0735,37.6397],[-94.0754,37.5816],[-93.616,37.5727],[-93.6212,37.4274],[-93.0737,37.4148],[-93.0716,37.4874],[-92.8535,37.484],[-92.8463,37.721],[-92.8599,37.7212],[-92.8554,37.8957],[-93.0724,37.9026],[-93.0591,38.1857],[-93.0822,38.1865],[-93.0505,38.9282],[-93.4964,38.9428],[-93.4986,38.8993],[-93.4931,38.899],[-93.511,38.5562],[-94.0643,38.5674],[-94.0752,38.2145],[-94.0499,38.214],[-94.0613,38.0316],[-94.0694,38.0368],[-94.0852,38.0325],[-94.0871,38.0416],[-94.0944,38.0399],[-94.1019,38.0481],[-94.1056,38.0378],[-94.1099,38.0373],[-94.1188,38.0422],[-94.1155,38.0484],[-94.1247,38.0502],[-94.1322,38.0582],[-94.1506,38.0539],[-94.1574,38.0571],[-94.1686,38.0497],[-94.1909,38.0452],[-94.1961,38.0338],[-94.2007,38.0465],[-94.1947,38.0527],[-94.2028,38.0543],[-94.2111,38.051],[-94.215,38.034],[-94.2239,38.0403],[-94.2248,38.0273],[-94.2366,38.026],[-94.2451,38.0305],[-94.2335,38.0322],[-94.2407,38.0398],[-94.2304,38.0456],[-94.2391,38.044],[-94.2406,38.0508],[-94.6141,38.0601],[-94.618,37.6822]]]},"properties":{"geoid":"29028","state":"29","district":"28","name":"State Senate District 28","chamber":"Senate"}},{"type":"Feature","geometry":{"type":"Polygon","coordinates":[[[-94.6184,36.753],[-94.6179,36.4994],[-93.5843,36.4992],[-93.5738,36.82],[-93.6129,36.8206],[-93.6101,36.9958],[-93.3375,36.9925],[-93.342,36.8173],[-92.9093,36.8092],[-92.9029,37.0852],[-93.6089,37.0982],[-93.6051,37.2815],[-94.0523,37.2901],[-94.0689,36.7478],[-94.6183,36.7666],[-94.6184,36.753]]]},"properties":{"geoid":"29029","state":"29","district":"29","name":"State Senate District 29","chamber":"Senate"}},{"type":"Feature","geometry":{"type":"Polygon","coordinates":[[[-93.413,37.2242],[-93.4132,37.2203],[-93.4037,37.2203],[-93.4042,37.2124],[-93.3878,37.2121],[-93.39,37.2089],[-93.385,37.2126],[-93.3861,37.2063],[-93.3787,37.2053],[-93.3789,37.1997],[-93.3592,37.1994],[-93.3593,37.1903],[-93.3657,37.1886],[-93.3599,37.1879],[-93.3608,37.1758],[-93.3563,37.1757],[-93.3636,37.1687],[-93.3644,37.1592],[-93.3711,37.1609],[-93.3732,37.1722],[-93.3776,37.1723],[-93.3779,37.1603],[-93.3971,37.1618],[-93.3922,37.1666],[-93.4015,37.163],[-93.3999,37.1577],[-93.3924,37.1599],[-93.3926,37.1552],[-93.4063,37.1502],[-93.4033,37.1395],[-93.393,37.1431],[-93.3931,37.1394],[-93.3741,37.139],[-93.3695,37.1426],[-93.369,37.1535],[-93.3565,37.1472],[-93.3593,37.1521],[-93.3538,37.1564],[-93.3455,37.1532],[-93.3453,37.1564],[-93.3231,37.1566],[-93.328,37.1457],[-93.3338,37.1471],[-93.3321,37.1412],[-93.3407,37.1423],[-93.3445,37.1365],[-93.3147,37.1347],[-93.3149,37.1262],[-93.3194,37.1294],[-93.3195,37.1258],[-93.3013,37.1272],[-93.3028,37.1163],[-93.2931,37.1089],[-93.2683,37.1104],[-93.2702,37.0982],[-93.2757,37.0973],[-93.2721,37.0939],[-93.2181,37.0922],[-93.2183,37.0983],[-93.2092,37.0992],[-93.2226,37.1075],[-93.2224,37.1262],[-93.2084,37.1425],[-93.222,37.1469],[-93.2218,37.1577],[-93.2128,37.1577],[-93.2169,37.169],[-93.208,37.1651],[-93.208,37.1595],[-93.2035,37.1649],[-93.2168,37.1763],[-93.2121,37.1835],[-93.2163,37.1946],[-93.2073,37.1944],[-93.2103,37.2018],[-93.2049,37.2015],[-93.2094,37.2091],[-93.22,37.2094],[-93.2158,37.2259],[-93.2092,37.2237],[-93.2067,37.231],[-93.2156,37.2383],[-93.2013,37.2385],[-93.188,37.2475],[-93.1882,37.2383],[-93.1836,37.24],[-93.174,37.2555],[-93.1878,37.2561],[-93.188,37.2499],[-93.1999,37.2479],[-93.2122,37.2498],[-93.2121,37.2567],[-93.2197,37.2607],[-93.2233,37.2482],[-93.2288,37.2609],[-93.2368,37.2597],[-93.2381,37.2539],[-93.2379,37.2612],[-93.244,37.2578],[-93.2492,37.266],[-93.2482,37.2579],[-93.2627,37.2585],[-93.2603,37.2629],[-93.2648,37.263],[-93.2696,37.2586],[-93.2895,37.2625],[-93.3104,37.2561],[-93.3264,37.2595],[-93.3207,37.2448],[-93.3429,37.2451],[-93.3427,37.2487],[-93.3491,37.2452],[-93.3806,37.2693],[-93.3969,37.2774],[-93.4104,37.2772],[-93.4114,37.2568],[-93.407,37.2567],[-93.4101,37.2349],[-93.4034,37.2349],[-93.4038,37.2248],[-93.413,37.2242]]]},"properties":{"geoid":"29030","state":"29","district":"30","name":"State Senate District 30","chamber":"Senate"}},{"type":"Feature","geometry":{"type":"Polygon","coordinates":[[[-94.6141,38.0628],[-94.2406,38.0508],[-94.2391,38.044],[-94.2304,38.0456],[-94.2407,38.0398],[-94.2335,38.0322],[-94.2451,38.0305],[-94.2366,38.026],[-94.2248,38.0273],[-94.2239,38.0403],[-94.215,38.034],[-94.2111,38.051],[-94.2028,38.0543],[-94.1947,38.0527],[-94.2007,38.0465],[-94.1961,38.0338],[-94.1909,38.0452],[-94.1686,38.0497],[-94.1574,38.0571],[-94.1506,38.0539],[-94.1322,38.0582],[-94.1247,38.0502],[-94.1155,38.0484],[-94.1188,38.0422],[-94.1099,38.0373],[-94.1056,38.0378],[-94.1019,38.0481],[-94.0944,38.0399],[-94.0871,38.0416],[-94.0852,38.0325],[-94.0694,38.0368],[-94.0613,38.0316],[-94.0499,38.214],[-94.0752,38.2145],[-94.0643,38.5674],[-93.511,38.5562],[-93.4931,38.899],[-93.4986,38.8993],[-93.4973,38.9284],[-93.8347,38.9379],[-93.8363,38.9087],[-94.1133,38.9175],[-94.1208,38.833],[-94.608,38.8472],[-94.6141,38.0628]]]},"properties":{"geoid":"29031","state":"29","district":"31","name":"State Senate District 31","chamber":"Senate"}},{"type":"Feature","geometry":{"type":"Polygon","coordinates":[[[-94.6186,36.8834],[-94.6183,36.7666],[-94.0689,36.7478],[-94.0523,37.2901],[-94.0838,37.2909],[-94.0821,37.3493],[-94.6176,37.3642],[-94.6186,36.8834]]]},"properties":{"geoid":"29032","state":"29","district":"32","name":"State Senate District 32","chamber":"Senate"}},{"type":"Feature","geometry":{"type":"Polygon","coordinates":[[[-93.6129,36.8222],[-93.5738,36.82],[-93.5843,36.4992],[-91.6723,36.4994],[-91.672,36.6062],[-91.678,36.6068],[-91.6783,36.6251],[-91.6742,36.7878],[-91.66,36.7875],[-91.6581,36.8887],[-91.2228,36.8839],[-91.2171,37.0862],[-91.1097,37.0841],[-91.0654,37.0885],[-91.0667,37.0938],[-91.0178,37.0957],[-91.0169,37.1435],[-91.0351,37.1402],[-91.0343,37.1693],[-91.071,37.1627],[-91.0706,37.1776],[-91.0889,37.1742],[-91.0883,37.2032],[-91.126,37.1995],[-91.1232,37.2545],[-91.1593,37.2549],[-91.1584,37.3129],[-91.1762,37.3126],[-91.1754,37.4148],[-91.755,37.4241],[-91.7548,37.5988],[-92.2495,37.6045],[-92.253,37.2548],[-92.2472,37.2549],[-92.2514,37.0597],[-92.9033,37.0707],[-92.9093,36.8092],[-93.342,36.8173],[-93.3375,36.9925],[-93.6101,36.9958],[-93.6129,36.8222]]]},"properties":{"geoid":"29033","state":"29","district":"33","name":"State Senate District 33","chamber":"Senate"}},{"type":"Feature","geometry":{"type":"Polygon","coordinates":[[[-95.1136,39.5549],[-95.1013,39.5317],[-95.0522,39.5],[-95.0408,39.4664],[-94.9848,39.4427],[-94.973,39.4217],[-94.9479,39.4086],[-94.942,39.3895],[-94.923,39.3849],[-94.9001,39.3933],[-94.885,39.3898],[-94.8793,39.3798],[-94.8814,39.3704],[-94.91,39.3525],[-94.9061,39.3147],[-94.8985,39.2985],[-94.8841,39.2845],[-94.8463,39.2685],[-94.8306,39.2551],[-94.8257,39.2417],[-94.8349,39.2238],[-94.8317,39.2159],[-94.8115,39.2069],[-94.783,39.2072],[-94.7629,39.18],[-94.7408,39.17],[-94.7141,39.1704],[-94.6782,39.1842],[-94.6616,39.1774],[-94.6614,39.1627],[-94.6558,39.1557],[-94.6398,39.1537],[-94.6017,39.1596],[-94.6012,39.5302],[-94.7884,39.5317],[-94.7886,39.7191],[-94.759,39.719],[-94.7591,39.7485],[-94.7451,39.7484],[-94.748,39.7554],[-94.7568,39.7554],[-94.759,39.7656],[-94.7568,39.821],[-94.8766,39.8209],[-94.8763,39.8069],[-94.8847,39.794],[-94.9327,39.7863],[-94.9345,39.7729],[-94.9123,39.7593],[-94.8822,39.771],[-94.8671,39.7717],[-94.859,39.7541],[-94.865,39.7386],[-94.8813,39.7279],[-94.901,39.7241],[-94.9475,39.7453],[-94.9627,39.7413],[-94.9712,39.7293],[-94.9713,39.6864],[-94.9841,39.6779],[-95.0183,39.6729],[-95.0495,39.6379],[-95.0552,39.6217],[-95.0464,39.6016],[-95.0506,39.5876],[-95.0671,39.5765],[-95.0895,39.581],[-95.1013,39.5788],[-95.1075,39.5737],[-95.1136,39.5549]]]},"properties":{"geoid":"29034","state":"29","district":"34","name":"State Senate District 34","chamber":"Senate"}}]}