{"type":"FeatureCollection","features":[{"type":"Feature","geometry":{"type":"Polygon","coordinates":[[[-103.6695,48.1545],[-103.6694,48.1216],[-103.6348,48.111],[-103.5992,48.1341],[-103.5718,48.1326],[-103.5717,48.1471],[-103.5611,48.1494],[-103.561,48.1622],[-103.576,48.1499],[-103.5828,48.1507],[-103.5828,48.1977],[-103.604,48.1977],[-103.6043,48.1692],[-103.669,48.1687],[-103.6695,48.1545]]]},"properties":{"geoid":"38001","state":"38","district":"1","name":"State Senate District 1","chamber":"Senate"}},{"type":"Feature","geometry":{"type":"Polygon","coordinates":[[[-104.049,48.9331],[-104.0454,48.1403],[-103.7234,48.1403],[-103.724,48.1479],[-103.7332,48.1556],[-103.7351,48.173],[-103.7547,48.1839],[-103.7561,48.2176],[-103.7525,48.2233],[-103.7323,48.2278],[-103.7167,48.2413],[-103.6098,48.2448],[-103.583,48.2412],[-103.5848,48.1543],[-103.576,48.1499],[-103.561,48.1622],[-103.5611,48.1495],[-103.5717,48.1471],[-103.5718,48.1326],[-103.5881,48.1325],[-103.5857,48.1246],[-103.6087,48.1112],[-103.5847,48.0925],[-103.5472,48.0858],[-103.5541,48.0755],[-103.5819,48.0584],[-103.5847,48.0442],[-103.5661,48.035],[-103.528,48.0351],[-103.51,48.0116],[-103.4965,48.0052],[-103.4851,48.0067],[-103.4631,48.0232],[-103.4312,48.0355],[-103.3751,48.0252],[-103.3158,48.0416],[-103.2884,48.0401],[-103.2729,48.061],[-103.2362,48.0611],[-103.2277,48.0681],[-103.2263,48.0764],[-103.2536,48.0912],[-103.2019,48.1352],[-103.1571,48.1362],[-103.1016,48.1465],[-103.0921,48.1431],[-103.0931,48.1277],[-103.0888,48.1246],[-103.0691,48.1324],[-103.0347,48.1356],[-103.0068,48.1319],[-102.9676,48.1381],[-102.9474,48.136],[-102.9199,48.1218],[-102.8997,48.1233],[-102.8668,48.137],[-102.8285,48.1237],[-102.8282,48.2841],[-102.3101,48.2837],[-102.3099,48.3725],[-102.3644,48.3725],[-102.3646,48.5464],[-102.2339,48.5463],[-102.2336,48.7203],[-102.1525,48.7203],[-102.1522,48.8072],[-102.0216,48.8071],[-102.0212,48.9989],[-104.0487,48.9999],[-104.049,48.9331]]]},"properties":{"geoid":"38002","state":"38","district":"2","name":"State Senate District 2","chamber":"Senate"}},{"type":"Feature","geometry":{"type":"Polygon","coordinates":[[[-101.296,48.2413],[-101.2959,48.2325],[-101.285,48.2327],[-101.2733,48.2254],[-101.2742,48.11],[-101.0148,48.1095],[-101.0143,48.2835],[-101.2528,48.2835],[-101.2528,48.2545],[-101.2953,48.2545],[-101.296,48.2413]]]},"properties":{"geoid":"38003","state":"38","district":"3","name":"State Senate District 3","chamber":"Senate"}},{"type":"Feature","geometry":{"type":"Polygon","coordinates":[[[-102.8282,48.125],[-102.7948,48.1191],[-102.7663,48.1304],[-102.7448,48.1239],[-102.7376,48.1166],[-102.7388,48.106],[-102.7577,48.0933],[-102.6677,48.0799],[-102.6623,48.0685],[-102.668,48.0509],[-102.6617,48.0429],[-102.6398,48.0371],[-102.6084,48.0464],[-102.5994,48.0372],[-102.5977,48.0146],[-102.553,47.9986],[-102.7849,47.999],[-102.7853,47.5944],[-102.7679,47.5983],[-102.7492,47.5886],[-102.75,47.5962],[-102.7459,47.5959],[-102.7426,47.5904],[-102.7479,47.5809],[-102.7268,47.58],[-102.7272,47.5683],[-102.6986,47.5805],[-102.6755,47.5595],[-102.6926,47.5459],[-102.6733,47.5264],[-102.6416,47.5423],[-102.6288,47.5354],[-102.5961,47.5466],[-102.5782,47.5304],[-102.5258,47.5191],[-102.5161,47.5101],[-102.5038,47.5137],[-102.5039,47.508],[-102.4921,47.5179],[-102.4605,47.5125],[-102.4598,47.4658],[-102.4384,47.4662],[-102.4385,47.4611],[-102.3755,47.4621],[-102.3748,47.4693],[-102.2898,47.469],[-102.2902,47.4767],[-102.0993,47.48],[-102.0993,47.4764],[-101.9932,47.4724],[-101.9929,47.4659],[-101.9401,47.4659],[-101.9401,47.4579],[-101.9075,47.4579],[-101.8358,47.4955],[-101.812,47.497],[-101.7418,47.5292],[-101.7075,47.5383],[-101.6747,47.5365],[-101.6379,47.5276],[-101.6114,47.5288],[-101.561,47.5379],[-101.4987,47.5564],[-101.4797,47.5554],[-101.4465,47.5644],[-101.428,47.562],[-101.4174,47.5547],[-101.3563,47.5889],[-101.2605,47.589],[-101.2698,47.622],[-101.2919,47.6394],[-101.2878,47.6665],[-101.295,47.6934],[-101.2929,47.8085],[-101.2919,47.812],[-101.2823,47.812],[-101.2823,47.819],[-101.2747,47.8193],[-101.2823,47.8191],[-101.2823,47.8266],[-101.2929,47.8266],[-101.2948,47.9126],[-101.2912,47.9214],[-101.2898,48.0033],[-101.296,48.0288],[-101.2961,48.1098],[-101.6626,48.11],[-101.6629,48.3722],[-101.5827,48.3722],[-101.5819,48.4591],[-101.8428,48.4594],[-101.8422,48.7201],[-102.0214,48.7203],[-102.0216,48.8071],[-102.1522,48.8072],[-102.1525,48.7203],[-102.2336,48.7203],[-102.2339,48.5463],[-102.3646,48.5464],[-102.3644,48.3725],[-102.3099,48.3725],[-102.3101,48.2837],[-102.8282,48.2841],[-102.8282,48.125]]]},"properties":{"geoid":"38004","state":"38","district":"4","name":"State Senate District 4","chamber":"Senate"}},{"type":"Feature","geometry":{"type":"Polygon","coordinates":[[[-101.3447,48.2224],[-101.3438,48.2129],[-101.3392,48.2111],[-101.3393,48.1966],[-101.2959,48.1966],[-101.2959,48.2077],[-101.2743,48.2115],[-101.2733,48.2254],[-101.285,48.2327],[-101.2959,48.2325],[-101.2961,48.24],[-101.3177,48.2401],[-101.3177,48.2334],[-101.3401,48.232],[-101.3447,48.2224]]]},"properties":{"geoid":"38005","state":"38","district":"5","name":"State Senate District 5","chamber":"Senate"}},{"type":"Feature","geometry":{"type":"Polygon","coordinates":[[[-102.0216,48.7998],[-102.0214,48.7203],[-101.8422,48.7201],[-101.8428,48.4594],[-101.0598,48.4584],[-101.0599,48.3715],[-101.0142,48.3714],[-101.0148,48.1095],[-101.2961,48.1098],[-101.2961,48.0786],[-101.296,48.0285],[-101.2898,48.0033],[-101.2912,47.9214],[-101.2948,47.9126],[-101.2929,47.8266],[-101.2823,47.8266],[-101.2823,47.8191],[-101.2747,47.8193],[-101.2823,47.819],[-101.2823,47.812],[-101.2919,47.812],[-101.2929,47.8085],[-101.295,47.6934],[-101.2878,47.667],[-101.2916,47.6378],[-101.2691,47.6207],[-101.2602,47.589],[-101.2583,47.5613],[-101.1997,47.529],[-101.1574,47.4823],[-101.1236,47.457],[-101.1211,47.433],[-101.1097,47.4138],[-101.0997,47.3737],[-101.0799,47.3534],[-101.0774,47.3301],[-101.0591,47.3069],[-101.019,47.302],[-101.0191,47.2947],[-101.0134,47.2947],[-101.0133,47.2875],[-101.0069,47.2867],[-100.7491,47.2879],[-100.7493,47.3277],[-100.6732,47.3276],[-100.6724,47.6739],[-100.5851,47.6741],[-100.5852,47.8478],[-100.1979,47.8477],[-100.1976,48.0219],[-100.237,48.0219],[-100.2371,48.3712],[-100.2766,48.3712],[-100.2766,48.5448],[-100.1459,48.5452],[-100.1455,48.7189],[-100.183,48.7189],[-100.1826,48.9993],[-102.0212,48.9989],[-102.0216,48.7998]]]},"properties":{"geoid":"38006","state":"38","district":"6","name":"State Senate District 6","chamber":"Senate"}},{"type":"Feature","geometry":{"type":"Polygon","coordinates":[[[-100.9035,46.8965],[-100.8907,46.8821],[-100.8775,46.8818],[-100.8745,46.889],[-100.8568,46.889],[-100.8459,46.8674],[-100.7935,46.867],[-100.7937,46.8526],[-100.7724,46.8525],[-100.7728,46.8313],[-100.7261,46.8313],[-100.7095,46.8354],[-100.709,46.8959],[-100.9035,46.8965]]]},"properties":{"geoid":"38007","state":"38","district":"7","name":"State Senate District 7","chamber":"Senate"}},{"type":"Feature","geometry":{"type":"Polygon","coordinates":[[[-100.9654,47.1571],[-100.9447,47.1395],[-100.9358,47.0896],[-100.9255,47.0769],[-100.8881,47.0509],[-100.8786,47.0383],[-100.8822,47.0151],[-100.8957,47.0027],[-100.9284,46.9904],[-100.9384,46.9778],[-100.9334,46.9644],[-100.9077,46.9487],[-100.9039,46.9278],[-100.9082,46.9056],[-100.9039,46.897],[-100.709,46.8959],[-100.7095,46.8354],[-100.7305,46.8289],[-100.7097,46.8271],[-100.7105,46.7677],[-100.7161,46.7656],[-100.7105,46.7656],[-100.7107,46.7511],[-100.6895,46.751],[-100.69,46.7221],[-100.6479,46.722],[-100.6484,46.6797],[-100.6401,46.6772],[-100.64,46.672],[-100.6595,46.6501],[-100.6627,46.6355],[-100.6254,46.6122],[-100.5681,46.594],[-100.561,46.5878],[-100.5654,46.5784],[-100.5809,46.5806],[-100.587,46.5734],[-100.5441,46.5304],[-100.5507,46.5196],[-100.5833,46.4993],[-100.5986,46.4457],[-100.5512,46.3635],[-100.5492,46.3293],[-100.5817,46.2773],[-100.5585,46.25],[-100.5576,46.2416],[-100.5753,46.2094],[-100.593,46.1956],[-100.6197,46.1638],[-100.6291,46.1456],[-100.629,46.1341],[-100.6146,46.1123],[-100.617,46.0828],[-100.6098,46.0621],[-100.5619,46.0097],[-100.5313,46],[-100.5219,45.9894],[-100.507,45.9665],[-100.5119,45.9437],[-99.8801,45.9414],[-99.8784,46.2831],[-99.9172,46.2837],[-99.9156,46.6329],[-100.0812,46.6334],[-100.0779,46.8072],[-100.4571,46.8082],[-100.456,46.8949],[-100.5823,46.8957],[-100.5807,46.9824],[-100.7496,46.983],[-100.7494,47.1572],[-100.7757,47.1576],[-100.7898,47.1649],[-100.794,47.1643],[-100.794,47.1571],[-100.9654,47.1571]]]},"properties":{"geoid":"38008","state":"38","district":"8","name":"State Senate District 8","chamber":"Senate"}},{"type":"Feature","geometry":{"type":"Polygon","coordinates":[[[-100.183,48.72],[-100.1455,48.7189],[-100.1459,48.5452],[-99.6891,48.545],[-99.6892,48.4581],[-99.6751,48.4581],[-99.6457,48.4087],[-99.6457,48.4001],[-99.6404,48.4001],[-99.6105,48.3544],[-99.6097,48.3109],[-99.588,48.3108],[-99.5883,48.2094],[-99.5976,48.2094],[-99.5993,48.195],[-99.5884,48.1949],[-99.5884,48.1877],[-99.5673,48.1877],[-99.5674,48.1515],[-99.5457,48.1515],[-99.5457,48.0646],[-99.524,48.0646],[-99.524,48.0356],[-99.4808,48.0356],[-99.4808,48.0211],[-99.4693,48.0211],[-99.469,47.9336],[-99.4474,47.9336],[-99.4476,47.9011],[-99.4261,47.901],[-99.4259,47.8468],[-99.17,47.8474],[-99.1285,47.8391],[-99.0989,47.8473],[-98.9554,47.8466],[-98.9455,47.835],[-98.903,47.8201],[-98.9046,47.8159],[-98.898,47.8077],[-98.9012,47.807],[-98.8967,47.8066],[-98.9013,47.8011],[-98.898,47.7993],[-98.9016,47.7851],[-98.8934,47.7824],[-98.8923,47.7777],[-98.8965,47.7786],[-98.8861,47.7686],[-98.8781,47.7674],[-98.8807,47.7631],[-98.8772,47.7571],[-98.8533,47.7489],[-98.8391,47.7504],[-98.8325,47.7619],[-98.8291,47.759],[-98.825,47.7623],[-98.8228,47.7703],[-98.8148,47.7706],[-98.8109,47.7773],[-98.8053,47.7754],[-98.8028,47.7805],[-98.7952,47.7775],[-98.758,47.7869],[-98.7622,47.7934],[-98.7595,47.7993],[-98.7385,47.7963],[-98.7184,47.8054],[-98.7171,47.8021],[-98.6708,47.8028],[-98.6509,47.7956],[-98.5889,47.7949],[-98.5782,47.7919],[-98.574,47.7863],[-98.5792,47.785],[-98.5735,47.779],[-98.5534,47.7707],[-98.5048,47.7756],[-98.5254,47.8126],[-98.5256,47.9151],[-98.5824,47.9151],[-98.5992,47.9452],[-98.6174,47.9322],[-98.6202,47.9164],[-98.6262,47.9168],[-98.6353,47.9306],[-98.6263,47.9389],[-98.6635,47.9643],[-98.6708,47.9804],[-98.6638,47.9921],[-98.671,48],[-98.6939,48.0037],[-98.723,47.998],[-98.7357,47.9803],[-98.7532,47.9713],[-98.763,47.9717],[-98.7943,47.9513],[-98.7971,47.9564],[-98.7815,47.9719],[-98.767,47.9752],[-98.7596,47.9712],[-98.7506,47.9831],[-98.7528,47.9926],[-98.7631,47.9991],[-98.7593,48.0048],[-98.7651,48.0099],[-98.7673,48.0306],[-98.768,47.9992],[-98.7832,48.0016],[-98.7869,48.0069],[-98.7852,48.0296],[-98.8015,48.0474],[-98.802,48.054],[-98.7968,48.057],[-98.8261,48.0622],[-98.8354,48.049],[-98.8826,48.0256],[-98.8872,48.0082],[-98.8935,48.0077],[-98.8989,48.0188],[-98.8933,48.0266],[-98.9179,48.0208],[-98.916,48.0058],[-98.9289,47.997],[-98.9559,48.0047],[-98.9913,47.9903],[-98.9935,47.9969],[-98.9842,48.0178],[-98.9929,48.0174],[-98.9972,48.0233],[-99.0043,48.0419],[-99.001,48.0533],[-99.0368,48.0474],[-99.0481,48.0404],[-99.0505,48.0306],[-99.0602,48.022],[-99.0704,48.022],[-99.0704,48.0307],[-99.0548,48.0346],[-99.0478,48.0438],[-99.0489,48.0473],[-99.0706,48.047],[-99.0704,48.1079],[-99.1093,48.1077],[-99.1182,48.1118],[-99.1165,48.1207],[-99.1343,48.1438],[-99.1494,48.1384],[-99.1926,48.1487],[-99.1999,48.1553],[-99.2,48.2627],[-99.1886,48.2627],[-99.1887,48.2745],[-99.2002,48.2745],[-99.2003,48.3707],[-99.4929,48.3709],[-99.493,48.7184],[-99.5259,48.7184],[-99.5258,48.9994],[-100.1826,48.9993],[-100.183,48.72]]]},"properties":{"geoid":"38009","state":"38","district":"9","name":"State Senate District 9","chamber":"Senate"}},{"type":"Feature","geometry":{"type":"Polygon","coordinates":[[[-96.8832,46.8331],[-96.8831,46.8294],[-96.862,46.8299],[-96.8614,46.8184],[-96.8392,46.8184],[-96.8415,46.8616],[-96.8618,46.8618],[-96.8618,46.8691],[-96.8723,46.8692],[-96.8733,46.8402],[-96.8832,46.8331]]]},"properties":{"geoid":"38010","state":"38","district":"10","name":"State Senate District 10","chamber":"Senate"}},{"type":"Feature","geometry":{"type":"Polygon","coordinates":[[[-96.8415,46.8616],[-96.8411,46.8473],[-96.8197,46.8472],[-96.8198,46.8426],[-96.7733,46.8507],[-96.7841,46.8516],[-96.7844,46.8557],[-96.7761,46.8555],[-96.784,46.8617],[-96.795,46.8616],[-96.7949,46.8658],[-96.8415,46.8616]]]},"properties":{"geoid":"38011","state":"38","district":"11","name":"State Senate District 11","chamber":"Senate"}},{"type":"Feature","geometry":{"type":"Polygon","coordinates":[[[-98.764,46.8921],[-98.7553,46.8849],[-98.7233,46.8849],[-98.727,46.8822],[-98.7234,46.8776],[-98.6814,46.8774],[-98.6713,46.8775],[-98.6703,46.8893],[-98.6504,46.8793],[-98.665,46.8913],[-98.6503,46.8886],[-98.645,46.881],[-98.6293,46.881],[-98.6294,46.8924],[-98.5658,46.8921],[-98.5653,46.8047],[-98.4389,46.805],[-98.4397,46.9796],[-98.4675,46.9796],[-98.4672,47.3265],[-98.7211,47.3266],[-98.7214,46.9794],[-98.7104,46.9794],[-98.7071,46.9545],[-98.7089,46.931],[-98.7343,46.9283],[-98.7341,46.921],[-98.7276,46.921],[-98.7342,46.9094],[-98.7086,46.899],[-98.7174,46.8919],[-98.764,46.8921]]]},"properties":{"geoid":"38012","state":"38","district":"12","name":"State Senate District 12","chamber":"Senate"}},{"type":"Feature","geometry":{"type":"Polygon","coordinates":[[[-96.9686,46.8789],[-96.9434,46.875],[-96.9034,46.8479],[-96.8833,46.8475],[-96.883,46.8549],[-96.8725,46.8547],[-96.8716,46.8766],[-96.9074,46.8769],[-96.9004,46.8793],[-96.9049,46.8809],[-96.9074,46.891],[-96.9686,46.8916],[-96.9686,46.8789]]]},"properties":{"geoid":"38013","state":"38","district":"13","name":"State Senate District 13","chamber":"Senate"}},{"type":"Feature","geometry":{"type":"Polygon","coordinates":[[[-100.7496,47.0409],[-100.7496,46.983],[-100.5807,46.9824],[-100.5823,46.8957],[-100.456,46.8949],[-100.4571,46.8082],[-100.0779,46.8072],[-100.0812,46.6334],[-99.4497,46.6316],[-99.4459,46.9802],[-99.481,46.9804],[-99.4811,47.327],[-99.2662,47.327],[-99.2658,47.5876],[-98.5001,47.5872],[-98.5002,47.6724],[-98.5254,47.6723],[-98.5257,47.7735],[-98.5543,47.7709],[-98.5739,47.7793],[-98.5789,47.7924],[-98.6018,47.7973],[-98.6509,47.7956],[-98.6708,47.8028],[-98.7171,47.8021],[-98.7184,47.8054],[-98.7385,47.7963],[-98.7595,47.7993],[-98.7622,47.7934],[-98.758,47.7869],[-98.7952,47.7775],[-98.8028,47.7805],[-98.8053,47.7754],[-98.8109,47.7773],[-98.8148,47.7706],[-98.8228,47.7703],[-98.825,47.7623],[-98.8291,47.759],[-98.8325,47.7619],[-98.8391,47.7504],[-98.8533,47.7489],[-98.8772,47.7571],[-98.8807,47.7631],[-98.8781,47.7674],[-98.8861,47.7686],[-98.8965,47.7786],[-98.8923,47.7777],[-98.8934,47.7824],[-98.9016,47.7851],[-98.898,47.7993],[-98.9013,47.8011],[-98.8967,47.8066],[-98.9012,47.807],[-98.898,47.8077],[-98.9046,47.8159],[-98.903,47.8201],[-98.9455,47.835],[-98.9554,47.8466],[-99.0989,47.8473],[-99.1285,47.8391],[-99.17,47.8474],[-99.4259,47.8468],[-99.4261,47.901],[-99.4476,47.9011],[-99.4474,47.9336],[-99.469,47.9336],[-99.4693,48.0211],[-99.4808,48.0211],[-99.4808,48.0356],[-99.524,48.0356],[-99.524,48.0646],[-99.5457,48.0646],[-99.5457,48.1515],[-99.5674,48.1515],[-99.5673,48.1877],[-99.5884,48.1877],[-99.5884,48.1949],[-99.5993,48.195],[-99.5976,48.2094],[-99.5883,48.2094],[-99.588,48.3108],[-99.6097,48.3109],[-99.6105,48.3544],[-99.6404,48.4001],[-99.6457,48.4001],[-99.6457,48.4087],[-99.6751,48.4581],[-99.6892,48.4581],[-99.6891,48.545],[-100.2766,48.5448],[-100.2766,48.3712],[-100.2371,48.3712],[-100.237,48.0219],[-100.1976,48.0219],[-100.1979,47.8477],[-100.5852,47.8478],[-100.5851,47.6741],[-100.6724,47.6739],[-100.6732,47.3276],[-100.7493,47.3277],[-100.7496,47.0409]]]},"properties":{"geoid":"38014","state":"38","district":"14","name":"State Senate District 14","chamber":"Senate"}},{"type":"Feature","geometry":{"type":"Polygon","coordinates":[[[-99.526,48.8586],[-99.5259,48.7184],[-99.493,48.7184],[-99.4929,48.3709],[-99.2003,48.3707],[-99.2002,48.2745],[-99.1887,48.2745],[-99.1886,48.2627],[-99.2,48.2627],[-99.1999,48.1553],[-99.1926,48.1487],[-99.1494,48.1384],[-99.1343,48.1438],[-99.1165,48.1207],[-99.1182,48.1118],[-99.1093,48.1077],[-99.0704,48.1079],[-99.0706,48.047],[-99.0489,48.0473],[-99.0478,48.0438],[-99.0548,48.0346],[-99.0704,48.0307],[-99.0704,48.022],[-99.0602,48.022],[-99.0505,48.0306],[-99.0481,48.0404],[-99.0368,48.0474],[-99.001,48.0533],[-99.0043,48.0419],[-98.9972,48.0233],[-98.9929,48.0174],[-98.9842,48.0178],[-98.9935,47.9969],[-98.9913,47.9903],[-98.9559,48.0047],[-98.9289,47.997],[-98.916,48.0058],[-98.9179,48.0208],[-98.8933,48.0266],[-98.8989,48.0188],[-98.8935,48.0077],[-98.8872,48.0082],[-98.8826,48.0256],[-98.8354,48.049],[-98.8261,48.0622],[-98.8044,48.06],[-98.7949,48.0558],[-98.802,48.054],[-98.8015,48.0474],[-98.7852,48.0296],[-98.7844,48.0132],[-98.788,48.0104],[-98.7832,48.0016],[-98.7677,47.9996],[-98.7673,48.0306],[-98.7651,48.0099],[-98.7593,48.0048],[-98.7631,47.9991],[-98.7528,47.9926],[-98.7506,47.9831],[-98.7596,47.9712],[-98.767,47.9752],[-98.7815,47.9719],[-98.7971,47.9564],[-98.7943,47.9513],[-98.763,47.9717],[-98.7532,47.9713],[-98.7357,47.9803],[-98.723,47.998],[-98.6939,48.0037],[-98.671,48],[-98.6638,47.9921],[-98.6708,47.9804],[-98.6635,47.9643],[-98.6263,47.9389],[-98.6353,47.9306],[-98.6262,47.9168],[-98.6202,47.9164],[-98.6174,47.9322],[-98.5992,47.9452],[-98.5824,47.9151],[-98.5256,47.9151],[-98.5256,48.0211],[-98.4225,48.0211],[-98.4221,48.1948],[-98.2922,48.1952],[-98.2919,48.3697],[-98.3184,48.3697],[-98.318,48.5438],[-98.1875,48.5433],[-98.1871,48.7177],[-98.2118,48.7177],[-98.2108,49.0003],[-99.5258,48.9994],[-99.526,48.8586]]]},"properties":{"geoid":"38015","state":"38","district":"15","name":"State Senate District 15","chamber":"Senate"}},{"type":"Feature","geometry":{"type":"Polygon","coordinates":[[[-96.9265,46.8334],[-96.9265,46.8256],[-96.9142,46.819],[-96.8826,46.8185],[-96.8831,46.8367],[-96.8737,46.839],[-96.8725,46.8547],[-96.883,46.8549],[-96.8833,46.8475],[-96.9005,46.8474],[-96.9262,46.8615],[-96.9265,46.8334]]]},"properties":{"geoid":"38016","state":"38","district":"16","name":"State Senate District 16","chamber":"Senate"}},{"type":"Feature","geometry":{"type":"Polygon","coordinates":[[[-97.088,47.8895],[-97.0871,47.8536],[-97.0776,47.8366],[-97.0775,47.7591],[-96.9372,47.7595],[-96.935,47.7673],[-96.9468,47.7751],[-96.9563,47.7751],[-96.9524,47.7794],[-96.9591,47.7806],[-96.958,47.7857],[-96.9652,47.7837],[-96.9579,47.7922],[-96.9669,47.7998],[-96.9766,47.798],[-96.9729,47.8032],[-96.9916,47.8082],[-96.9787,47.8099],[-96.9805,47.8219],[-96.9741,47.8234],[-96.9871,47.8256],[-96.9815,47.8296],[-96.9863,47.8371],[-96.9983,47.8419],[-96.994,47.846],[-96.9983,47.8592],[-97.0059,47.8645],[-97.0018,47.8681],[-97.023,47.8739],[-97.018,47.8782],[-97.0255,47.8854],[-97.0188,47.8903],[-97.0251,47.8957],[-97.0206,47.9025],[-97.045,47.9039],[-97.0452,47.8822],[-97.0668,47.8822],[-97.0667,47.8895],[-97.088,47.8895]]]},"properties":{"geoid":"38017","state":"38","district":"17","name":"State Senate District 17","chamber":"Senate"}},{"type":"Feature","geometry":{"type":"Polygon","coordinates":[[[-97.2137,48.1067],[-97.213,48.0198],[-97.125,48.0195],[-97.0932,47.9937],[-97.0937,47.933],[-97.0552,47.9331],[-97.0552,47.9253],[-97.0494,47.9253],[-97.0494,47.9185],[-97.056,47.9185],[-97.0559,47.8967],[-97.0511,47.8932],[-97.0451,47.8931],[-97.045,47.9039],[-97.0155,47.9065],[-97.0168,47.9126],[-97.0238,47.9156],[-97.0179,47.9199],[-97.0364,47.9308],[-97.0361,47.9393],[-97.0553,47.9475],[-97.0525,47.9574],[-97.0618,47.9647],[-97.0531,47.9904],[-97.0639,47.9977],[-97.0668,48.0096],[-97.0633,48.015],[-97.0722,48.0191],[-97.0687,48.0277],[-97.0713,48.0458],[-97.0978,48.0711],[-97.1045,48.0724],[-97.0998,48.0859],[-97.1099,48.0914],[-97.1019,48.0959],[-97.1115,48.1059],[-97.1232,48.1067],[-97.1207,48.115],[-97.1335,48.1371],[-97.1224,48.1391],[-97.1465,48.1422],[-97.1403,48.1509],[-97.121,48.1596],[-97.1442,48.1625],[-97.1475,48.1724],[-97.136,48.1789],[-97.1498,48.1858],[-97.1412,48.1937],[-97.2111,48.1937],[-97.2137,48.1067]]]},"properties":{"geoid":"38018","state":"38","district":"18","name":"State Senate District 18","chamber":"Senate"}},{"type":"Feature","geometry":{"type":"Polygon","coordinates":[[[-98.3185,48.3817],[-98.3184,48.3697],[-98.2919,48.3697],[-98.2922,48.1952],[-97.6439,48.1948],[-97.6435,48.3692],[-97.3844,48.369],[-97.3833,48.2819],[-97.1166,48.2807],[-97.1248,48.2917],[-97.1379,48.2879],[-97.1283,48.2988],[-97.1122,48.2959],[-97.1267,48.304],[-97.1242,48.3111],[-97.1381,48.3106],[-97.1326,48.3191],[-97.1156,48.3239],[-97.1292,48.3281],[-97.1417,48.3257],[-97.129,48.3329],[-97.1259,48.3406],[-97.1401,48.3446],[-97.1362,48.3522],[-97.1563,48.3656],[-97.1525,48.371],[-97.1379,48.3712],[-97.1414,48.3785],[-97.1333,48.3822],[-97.152,48.3829],[-97.1634,48.3929],[-97.1457,48.3974],[-97.1312,48.4073],[-97.1399,48.4185],[-97.1505,48.4127],[-97.154,48.4181],[-97.1384,48.4216],[-97.1225,48.4183],[-97.1459,48.4311],[-97.1278,48.4313],[-97.1248,48.4419],[-97.1506,48.4408],[-97.1307,48.4522],[-97.1285,48.4603],[-97.143,48.4638],[-97.1474,48.4728],[-97.1306,48.4712],[-97.1289,48.4757],[-97.1627,48.4778],[-97.1403,48.4847],[-97.143,48.4923],[-97.1315,48.489],[-97.1492,48.5008],[-97.1503,48.5116],[-97.1366,48.5122],[-97.1268,48.5202],[-97.1524,48.5204],[-97.1536,48.5295],[-97.1414,48.5355],[-97.161,48.542],[-97.166,48.5489],[-97.1639,48.554],[-97.1416,48.5513],[-97.139,48.5551],[-97.1754,48.562],[-97.1492,48.57],[-97.1487,48.5764],[-97.1606,48.5809],[-97.1439,48.5821],[-97.1423,48.5926],[-97.154,48.5954],[-97.1343,48.6074],[-97.1506,48.6117],[-97.1296,48.6137],[-97.1339,48.6228],[-97.1195,48.6186],[-97.1311,48.6315],[-97.1094,48.6325],[-97.1157,48.6446],[-97.0987,48.661],[-97.1092,48.6642],[-97.1006,48.6684],[-97.1013,48.6823],[-97.0903,48.6845],[-97.1087,48.691],[-97.1199,48.7012],[-97.1101,48.708],[-97.1374,48.7266],[-97.1283,48.7321],[-97.1421,48.7362],[-97.1367,48.7425],[-97.1375,48.7496],[-97.1538,48.754],[-97.1544,48.7582],[-97.1455,48.7648],[-97.159,48.7757],[-97.1475,48.7814],[-97.1589,48.7833],[-97.1582,48.7912],[-97.174,48.7939],[-97.1625,48.7967],[-97.1633,48.8006],[-97.1816,48.7985],[-97.1592,48.8062],[-97.1581,48.8103],[-97.1903,48.8151],[-97.178,48.8228],[-97.1842,48.8339],[-97.1739,48.838],[-97.1758,48.8448],[-97.1829,48.8469],[-97.1731,48.8506],[-97.1792,48.8628],[-97.1906,48.8643],[-97.1778,48.8756],[-97.1994,48.8811],[-97.1973,48.8873],[-97.2016,48.8919],[-97.192,48.8918],[-97.19,48.8955],[-97.2114,48.9056],[-97.2108,48.916],[-97.2198,48.9221],[-97.2144,48.9316],[-97.2246,48.9338],[-97.2266,48.9458],[-97.234,48.9474],[-97.2275,48.9623],[-97.2386,48.9665],[-97.2383,48.9826],[-97.2266,48.993],[-97.2342,48.9963],[-97.229,49.0005],[-98.2108,49.0003],[-98.2118,48.7177],[-98.1871,48.7177],[-98.1875,48.5433],[-98.318,48.5438],[-98.3185,48.3817]]]},"properties":{"geoid":"38019","state":"38","district":"19","name":"State Senate District 19","chamber":"Senate"}},{"type":"Feature","geometry":{"type":"Polygon","coordinates":[[[-97.9037,48.0285],[-97.9036,48.0209],[-97.8821,48.0208],[-97.8823,47.6721],[-97.4727,47.6721],[-97.4742,47.3246],[-97.4516,47.3245],[-97.4515,47.2391],[-96.8334,47.238],[-96.8369,47.2425],[-96.8438,47.2399],[-96.8322,47.2468],[-96.8373,47.253],[-96.8444,47.2512],[-96.8385,47.2562],[-96.8452,47.2585],[-96.8358,47.2622],[-96.8474,47.2619],[-96.8347,47.2676],[-96.8477,47.2711],[-96.8401,47.2756],[-96.8438,47.2931],[-96.8307,47.3061],[-96.8365,47.3115],[-96.843,47.3088],[-96.847,47.3157],[-96.8355,47.3191],[-96.8369,47.3248],[-96.8291,47.3269],[-96.8335,47.3309],[-96.8413,47.3266],[-96.8462,47.329],[-96.8348,47.3325],[-96.8306,47.3386],[-96.8471,47.3477],[-96.8446,47.3543],[-96.8374,47.3555],[-96.8505,47.3571],[-96.8484,47.3646],[-96.8582,47.3676],[-96.837,47.3714],[-96.8546,47.3738],[-96.8435,47.3759],[-96.8492,47.3824],[-96.8382,47.3821],[-96.8422,47.386],[-96.8375,47.389],[-96.8396,47.3927],[-96.8491,47.3939],[-96.8391,47.3994],[-96.8527,47.4061],[-96.8422,47.4118],[-96.8568,47.4097],[-96.861,47.4177],[-96.8718,47.419],[-96.8553,47.4243],[-96.8647,47.4281],[-96.8528,47.432],[-96.8629,47.4364],[-96.8559,47.4392],[-96.8593,47.4517],[-96.8543,47.4546],[-96.8636,47.457],[-96.8539,47.4604],[-96.861,47.4726],[-96.8519,47.4791],[-96.8685,47.4785],[-96.8522,47.4864],[-96.865,47.4917],[-96.8488,47.4981],[-96.8535,47.5016],[-96.8525,47.5075],[-96.8423,47.5086],[-96.8536,47.5115],[-96.8424,47.5161],[-96.8609,47.5155],[-96.8712,47.5273],[-96.8535,47.5362],[-96.8623,47.5412],[-96.8453,47.5388],[-96.8604,47.5459],[-96.8498,47.5532],[-96.8617,47.5593],[-96.8475,47.5662],[-96.8631,47.5625],[-96.8689,47.567],[-96.8516,47.5687],[-96.8605,47.575],[-96.8537,47.5789],[-96.8499,47.5908],[-96.8589,47.5957],[-96.851,47.5985],[-96.8568,47.6018],[-96.8571,47.6107],[-96.8736,47.6135],[-96.871,47.6181],[-96.8797,47.6193],[-96.8759,47.6234],[-96.8805,47.626],[-96.8744,47.6278],[-96.8882,47.6389],[-96.8824,47.6427],[-96.8899,47.6697],[-96.8851,47.6738],[-96.8962,47.6742],[-96.8992,47.6896],[-96.9095,47.6892],[-96.907,47.6944],[-96.912,47.7015],[-96.9209,47.7],[-96.9119,47.7068],[-96.9199,47.7104],[-96.9198,47.7169],[-96.931,47.7155],[-96.9184,47.724],[-96.9328,47.7375],[-96.9292,47.7504],[-96.9398,47.7551],[-96.9289,47.7559],[-96.9375,47.7595],[-97.0775,47.7591],[-97.0776,47.8366],[-97.0826,47.8459],[-97.2394,47.8462],[-97.2391,47.9331],[-97.4294,47.9332],[-97.4287,48.0207],[-97.213,48.0198],[-97.2111,48.1937],[-97.1412,48.1937],[-97.1357,48.1971],[-97.1409,48.2045],[-97.1293,48.2084],[-97.1395,48.2144],[-97.1374,48.2177],[-97.1189,48.2078],[-97.1253,48.2178],[-97.1522,48.2204],[-97.1372,48.227],[-97.1207,48.2248],[-97.1436,48.2318],[-97.143,48.2361],[-97.1337,48.2391],[-97.1472,48.243],[-97.1251,48.25],[-97.1306,48.259],[-97.123,48.2617],[-97.1439,48.2657],[-97.1444,48.2697],[-97.1253,48.2704],[-97.1251,48.2767],[-97.1166,48.2807],[-97.3833,48.2819],[-97.3844,48.369],[-97.6435,48.3692],[-97.6439,48.1948],[-97.9033,48.1948],[-97.9037,48.0285]]]},"properties":{"geoid":"38020","state":"38","district":"20","name":"State Senate District 20","chamber":"Senate"}},{"type":"Feature","geometry":{"type":"Polygon","coordinates":[[[-96.8723,46.8701],[-96.8618,46.8691],[-96.8618,46.8618],[-96.798,46.8658],[-96.795,46.8616],[-96.7847,46.8616],[-96.7817,46.8714],[-96.7762,46.8739],[-96.7941,46.8748],[-96.794,46.8818],[-96.8156,46.8904],[-96.8393,46.8905],[-96.8407,46.8762],[-96.8716,46.8764],[-96.8723,46.8701]]]},"properties":{"geoid":"38021","state":"38","district":"21","name":"State Senate District 21","chamber":"Senate"}},{"type":"Feature","geometry":{"type":"Polygon","coordinates":[[[-97.7061,46.9806],[-97.6815,46.9785],[-97.682,46.6299],[-96.9264,46.6303],[-96.9261,46.7029],[-96.9367,46.7029],[-96.9366,46.7065],[-96.9237,46.7102],[-96.9263,46.75],[-96.9218,46.7516],[-96.925,46.752],[-96.9263,46.7682],[-96.9369,46.7683],[-96.9369,46.7755],[-96.9475,46.7756],[-96.9474,46.7828],[-96.9264,46.7828],[-96.9265,46.7937],[-96.9133,46.7934],[-96.9133,46.804],[-96.8818,46.804],[-96.8825,46.8184],[-96.9142,46.819],[-96.9265,46.8256],[-96.9262,46.8618],[-96.945,46.8757],[-96.9686,46.8777],[-96.9686,46.8916],[-96.9263,46.8917],[-96.9241,46.9771],[-97.0704,46.9773],[-97.0701,47.2388],[-97.7059,47.24],[-97.7061,46.9806]]]},"properties":{"geoid":"38022","state":"38","district":"22","name":"State Senate District 22","chamber":"Senate"}},{"type":"Feature","geometry":{"type":"Polygon","coordinates":[[[-104.0454,48.1403],[-104.044,47.9961],[-104.0216,47.9892],[-104.007,47.9673],[-103.9899,47.9719],[-103.9855,47.984],[-103.9674,47.9855],[-103.9427,47.9757],[-103.9198,47.9559],[-103.8881,47.962],[-103.871,47.9708],[-103.8643,47.988],[-103.8559,47.9951],[-103.8644,48.0087],[-103.8584,48.0158],[-103.8265,47.9971],[-103.8277,47.9797],[-103.8173,47.9817],[-103.8008,47.9943],[-103.7913,48.0163],[-103.7978,48.039],[-103.7877,48.058],[-103.7705,48.0565],[-103.7457,48.0405],[-103.711,48.058],[-103.7108,48.0679],[-103.7403,48.0834],[-103.7436,48.0922],[-103.6983,48.1174],[-103.6694,48.1216],[-103.669,48.1687],[-103.6043,48.1692],[-103.604,48.1977],[-103.5828,48.1977],[-103.583,48.2412],[-103.6098,48.2448],[-103.7167,48.2413],[-103.7323,48.2278],[-103.7525,48.2233],[-103.7561,48.2176],[-103.7547,48.1839],[-103.7351,48.173],[-103.7332,48.1556],[-103.724,48.1479],[-103.7234,48.1403],[-104.0454,48.1403]]]},"properties":{"geoid":"38023","state":"38","district":"23","name":"State Senate District 23","chamber":"Senate"}},{"type":"Feature","geometry":{"type":"Polygon","coordinates":[[[-98.4675,46.9851],[-98.4675,46.9796],[-98.4397,46.9796],[-98.4391,46.6311],[-98.0339,46.6307],[-98.0346,46.2827],[-97.2805,46.2824],[-97.2799,46.6293],[-97.682,46.6299],[-97.6815,46.9785],[-97.7062,46.9786],[-97.7059,47.24],[-98.4671,47.2404],[-98.4675,46.9851]]]},"properties":{"geoid":"38024","state":"38","district":"24","name":"State Senate District 24","chamber":"Senate"}},{"type":"Feature","geometry":{"type":"Polygon","coordinates":[[[-97.5091,46.0303],[-97.4804,45.9351],[-96.5637,45.9352],[-96.5613,45.9457],[-96.5703,45.9636],[-96.5779,46.0272],[-96.5591,46.0585],[-96.5544,46.0841],[-96.5579,46.1025],[-96.5669,46.1148],[-96.5602,46.1166],[-96.572,46.1246],[-96.5687,46.1332],[-96.5803,46.1511],[-96.5763,46.1596],[-96.5806,46.1676],[-96.5753,46.169],[-96.5839,46.1706],[-96.5766,46.1739],[-96.5835,46.1727],[-96.5806,46.1773],[-96.5927,46.1752],[-96.5862,46.1818],[-96.5916,46.1847],[-96.5851,46.1946],[-96.5912,46.1957],[-96.5846,46.1975],[-96.5843,46.2041],[-96.589,46.2049],[-96.5838,46.2081],[-96.5911,46.2087],[-96.5884,46.2129],[-96.5958,46.2198],[-96.5987,46.2423],[-96.5837,46.2498],[-96.5923,46.2503],[-96.5929,46.2573],[-96.6004,46.2617],[-96.5953,46.2742],[-96.6005,46.2811],[-96.5949,46.2863],[-96.602,46.2859],[-96.5962,46.291],[-96.6058,46.2939],[-96.5973,46.2978],[-96.6036,46.3025],[-96.5968,46.317],[-96.6012,46.3195],[-96.6,46.3268],[-96.6061,46.3266],[-96.5994,46.33],[-96.6202,46.3402],[-96.6167,46.3474],[-96.6278,46.3494],[-96.6294,46.3543],[-96.6452,46.3507],[-96.6485,46.3581],[-96.6432,46.3619],[-96.655,46.3659],[-96.6604,46.3716],[-96.6578,46.3744],[-96.6671,46.3756],[-96.671,46.3895],[-96.6677,46.3912],[-96.6751,46.391],[-96.6725,46.3953],[-96.6805,46.4071],[-96.6891,46.4068],[-96.6854,46.4142],[-96.7015,46.4151],[-96.6922,46.4161],[-96.6933,46.4221],[-96.7046,46.418],[-96.6989,46.4264],[-96.7077,46.4298],[-96.7033,46.4373],[-96.7157,46.4373],[-96.7154,46.434],[-96.7219,46.4398],[-96.7123,46.4413],[-96.7164,46.4446],[-96.7133,46.4488],[-96.7217,46.4488],[-96.7131,46.4502],[-96.7176,46.4544],[-96.7116,46.4598],[-96.7187,46.4619],[-96.7132,46.4665],[-96.7231,46.4667],[-96.7146,46.4723],[-96.7236,46.4709],[-96.7336,46.4805],[-96.7389,46.4787],[-96.7325,46.4829],[-96.7397,46.4867],[-96.7341,46.4886],[-96.737,46.4916],[-96.7334,46.497],[-96.7424,46.5],[-96.7335,46.5035],[-96.7404,46.5111],[-96.7342,46.5121],[-96.7452,46.5202],[-96.7367,46.5241],[-96.7453,46.525],[-96.7421,46.5293],[-96.7462,46.5349],[-96.738,46.5346],[-96.7427,46.5381],[-96.7383,46.5393],[-96.7501,46.5408],[-96.7387,46.5432],[-96.7505,46.5441],[-96.7406,46.5468],[-96.7492,46.5496],[-96.746,46.5561],[-96.7544,46.5568],[-96.7468,46.5588],[-96.752,46.5626],[-96.7418,46.564],[-96.7474,46.5675],[-96.7454,46.5708],[-96.7528,46.5714],[-96.7466,46.5755],[-96.7558,46.5743],[-96.7575,46.5778],[-96.7472,46.5819],[-96.7609,46.5818],[-96.7508,46.5852],[-96.7626,46.5893],[-96.756,46.5954],[-96.7716,46.5962],[-96.7722,46.6038],[-96.7682,46.6063],[-96.7788,46.6075],[-96.7725,46.6093],[-96.7708,46.6153],[-96.7812,46.6154],[-96.7755,46.6212],[-96.7873,46.6194],[-96.7783,46.6254],[-96.7913,46.625],[-96.7826,46.6316],[-97.2799,46.6293],[-97.2806,46.2823],[-97.2593,46.2822],[-97.2596,45.9968],[-97.5091,46.0303]]]},"properties":{"geoid":"38025","state":"38","district":"25","name":"State Senate District 25","chamber":"Senate"}},{"type":"Feature","geometry":{"type":"Polygon","coordinates":[[[-104.0452,47.3385],[-104.045,47.3301],[-104.0414,47.3301],[-103.0324,47.3287],[-103.0327,47.0818],[-103.0121,47.0814],[-103.0113,47.0965],[-102.9805,47.0972],[-102.9795,47.1077],[-102.9653,47.1159],[-102.9702,47.1247],[-102.9696,47.1399],[-102.8423,47.1401],[-102.833,47.1256],[-102.778,47.1253],[-102.773,47.13],[-102.7755,47.1401],[-102.6314,47.1404],[-102.6313,47.1549],[-102.1444,47.1559],[-102.1445,47.3281],[-102.2056,47.3281],[-102.2056,47.4799],[-102.2902,47.4767],[-102.2898,47.469],[-102.3748,47.4693],[-102.3755,47.4621],[-102.4385,47.4611],[-102.4384,47.4662],[-102.4598,47.4658],[-102.4605,47.5125],[-102.4921,47.5179],[-102.5039,47.508],[-102.5038,47.5137],[-102.5161,47.5101],[-102.5258,47.5191],[-102.5782,47.5304],[-102.5961,47.5466],[-102.6288,47.5354],[-102.6416,47.5423],[-102.6733,47.5264],[-102.6926,47.5459],[-102.6755,47.5595],[-102.6986,47.5805],[-102.7272,47.5683],[-102.7268,47.58],[-102.7479,47.5809],[-102.7426,47.5904],[-102.7459,47.5959],[-102.75,47.5962],[-102.7492,47.5886],[-102.7679,47.5983],[-102.7853,47.5944],[-102.7849,47.999],[-102.553,47.9986],[-102.5977,48.0146],[-102.5994,48.0372],[-102.6084,48.0464],[-102.6398,48.0371],[-102.6617,48.0429],[-102.668,48.0509],[-102.6623,48.0685],[-102.6677,48.0799],[-102.7577,48.0933],[-102.7416,48.1008],[-102.7376,48.1166],[-102.7448,48.1239],[-102.7663,48.1304],[-102.7905,48.1201],[-102.8065,48.1189],[-102.8668,48.137],[-102.8997,48.1233],[-102.9199,48.1218],[-102.9474,48.136],[-102.9702,48.1381],[-103.0068,48.1319],[-103.0347,48.1356],[-103.0691,48.1324],[-103.0888,48.1246],[-103.0931,48.1277],[-103.0921,48.1431],[-103.1016,48.1465],[-103.1571,48.1362],[-103.2019,48.1352],[-103.2536,48.0912],[-103.2263,48.0764],[-103.2277,48.0681],[-103.2362,48.0611],[-103.2729,48.061],[-103.2884,48.0401],[-103.3158,48.0416],[-103.3751,48.0252],[-103.4312,48.0355],[-103.4631,48.0232],[-103.4851,48.0067],[-103.4965,48.0052],[-103.51,48.0116],[-103.528,48.0351],[-103.5661,48.035],[-103.584,48.0432],[-103.5819,48.0584],[-103.5541,48.0755],[-103.5472,48.0858],[-103.5847,48.0925],[-103.6077,48.1094],[-103.6065,48.1154],[-103.5857,48.1246],[-103.5889,48.1333],[-103.5976,48.1344],[-103.6328,48.1113],[-103.683,48.1217],[-103.7148,48.1103],[-103.7422,48.0934],[-103.7403,48.0834],[-103.7108,48.0679],[-103.711,48.058],[-103.7457,48.0405],[-103.7705,48.0565],[-103.7877,48.058],[-103.7978,48.039],[-103.7913,48.0185],[-103.7969,48],[-103.824,47.979],[-103.829,47.9806],[-103.8277,47.9984],[-103.8584,48.0158],[-103.8644,48.0087],[-103.8554,47.9964],[-103.8643,47.988],[-103.871,47.9708],[-103.8851,47.9627],[-103.9198,47.9559],[-103.9427,47.9757],[-103.9674,47.9855],[-103.9855,47.984],[-103.9899,47.9719],[-104.007,47.9673],[-104.0216,47.9892],[-104.044,47.9961],[-104.0452,47.3385]]]},"properties":{"geoid":"38026","state":"38","district":"26","name":"State Senate District 26","chamber":"Senate"}},{"type":"Feature","geometry":{"type":"Polygon","coordinates":[[[-96.9476,46.7775],[-96.9369,46.7755],[-96.9369,46.7683],[-96.9263,46.7682],[-96.925,46.752],[-96.9218,46.7516],[-96.9263,46.75],[-96.9237,46.7102],[-96.9366,46.7065],[-96.9367,46.7029],[-96.9261,46.7029],[-96.9264,46.6303],[-96.7992,46.6302],[-96.7859,46.6402],[-96.7989,46.6541],[-96.8,46.6611],[-96.7952,46.6662],[-96.8022,46.6679],[-96.795,46.6672],[-96.7913,46.6724],[-96.7989,46.674],[-96.7991,46.6785],[-96.7875,46.6771],[-96.7948,46.6833],[-96.7839,46.6857],[-96.7906,46.6891],[-96.7842,46.7014],[-96.7912,46.7037],[-96.7838,46.706],[-96.7896,46.7096],[-96.7821,46.7169],[-96.7912,46.7189],[-96.7799,46.7229],[-96.7793,46.7296],[-96.7846,46.7319],[-96.7805,46.7418],[-96.7874,46.7431],[-96.7803,46.745],[-96.7894,46.752],[-96.783,46.7545],[-96.7898,46.7567],[-96.7829,46.7567],[-96.7864,46.7619],[-96.7779,46.7616],[-96.7895,46.766],[-96.7755,46.7668],[-96.7892,46.7712],[-96.7838,46.7782],[-96.7968,46.777],[-96.7871,46.7851],[-96.7997,46.7852],[-96.7948,46.781],[-96.7984,46.7743],[-96.8296,46.7783],[-96.827,46.7892],[-96.8388,46.7895],[-96.8386,46.7969],[-96.861,46.797],[-96.862,46.8299],[-96.8786,46.8297],[-96.8831,46.8294],[-96.8818,46.804],[-96.9133,46.804],[-96.9133,46.7934],[-96.9265,46.7937],[-96.9264,46.7828],[-96.9474,46.7828],[-96.9476,46.7775]]]},"properties":{"geoid":"38027","state":"38","district":"27","name":"State Senate District 27","chamber":"Senate"}},{"type":"Feature","geometry":{"type":"Polygon","coordinates":[[[-99.9173,46.2932],[-99.9168,46.2832],[-99.8784,46.2831],[-99.8801,45.9414],[-97.482,45.9351],[-97.5091,46.0303],[-97.2596,45.9968],[-97.2594,46.2824],[-98.0346,46.2827],[-98.0339,46.6307],[-99.0405,46.6288],[-99.9156,46.6329],[-99.9173,46.2932]]]},"properties":{"geoid":"38028","state":"38","district":"28","name":"State Senate District 28","chamber":"Senate"}},{"type":"Feature","geometry":{"type":"Polygon","coordinates":[[[-99.4814,47.0849],[-99.481,46.9804],[-99.4459,46.9802],[-99.4497,46.6316],[-98.4391,46.6311],[-98.4389,46.805],[-98.5653,46.8047],[-98.5658,46.8921],[-98.6294,46.8924],[-98.6293,46.881],[-98.645,46.881],[-98.6503,46.8886],[-98.665,46.8913],[-98.6504,46.8793],[-98.6703,46.8893],[-98.6713,46.8775],[-98.6814,46.8774],[-98.7234,46.8776],[-98.727,46.8822],[-98.7233,46.8849],[-98.7553,46.8849],[-98.764,46.8921],[-98.7174,46.8919],[-98.7086,46.899],[-98.7342,46.9094],[-98.7276,46.921],[-98.7341,46.921],[-98.7343,46.9283],[-98.7089,46.931],[-98.7071,46.9545],[-98.7104,46.9794],[-98.7214,46.9794],[-98.7211,47.3266],[-98.4672,47.3265],[-98.4671,47.2404],[-97.4515,47.2391],[-97.4516,47.3245],[-97.4742,47.3246],[-97.4727,47.6721],[-97.8823,47.6721],[-97.8821,48.0208],[-97.9036,48.0209],[-97.9033,48.1948],[-98.4221,48.1948],[-98.4225,48.0211],[-98.5256,48.0211],[-98.5254,47.8126],[-98.5048,47.7756],[-98.5257,47.7735],[-98.5254,47.6723],[-98.5002,47.6724],[-98.5001,47.5872],[-99.2658,47.5876],[-99.2662,47.327],[-99.4811,47.327],[-99.4814,47.0849]]]},"properties":{"geoid":"38029","state":"38","district":"29","name":"State Senate District 29","chamber":"Senate"}},{"type":"Feature","geometry":{"type":"Polygon","coordinates":[[[-100.8394,46.764],[-100.8348,46.7491],[-100.8219,46.7393],[-100.7762,46.7338],[-100.776,46.7216],[-100.7979,46.7156],[-100.7888,46.6917],[-100.7782,46.6865],[-100.7454,46.691],[-100.738,46.678],[-100.7452,46.6638],[-100.7369,46.658],[-100.7123,46.6574],[-100.6757,46.6737],[-100.6484,46.6797],[-100.6479,46.722],[-100.69,46.7221],[-100.6895,46.751],[-100.7107,46.7511],[-100.7105,46.7656],[-100.7161,46.7658],[-100.7105,46.7677],[-100.7097,46.8271],[-100.7307,46.8312],[-100.7305,46.8235],[-100.7536,46.8236],[-100.752,46.8192],[-100.7633,46.8165],[-100.7629,46.7884],[-100.7736,46.7839],[-100.7738,46.7657],[-100.7948,46.7657],[-100.7946,46.7874],[-100.7999,46.7875],[-100.8018,46.7948],[-100.8196,46.7964],[-100.8394,46.764]]]},"properties":{"geoid":"38030","state":"38","district":"30","name":"State Senate District 30","chamber":"Senate"}},{"type":"Feature","geometry":{"type":"Polygon","coordinates":[[[-102.6762,46.4567],[-102.6737,46.2825],[-101.9979,46.2836],[-101.9987,45.9447],[-100.5119,45.9437],[-100.5077,45.9553],[-100.5088,45.9701],[-100.5313,46],[-100.5619,46.0097],[-100.608,46.0593],[-100.6169,46.0818],[-100.6146,46.1123],[-100.629,46.1341],[-100.6291,46.1456],[-100.6197,46.1638],[-100.593,46.1956],[-100.5753,46.2094],[-100.5576,46.2416],[-100.5585,46.25],[-100.5817,46.2773],[-100.5492,46.3293],[-100.5512,46.3635],[-100.5986,46.4457],[-100.5833,46.4993],[-100.5507,46.5196],[-100.5441,46.5304],[-100.587,46.5734],[-100.5809,46.5806],[-100.5654,46.5784],[-100.561,46.5878],[-100.5681,46.594],[-100.6254,46.6122],[-100.6617,46.6342],[-100.6595,46.6501],[-100.6418,46.6657],[-100.6417,46.6784],[-100.656,46.679],[-100.7019,46.6605],[-100.728,46.6557],[-100.7452,46.6638],[-100.738,46.678],[-100.7454,46.691],[-100.7782,46.6865],[-100.7878,46.6906],[-100.7979,46.7156],[-100.776,46.7216],[-100.7762,46.7338],[-100.7829,46.7373],[-100.8323,46.7348],[-100.8653,46.8048],[-100.8731,46.807],[-100.8733,46.7969],[-100.8839,46.801],[-100.8845,46.8069],[-100.9057,46.8068],[-100.9049,46.8237],[-100.9132,46.8226],[-100.9128,46.8284],[-100.9232,46.8285],[-100.9232,46.8354],[-100.8924,46.8358],[-100.8929,46.8413],[-100.8743,46.8379],[-100.8692,46.8336],[-100.8701,46.8276],[-100.8326,46.8093],[-100.8189,46.8079],[-100.8265,46.8182],[-100.8704,46.8471],[-100.8711,46.8434],[-100.8962,46.843],[-100.902,46.8445],[-100.9021,46.8502],[-100.9128,46.8479],[-100.9308,46.8638],[-100.9333,46.8717],[-100.9549,46.8715],[-100.9549,46.8642],[-101.2598,46.8632],[-101.2627,46.8611],[-101.2481,46.8558],[-101.2557,46.8567],[-101.2532,46.8512],[-101.26,46.8496],[-101.2602,46.8402],[-101.2646,46.8386],[-101.2595,46.8186],[-101.2809,46.8185],[-101.278,46.6618],[-101.3086,46.6584],[-101.3092,46.6305],[-101.7181,46.631],[-101.7182,46.7178],[-102.0962,46.7178],[-102.0967,46.631],[-102.4229,46.63],[-102.423,46.4575],[-102.6762,46.4567]]]},"properties":{"geoid":"38031","state":"38","district":"31","name":"State Senate District 31","chamber":"Senate"}},{"type":"Feature","geometry":{"type":"Polygon","coordinates":[[[-100.8197,46.797],[-100.8018,46.7948],[-100.7999,46.7875],[-100.7946,46.7874],[-100.7948,46.7657],[-100.7738,46.7657],[-100.7736,46.7839],[-100.763,46.7883],[-100.7633,46.8139],[-100.7784,46.814],[-100.7785,46.8064],[-100.7907,46.8065],[-100.7942,46.8172],[-100.8003,46.8173],[-100.8019,46.8087],[-100.819,46.808],[-100.8197,46.797]]]},"properties":{"geoid":"38032","state":"38","district":"32","name":"State Senate District 32","chamber":"Senate"}},{"type":"Feature","geometry":{"type":"Polygon","coordinates":[[[-102.2058,47.3709],[-102.2056,47.3281],[-102.1445,47.3281],[-102.1449,46.9814],[-101.2827,46.981],[-101.2816,46.8611],[-100.9549,46.8642],[-100.9549,46.8715],[-100.9333,46.8717],[-100.9308,46.8638],[-100.9128,46.8479],[-100.9021,46.8502],[-100.902,46.8445],[-100.8974,46.8431],[-100.8711,46.8434],[-100.8713,46.8471],[-100.8614,46.8435],[-100.9079,46.9044],[-100.9039,46.9278],[-100.9077,46.9487],[-100.9334,46.9644],[-100.9392,46.9727],[-100.9327,46.9873],[-100.8957,47.0027],[-100.8822,47.0151],[-100.8786,47.0383],[-100.8881,47.0509],[-100.9255,47.0769],[-100.9358,47.0896],[-100.9447,47.1395],[-100.9654,47.1571],[-100.794,47.1571],[-100.794,47.1643],[-100.7898,47.1649],[-100.7757,47.1576],[-100.7494,47.1572],[-100.7491,47.2879],[-101.0069,47.2867],[-101.0133,47.2875],[-101.0134,47.2947],[-101.0191,47.2947],[-101.019,47.302],[-101.0597,47.3073],[-101.0774,47.3301],[-101.0799,47.3534],[-101.0997,47.3737],[-101.1097,47.4138],[-101.1211,47.433],[-101.1239,47.4575],[-101.1574,47.4823],[-101.1997,47.529],[-101.2581,47.561],[-101.2602,47.589],[-101.3563,47.5889],[-101.4174,47.5547],[-101.428,47.562],[-101.4465,47.5644],[-101.4797,47.5554],[-101.4987,47.5564],[-101.561,47.5379],[-101.6114,47.5288],[-101.6379,47.5276],[-101.6747,47.5365],[-101.7075,47.5383],[-101.7418,47.5292],[-101.812,47.497],[-101.8358,47.4955],[-101.9075,47.4579],[-101.9401,47.4579],[-101.9401,47.4659],[-101.9926,47.4659],[-101.9932,47.4724],[-102.0358,47.4724],[-102.0358,47.4762],[-102.2056,47.4799],[-102.2058,47.3709]]]},"properties":{"geoid":"38033","state":"38","district":"33","name":"State Senate District 33","chamber":"Senate"}},{"type":"Feature","geometry":{"type":"Polygon","coordinates":[[[-100.9232,46.8354],[-100.9232,46.8285],[-100.9128,46.8284],[-100.9132,46.8226],[-100.9049,46.8237],[-100.9057,46.8068],[-100.8845,46.8069],[-100.8839,46.801],[-100.8733,46.7969],[-100.8731,46.807],[-100.8653,46.8048],[-100.8323,46.7348],[-100.8056,46.7355],[-100.8303,46.7442],[-100.8393,46.763],[-100.8194,46.7914],[-100.8189,46.8079],[-100.8326,46.8093],[-100.8701,46.8276],[-100.8692,46.8336],[-100.8743,46.8379],[-100.8929,46.8413],[-100.8924,46.8358],[-100.9232,46.8354]]]},"properties":{"geoid":"38034","state":"38","district":"34","name":"State Senate District 34","chamber":"Senate"}},{"type":"Feature","geometry":{"type":"Polygon","coordinates":[[[-100.834,46.822],[-100.819,46.808],[-100.8019,46.8087],[-100.8003,46.8173],[-100.7942,46.8172],[-100.7907,46.8065],[-100.7785,46.8064],[-100.7784,46.814],[-100.7633,46.8139],[-100.752,46.8192],[-100.7536,46.8236],[-100.7305,46.8235],[-100.7307,46.8312],[-100.8031,46.8312],[-100.834,46.822]]]},"properties":{"geoid":"38035","state":"38","district":"35","name":"State Senate District 35","chamber":"Senate"}},{"type":"Feature","geometry":{"type":"Polygon","coordinates":[[[-102.8109,46.8792],[-102.8108,46.8691],[-102.8056,46.8723],[-102.8002,46.8693],[-102.8005,46.8615],[-102.7857,46.8615],[-102.7862,46.8494],[-102.7687,46.847],[-102.7686,46.839],[-102.5705,46.8355],[-102.5705,46.7891],[-102.5604,46.772],[-102.5572,46.6299],[-102.0967,46.631],[-102.0962,46.7178],[-102.083,46.7179],[-101.7182,46.7178],[-101.7181,46.631],[-101.3092,46.6305],[-101.3086,46.6584],[-101.278,46.6618],[-101.2809,46.8185],[-101.2595,46.8186],[-101.2646,46.8386],[-101.2602,46.8402],[-101.26,46.8496],[-101.2532,46.8512],[-101.2557,46.8567],[-101.2481,46.8558],[-101.2627,46.8611],[-101.2598,46.8632],[-101.2816,46.8611],[-101.2827,46.981],[-102.1449,46.9814],[-102.1445,47.1262],[-102.1497,47.1288],[-102.1532,47.1233],[-102.1539,47.1282],[-102.1651,47.1325],[-102.1665,47.125],[-102.1747,47.125],[-102.1806,47.1165],[-102.1815,47.1198],[-102.2032,47.1169],[-102.1991,47.1147],[-102.2035,47.1121],[-102.2296,47.1117],[-102.2292,47.0763],[-102.2609,47.0653],[-102.2644,47.0535],[-102.2819,47.0537],[-102.2843,47.0572],[-102.314,47.0537],[-102.3141,47.0681],[-102.3352,47.0681],[-102.3353,47.0103],[-102.4225,47.0104],[-102.4225,46.9958],[-102.462,46.9958],[-102.462,46.9813],[-102.7068,46.9813],[-102.7065,46.9339],[-102.7267,46.9337],[-102.7265,46.9484],[-102.7476,46.9484],[-102.7476,46.934],[-102.7898,46.9331],[-102.7898,46.9194],[-102.8002,46.9194],[-102.8003,46.905],[-102.7799,46.9046],[-102.7799,46.8978],[-102.7686,46.8978],[-102.7686,46.8775],[-102.8109,46.8792]]]},"properties":{"geoid":"38036","state":"38","district":"36","name":"State Senate District 36","chamber":"Senate"}},{"type":"Feature","geometry":{"type":"Polygon","coordinates":[[[-102.852,46.9195],[-102.8519,46.8906],[-102.8307,46.8921],[-102.8321,46.8763],[-102.7686,46.8775],[-102.7686,46.8978],[-102.7799,46.8978],[-102.7799,46.9046],[-102.8003,46.905],[-102.8002,46.9194],[-102.852,46.9195]]]},"properties":{"geoid":"38037","state":"38","district":"37","name":"State Senate District 37","chamber":"Senate"}},{"type":"Feature","geometry":{"type":"Polygon","coordinates":[[[-101.6634,48.2193],[-101.6626,48.11],[-101.2744,48.1099],[-101.2743,48.2115],[-101.2959,48.2077],[-101.2959,48.1966],[-101.3393,48.1966],[-101.3392,48.2111],[-101.3438,48.2129],[-101.3401,48.232],[-101.3177,48.2334],[-101.3203,48.2586],[-101.3393,48.2584],[-101.3393,48.3718],[-101.3209,48.3718],[-101.3209,48.4089],[-101.333,48.4146],[-101.3209,48.4254],[-101.3208,48.4588],[-101.5819,48.4591],[-101.5827,48.3722],[-101.6629,48.3722],[-101.6634,48.2193]]]},"properties":{"geoid":"38038","state":"38","district":"38","name":"State Senate District 38","chamber":"Senate"}},{"type":"Feature","geometry":{"type":"Polygon","coordinates":[[[-104.0468,46.0176],[-104.0455,45.9453],[-101.9987,45.9447],[-101.9979,46.2836],[-102.6737,46.2825],[-102.6762,46.4567],[-102.423,46.4575],[-102.4229,46.63],[-102.5579,46.6309],[-102.5604,46.772],[-102.5705,46.7891],[-102.5705,46.8355],[-102.7686,46.839],[-102.7687,46.847],[-102.7862,46.8494],[-102.7857,46.8615],[-102.8005,46.8615],[-102.8002,46.8693],[-102.8056,46.8723],[-102.8108,46.8691],[-102.8109,46.8792],[-102.8321,46.8763],[-102.8307,46.8921],[-102.8519,46.8906],[-102.852,46.9195],[-102.7898,46.9194],[-102.788,46.9339],[-102.7476,46.934],[-102.7476,46.9484],[-102.7265,46.9484],[-102.7267,46.9337],[-102.7065,46.9339],[-102.7068,46.9813],[-102.462,46.9813],[-102.462,46.9958],[-102.4225,46.9958],[-102.4225,47.0104],[-102.3353,47.0103],[-102.3352,47.0681],[-102.3141,47.0681],[-102.314,47.0537],[-102.2843,47.0572],[-102.2819,47.0537],[-102.2643,47.0536],[-102.2609,47.0653],[-102.2292,47.0763],[-102.2296,47.1117],[-102.2035,47.1121],[-102.1991,47.1147],[-102.2032,47.1169],[-102.1815,47.1198],[-102.1806,47.1165],[-102.1747,47.125],[-102.1665,47.125],[-102.1657,47.1324],[-102.1539,47.1282],[-102.1532,47.1233],[-102.1497,47.1288],[-102.1445,47.1262],[-102.1444,47.1559],[-102.6313,47.1549],[-102.6314,47.1404],[-102.7755,47.1401],[-102.773,47.13],[-102.778,47.1253],[-102.833,47.1256],[-102.8423,47.1401],[-102.9696,47.1399],[-102.9702,47.1247],[-102.9653,47.1159],[-102.9795,47.1077],[-102.9805,47.0972],[-103.0113,47.0965],[-103.0121,47.0814],[-103.0327,47.0818],[-103.0324,47.3287],[-104.045,47.3301],[-104.0468,46.0176]]]},"properties":{"geoid":"38039","state":"38","district":"39","name":"State Senate District 39","chamber":"Senate"}},{"type":"Feature","geometry":{"type":"Polygon","coordinates":[[[-101.3394,48.2862],[-101.3393,48.2584],[-101.3203,48.2586],[-101.3177,48.2401],[-101.3099,48.2388],[-101.2961,48.24],[-101.2953,48.2545],[-101.2528,48.2545],[-101.2528,48.2835],[-101.0143,48.2835],[-101.0142,48.3714],[-101.0599,48.3715],[-101.0598,48.4584],[-101.3208,48.4588],[-101.3209,48.4254],[-101.333,48.4146],[-101.3209,48.4089],[-101.3209,48.3718],[-101.3393,48.3718],[-101.3394,48.2862]]]},"properties":{"geoid":"38040","state":"38","district":"40","name":"State Senate District 40","chamber":"Senate"}},{"type":"Feature","geometry":{"type":"Polygon","coordinates":[[[-96.8614,46.8184],[-96.861,46.797],[-96.8399,46.7973],[-96.8388,46.7895],[-96.8268,46.7892],[-96.824,46.8034],[-96.8186,46.8034],[-96.82,46.8326],[-96.8105,46.8358],[-96.8109,46.8421],[-96.8198,46.8426],[-96.8197,46.8472],[-96.8407,46.8473],[-96.8392,46.8184],[-96.8614,46.8184]]]},"properties":{"geoid":"38041","state":"38","district":"41","name":"State Senate District 41","chamber":"Senate"}},{"type":"Feature","geometry":{"type":"Polygon","coordinates":[[[-97.4294,47.9358],[-97.2391,47.9331],[-97.2394,47.8462],[-97.0826,47.8459],[-97.0871,47.8536],[-97.0872,47.8864],[-97.0932,47.8994],[-97.0934,47.9186],[-97.0494,47.9185],[-97.0552,47.9331],[-97.0937,47.933],[-97.0932,47.9937],[-97.1265,48.0197],[-97.4287,48.0207],[-97.4294,47.9358]]]},"properties":{"geoid":"38042","state":"38","district":"42","name":"State Senate District 42","chamber":"Senate"}},{"type":"Feature","geometry":{"type":"Polygon","coordinates":[[[-97.0934,47.9151],[-97.0932,47.8994],[-97.088,47.8895],[-97.0667,47.8895],[-97.0668,47.8822],[-97.0452,47.8822],[-97.0451,47.8931],[-97.0559,47.8967],[-97.056,47.9185],[-97.0934,47.9186],[-97.0934,47.9151]]]},"properties":{"geoid":"38043","state":"38","district":"43","name":"State Senate District 43","chamber":"Senate"}},{"type":"Feature","geometry":{"type":"Polygon","coordinates":[[[-96.8153,46.8904],[-96.794,46.8818],[-96.7941,46.8748],[-96.7762,46.8739],[-96.7813,46.8797],[-96.7722,46.8815],[-96.7707,46.8773],[-96.7673,46.8835],[-96.7739,46.8851],[-96.7694,46.8926],[-96.776,46.898],[-96.7703,46.9007],[-96.7717,46.9059],[-96.7645,46.9075],[-96.7769,46.9074],[-96.7768,46.9124],[-96.798,46.9121],[-96.7981,46.8903],[-96.8153,46.8904]]]},"properties":{"geoid":"38044","state":"38","district":"44","name":"State Senate District 44","chamber":"Senate"}},{"type":"Feature","geometry":{"type":"Polygon","coordinates":[[[-97.0703,46.9807],[-97.0704,46.9773],[-96.9241,46.9771],[-96.9263,46.8917],[-96.9074,46.891],[-96.9049,46.8809],[-96.9004,46.8793],[-96.9074,46.8769],[-96.8407,46.8762],[-96.8393,46.8905],[-96.7981,46.8903],[-96.798,46.9121],[-96.7768,46.9124],[-96.7769,46.9074],[-96.7645,46.9075],[-96.7597,46.9164],[-96.755,46.9138],[-96.7632,46.9231],[-96.7528,46.9241],[-96.7649,46.9269],[-96.7563,46.9286],[-96.7622,46.9349],[-96.7749,46.9305],[-96.7767,46.9257],[-96.7797,46.9283],[-96.7852,46.9244],[-96.7868,46.9302],[-96.7915,46.9277],[-96.7921,46.9459],[-96.8041,46.9469],[-96.799,46.9511],[-96.8038,46.9582],[-96.795,46.9658],[-96.8065,46.9676],[-96.8098,46.9638],[-96.8227,46.97],[-96.8201,46.9794],[-96.8264,46.9879],[-96.8223,46.9906],[-96.8239,46.9974],[-96.8195,46.9974],[-96.821,47.0033],[-96.8395,47.0067],[-96.8335,47.0101],[-96.8348,47.0174],[-96.8295,47.0216],[-96.8148,47.0244],[-96.8273,47.0321],[-96.8171,47.0333],[-96.8127,47.0386],[-96.8227,47.0369],[-96.8179,47.0471],[-96.8276,47.0463],[-96.8177,47.0523],[-96.8251,47.0556],[-96.8222,47.0595],[-96.8304,47.0608],[-96.8197,47.0617],[-96.8245,47.0715],[-96.8196,47.0753],[-96.8293,47.0746],[-96.8158,47.079],[-96.8204,47.083],[-96.816,47.0885],[-96.8264,47.0889],[-96.8173,47.0921],[-96.821,47.1009],[-96.8162,47.1085],[-96.8221,47.1089],[-96.8212,47.1158],[-96.8284,47.1208],[-96.8376,47.122],[-96.8258,47.1231],[-96.8207,47.1304],[-96.8304,47.1292],[-96.8263,47.1349],[-96.8346,47.1439],[-96.8286,47.1464],[-96.8412,47.1519],[-96.8362,47.1566],[-96.8232,47.1556],[-96.8319,47.1598],[-96.8189,47.1646],[-96.825,47.167],[-96.8229,47.1737],[-96.8335,47.1766],[-96.825,47.1779],[-96.8276,47.1819],[-96.8219,47.185],[-96.836,47.1851],[-96.8262,47.1913],[-96.838,47.1965],[-96.8402,47.191],[-96.8448,47.1932],[-96.834,47.2035],[-96.8272,47.2011],[-96.8372,47.2073],[-96.8303,47.2103],[-96.8372,47.2159],[-96.8336,47.2216],[-96.8458,47.2203],[-96.8318,47.2262],[-96.8428,47.2313],[-96.8371,47.235],[-96.83,47.2315],[-96.8307,47.2364],[-97.0701,47.2388],[-97.0703,46.9807]]]},"properties":{"geoid":"38045","state":"38","district":"45","name":"State Senate District 45","chamber":"Senate"}},{"type":"Feature","geometry":{"type":"Polygon","coordinates":[[[-96.8297,46.7816],[-96.8296,46.7783],[-96.7984,46.7743],[-96.7948,46.781],[-96.7997,46.7852],[-96.7871,46.7851],[-96.7962,46.7899],[-96.7949,46.7958],[-96.8021,46.7967],[-96.7956,46.8012],[-96.8029,46.8056],[-96.7957,46.8077],[-96.8028,46.8117],[-96.7924,46.8273],[-96.7804,46.8249],[-96.794,46.8331],[-96.7845,46.8333],[-96.7868,46.8412],[-96.775,46.839],[-96.7807,46.8476],[-96.7985,46.8485],[-96.7986,46.8436],[-96.8114,46.8427],[-96.8105,46.8358],[-96.82,46.8326],[-96.8186,46.8034],[-96.824,46.8034],[-96.8297,46.7816]]]},"properties":{"geoid":"38046","state":"38","district":"46","name":"State Senate District 46","chamber":"Senate"}},{"type":"Feature","geometry":{"type":"Polygon","coordinates":[[[-100.8907,46.8821],[-100.8595,46.8412],[-100.834,46.822],[-100.8042,46.8311],[-100.7728,46.8313],[-100.7724,46.8525],[-100.7937,46.8526],[-100.7935,46.867],[-100.8459,46.8674],[-100.8568,46.889],[-100.8745,46.889],[-100.8775,46.8818],[-100.8907,46.8821]]]},"properties":{"geoid":"38047","state":"38","district":"47","name":"State Senate District 47","chamber":"Senate"}}]}