{"type":"FeatureCollection","features":[{"type":"Feature","geometry":{"type":"Polygon","coordinates":[[[-96.4639,40.094],[-96.4637,40.001],[-95.3083,40],[-95.3153,40.0121],[-95.3362,40.0191],[-95.3488,40.0293],[-95.3915,40.0271],[-95.4151,40.0403],[-95.4213,40.0607],[-95.4094,40.075],[-95.4101,40.094],[-95.3942,40.1083],[-95.3933,40.1192],[-95.4003,40.1273],[-95.4274,40.1346],[-95.4363,40.1587],[-95.4638,40.1712],[-95.4792,40.1857],[-95.4823,40.2007],[-95.4697,40.2279],[-95.4787,40.2437],[-95.4934,40.2496],[-95.521,40.2501],[-95.5525,40.2619],[-95.5563,40.2708],[-95.5516,40.2887],[-95.5622,40.2974],[-95.5818,40.2996],[-95.6104,40.314],[-95.6453,40.3057],[-95.6573,40.3109],[-95.6537,40.3226],[-95.6276,40.3324],[-95.6227,40.3423],[-95.641,40.3664],[-95.6439,40.3869],[-95.6606,40.4124],[-95.6566,40.4387],[-95.6677,40.4535],[-95.6947,40.4715],[-95.6948,40.4947],[-95.7,40.5053],[-95.6617,40.5173],[-95.6557,40.5236],[-95.6534,40.5419],[-95.6718,40.5626],[-95.6787,40.5626],[-95.6941,40.5569],[-95.6955,40.532],[-95.7086,40.5216],[-95.7175,40.5278],[-95.7487,40.5243],[-95.7669,40.5316],[-95.7693,40.5367],[-95.7638,40.5539],[-95.7747,40.5736],[-95.7503,40.5963],[-95.7497,40.6068],[-95.7689,40.6213],[-95.7715,40.6398],[-95.7819,40.6533],[-95.7955,40.6624],[-95.8229,40.6672],[-95.8428,40.6775],[-95.8526,40.7023],[-95.8832,40.7176],[-95.8889,40.7319],[-95.879,40.7531],[-95.8437,40.7705],[-95.8341,40.7838],[-96.4638,40.784],[-96.4639,40.094]]]},"properties":{"geoid":"31001","state":"31","district":"1","name":"State Senate District 1","chamber":"Legislature"}},{"type":"Feature","geometry":{"type":"Polygon","coordinates":[[[-96.6252,40.7873],[-95.8341,40.7838],[-95.8453,40.8113],[-95.8372,40.8353],[-95.8486,40.8611],[-95.8425,40.8703],[-95.8159,40.8798],[-95.8094,40.8933],[-95.8143,40.9029],[-95.8349,40.9196],[-95.8397,40.9328],[-95.8298,40.9773],[-95.8667,41.0007],[-95.8695,41.0094],[-95.8599,41.0254],[-95.8601,41.037],[-95.8892,41.0584],[-95.961,41.0608],[-95.9873,41.0527],[-96.0031,41.0605],[-96.0563,41.0654],[-96.1034,41.0519],[-96.1447,41.0176],[-96.2189,40.9943],[-96.233,41.0009],[-96.2476,41.0178],[-96.2949,41.0257],[-96.3192,41.045],[-96.349,41.045],[-96.3495,41.0152],[-96.4639,41.0161],[-96.4637,40.8855],[-96.5675,40.8853],[-96.5676,40.892],[-96.5718,40.8934],[-96.6069,40.875],[-96.6061,40.7988],[-96.6251,40.7988],[-96.6252,40.7873]]]},"properties":{"geoid":"31002","state":"31","district":"2","name":"State Senate District 2","chamber":"Legislature"}},{"type":"Feature","geometry":{"type":"Polygon","coordinates":[[[-96.0237,41.1385],[-96.0236,41.118],[-95.9665,41.1217],[-95.9665,41.1089],[-95.9472,41.1104],[-95.9479,41.191],[-96.0091,41.1907],[-95.9869,41.1617],[-96.0237,41.1616],[-96.0237,41.1385]]]},"properties":{"geoid":"31003","state":"31","district":"3","name":"State Senate District 3","chamber":"Legislature"}},{"type":"Feature","geometry":{"type":"Polygon","coordinates":[[[-96.2158,41.2775],[-96.2156,41.2629],[-96.1964,41.263],[-96.1961,41.2343],[-96.1542,41.2334],[-96.1611,41.2425],[-96.1536,41.2418],[-96.1513,41.2485],[-96.1196,41.2486],[-96.1196,41.2776],[-96.1388,41.2777],[-96.1389,41.2922],[-96.1869,41.292],[-96.1861,41.2871],[-96.1965,41.2848],[-96.1964,41.2778],[-96.2158,41.2775]]]},"properties":{"geoid":"31004","state":"31","district":"4","name":"State Senate District 4","chamber":"Legislature"}},{"type":"Feature","geometry":{"type":"Polygon","coordinates":[[[-96.0239,41.2326],[-96.0238,41.1907],[-95.9398,41.191],[-95.9535,41.2164],[-95.9539,41.2392],[-95.9902,41.2343],[-95.9902,41.227],[-95.9951,41.227],[-96.0021,41.2379],[-96.0239,41.2326]]]},"properties":{"geoid":"31005","state":"31","district":"5","name":"State Senate District 5","chamber":"Legislature"}},{"type":"Feature","geometry":{"type":"Polygon","coordinates":[[[-96.1389,41.2922],[-96.1388,41.2777],[-96.1196,41.2776],[-96.1196,41.2631],[-96.1006,41.2631],[-96.1007,41.2486],[-96.0156,41.2488],[-96.0165,41.2596],[-96.0239,41.2596],[-96.0239,41.2698],[-96.0437,41.272],[-96.0478,41.2851],[-96.1389,41.2922]]]},"properties":{"geoid":"31006","state":"31","district":"6","name":"State Senate District 6","chamber":"Legislature"}},{"type":"Feature","geometry":{"type":"Polygon","coordinates":[[[-95.956,41.2297],[-95.9492,41.2038],[-95.9398,41.191],[-95.9237,41.191],[-95.9272,41.209],[-95.9107,41.2322],[-95.9223,41.263],[-95.9141,41.2724],[-95.947,41.268],[-95.947,41.2524],[-95.9539,41.2524],[-95.956,41.2297]]]},"properties":{"geoid":"31007","state":"31","district":"7","name":"State Senate District 7","chamber":"Legislature"}},{"type":"Feature","geometry":{"type":"Polygon","coordinates":[[[-96.0614,41.3069],[-96.0526,41.3067],[-96.0526,41.2851],[-96.0478,41.2851],[-96.0441,41.2724],[-96.0239,41.2698],[-96.0239,41.2596],[-95.9804,41.2597],[-95.9828,41.2924],[-96.0143,41.2923],[-96.0239,41.2976],[-96.0238,41.3127],[-96.0464,41.3105],[-96.0592,41.3162],[-96.0614,41.3069]]]},"properties":{"geoid":"31008","state":"31","district":"8","name":"State Senate District 8","chamber":"Legislature"}},{"type":"Feature","geometry":{"type":"Polygon","coordinates":[[[-96.024,41.2383],[-96.0239,41.2345],[-96.0021,41.2379],[-95.9951,41.227],[-95.9902,41.227],[-95.9902,41.2343],[-95.9758,41.2342],[-95.9758,41.2384],[-95.9545,41.2382],[-95.9539,41.2524],[-95.947,41.2524],[-95.947,41.268],[-95.9818,41.2679],[-95.9804,41.2597],[-96.0165,41.2596],[-96.0156,41.2488],[-96.0239,41.2488],[-96.024,41.2383]]]},"properties":{"geoid":"31009","state":"31","district":"9","name":"State Senate District 9","chamber":"Legislature"}},{"type":"Feature","geometry":{"type":"Polygon","coordinates":[[[-96.1584,41.3356],[-96.1581,41.2921],[-96.1021,41.2922],[-96.0526,41.2851],[-96.0526,41.3067],[-96.1007,41.3066],[-96.1005,41.3188],[-96.1389,41.3211],[-96.139,41.3356],[-96.1584,41.3356]]]},"properties":{"geoid":"31010","state":"31","district":"10","name":"State Senate District 10","chamber":"Legislature"}},{"type":"Feature","geometry":{"type":"Polygon","coordinates":[[[-95.9902,41.3003],[-95.9855,41.2996],[-95.9828,41.2924],[-95.9822,41.2679],[-95.9323,41.268],[-95.9182,41.2743],[-95.9326,41.2851],[-95.9323,41.2997],[-95.9421,41.2996],[-95.9454,41.3176],[-95.9854,41.3149],[-95.9902,41.3104],[-95.9902,41.3003]]]},"properties":{"geoid":"31011","state":"31","district":"11","name":"State Senate District 11","chamber":"Legislature"}},{"type":"Feature","geometry":{"type":"Polygon","coordinates":[[[-96.1582,41.2052],[-96.1388,41.1981],[-96.1388,41.1908],[-96.0238,41.1907],[-96.0239,41.2217],[-96.1264,41.2214],[-96.1385,41.2261],[-96.1388,41.2054],[-96.1582,41.2052]]]},"properties":{"geoid":"31012","state":"31","district":"12","name":"State Senate District 12","chamber":"Legislature"}},{"type":"Feature","geometry":{"type":"Polygon","coordinates":[[[-96.1199,41.3932],[-96.1198,41.3501],[-96.0895,41.3502],[-96.0795,41.3357],[-96.0334,41.3357],[-96.0334,41.3127],[-96.0238,41.3127],[-96.0239,41.2976],[-96.0143,41.2923],[-95.9855,41.2924],[-95.9902,41.3104],[-95.9854,41.3149],[-95.9472,41.3176],[-95.9421,41.2996],[-95.9323,41.2997],[-95.9326,41.2851],[-95.9276,41.2984],[-95.9059,41.301],[-95.9061,41.2875],[-95.9126,41.2795],[-95.9052,41.275],[-95.8814,41.2822],[-95.8721,41.2911],[-95.8742,41.3079],[-95.8829,41.3166],[-95.9258,41.3216],[-95.9553,41.3419],[-95.9543,41.3535],[-95.9369,41.3592],[-95.9297,41.3671],[-95.9387,41.3932],[-96.1199,41.3932]]]},"properties":{"geoid":"31013","state":"31","district":"13","name":"State Senate District 13","chamber":"Legislature"}},{"type":"Feature","geometry":{"type":"Polygon","coordinates":[[[-96.0815,41.1824],[-96.0805,41.1746],[-96.062,41.1649],[-96.0635,41.1447],[-96.0525,41.1399],[-96.0525,41.1326],[-96.0237,41.1325],[-96.0237,41.1616],[-95.9869,41.1617],[-96.0091,41.1907],[-96.0814,41.1908],[-96.0815,41.1824]]]},"properties":{"geoid":"31014","state":"31","district":"14","name":"State Senate District 14","chamber":"Legislature"}},{"type":"Feature","geometry":{"type":"Polygon","coordinates":[[[-96.906,41.6311],[-96.9059,41.4534],[-96.8338,41.4457],[-96.8152,41.4396],[-96.7742,41.4501],[-96.7467,41.4497],[-96.6946,41.4257],[-96.6711,41.4263],[-96.6399,41.4362],[-96.569,41.4333],[-96.5104,41.4049],[-96.5042,41.3966],[-96.4707,41.3932],[-96.4584,41.3795],[-96.4222,41.3647],[-96.4074,41.3366],[-96.4076,41.3146],[-96.3779,41.2983],[-96.3644,41.2853],[-96.3626,41.2915],[-96.2825,41.2915],[-96.2762,41.2949],[-96.275,41.3361],[-96.2681,41.3498],[-96.1969,41.3499],[-96.197,41.3645],[-96.2163,41.3644],[-96.215,41.3931],[-96.329,41.3931],[-96.3289,41.4366],[-96.3673,41.4367],[-96.3672,41.451],[-96.3865,41.4513],[-96.3864,41.4657],[-96.4056,41.4658],[-96.4059,41.4805],[-96.4252,41.4803],[-96.4252,41.4949],[-96.4348,41.4949],[-96.4345,41.5239],[-96.4439,41.5239],[-96.4442,41.7418],[-96.9059,41.7428],[-96.906,41.6311]]]},"properties":{"geoid":"31015","state":"31","district":"15","name":"State Senate District 15","chamber":"Legislature"}},{"type":"Feature","geometry":{"type":"Polygon","coordinates":[[[-97.3106,42.0621],[-97.3104,41.9894],[-97.2142,41.9896],[-97.2142,41.9613],[-97.1536,41.9605],[-97.1561,41.9389],[-97.1855,41.9382],[-97.1853,41.926],[-97.1675,41.9171],[-97.214,41.9171],[-97.2142,41.7431],[-96.4442,41.7418],[-96.4439,41.5239],[-96.4345,41.5239],[-96.4348,41.4949],[-96.4252,41.4949],[-96.4252,41.4803],[-96.4059,41.4805],[-96.4056,41.4658],[-96.3864,41.4657],[-96.3865,41.4513],[-96.3672,41.451],[-96.3673,41.4367],[-96.3289,41.4366],[-96.329,41.3931],[-95.9378,41.3908],[-95.9297,41.4111],[-95.9328,41.4308],[-95.9209,41.4434],[-95.92,41.4526],[-95.9363,41.4653],[-95.9667,41.4634],[-95.9843,41.4709],[-96.0049,41.4724],[-96.0136,41.4785],[-96.0195,41.4916],[-96.0006,41.5025],[-95.9933,41.5123],[-96,41.5395],[-96.0139,41.5453],[-96.0235,41.5434],[-96.0344,41.5128],[-96.0406,41.5069],[-96.0528,41.5084],[-96.0827,41.526],[-96.0944,41.5395],[-96.095,41.5548],[-96.0814,41.5779],[-96.0872,41.5866],[-96.1095,41.5968],[-96.1183,41.615],[-96.0978,41.6396],[-96.0952,41.6501],[-96.1001,41.6611],[-96.118,41.6733],[-96.1226,41.683],[-96.1135,41.6976],[-96.0846,41.6977],[-96.0732,41.7041],[-96.0766,41.7157],[-96.1022,41.7276],[-96.1064,41.7378],[-96.101,41.7476],[-96.0809,41.7575],[-96.0775,41.7778],[-96.0664,41.789],[-96.0652,41.7966],[-96.0763,41.8083],[-96.1066,41.8196],[-96.111,41.8288],[-96.1076,41.8404],[-96.1105,41.8492],[-96.1419,41.869],[-96.1488,41.8882],[-96.1618,41.9018],[-96.1591,41.9101],[-96.1367,41.9208],[-96.1446,41.9415],[-96.1333,41.9557],[-96.1295,41.9717],[-96.1521,41.9797],[-96.1872,41.9779],[-96.1921,41.9845],[-96.184,42.0031],[-96.1946,42.0087],[-96.2152,42.0067],[-96.2255,41.9947],[-96.2382,41.9976],[-96.2423,42.002],[-96.2408,42.0093],[-96.2217,42.0262],[-96.2238,42.0333],[-96.235,42.0401],[-96.227,42.0374],[-96.2303,42.0394],[-96.2581,42.0383],[-96.2732,42.0472],[-96.3094,42.0467],[-96.3096,42.0152],[-96.5549,42.0159],[-96.5555,42.09],[-97.3099,42.0909],[-97.3106,42.0621]]]},"properties":{"geoid":"31016","state":"31","district":"16","name":"State Senate District 16","chamber":"Legislature"}},{"type":"Feature","geometry":{"type":"Polygon","coordinates":[[[-97.3684,42.0938],[-96.5555,42.09],[-96.5549,42.0159],[-96.3096,42.0152],[-96.3094,42.0467],[-96.2731,42.0472],[-96.2792,42.0735],[-96.2669,42.1038],[-96.2746,42.1203],[-96.3064,42.13],[-96.3207,42.1479],[-96.3471,42.1653],[-96.3504,42.1752],[-96.3474,42.1931],[-96.3599,42.2106],[-96.3566,42.2152],[-96.337,42.2175],[-96.3237,42.2299],[-96.33,42.2402],[-96.3289,42.2547],[-96.336,42.2648],[-96.3658,42.2858],[-96.3692,42.3083],[-96.3753,42.3183],[-96.408,42.3374],[-96.4178,42.3514],[-96.4084,42.3761],[-96.4152,42.4042],[-96.3876,42.4325],[-96.3807,42.4464],[-96.3813,42.4617],[-96.3926,42.4814],[-96.402,42.4864],[-96.4455,42.4906],[-96.4788,42.4797],[-96.5013,42.4827],[-96.5158,42.4942],[-96.5288,42.5133],[-96.5488,42.5205],[-96.6035,42.5045],[-96.626,42.5136],[-96.6315,42.5243],[-96.7222,42.5247],[-96.726,42.3511],[-97.3677,42.3519],[-97.3684,42.0938]]]},"properties":{"geoid":"31017","state":"31","district":"17","name":"State Senate District 17","chamber":"Legislature"}},{"type":"Feature","geometry":{"type":"Polygon","coordinates":[[[-96.2163,41.3684],[-96.2163,41.3644],[-96.197,41.3645],[-96.1969,41.3499],[-96.2066,41.3499],[-96.2063,41.3209],[-96.1967,41.3209],[-96.1964,41.3064],[-96.1821,41.3065],[-96.1869,41.292],[-96.1581,41.2921],[-96.1584,41.3356],[-96.139,41.3356],[-96.1389,41.3211],[-96.1005,41.3188],[-96.1007,41.3066],[-96.0614,41.3067],[-96.0592,41.3162],[-96.0464,41.3105],[-96.0334,41.3127],[-96.0334,41.3357],[-96.0795,41.3357],[-96.0895,41.3502],[-96.1198,41.3501],[-96.1199,41.3932],[-96.215,41.3931],[-96.2163,41.3684]]]},"properties":{"geoid":"31018","state":"31","district":"18","name":"State Senate District 18","chamber":"Legislature"}},{"type":"Feature","geometry":{"type":"Polygon","coordinates":[[[-97.835,42.2488],[-97.8323,41.7423],[-97.3681,41.7432],[-97.3679,42.2649],[-97.8349,42.2637],[-97.835,42.2488]]]},"properties":{"geoid":"31019","state":"31","district":"19","name":"State Senate District 19","chamber":"Legislature"}},{"type":"Feature","geometry":{"type":"Polygon","coordinates":[[[-96.161,41.2425],[-96.1283,41.2216],[-96.0239,41.2217],[-96.0239,41.2488],[-96.1007,41.2486],[-96.1006,41.2631],[-96.1196,41.2631],[-96.1196,41.2486],[-96.1513,41.2485],[-96.1536,41.2418],[-96.161,41.2425]]]},"properties":{"geoid":"31020","state":"31","district":"20","name":"State Senate District 20","chamber":"Legislature"}},{"type":"Feature","geometry":{"type":"Polygon","coordinates":[[[-96.9109,41.0461],[-96.9108,40.7994],[-96.7536,40.7992],[-96.7537,40.7919],[-96.7494,40.7919],[-96.7494,40.8045],[-96.7565,40.8176],[-96.7434,40.8352],[-96.7176,40.861],[-96.7011,40.8707],[-96.7009,40.8574],[-96.682,40.857],[-96.682,40.8865],[-96.6647,40.8967],[-96.6054,40.8971],[-96.6029,40.8771],[-96.5718,40.8934],[-96.5676,40.892],[-96.5675,40.8853],[-96.4637,40.8855],[-96.4639,41.0451],[-96.9109,41.0461]]]},"properties":{"geoid":"31021","state":"31","district":"21","name":"State Senate District 21","chamber":"Legislature"}},{"type":"Feature","geometry":{"type":"Polygon","coordinates":[[[-97.8312,41.6569],[-97.8298,41.5262],[-97.7036,41.5268],[-97.7038,41.3949],[-97.5985,41.3951],[-97.5983,41.3331],[-97.5706,41.3373],[-97.5224,41.3619],[-97.4501,41.3688],[-97.3682,41.3976],[-97.3409,41.3911],[-97.3107,41.4],[-97.2878,41.4006],[-97.2535,41.3842],[-97.2524,41.7431],[-97.2142,41.7431],[-97.214,41.9171],[-97.1675,41.9171],[-97.1853,41.926],[-97.1855,41.9382],[-97.1561,41.9389],[-97.1536,41.9605],[-97.2142,41.9613],[-97.2142,41.9896],[-97.3104,41.9894],[-97.3098,42.0908],[-97.3684,42.0909],[-97.3681,41.7432],[-97.8305,41.7422],[-97.8312,41.6569]]]},"properties":{"geoid":"31022","state":"31","district":"22","name":"State Senate District 22","chamber":"Legislature"}},{"type":"Feature","geometry":{"type":"Polygon","coordinates":[[[-97.2542,41.3096],[-97.2531,41.0467],[-96.4639,41.0451],[-96.4639,41.0161],[-96.3695,41.015],[-96.3495,41.0152],[-96.349,41.045],[-96.3192,41.045],[-96.3398,41.0825],[-96.335,41.0975],[-96.3111,41.1144],[-96.3199,41.1318],[-96.316,41.1466],[-96.3229,41.1812],[-96.3325,41.1956],[-96.3526,41.2057],[-96.3615,41.2195],[-96.3655,41.2355],[-96.3508,41.2562],[-96.3506,41.2652],[-96.3756,41.2966],[-96.4076,41.3146],[-96.4074,41.3366],[-96.423,41.3653],[-96.4584,41.3795],[-96.4707,41.3932],[-96.5042,41.3966],[-96.5104,41.4049],[-96.569,41.4333],[-96.6399,41.4362],[-96.6711,41.4263],[-96.6946,41.4257],[-96.7467,41.4497],[-96.7742,41.4501],[-96.8152,41.4396],[-96.8338,41.4457],[-96.9059,41.4534],[-96.9059,41.7428],[-97.2524,41.7431],[-97.2542,41.3096]]]},"properties":{"geoid":"31023","state":"31","district":"23","name":"State Senate District 23","chamber":"Legislature"}},{"type":"Feature","geometry":{"type":"Polygon","coordinates":[[[-97.8284,41.148],[-97.8257,40.6986],[-96.9111,40.698],[-96.9109,41.0461],[-97.2531,41.0467],[-97.2535,41.3842],[-97.2776,41.3974],[-97.3049,41.401],[-97.3409,41.3911],[-97.3682,41.3976],[-97.4501,41.3688],[-97.5224,41.3619],[-97.5706,41.3373],[-97.5977,41.3335],[-97.6017,41.3152],[-97.631,41.3067],[-97.6419,41.3061],[-97.6425,41.3097],[-97.6586,41.3049],[-97.6566,41.3015],[-97.6645,41.2947],[-97.6685,41.2983],[-97.6791,41.2926],[-97.7179,41.2629],[-97.766,41.2349],[-97.7907,41.2063],[-97.8048,41.1969],[-97.8005,41.1933],[-97.8283,41.1755],[-97.8284,41.148]]]},"properties":{"geoid":"31024","state":"31","district":"24","name":"State Senate District 24","chamber":"Legislature"}},{"type":"Feature","geometry":{"type":"Polygon","coordinates":[[[-96.6634,40.7295],[-96.6634,40.7263],[-96.6444,40.7263],[-96.6444,40.6973],[-96.6285,40.6973],[-96.6293,40.683],[-96.5585,40.6834],[-96.5585,40.6689],[-96.5209,40.6683],[-96.5207,40.6539],[-96.4638,40.6535],[-96.4638,40.784],[-96.625,40.7843],[-96.6253,40.7696],[-96.6442,40.7697],[-96.6444,40.7547],[-96.6634,40.7553],[-96.6634,40.7295]]]},"properties":{"geoid":"31025","state":"31","district":"25","name":"State Senate District 25","chamber":"Legislature"}},{"type":"Feature","geometry":{"type":"Polygon","coordinates":[[[-96.6824,40.8136],[-96.6061,40.8135],[-96.6061,40.8741],[-96.6246,40.8662],[-96.6249,40.8513],[-96.6589,40.8484],[-96.6537,40.828],[-96.6824,40.8207],[-96.6824,40.8136]]]},"properties":{"geoid":"31026","state":"31","district":"26","name":"State Senate District 26","chamber":"Legislature"}},{"type":"Feature","geometry":{"type":"Polygon","coordinates":[[[-96.7968,40.7035],[-96.7969,40.6976],[-96.6823,40.6974],[-96.6825,40.7396],[-96.7015,40.7385],[-96.707,40.8165],[-96.7121,40.8251],[-96.7121,40.843],[-96.7203,40.8438],[-96.721,40.8578],[-96.7565,40.8176],[-96.7494,40.8045],[-96.7494,40.7919],[-96.7537,40.7919],[-96.7536,40.7992],[-96.7963,40.7992],[-96.7968,40.7035]]]},"properties":{"geoid":"31027","state":"31","district":"27","name":"State Senate District 27","chamber":"Legislature"}},{"type":"Feature","geometry":{"type":"Polygon","coordinates":[[[-96.7072,40.7858],[-96.7063,40.781],[-96.6921,40.7809],[-96.6917,40.7845],[-96.6825,40.7808],[-96.6823,40.8026],[-96.6061,40.7988],[-96.6061,40.8135],[-96.707,40.8159],[-96.7072,40.7858]]]},"properties":{"geoid":"31028","state":"31","district":"28","name":"State Senate District 28","chamber":"Legislature"}},{"type":"Feature","geometry":{"type":"Polygon","coordinates":[[[-96.7064,40.7801],[-96.7015,40.7715],[-96.7017,40.7557],[-96.6444,40.7547],[-96.6442,40.7697],[-96.6253,40.7696],[-96.6251,40.7988],[-96.6537,40.7989],[-96.6537,40.8038],[-96.6823,40.8026],[-96.6825,40.7808],[-96.6921,40.7845],[-96.6921,40.7809],[-96.7064,40.7801]]]},"properties":{"geoid":"31029","state":"31","district":"29","name":"State Senate District 29","chamber":"Legislature"}},{"type":"Feature","geometry":{"type":"Polygon","coordinates":[[[-96.9169,40.0818],[-96.9164,40.0015],[-96.4637,40.001],[-96.4638,40.6535],[-96.5207,40.6539],[-96.5209,40.6683],[-96.5585,40.6689],[-96.5585,40.6834],[-96.6293,40.683],[-96.6285,40.6973],[-96.6444,40.6973],[-96.6444,40.7263],[-96.6634,40.7263],[-96.6634,40.7554],[-96.7017,40.7557],[-96.7015,40.7385],[-96.6825,40.7396],[-96.6823,40.6974],[-96.6608,40.6472],[-96.6391,40.6252],[-96.647,40.6251],[-96.6438,40.6206],[-96.6352,40.6163],[-96.5591,40.6182],[-96.5581,40.5959],[-96.5726,40.5965],[-96.5722,40.5238],[-96.9126,40.5236],[-96.9169,40.0818]]]},"properties":{"geoid":"31030","state":"31","district":"30","name":"State Senate District 30","chamber":"Legislature"}},{"type":"Feature","geometry":{"type":"Polygon","coordinates":[[[-96.2156,41.2016],[-96.2157,41.1978],[-96.2061,41.1964],[-96.2062,41.1906],[-96.1388,41.1908],[-96.1388,41.1981],[-96.1582,41.2025],[-96.1388,41.2054],[-96.1385,41.2261],[-96.1531,41.234],[-96.2155,41.2339],[-96.2156,41.2016]]]},"properties":{"geoid":"31031","state":"31","district":"31","name":"State Senate District 31","chamber":"Legislature"}},{"type":"Feature","geometry":{"type":"Polygon","coordinates":[[[-97.8249,40.6414],[-97.8215,40.002],[-96.9164,40.0015],[-96.9126,40.5236],[-96.5722,40.5238],[-96.5726,40.5965],[-96.5581,40.5959],[-96.5598,40.6189],[-96.6352,40.6163],[-96.6438,40.6206],[-96.647,40.6251],[-96.6391,40.6252],[-96.6608,40.6472],[-96.6815,40.6974],[-96.7969,40.6976],[-96.7963,40.7992],[-96.9108,40.7994],[-96.9111,40.698],[-97.8248,40.6985],[-97.8249,40.6414]]]},"properties":{"geoid":"31032","state":"31","district":"32","name":"State Senate District 32","chamber":"Legislature"}},{"type":"Feature","geometry":{"type":"Polygon","coordinates":[[[-99.6444,40.5163],[-99.6422,40.3512],[-99.5171,40.351],[-99.5126,40.3648],[-99.4928,40.3647],[-99.4932,40.4961],[-99.3414,40.4967],[-99.3224,40.4964],[-99.3227,40.3798],[-99.3273,40.3797],[-99.3227,40.3761],[-99.3217,40.3506],[-98.2781,40.3503],[-98.2781,40.6983],[-98.7244,40.6989],[-98.7253,40.6893],[-98.8259,40.675],[-98.8655,40.6596],[-98.9085,40.6526],[-98.9715,40.657],[-98.9972,40.6521],[-99.1155,40.6548],[-99.2048,40.662],[-99.2423,40.6589],[-99.2588,40.6645],[-99.2908,40.6623],[-99.3322,40.6715],[-99.376,40.6643],[-99.4117,40.6676],[-99.4464,40.6781],[-99.5286,40.6751],[-99.5431,40.6808],[-99.5822,40.6771],[-99.6206,40.6859],[-99.6435,40.6849],[-99.6444,40.5163]]]},"properties":{"geoid":"31033","state":"31","district":"33","name":"State Senate District 33","chamber":"Legislature"}},{"type":"Feature","geometry":{"type":"Polygon","coordinates":[[[-98.4361,40.8734],[-98.2826,40.8724],[-98.2829,40.6983],[-97.8257,40.6986],[-97.8283,41.1755],[-97.8005,41.1933],[-97.8048,41.1969],[-97.7907,41.2063],[-97.766,41.2349],[-97.7179,41.2629],[-97.6791,41.2926],[-97.6685,41.2983],[-97.6645,41.2947],[-97.6566,41.3015],[-97.6586,41.3049],[-97.6425,41.3097],[-97.6419,41.3061],[-97.631,41.3067],[-97.5982,41.3172],[-97.5985,41.3951],[-97.7038,41.3949],[-97.7036,41.5268],[-97.8855,41.5259],[-97.8853,41.5114],[-98.0413,41.5105],[-98.0415,41.496],[-98.0998,41.4954],[-98.0995,41.4808],[-98.2913,41.4807],[-98.2914,41.3939],[-98.2866,41.3939],[-98.2872,41.0464],[-98.4161,41.0463],[-98.4165,40.9025],[-98.4356,40.9025],[-98.4361,40.8734]],[[-98.3845,40.9537],[-98.3817,40.9605],[-98.3398,40.9602],[-98.3397,40.9746],[-98.3221,40.9799],[-98.3208,40.9889],[-98.3018,40.9884],[-98.3016,40.9739],[-98.2825,40.9738],[-98.2825,40.9158],[-98.3018,40.9159],[-98.3017,40.9013],[-98.3209,40.9026],[-98.3398,40.895],[-98.3398,40.9021],[-98.3815,40.9025],[-98.3845,40.9537]]]},"properties":{"geoid":"31034","state":"31","district":"34","name":"State Senate District 34","chamber":"Legislature"}},{"type":"Feature","geometry":{"type":"Polygon","coordinates":[[[-98.3845,40.954],[-98.3815,40.9025],[-98.3398,40.9021],[-98.3398,40.895],[-98.3209,40.9026],[-98.3017,40.9013],[-98.3018,40.9159],[-98.2825,40.9158],[-98.2825,40.9738],[-98.3016,40.9739],[-98.3018,40.9884],[-98.3208,40.9889],[-98.3221,40.9799],[-98.3397,40.9746],[-98.3398,40.9602],[-98.3817,40.9605],[-98.3845,40.954]]]},"properties":{"geoid":"31035","state":"31","district":"35","name":"State Senate District 35","chamber":"Legislature"}},{"type":"Feature","geometry":{"type":"Polygon","coordinates":[[[-96.3398,41.0833],[-96.3192,41.045],[-96.302,41.0294],[-96.2844,41.0217],[-96.2476,41.0178],[-96.233,41.0009],[-96.2189,40.9943],[-96.1447,41.0176],[-96.1034,41.0519],[-96.0563,41.0654],[-96.0031,41.0605],[-95.9873,41.0527],[-95.961,41.0608],[-95.9279,41.0588],[-95.9282,41.0893],[-95.952,41.0891],[-95.952,41.0964],[-95.9665,41.0964],[-95.9665,41.1217],[-96.0236,41.118],[-96.0237,41.1325],[-96.0525,41.1326],[-96.0525,41.1399],[-96.0717,41.1473],[-96.0905,41.1473],[-96.0908,41.1326],[-96.2155,41.1324],[-96.2158,41.1905],[-96.2062,41.1906],[-96.2061,41.1963],[-96.2157,41.1978],[-96.2155,41.2194],[-96.2343,41.2193],[-96.2343,41.1903],[-96.3274,41.19],[-96.316,41.1466],[-96.3199,41.1318],[-96.3111,41.1144],[-96.335,41.0975],[-96.3398,41.0833]]]},"properties":{"geoid":"31036","state":"31","district":"36","name":"State Senate District 36","chamber":"Legislature"}},{"type":"Feature","geometry":{"type":"Polygon","coordinates":[[[-99.1794,40.7001],[-99.1794,40.6923],[-99.1611,40.6923],[-99.1619,40.6719],[-99.1368,40.6707],[-99.1503,40.667],[-99.1409,40.6628],[-99.1492,40.6612],[-99.142,40.6588],[-99.1537,40.6589],[-99.1155,40.6548],[-98.9972,40.6521],[-98.9728,40.657],[-98.9061,40.6527],[-98.8655,40.6596],[-98.8259,40.675],[-98.8036,40.6757],[-98.7489,40.6887],[-98.7337,40.6874],[-98.7244,40.6898],[-98.7214,40.6989],[-98.7218,40.8007],[-98.7599,40.8007],[-98.7599,40.7734],[-98.817,40.7577],[-98.817,40.7716],[-98.8742,40.7716],[-98.8703,40.7498],[-98.8743,40.7498],[-98.8743,40.742],[-98.9504,40.725],[-98.9502,40.7499],[-98.9883,40.75],[-98.9883,40.7644],[-99.1028,40.7654],[-99.1028,40.7501],[-99.1219,40.7501],[-99.1219,40.7284],[-99.1791,40.7285],[-99.1794,40.7001]]]},"properties":{"geoid":"31037","state":"31","district":"37","name":"State Senate District 37","chamber":"Legislature"}},{"type":"Feature","geometry":{"type":"Polygon","coordinates":[[[-100.7609,40.1869],[-100.7588,40.0023],[-97.8215,40.002],[-97.8248,40.6985],[-98.2781,40.6983],[-98.2781,40.3503],[-99.3217,40.3506],[-99.3227,40.3761],[-99.3273,40.3797],[-99.3227,40.3798],[-99.3224,40.4964],[-99.4932,40.4961],[-99.4928,40.3647],[-99.5126,40.3648],[-99.5171,40.351],[-100.7584,40.3495],[-100.7609,40.1869]]]},"properties":{"geoid":"31038","state":"31","district":"38","name":"State Senate District 38","chamber":"Legislature"}},{"type":"Feature","geometry":{"type":"Polygon","coordinates":[[[-96.3656,41.2349],[-96.3543,41.2075],[-96.3274,41.19],[-96.2343,41.1903],[-96.2343,41.2193],[-96.2155,41.2194],[-96.2155,41.2339],[-96.1961,41.2343],[-96.1964,41.263],[-96.2156,41.2629],[-96.2158,41.2775],[-96.1964,41.2778],[-96.1965,41.2848],[-96.1861,41.2871],[-96.1821,41.3065],[-96.1964,41.3064],[-96.1967,41.3209],[-96.2063,41.3209],[-96.2066,41.3499],[-96.2681,41.3498],[-96.275,41.3361],[-96.2762,41.2949],[-96.2825,41.2915],[-96.3626,41.2915],[-96.3644,41.2853],[-96.3497,41.2622],[-96.3656,41.2349]]]},"properties":{"geoid":"31039","state":"31","district":"39","name":"State Senate District 39","chamber":"Legislature"}},{"type":"Feature","geometry":{"type":"Polygon","coordinates":[[[-99.257,42.8043],[-99.2568,42.7827],[-99.2458,42.7825],[-99.2446,42.4346],[-99.2341,42.4345],[-99.2346,42.088],[-98.2954,42.0889],[-98.2956,41.915],[-97.8333,41.9163],[-97.8349,42.2637],[-97.3679,42.2649],[-97.3677,42.3519],[-96.726,42.3511],[-96.7222,42.5247],[-96.6315,42.5243],[-96.638,42.552],[-96.6481,42.5608],[-96.6841,42.5765],[-96.7098,42.6051],[-96.7095,42.6219],[-96.6878,42.646],[-96.6913,42.6562],[-96.728,42.6669],[-96.7641,42.662],[-96.7932,42.666],[-96.8022,42.6722],[-96.8005,42.6925],[-96.8062,42.7042],[-96.9068,42.7338],[-96.9183,42.7319],[-96.9376,42.7196],[-96.9616,42.7198],[-96.9658,42.7271],[-96.9612,42.7406],[-96.9689,42.7543],[-96.9791,42.7601],[-97.0249,42.7624],[-97.0672,42.7723],[-97.1303,42.7715],[-97.1508,42.7956],[-97.2101,42.8093],[-97.2183,42.8296],[-97.2188,42.8458],[-97.2486,42.8554],[-97.2899,42.8555],[-97.3067,42.8676],[-97.3362,42.8568],[-97.3596,42.8548],[-97.3767,42.8652],[-97.4108,42.868],[-97.4449,42.8459],[-97.487,42.8506],[-97.5048,42.8585],[-97.5579,42.8475],[-97.6118,42.8584],[-97.6579,42.8444],[-97.6865,42.8422],[-97.7744,42.8497],[-97.8286,42.8688],[-97.8454,42.8677],[-97.8755,42.8587],[-97.8886,42.8172],[-97.909,42.7948],[-97.9348,42.7769],[-97.9502,42.7695],[-97.9776,42.7698],[-98.0131,42.7622],[-98.0567,42.7707],[-98.0675,42.7846],[-98.1277,42.82],[-98.1471,42.8396],[-98.1675,42.8369],[-98.1898,42.8416],[-98.2198,42.8532],[-98.2518,42.8728],[-98.3098,42.8826],[-98.3103,42.7852],[-98.3051,42.7846],[-98.3051,42.7612],[-98.3406,42.7707],[-98.3656,42.7675],[-98.416,42.7757],[-98.4657,42.7662],[-98.4909,42.7731],[-98.5312,42.7746],[-98.5485,42.7816],[-98.5838,42.7797],[-98.6568,42.809],[-98.6746,42.8027],[-98.71,42.8035],[-98.7632,42.8279],[-98.7926,42.8243],[-98.8113,42.8277],[-98.843,42.8465],[-98.8884,42.8435],[-98.9546,42.8941],[-98.9825,42.8964],[-99.0169,42.8862],[-99.0568,42.8626],[-99.0963,42.8563],[-99.128,42.8443],[-99.1538,42.8419],[-99.1788,42.8295],[-99.257,42.8043]]]},"properties":{"geoid":"31040","state":"31","district":"40","name":"State Senate District 40","chamber":"Legislature"}},{"type":"Feature","geometry":{"type":"Polygon","coordinates":[[[-99.4268,40.7878],[-99.4266,40.6998],[-99.4164,40.6997],[-99.4173,40.6708],[-99.376,40.6643],[-99.3322,40.6715],[-99.2908,40.6623],[-99.2588,40.6645],[-99.2423,40.6589],[-99.2048,40.662],[-99.142,40.6588],[-99.1492,40.6612],[-99.1409,40.6628],[-99.1503,40.667],[-99.1368,40.6707],[-99.1618,40.6718],[-99.1611,40.6923],[-99.1794,40.6923],[-99.1791,40.7285],[-99.1219,40.7284],[-99.1219,40.7501],[-99.1028,40.7501],[-99.1028,40.7654],[-98.9883,40.7644],[-98.9883,40.75],[-98.9502,40.7499],[-98.9504,40.725],[-98.8743,40.742],[-98.8743,40.7498],[-98.8703,40.7498],[-98.8742,40.7716],[-98.817,40.7716],[-98.817,40.7577],[-98.7599,40.7734],[-98.7599,40.8007],[-98.7218,40.8007],[-98.7214,40.6989],[-98.2829,40.6983],[-98.2826,40.8724],[-98.4361,40.8732],[-98.4356,40.9025],[-98.4165,40.9025],[-98.4161,41.0463],[-98.2872,41.0464],[-98.2866,41.3939],[-98.2914,41.3939],[-98.2913,41.4807],[-98.0995,41.4808],[-98.0998,41.4954],[-98.0415,41.496],[-98.0413,41.5105],[-97.8867,41.5113],[-97.8855,41.5259],[-97.8298,41.5262],[-97.8333,41.9163],[-98.2956,41.915],[-98.2954,42.0889],[-98.7612,42.0885],[-98.7591,41.7404],[-99.212,41.7406],[-99.2125,41.3942],[-99.2033,41.3941],[-99.2076,41.047],[-99.426,41.0465],[-99.4268,40.7878]]]},"properties":{"geoid":"31041","state":"31","district":"41","name":"State Senate District 41","chamber":"Legislature"}},{"type":"Feature","geometry":{"type":"Polygon","coordinates":[[[-102.0517,41.0039],[-102.0515,40.8578],[-101.6679,40.8581],[-101.6661,40.8412],[-101.629,40.8459],[-101.6255,40.8266],[-101.6281,40.7001],[-100.2233,40.7003],[-100.2242,41.0466],[-100.2382,41.0465],[-100.2361,41.3933],[-100.2513,41.3958],[-100.2512,41.7398],[-100.2655,41.7399],[-100.2676,42.0861],[-101.4266,42.0922],[-101.4259,41.7431],[-101.4065,41.7432],[-101.4073,41.3954],[-101.2697,41.3949],[-101.2704,41.0474],[-101.2502,41.0474],[-101.25,41.0039],[-102.0517,41.0039]]]},"properties":{"geoid":"31042","state":"31","district":"42","name":"State Senate District 42","chamber":"Legislature"}},{"type":"Feature","geometry":{"type":"Polygon","coordinates":[[[-103.5051,43.0008],[-103.5031,42.7849],[-103.4803,42.7849],[-103.48,42.4373],[-102.7494,42.4399],[-102.7515,42.3571],[-102.7477,42.3519],[-102.7416,42.1777],[-102.7423,42.0924],[-102.7024,42.0927],[-102.6978,42.0048],[-102.0086,42.0089],[-102.0064,42.0962],[-100.2676,42.0861],[-100.2655,41.7399],[-100.2512,41.7398],[-100.2513,41.3958],[-100.2361,41.3933],[-100.2382,41.0465],[-99.2076,41.047],[-99.2033,41.3941],[-99.2125,41.3942],[-99.212,41.7406],[-98.7591,41.7404],[-98.7612,42.0885],[-99.2346,42.088],[-99.2341,42.4345],[-99.2446,42.4346],[-99.2458,42.7825],[-99.2568,42.7827],[-99.257,42.8043],[-99.1788,42.8295],[-99.1538,42.8419],[-99.128,42.8443],[-99.0963,42.8563],[-99.0568,42.8626],[-99.0208,42.8843],[-98.9942,42.8944],[-98.967,42.8967],[-98.9546,42.8941],[-98.8884,42.8435],[-98.843,42.8465],[-98.8113,42.8277],[-98.7926,42.8243],[-98.7632,42.8279],[-98.71,42.8035],[-98.6746,42.8027],[-98.6568,42.809],[-98.5838,42.7797],[-98.5485,42.7816],[-98.5312,42.7746],[-98.4909,42.7731],[-98.4657,42.7662],[-98.416,42.7757],[-98.3656,42.7675],[-98.3406,42.7707],[-98.3051,42.7612],[-98.3051,42.7846],[-98.3103,42.7852],[-98.3098,42.8826],[-98.3297,42.8884],[-98.3462,42.9027],[-98.4207,42.9319],[-98.4453,42.9299],[-98.4483,42.9364],[-98.4674,42.9476],[-98.4905,42.9779],[-98.4986,42.9986],[-101.633,42.9963],[-103.5051,43.0008]]]},"properties":{"geoid":"31043","state":"31","district":"43","name":"State Senate District 43","chamber":"Legislature"}},{"type":"Feature","geometry":{"type":"Polygon","coordinates":[[[-102.052,40.1483],[-102.0517,40.0031],[-100.7588,40.0023],[-100.7584,40.3495],[-99.6422,40.3512],[-99.6435,40.6849],[-99.6206,40.6859],[-99.5822,40.6771],[-99.5431,40.6808],[-99.5286,40.6751],[-99.4464,40.6781],[-99.4173,40.6708],[-99.4164,40.6997],[-99.4266,40.6998],[-99.426,41.0465],[-100.2242,41.0466],[-100.2233,40.7003],[-101.6279,40.7001],[-101.6255,40.8266],[-101.629,40.8459],[-101.6661,40.8412],[-101.6679,40.8581],[-102.0515,40.8578],[-102.052,40.1483]]]},"properties":{"geoid":"31044","state":"31","district":"44","name":"State Senate District 44","chamber":"Legislature"}},{"type":"Feature","geometry":{"type":"Polygon","coordinates":[[[-95.9665,41.0968],[-95.952,41.0964],[-95.952,41.0891],[-95.9282,41.0893],[-95.9279,41.0588],[-95.8927,41.059],[-95.8795,41.0533],[-95.8815,41.0654],[-95.8658,41.0801],[-95.8624,41.0897],[-95.8672,41.1215],[-95.8815,41.1421],[-95.8825,41.1559],[-95.8711,41.1676],[-95.8455,41.1674],[-95.8434,41.1797],[-95.8638,41.1882],[-95.9102,41.1844],[-95.9237,41.191],[-95.9479,41.191],[-95.9472,41.1104],[-95.9665,41.1089],[-95.9665,41.0968]]]},"properties":{"geoid":"31045","state":"31","district":"45","name":"State Senate District 45","chamber":"Legislature"}},{"type":"Feature","geometry":{"type":"Polygon","coordinates":[[[-96.7209,40.8579],[-96.7203,40.8438],[-96.7121,40.843],[-96.7121,40.8251],[-96.707,40.8159],[-96.6824,40.8158],[-96.6824,40.8207],[-96.6537,40.828],[-96.6589,40.8484],[-96.6249,40.8513],[-96.6246,40.8662],[-96.6029,40.8771],[-96.6054,40.8971],[-96.6665,40.8961],[-96.682,40.8865],[-96.682,40.857],[-96.7009,40.8574],[-96.7011,40.8707],[-96.7209,40.8579]]]},"properties":{"geoid":"31046","state":"31","district":"46","name":"State Senate District 46","chamber":"Legislature"}},{"type":"Feature","geometry":{"type":"Polygon","coordinates":[[[-104.0532,43],[-104.0526,42.0017],[-103.3633,42.0029],[-103.3626,41.7435],[-103.3704,41.7435],[-103.3712,41.7244],[-103.3671,41.5],[-103.3704,41.3945],[-103.3777,41.3919],[-103.3757,41.0476],[-103.3825,41.0477],[-103.3825,41.0023],[-101.25,41.0039],[-101.2502,41.0474],[-101.2704,41.0474],[-101.2697,41.3949],[-101.4073,41.3954],[-101.4065,41.7432],[-101.4259,41.7431],[-101.4266,42.0922],[-102.0064,42.0962],[-102.0086,42.0089],[-102.6978,42.0048],[-102.7024,42.0927],[-102.7423,42.0924],[-102.7416,42.1777],[-102.7477,42.3519],[-102.7515,42.3571],[-102.7494,42.4399],[-103.48,42.4373],[-103.4803,42.7849],[-103.5031,42.7849],[-103.5051,43.0008],[-104.0532,43]]]},"properties":{"geoid":"31047","state":"31","district":"47","name":"State Senate District 47","chamber":"Legislature"}},{"type":"Feature","geometry":{"type":"Polygon","coordinates":[[[-104.0535,41.1573],[-104.0532,41.0014],[-103.3825,41.0023],[-103.3825,41.0477],[-103.3757,41.0476],[-103.3777,41.3919],[-103.3704,41.3945],[-103.3671,41.5],[-103.3712,41.7244],[-103.3704,41.7435],[-103.3626,41.7435],[-103.3633,42.0029],[-104.0526,42.0017],[-104.0535,41.1573]]]},"properties":{"geoid":"31048","state":"31","district":"48","name":"State Senate District 48","chamber":"Legislature"}},{"type":"Feature","geometry":{"type":"Polygon","coordinates":[[[-96.2158,41.1714],[-96.2155,41.1324],[-96.0908,41.1326],[-96.0905,41.1473],[-96.0628,41.1456],[-96.062,41.1649],[-96.0807,41.1749],[-96.0814,41.1908],[-96.2158,41.1905],[-96.2158,41.1714]]]},"properties":{"geoid":"31049","state":"31","district":"49","name":"State Senate District 49","chamber":"Legislature"}}]}