{"type":"FeatureCollection","features":[{"type":"Feature","geometry":{"type":"Polygon","coordinates":[[[-71.7317,43.5901],[-71.7157,43.5782],[-71.7291,43.5608],[-71.7142,43.5504],[-71.7063,43.5376],[-71.479,43.6986],[-71.4609,43.6866],[-71.4399,43.6956],[-71.5317,43.761],[-71.5214,43.6978],[-71.6483,43.6845],[-71.649,43.6707],[-71.6551,43.6613],[-71.6508,43.644],[-71.6571,43.6308],[-71.6511,43.6212],[-71.6651,43.6136],[-71.6632,43.6052],[-71.689,43.5949],[-71.7033,43.5946],[-71.7125,43.6007],[-71.7317,43.5901]]]},"properties":{"geoid":"33001","state":"33","district":"Belknap 01","name":"State House District Belknap 01","chamber":"House"}},{"type":"Feature","geometry":{"type":"Polygon","coordinates":[[[-71.6428,43.582],[-71.5102,43.5531],[-71.5133,43.5646],[-71.5313,43.5781],[-71.5351,43.5932],[-71.4706,43.6294],[-71.4518,43.6179],[-71.4421,43.6224],[-71.4145,43.6194],[-71.3956,43.6305],[-71.3839,43.6231],[-71.3826,43.6381],[-71.3776,43.6402],[-71.3662,43.6397],[-71.353,43.629],[-71.3442,43.6292],[-71.4399,43.6956],[-71.4609,43.6866],[-71.4789,43.6987],[-71.6428,43.582]]]},"properties":{"geoid":"33002","state":"33","district":"Belknap 02","name":"State House District Belknap 02","chamber":"House"}},{"type":"Feature","geometry":{"type":"Polygon","coordinates":[[[-71.7062,43.5377],[-71.6879,43.5286],[-71.6913,43.5158],[-71.6773,43.5005],[-71.6555,43.4925],[-71.6534,43.4876],[-71.638,43.4918],[-71.6241,43.4699],[-71.629,43.4686],[-71.625,43.4595],[-71.6281,43.4586],[-71.622,43.4469],[-71.6124,43.4379],[-71.6031,43.44],[-71.6005,43.4349],[-71.5931,43.4431],[-71.5796,43.4445],[-71.5691,43.4525],[-71.5615,43.4505],[-71.5587,43.4555],[-71.5477,43.4524],[-71.5396,43.4573],[-71.5332,43.4685],[-71.5357,43.4822],[-71.5254,43.4809],[-71.52,43.4854],[-71.5215,43.4932],[-71.5093,43.5036],[-71.5103,43.5115],[-71.4999,43.5281],[-71.51,43.5434],[-71.5102,43.5531],[-71.6428,43.582],[-71.7062,43.5377]]]},"properties":{"geoid":"33003","state":"33","district":"Belknap 03","name":"State House District Belknap 03","chamber":"House"}},{"type":"Feature","geometry":{"type":"Polygon","coordinates":[[[-71.5493,43.4524],[-71.4715,43.4113],[-71.4642,43.4136],[-71.3968,43.4813],[-71.4458,43.5078],[-71.4513,43.5009],[-71.5006,43.5309],[-71.5106,43.5108],[-71.5093,43.5036],[-71.5215,43.4932],[-71.519,43.487],[-71.525,43.481],[-71.5356,43.4824],[-71.5333,43.4681],[-71.5392,43.4577],[-71.5493,43.4524]]]},"properties":{"geoid":"33004","state":"33","district":"Belknap 04","name":"State House District Belknap 04","chamber":"House"}},{"type":"Feature","geometry":{"type":"Polygon","coordinates":[[[-71.5355,43.5915],[-71.5308,43.5775],[-71.5119,43.5625],[-71.51,43.5434],[-71.5006,43.5309],[-71.4513,43.5009],[-71.4434,43.5206],[-71.4534,43.5214],[-71.4505,43.5298],[-71.4666,43.5286],[-71.4685,43.5356],[-71.4763,43.5372],[-71.4847,43.5613],[-71.4693,43.5483],[-71.4527,43.5513],[-71.4476,43.5678],[-71.4365,43.5666],[-71.4284,43.6022],[-71.4701,43.6295],[-71.5355,43.5915]]]},"properties":{"geoid":"33005","state":"33","district":"Belknap 05","name":"State House District Belknap 05","chamber":"House"}},{"type":"Feature","geometry":{"type":"Polygon","coordinates":[[[-71.4847,43.5596],[-71.4763,43.5372],[-71.4685,43.5356],[-71.468,43.5293],[-71.4505,43.5298],[-71.4534,43.5214],[-71.4434,43.5206],[-71.4488,43.5041],[-71.4458,43.5078],[-71.3968,43.4813],[-71.4642,43.4136],[-71.4715,43.4113],[-71.3491,43.3466],[-71.2658,43.4344],[-71.3053,43.4541],[-71.3289,43.5654],[-71.3135,43.564],[-71.3127,43.5746],[-71.3166,43.5794],[-71.3326,43.58],[-71.3436,43.6288],[-71.353,43.629],[-71.3662,43.6397],[-71.3776,43.6402],[-71.3826,43.6381],[-71.3839,43.6231],[-71.3956,43.6305],[-71.4146,43.6194],[-71.4472,43.621],[-71.4518,43.6179],[-71.4284,43.6022],[-71.4365,43.5666],[-71.4476,43.5678],[-71.4527,43.5513],[-71.4577,43.5527],[-71.4625,43.5474],[-71.4735,43.5505],[-71.4821,43.5624],[-71.4847,43.5596]]]},"properties":{"geoid":"33006","state":"33","district":"Belknap 06","name":"State House District Belknap 06","chamber":"House"}},{"type":"Feature","geometry":{"type":"Polygon","coordinates":[[[-71.3491,43.3466],[-71.236,43.285],[-71.1594,43.3551],[-71.1908,43.515],[-71.1627,43.539],[-71.1995,43.5591],[-71.2089,43.5505],[-71.2279,43.5647],[-71.2585,43.5714],[-71.3436,43.6288],[-71.3326,43.58],[-71.3166,43.5794],[-71.3127,43.5746],[-71.3135,43.564],[-71.3289,43.5654],[-71.3053,43.4541],[-71.2658,43.4344],[-71.3491,43.3466]]]},"properties":{"geoid":"33007","state":"33","district":"Belknap 07","name":"State House District Belknap 07","chamber":"House"}},{"type":"Feature","geometry":{"type":"Polygon","coordinates":[[[-71.167,44.0765],[-71.1401,43.9629],[-71.1125,43.9637],[-71.1121,43.9244],[-71.0821,43.9255],[-71.0833,43.9639],[-71.0664,43.9641],[-71.0534,43.9642],[-71.0508,43.9254],[-70.9932,43.9254],[-71.0002,44.0695],[-71.0092,44.0684],[-71.0101,44.0763],[-71.167,44.0765]]]},"properties":{"geoid":"33101","state":"33","district":"Carroll 01","name":"State House District Carroll 01","chamber":"House"}},{"type":"Feature","geometry":{"type":"Polygon","coordinates":[[[-71.5646,43.8932],[-71.5438,43.7962],[-71.538,43.7965],[-71.5323,43.7648],[-71.3288,43.7827],[-71.3601,43.9084],[-71.3255,43.9116],[-71.3271,43.9212],[-71.3133,43.9224],[-71.3118,43.9129],[-71.2119,43.9223],[-71.1688,43.9621],[-71.1401,43.9629],[-71.167,44.0765],[-71.0101,44.0763],[-71.0092,44.0684],[-71.0002,44.0695],[-71.01,44.2849],[-71.0444,44.2838],[-71.0423,44.2375],[-71.0985,44.2354],[-71.252,44.2443],[-71.306,44.1373],[-71.3024,44.1374],[-71.3118,44.0918],[-71.3359,44.0858],[-71.3436,44.0921],[-71.3432,44.1235],[-71.3565,44.1658],[-71.3842,44.1788],[-71.3949,44.2147],[-71.4265,44.2109],[-71.4132,44.1675],[-71.3871,44.1552],[-71.3765,44.1189],[-71.3765,44.1041],[-71.3816,44.0979],[-71.3664,44.0685],[-71.3467,44.0688],[-71.3836,44.0226],[-71.362,43.9159],[-71.5646,43.8932]]]},"properties":{"geoid":"33102","state":"33","district":"Carroll 02","name":"State House District Carroll 02","chamber":"House"}},{"type":"Feature","geometry":{"type":"Polygon","coordinates":[[[-71.5323,43.7648],[-71.3408,43.6268],[-71.3318,43.6274],[-71.3339,43.6406],[-71.3229,43.6473],[-71.3257,43.6527],[-71.3053,43.6572],[-71.3001,43.6637],[-71.3062,43.6781],[-71.324,43.6813],[-71.3299,43.6878],[-71.2453,43.7704],[-71.2799,43.7749],[-71.2438,43.8137],[-71.1224,43.8517],[-71.1136,43.8492],[-71.0823,43.8549],[-71.0854,43.8696],[-71.0926,43.8697],[-71.0949,43.9099],[-71.1014,43.9248],[-71.1121,43.9244],[-71.1125,43.9637],[-71.1688,43.9621],[-71.2119,43.9223],[-71.3118,43.9129],[-71.3133,43.9224],[-71.3271,43.9212],[-71.3255,43.9116],[-71.3601,43.9084],[-71.3288,43.7827],[-71.5323,43.7648]]]},"properties":{"geoid":"33103","state":"33","district":"Carroll 03","name":"State House District Carroll 03","chamber":"House"}},{"type":"Feature","geometry":{"type":"Polygon","coordinates":[[[-71.1896,43.8319],[-71.1742,43.8276],[-71.1682,43.818],[-71.1691,43.8093],[-71.1518,43.8044],[-71.1413,43.7896],[-71.1109,43.7844],[-71.1008,43.7968],[-71.0992,43.8075],[-71.0803,43.7976],[-71.1313,43.7488],[-71.0139,43.6787],[-71.1278,43.5728],[-71.1115,43.5067],[-71.1065,43.5122],[-71.1021,43.5069],[-71.0969,43.5117],[-71.0932,43.5072],[-71.0895,43.5127],[-71.0848,43.5067],[-71.0676,43.5272],[-71.0525,43.5247],[-71.0464,43.5297],[-71.0445,43.5248],[-71.0379,43.5298],[-71.0242,43.4829],[-70.9625,43.5413],[-70.9535,43.5406],[-70.9506,43.5513],[-70.9573,43.5613],[-70.9728,43.5705],[-70.989,43.7901],[-70.9932,43.9254],[-71.0508,43.9254],[-71.0534,43.9642],[-71.0833,43.9639],[-71.0821,43.9255],[-71.1014,43.9248],[-71.0916,43.902],[-71.0926,43.8697],[-71.0854,43.8696],[-71.0823,43.8549],[-71.1136,43.8492],[-71.1224,43.8517],[-71.1896,43.8319]]]},"properties":{"geoid":"33104","state":"33","district":"Carroll 04","name":"State House District Carroll 04","chamber":"House"}},{"type":"Feature","geometry":{"type":"Polygon","coordinates":[[[-71.2799,43.7749],[-71.2453,43.7704],[-71.1863,43.6788],[-71.1641,43.6679],[-71.1525,43.6797],[-71.1225,43.6643],[-71.117,43.6666],[-71.0592,43.6364],[-71.0139,43.6787],[-71.1313,43.7488],[-71.0803,43.7976],[-71.0913,43.8061],[-71.1007,43.807],[-71.1008,43.7968],[-71.1109,43.7844],[-71.1399,43.7892],[-71.1518,43.8044],[-71.169,43.8092],[-71.1682,43.818],[-71.1836,43.833],[-71.2438,43.8137],[-71.2799,43.7749]]]},"properties":{"geoid":"33105","state":"33","district":"Carroll 05","name":"State House District Carroll 05","chamber":"House"}},{"type":"Feature","geometry":{"type":"Polygon","coordinates":[[[-71.3407,43.6268],[-71.2585,43.5714],[-71.2279,43.5647],[-71.2089,43.5505],[-71.1995,43.5591],[-71.1627,43.539],[-71.0592,43.6364],[-71.117,43.6666],[-71.1225,43.6643],[-71.1525,43.6797],[-71.1641,43.6679],[-71.1863,43.6788],[-71.2453,43.7704],[-71.3299,43.6878],[-71.324,43.6813],[-71.3062,43.6781],[-71.3001,43.663],[-71.3053,43.6572],[-71.3255,43.6529],[-71.3229,43.6473],[-71.3339,43.6406],[-71.3305,43.6286],[-71.3407,43.6268]]]},"properties":{"geoid":"33106","state":"33","district":"Carroll 06","name":"State House District Carroll 06","chamber":"House"}},{"type":"Feature","geometry":{"type":"Polygon","coordinates":[[[-72.3105,42.9171],[-72.3089,42.9109],[-72.2475,42.9112],[-72.2484,42.907],[-72.2361,42.9043],[-72.2311,42.9113],[-72.222,42.9118],[-72.2278,42.917],[-72.263,42.9155],[-72.2575,42.9172],[-72.2653,42.9309],[-72.2737,42.9346],[-72.2908,42.9225],[-72.3079,42.9236],[-72.3105,42.9171]]]},"properties":{"geoid":"33201","state":"33","district":"Cheshire 01","name":"State House District Cheshire 01","chamber":"House"}},{"type":"Feature","geometry":{"type":"Polygon","coordinates":[[[-72.3372,42.9816],[-72.3306,42.9728],[-72.309,42.9631],[-72.3171,42.9542],[-72.2952,42.9424],[-72.2883,42.9471],[-72.2782,42.9337],[-72.2779,42.9526],[-72.265,42.9592],[-72.2941,42.9901],[-72.3372,42.9816]]]},"properties":{"geoid":"33202","state":"33","district":"Cheshire 02","name":"State House District Cheshire 02","chamber":"House"}},{"type":"Feature","geometry":{"type":"Polygon","coordinates":[[[-72.3828,42.9727],[-72.363,42.9107],[-72.3089,42.9109],[-72.3079,42.9236],[-72.2908,42.9225],[-72.278,42.931],[-72.2997,42.9339],[-72.3281,42.9513],[-72.3476,42.9796],[-72.3828,42.9727]]]},"properties":{"geoid":"33203","state":"33","district":"Cheshire 03","name":"State House District Cheshire 03","chamber":"House"}},{"type":"Feature","geometry":{"type":"Polygon","coordinates":[[[-72.3476,42.9796],[-72.3281,42.9513],[-72.2997,42.9339],[-72.2786,42.9336],[-72.2883,42.9471],[-72.2952,42.9424],[-72.3171,42.9542],[-72.309,42.9631],[-72.3306,42.9728],[-72.3372,42.9816],[-72.3476,42.9796]]]},"properties":{"geoid":"33204","state":"33","district":"Cheshire 04","name":"State House District Cheshire 04","chamber":"House"}},{"type":"Feature","geometry":{"type":"Polygon","coordinates":[[[-72.4678,43.0527],[-72.4605,43.0419],[-72.4632,43.0277],[-72.4595,43.0206],[-72.3599,43.0153],[-72.3632,42.9765],[-72.295,42.9899],[-72.3084,43.0653],[-72.3596,43.0618],[-72.372,43.1321],[-72.4316,43.1356],[-72.4321,43.1598],[-72.4523,43.1614],[-72.4574,43.1475],[-72.4521,43.1386],[-72.4408,43.1366],[-72.4423,43.1293],[-72.4328,43.1202],[-72.4335,43.1106],[-72.4432,43.1028],[-72.4341,43.0838],[-72.4678,43.0527]]]},"properties":{"geoid":"33205","state":"33","district":"Cheshire 05","name":"State House District Cheshire 05","chamber":"House"}},{"type":"Feature","geometry":{"type":"Polygon","coordinates":[[[-72.5571,42.8535],[-72.5474,42.8395],[-72.5415,42.8071],[-72.5087,42.7795],[-72.5155,42.7656],[-72.5084,42.7644],[-72.4977,42.7734],[-72.4905,42.7727],[-72.477,42.7608],[-72.4734,42.7462],[-72.4584,42.7269],[-72.4512,42.7267],[-72.4773,42.8531],[-72.3892,42.8481],[-72.3466,42.9108],[-72.363,42.9107],[-72.3829,42.9726],[-72.3632,42.9765],[-72.3599,43.0153],[-72.4595,43.0206],[-72.4432,43.0081],[-72.4494,43.0003],[-72.463,42.9968],[-72.4654,42.9896],[-72.4616,42.9831],[-72.4654,42.9788],[-72.4748,42.9717],[-72.4816,42.974],[-72.4922,42.9677],[-72.5184,42.9631],[-72.5338,42.9526],[-72.5269,42.9414],[-72.5245,42.9151],[-72.5304,42.9111],[-72.5334,42.8953],[-72.5526,42.885],[-72.5571,42.8535]]]},"properties":{"geoid":"33206","state":"33","district":"Cheshire 06","name":"State House District Cheshire 06","chamber":"House"}},{"type":"Feature","geometry":{"type":"Polygon","coordinates":[[[-72.2926,42.9904],[-72.265,42.9592],[-72.2779,42.9526],[-72.2786,42.9391],[-72.2782,42.9337],[-72.2653,42.9309],[-72.2575,42.9172],[-72.263,42.9155],[-72.222,42.9141],[-72.2219,42.924],[-72.2405,42.9227],[-72.2427,42.939],[-72.2298,42.955],[-72.2282,42.9644],[-72.2328,42.9659],[-72.2171,42.9717],[-72.2455,42.9801],[-72.2495,43],[-72.2926,42.9904]]]},"properties":{"geoid":"33207","state":"33","district":"Cheshire 07","name":"State House District Cheshire 07","chamber":"House"}},{"type":"Feature","geometry":{"type":"Polygon","coordinates":[[[-72.2594,43.0465],[-72.2455,42.9801],[-72.2171,42.9717],[-72.2328,42.9659],[-72.2282,42.9644],[-72.2298,42.955],[-72.2427,42.939],[-72.2405,42.9227],[-72.2219,42.924],[-72.222,42.9118],[-72.2311,42.9113],[-72.2341,42.9071],[-72.2277,42.9058],[-72.2358,42.8927],[-72.2228,42.8896],[-72.2236,42.8674],[-72.2104,42.8685],[-72.1904,42.8473],[-72.1494,42.8524],[-72.1475,42.845],[-72.1398,42.8464],[-72.1447,42.869],[-72.1376,42.8688],[-72.1406,42.885],[-72.1482,42.8853],[-72.1563,42.9225],[-72.0012,42.9194],[-72.0062,42.9438],[-72.0622,42.9448],[-72.0579,43.0189],[-72.1551,43.0219],[-72.153,43.0299],[-72.174,43.0308],[-72.1761,43.0233],[-72.1743,43.0523],[-72.2594,43.0465]]]},"properties":{"geoid":"33208","state":"33","district":"Cheshire 08","name":"State House District Cheshire 08","chamber":"House"}},{"type":"Feature","geometry":{"type":"Polygon","coordinates":[[[-72.3764,43.1577],[-72.3596,43.0618],[-72.3084,43.0653],[-72.295,42.9899],[-72.2495,43],[-72.2596,43.0465],[-72.2563,43.0478],[-72.1743,43.0523],[-72.1761,43.0233],[-72.174,43.0308],[-72.153,43.0299],[-72.1551,43.0219],[-72.0579,43.0189],[-72.0341,43.1287],[-72.1785,43.1319],[-72.1567,43.182],[-72.3321,43.1628],[-72.3303,43.1552],[-72.3764,43.1577]]]},"properties":{"geoid":"33209","state":"33","district":"Cheshire 09","name":"State House District Cheshire 09","chamber":"House"}},{"type":"Feature","geometry":{"type":"Polygon","coordinates":[[[-72.3892,42.8481],[-72.3498,42.846],[-72.3435,42.8124],[-72.3207,42.8084],[-72.3397,42.7952],[-72.3263,42.7229],[-72.2036,42.7196],[-72.22,42.8025],[-72.2348,42.8031],[-72.2381,42.815],[-72.2349,42.832],[-72.2293,42.8334],[-72.2308,42.8433],[-72.2226,42.843],[-72.2228,42.8896],[-72.2358,42.8927],[-72.2277,42.9058],[-72.2484,42.907],[-72.2475,42.9112],[-72.3466,42.9108],[-72.3892,42.8481]]]},"properties":{"geoid":"33210","state":"33","district":"Cheshire 10","name":"State House District Cheshire 10","chamber":"House"}},{"type":"Feature","geometry":{"type":"Polygon","coordinates":[[[-72.4773,42.8531],[-72.4512,42.7267],[-72.3263,42.7229],[-72.3397,42.7952],[-72.3207,42.8084],[-72.3435,42.8124],[-72.3498,42.846],[-72.4773,42.8531]]]},"properties":{"geoid":"33211","state":"33","district":"Cheshire 11","name":"State House District Cheshire 11","chamber":"House"}},{"type":"Feature","geometry":{"type":"Polygon","coordinates":[[[-72.2381,42.815],[-72.2348,42.8031],[-72.22,42.8025],[-72.2036,42.7196],[-72.0786,42.7162],[-72.0913,42.7933],[-72.1299,42.7941],[-72.1398,42.8464],[-72.1475,42.845],[-72.1494,42.8524],[-72.1904,42.8473],[-72.2104,42.8685],[-72.2236,42.8674],[-72.2226,42.843],[-72.2308,42.8433],[-72.2293,42.8334],[-72.2349,42.832],[-72.2381,42.815]]]},"properties":{"geoid":"33212","state":"33","district":"Cheshire 12","name":"State House District Cheshire 12","chamber":"House"}},{"type":"Feature","geometry":{"type":"Polygon","coordinates":[[[-72.1563,42.9225],[-72.1482,42.8853],[-72.1406,42.885],[-72.1376,42.8688],[-72.1447,42.869],[-72.1299,42.7941],[-71.9747,42.7894],[-72.0012,42.9194],[-72.1563,42.9225]]]},"properties":{"geoid":"33213","state":"33","district":"Cheshire 13","name":"State House District Cheshire 13","chamber":"House"}},{"type":"Feature","geometry":{"type":"Polygon","coordinates":[[[-72.0913,42.7933],[-72.0786,42.7162],[-71.929,42.7121],[-71.9443,42.7884],[-72.0913,42.7933]]]},"properties":{"geoid":"33214","state":"33","district":"Cheshire 14","name":"State House District Cheshire 14","chamber":"House"}},{"type":"Feature","geometry":{"type":"Polygon","coordinates":[[[-71.765,44.4066],[-71.6969,44.3321],[-71.6077,44.388],[-71.6285,44.4102],[-71.532,44.4498],[-71.4298,44.4608],[-71.4375,44.5189],[-71.4544,44.5156],[-71.4555,44.5321],[-71.477,44.5309],[-71.4822,44.6413],[-71.4872,44.6432],[-71.4131,44.6513],[-71.4444,44.7869],[-71.602,44.7709],[-71.6167,44.7563],[-71.6318,44.7524],[-71.6251,44.7434],[-71.6261,44.7285],[-71.6171,44.7287],[-71.6186,44.7222],[-71.5994,44.7053],[-71.6008,44.699],[-71.5939,44.6964],[-71.5979,44.6922],[-71.594,44.6834],[-71.5966,44.6781],[-71.5815,44.6732],[-71.5879,44.6699],[-71.5874,44.6597],[-71.5752,44.6558],[-71.5801,44.6521],[-71.5771,44.6507],[-71.5628,44.6524],[-71.5578,44.642],[-71.5637,44.6372],[-71.5468,44.6298],[-71.557,44.6295],[-71.5463,44.623],[-71.5551,44.6252],[-71.5536,44.6061],[-71.5621,44.6012],[-71.5509,44.601],[-71.5552,44.5933],[-71.546,44.5971],[-71.5469,44.5908],[-71.5385,44.5942],[-71.5401,44.5885],[-71.5349,44.5877],[-71.5458,44.5779],[-71.5524,44.5844],[-71.5548,44.5794],[-71.5477,44.5714],[-71.5577,44.5704],[-71.5597,44.564],[-71.5896,44.5657],[-71.597,44.5595],[-71.5986,44.5548],[-71.5719,44.5379],[-71.5807,44.5246],[-71.5941,44.5216],[-71.577,44.5021],[-71.5881,44.5066],[-71.5859,44.4994],[-71.5939,44.501],[-71.5986,44.4868],[-71.6178,44.4858],[-71.6262,44.4745],[-71.6345,44.4756],[-71.6247,44.4817],[-71.6328,44.4838],[-71.6468,44.4732],[-71.639,44.4644],[-71.6542,44.4588],[-71.6609,44.4399],[-71.678,44.4353],[-71.677,44.4268],[-71.6827,44.4273],[-71.7026,44.4135],[-71.7354,44.41],[-71.7437,44.401],[-71.765,44.4066]]]},"properties":{"geoid":"33301","state":"33","district":"Coos 01","name":"State House District Coos 01","chamber":"House"}},{"type":"Feature","geometry":{"type":"Polygon","coordinates":[[[-71.5064,45.0485],[-71.491,45.0432],[-71.4925,45.0335],[-71.5001,45.0261],[-71.4971,45.0236],[-71.5011,45.0133],[-71.465,45.0136],[-71.488,45.0001],[-71.2901,44.9736],[-71.3194,44.8721],[-71.3423,44.8636],[-71.3532,44.8219],[-71.3296,44.8184],[-71.3278,44.7817],[-71.3631,44.7844],[-71.3602,44.7953],[-71.4444,44.7869],[-71.4131,44.6513],[-71.4872,44.6432],[-71.4822,44.6413],[-71.477,44.5309],[-71.4555,44.5321],[-71.4544,44.5156],[-71.4455,44.5157],[-71.4278,44.5229],[-71.4282,44.5317],[-71.3325,44.5704],[-71.3567,44.5236],[-71.1239,44.528],[-71.0705,44.6088],[-71.0285,44.6113],[-71.0839,45.3055],[-71.1053,45.2949],[-71.111,45.2844],[-71.1064,45.28],[-71.1163,45.2741],[-71.1241,45.2551],[-71.1329,45.2445],[-71.1476,45.2394],[-71.1623,45.2503],[-71.1801,45.2399],[-71.1964,45.2541],[-71.2306,45.2494],[-71.2356,45.2609],[-71.2456,45.2688],[-71.2594,45.272],[-71.2649,45.2938],[-71.2805,45.2946],[-71.2842,45.3024],[-71.3005,45.2966],[-71.3076,45.2875],[-71.3308,45.2803],[-71.3364,45.2727],[-71.3603,45.2703],[-71.3632,45.2667],[-71.3565,45.2539],[-71.3783,45.2435],[-71.3841,45.2335],[-71.4021,45.2426],[-71.4211,45.2322],[-71.4428,45.2383],[-71.4435,45.2348],[-71.4158,45.2184],[-71.4031,45.2153],[-71.3975,45.2031],[-71.4144,45.1848],[-71.4185,45.1705],[-71.4249,45.1658],[-71.4264,45.1527],[-71.4376,45.1419],[-71.4261,45.1295],[-71.4284,45.1237],[-71.4403,45.1137],[-71.4488,45.1126],[-71.4493,45.1045],[-71.4644,45.0934],[-71.4679,45.0837],[-71.4781,45.0843],[-71.4873,45.0787],[-71.4878,45.0714],[-71.498,45.0702],[-71.4957,45.0648],[-71.5013,45.0587],[-71.4972,45.0558],[-71.5064,45.0485]]]},"properties":{"geoid":"33302","state":"33","district":"Coos 02","name":"State House District Coos 02","chamber":"House"}},{"type":"Feature","geometry":{"type":"Polygon","coordinates":[[[-71.602,44.771],[-71.3602,44.7953],[-71.3631,44.7844],[-71.3278,44.7817],[-71.3296,44.8184],[-71.3532,44.8219],[-71.3423,44.8636],[-71.3194,44.8721],[-71.2901,44.9736],[-71.4873,45],[-71.5046,45.0083],[-71.5304,44.9994],[-71.5414,44.9841],[-71.5368,44.9839],[-71.5229,44.9662],[-71.518,44.9677],[-71.5237,44.9643],[-71.5163,44.9645],[-71.5192,44.9496],[-71.5148,44.9437],[-71.5171,44.9391],[-71.5228,44.9399],[-71.4999,44.9112],[-71.4932,44.9114],[-71.4948,44.9046],[-71.5136,44.8946],[-71.5108,44.8902],[-71.5292,44.8731],[-71.5495,44.8621],[-71.5475,44.8554],[-71.5558,44.8486],[-71.5511,44.837],[-71.5618,44.8236],[-71.5732,44.8208],[-71.5769,44.8152],[-71.5684,44.807],[-71.5713,44.7933],[-71.5792,44.7849],[-71.5925,44.7827],[-71.602,44.771]]]},"properties":{"geoid":"33303","state":"33","district":"Coos 03","name":"State House District Coos 03","chamber":"House"}},{"type":"Feature","geometry":{"type":"Polygon","coordinates":[[[-71.6869,44.3366],[-71.587,44.3048],[-71.5758,44.2546],[-71.5074,44.2629],[-71.5058,44.2556],[-71.4697,44.2599],[-71.4433,44.2492],[-71.4159,44.2122],[-71.3949,44.2147],[-71.4116,44.2284],[-71.4407,44.2704],[-71.4236,44.2735],[-71.4377,44.3491],[-71.4042,44.3531],[-71.3995,44.3332],[-71.3803,44.3358],[-71.3889,44.4452],[-71.3976,44.445],[-71.3325,44.5704],[-71.4282,44.5317],[-71.4278,44.5229],[-71.4375,44.5189],[-71.4298,44.4608],[-71.532,44.4498],[-71.6285,44.4102],[-71.6077,44.388],[-71.6869,44.3366]]]},"properties":{"geoid":"33304","state":"33","district":"Coos 04","name":"State House District Coos 04","chamber":"House"}},{"type":"Feature","geometry":{"type":"Polygon","coordinates":[[[-71.3976,44.4451],[-71.162,44.4498],[-71.1239,44.528],[-71.3567,44.5236],[-71.3976,44.4451]]]},"properties":{"geoid":"33305","state":"33","district":"Coos 05","name":"State House District Coos 05","chamber":"House"}},{"type":"Feature","geometry":{"type":"Polygon","coordinates":[[[-71.4407,44.2704],[-71.4116,44.2284],[-71.3949,44.2147],[-71.3842,44.1788],[-71.3565,44.1658],[-71.3432,44.1235],[-71.3436,44.0921],[-71.3359,44.0858],[-71.3118,44.0918],[-71.3024,44.1374],[-71.306,44.1373],[-71.252,44.2443],[-71.0985,44.2354],[-71.0423,44.2375],[-71.0444,44.2838],[-71.01,44.2849],[-71.0285,44.6113],[-71.0705,44.6088],[-71.1245,44.5271],[-71.162,44.4498],[-71.3889,44.4452],[-71.3803,44.3358],[-71.3995,44.3332],[-71.4042,44.3531],[-71.4377,44.3491],[-71.4236,44.2735],[-71.4407,44.2704]]]},"properties":{"geoid":"33306","state":"33","district":"Coos 06","name":"State House District Coos 06","chamber":"House"}},{"type":"Feature","geometry":{"type":"Polygon","coordinates":[[[-72.0684,44.2713],[-72.0648,44.2677],[-72.0583,44.2701],[-72.0615,44.2611],[-72.0477,44.239],[-72.0662,44.1901],[-72.0518,44.1665],[-72.0423,44.162],[-72.0433,44.1567],[-71.9128,44.1129],[-71.9335,44.2013],[-71.9231,44.2018],[-71.9191,44.2077],[-71.7869,44.1759],[-71.746,44.2531],[-71.7944,44.2713],[-71.6969,44.3321],[-71.7657,44.4064],[-71.7784,44.3998],[-71.7937,44.3995],[-71.8035,44.3919],[-71.8006,44.384],[-71.8144,44.3819],[-71.8137,44.3551],[-71.8528,44.3409],[-71.8731,44.3368],[-71.9106,44.3484],[-71.934,44.336],[-71.9814,44.3374],[-71.9881,44.3301],[-72.0091,44.3222],[-72.0298,44.3222],[-72.0336,44.3181],[-72.0329,44.3022],[-72.0586,44.2865],[-72.0684,44.2713]]]},"properties":{"geoid":"33401","state":"33","district":"Grafton 01","name":"State House District Grafton 01","chamber":"House"}},{"type":"Feature","geometry":{"type":"Polygon","coordinates":[[[-71.7944,44.2713],[-71.746,44.2531],[-71.7869,44.1759],[-71.5815,44.1121],[-71.5376,44.1975],[-71.4132,44.1675],[-71.4265,44.2109],[-71.4159,44.2122],[-71.4433,44.2492],[-71.4697,44.2599],[-71.5058,44.2556],[-71.5074,44.2629],[-71.5758,44.2546],[-71.587,44.3048],[-71.6869,44.3366],[-71.7944,44.2713]]]},"properties":{"geoid":"33402","state":"33","district":"Grafton 02","name":"State House District Grafton 02","chamber":"House"}},{"type":"Feature","geometry":{"type":"Polygon","coordinates":[[[-71.8573,44.0935],[-71.7945,44.069],[-71.8238,43.9838],[-71.7899,43.9804],[-71.8012,43.9509],[-71.6958,43.9196],[-71.6411,44.0235],[-71.6318,44.0201],[-71.628,44.0287],[-71.6039,43.9736],[-71.3795,44.0015],[-71.3836,44.0226],[-71.3467,44.0688],[-71.3664,44.0685],[-71.3816,44.0979],[-71.3765,44.1041],[-71.3765,44.1189],[-71.3871,44.1552],[-71.4132,44.1675],[-71.5376,44.1975],[-71.5815,44.1121],[-71.8177,44.1834],[-71.8573,44.0935]]]},"properties":{"geoid":"33403","state":"33","district":"Grafton 03","name":"State House District Grafton 03","chamber":"House"}},{"type":"Feature","geometry":{"type":"Polygon","coordinates":[[[-71.826,43.8859],[-71.7227,43.8556],[-71.7244,43.8824],[-71.7073,43.8811],[-71.6854,43.8598],[-71.6628,43.862],[-71.6674,43.8665],[-71.5606,43.875],[-71.5646,43.8932],[-71.362,43.9159],[-71.3795,44.0015],[-71.6039,43.9736],[-71.628,44.0287],[-71.6318,44.0201],[-71.6411,44.0235],[-71.6958,43.9196],[-71.8012,43.9509],[-71.826,43.8859]]]},"properties":{"geoid":"33404","state":"33","district":"Grafton 04","name":"State House District Grafton 04","chamber":"House"}},{"type":"Feature","geometry":{"type":"Polygon","coordinates":[[[-72.117,43.9938],[-72.112,43.986],[-72.1144,43.9681],[-72.091,43.9662],[-72.1007,43.963],[-72.0991,43.9574],[-71.9711,43.9156],[-71.9686,43.9195],[-71.9594,43.9167],[-71.9588,43.9112],[-71.826,43.8858],[-71.7899,43.9804],[-71.8238,43.9838],[-71.7945,44.069],[-71.8575,44.093],[-71.8177,44.1834],[-71.9191,44.2077],[-71.9231,44.2018],[-71.9335,44.2013],[-71.9128,44.1129],[-72.0398,44.1557],[-72.042,44.137],[-72.0333,44.1314],[-72.0373,44.1249],[-72.0531,44.1195],[-72.0554,44.1109],[-72.0479,44.0966],[-72.0395,44.1035],[-72.0313,44.1004],[-72.0333,44.0905],[-72.0453,44.0873],[-72.0318,44.0785],[-72.0529,44.0763],[-72.0483,44.0697],[-72.0573,44.0583],[-72.0681,44.0574],[-72.0619,44.0496],[-72.0783,44.0434],[-72.0748,44.0324],[-72.0827,44.0218],[-72.0954,44.0218],[-72.0905,44.0099],[-72.0976,44.0152],[-72.1053,44.0131],[-72.1041,44.0024],[-72.117,43.9938]]]},"properties":{"geoid":"33405","state":"33","district":"Grafton 05","name":"State House District Grafton 05","chamber":"House"}},{"type":"Feature","geometry":{"type":"Polygon","coordinates":[[[-72.1736,43.8802],[-72.1697,43.8727],[-71.7671,43.7684],[-71.7227,43.8556],[-71.826,43.8858],[-71.9588,43.9112],[-71.9594,43.9167],[-71.9686,43.9195],[-71.9711,43.9156],[-72.0991,43.9574],[-72.1064,43.9494],[-72.1183,43.9465],[-72.1205,43.9196],[-72.1501,43.9024],[-72.1595,43.8879],[-72.1706,43.8862],[-72.1736,43.8802]]]},"properties":{"geoid":"33406","state":"33","district":"Grafton 06","name":"State House District Grafton 06","chamber":"House"}},{"type":"Feature","geometry":{"type":"Polygon","coordinates":[[[-71.7493,43.8024],[-71.737,43.7981],[-71.7313,43.79],[-71.7232,43.7895],[-71.7228,43.7826],[-71.6731,43.7824],[-71.5438,43.796],[-71.5606,43.875],[-71.6674,43.8665],[-71.6628,43.862],[-71.6854,43.8598],[-71.7127,43.8821],[-71.7258,43.882],[-71.7227,43.8556],[-71.7493,43.8024]]]},"properties":{"geoid":"33407","state":"33","district":"Grafton 07","name":"State House District Grafton 07","chamber":"House"}},{"type":"Feature","geometry":{"type":"Polygon","coordinates":[[[-71.7845,43.7551],[-71.7667,43.7503],[-71.7781,43.7306],[-71.7556,43.7224],[-71.7337,43.6854],[-71.6585,43.7175],[-71.6483,43.6845],[-71.5214,43.6978],[-71.538,43.7965],[-71.6731,43.7824],[-71.7228,43.7826],[-71.7232,43.7895],[-71.7313,43.79],[-71.737,43.7981],[-71.7493,43.8024],[-71.7671,43.7684],[-71.7766,43.7709],[-71.7845,43.7551]]]},"properties":{"geoid":"33408","state":"33","district":"Grafton 08","name":"State House District Grafton 08","chamber":"House"}},{"type":"Feature","geometry":{"type":"Polygon","coordinates":[[[-72.1601,43.6589],[-72.0202,43.6114],[-72.0058,43.6274],[-71.9001,43.6057],[-71.8925,43.6207],[-71.9038,43.625],[-71.8986,43.6316],[-71.9089,43.6356],[-71.9043,43.6421],[-71.9099,43.6444],[-71.9049,43.6512],[-71.9105,43.6533],[-71.8854,43.6961],[-71.9321,43.7061],[-71.9071,43.8041],[-72.027,43.8379],[-72.0581,43.7372],[-72.0756,43.7415],[-72.1601,43.6589]]]},"properties":{"geoid":"33409","state":"33","district":"Grafton 09","name":"State House District Grafton 09","chamber":"House"}},{"type":"Feature","geometry":{"type":"Polygon","coordinates":[[[-71.7924,43.6607],[-71.7507,43.5795],[-71.761,43.5677],[-71.7447,43.5652],[-71.7358,43.5693],[-71.7276,43.5634],[-71.7157,43.5782],[-71.7312,43.5881],[-71.7281,43.5949],[-71.7086,43.6012],[-71.7033,43.5946],[-71.6869,43.5953],[-71.6635,43.605],[-71.6651,43.6136],[-71.6512,43.6211],[-71.6571,43.6308],[-71.6508,43.644],[-71.6551,43.6613],[-71.649,43.6707],[-71.6512,43.6806],[-71.647,43.6897],[-71.6566,43.7017],[-71.6543,43.7104],[-71.6585,43.7175],[-71.7924,43.6607]]]},"properties":{"geoid":"33410","state":"33","district":"Grafton 10","name":"State House District Grafton 10","chamber":"House"}},{"type":"Feature","geometry":{"type":"Polygon","coordinates":[[[-72.0695,43.5532],[-72.0672,43.544],[-71.9353,43.5289],[-71.8921,43.5746],[-71.8492,43.6112],[-71.8179,43.5442],[-71.8151,43.5509],[-71.8039,43.5529],[-71.7979,43.5594],[-71.7825,43.5606],[-71.7775,43.5525],[-71.7507,43.5795],[-71.7924,43.6607],[-71.7337,43.6854],[-71.7556,43.7224],[-71.7781,43.7306],[-71.7667,43.7503],[-71.7845,43.7551],[-71.7766,43.7709],[-71.9071,43.8041],[-71.9321,43.7061],[-71.8854,43.6961],[-71.9105,43.6533],[-71.9049,43.6512],[-71.9099,43.6444],[-71.9043,43.6421],[-71.9089,43.6356],[-71.8986,43.6316],[-71.9038,43.625],[-71.8925,43.6207],[-71.9001,43.6057],[-72.0058,43.6274],[-72.0695,43.5532]]]},"properties":{"geoid":"33411","state":"33","district":"Grafton 11","name":"State House District Grafton 11","chamber":"House"}},{"type":"Feature","geometry":{"type":"Polygon","coordinates":[[[-72.3051,43.6953],[-72.1604,43.6585],[-72.0756,43.7415],[-72.0581,43.7372],[-72.027,43.8379],[-72.1697,43.8727],[-72.168,43.869],[-72.1841,43.8648],[-72.1879,43.8564],[-72.1824,43.8341],[-72.1889,43.8212],[-72.1835,43.809],[-72.2055,43.7846],[-72.2052,43.7709],[-72.2185,43.7655],[-72.2342,43.746],[-72.2711,43.7339],[-72.2996,43.7063],[-72.3051,43.6953]]]},"properties":{"geoid":"33412","state":"33","district":"Grafton 12","name":"State House District Grafton 12","chamber":"House"}},{"type":"Feature","geometry":{"type":"Polygon","coordinates":[[[-72.3351,43.6162],[-72.3284,43.6071],[-72.3299,43.6002],[-72.2811,43.5936],[-72.2827,43.5998],[-72.2595,43.6047],[-72.2693,43.623],[-72.281,43.6265],[-72.2908,43.6611],[-72.2985,43.6665],[-72.2802,43.6839],[-72.2818,43.6871],[-72.305,43.6925],[-72.3031,43.6686],[-72.3136,43.6569],[-72.3147,43.6419],[-72.3291,43.6355],[-72.3274,43.6307],[-72.3351,43.6162]]]},"properties":{"geoid":"33413","state":"33","district":"Grafton 13","name":"State House District Grafton 13","chamber":"House"}},{"type":"Feature","geometry":{"type":"Polygon","coordinates":[[[-72.2982,43.6668],[-72.2908,43.6611],[-72.281,43.6265],[-72.2693,43.623],[-72.2599,43.6115],[-72.2619,43.6017],[-72.2827,43.5998],[-72.2811,43.5936],[-72.2083,43.5852],[-72.1912,43.6128],[-72.2119,43.6353],[-72.2213,43.6373],[-72.2303,43.6245],[-72.2477,43.6364],[-72.2482,43.643],[-72.2546,43.643],[-72.2429,43.6478],[-72.2482,43.649],[-72.2445,43.6524],[-72.2651,43.6733],[-72.2689,43.6842],[-72.2818,43.6871],[-72.2802,43.6839],[-72.2982,43.6668]]]},"properties":{"geoid":"33414","state":"33","district":"Grafton 14","name":"State House District Grafton 14","chamber":"House"}},{"type":"Feature","geometry":{"type":"Polygon","coordinates":[[[-72.2689,43.6842],[-72.2651,43.6733],[-72.2445,43.6524],[-72.2482,43.649],[-72.2429,43.6478],[-72.2546,43.643],[-72.2482,43.643],[-72.2477,43.6364],[-72.2303,43.6245],[-72.2213,43.6373],[-72.2119,43.6353],[-72.1912,43.6128],[-72.1604,43.6585],[-72.2689,43.6842]]]},"properties":{"geoid":"33415","state":"33","district":"Grafton 15","name":"State House District Grafton 15","chamber":"House"}},{"type":"Feature","geometry":{"type":"Polygon","coordinates":[[[-72.2083,43.5852],[-72.1064,43.5535],[-72.1202,43.5383],[-72.0909,43.5289],[-72.0202,43.6114],[-72.1604,43.6585],[-72.2083,43.5852]]]},"properties":{"geoid":"33416","state":"33","district":"Grafton 16","name":"State House District Grafton 16","chamber":"House"}},{"type":"Feature","geometry":{"type":"Polygon","coordinates":[[[-71.387,42.6989],[-71.2946,42.697],[-71.2679,42.726],[-71.2455,42.7425],[-71.2601,42.7557],[-71.351,42.7722],[-71.353,42.7832],[-71.3644,42.7852],[-71.387,42.6989]]]},"properties":{"geoid":"33501","state":"33","district":"Hillsborough 01","name":"State House District Hillsborough 01","chamber":"House"}},{"type":"Feature","geometry":{"type":"Polygon","coordinates":[[[-71.6165,42.9693],[-71.6104,42.9397],[-71.5821,42.9435],[-71.5704,42.8963],[-71.4526,42.9111],[-71.4606,42.9473],[-71.4713,42.9543],[-71.4759,42.9665],[-71.4908,42.9643],[-71.4944,42.9829],[-71.6165,42.9693]]]},"properties":{"geoid":"33502","state":"33","district":"Hillsborough 02","name":"State House District Hillsborough 02","chamber":"House"}},{"type":"Feature","geometry":{"type":"Polygon","coordinates":[[[-71.4934,42.7671],[-71.4924,42.747],[-71.4742,42.7549],[-71.4662,42.751],[-71.4617,42.7529],[-71.464,42.7579],[-71.4518,42.7637],[-71.4724,42.7613],[-71.4928,42.7767],[-71.4934,42.7671]]]},"properties":{"geoid":"33503","state":"33","district":"Hillsborough 03","name":"State House District Hillsborough 03","chamber":"House"}},{"type":"Feature","geometry":{"type":"Polygon","coordinates":[[[-71.5438,42.8057],[-71.4863,42.7735],[-71.4865,42.7699],[-71.4764,42.7677],[-71.4712,42.7724],[-71.4789,42.7835],[-71.4681,42.7869],[-71.47,42.7917],[-71.4644,42.7936],[-71.4693,42.8001],[-71.4695,42.7941],[-71.476,42.7908],[-71.4924,42.7942],[-71.4961,42.8055],[-71.5253,42.8004],[-71.5438,42.8057]]]},"properties":{"geoid":"33504","state":"33","district":"Hillsborough 04","name":"State House District Hillsborough 04","chamber":"House"}},{"type":"Feature","geometry":{"type":"Polygon","coordinates":[[[-71.5614,42.7889],[-71.5479,42.7849],[-71.5523,42.7769],[-71.5316,42.7803],[-71.5273,42.7762],[-71.5285,42.7394],[-71.5054,42.7504],[-71.4933,42.7641],[-71.4928,42.7767],[-71.5431,42.804],[-71.5614,42.7889]]]},"properties":{"geoid":"33505","state":"33","district":"Hillsborough 05","name":"State House District Hillsborough 05","chamber":"House"}},{"type":"Feature","geometry":{"type":"Polygon","coordinates":[[[-71.4789,42.7651],[-71.4724,42.7613],[-71.4436,42.7638],[-71.4565,42.7763],[-71.4586,42.7932],[-71.4684,42.8006],[-71.4644,42.7936],[-71.47,42.7917],[-71.4681,42.7869],[-71.4789,42.7835],[-71.4712,42.7724],[-71.4789,42.7651]]]},"properties":{"geoid":"33506","state":"33","district":"Hillsborough 06","name":"State House District Hillsborough 06","chamber":"House"}},{"type":"Feature","geometry":{"type":"Polygon","coordinates":[[[-71.4636,42.758],[-71.4548,42.7358],[-71.4606,42.7347],[-71.4426,42.7201],[-71.442,42.7103],[-71.4505,42.7081],[-71.4491,42.7003],[-71.4323,42.7],[-71.4383,42.7231],[-71.4341,42.7313],[-71.4436,42.7638],[-71.4636,42.758]]]},"properties":{"geoid":"33507","state":"33","district":"Hillsborough 07","name":"State House District Hillsborough 07","chamber":"House"}},{"type":"Feature","geometry":{"type":"Polygon","coordinates":[[[-71.4959,42.7409],[-71.4752,42.732],[-71.4548,42.7358],[-71.4617,42.7529],[-71.4662,42.751],[-71.4679,42.7548],[-71.4883,42.7501],[-71.4959,42.7409]]]},"properties":{"geoid":"33508","state":"33","district":"Hillsborough 08","name":"State House District Hillsborough 08","chamber":"House"}},{"type":"Feature","geometry":{"type":"Polygon","coordinates":[[[-71.5426,42.7028],[-71.488,42.7013],[-71.4907,42.706],[-71.4859,42.7112],[-71.4953,42.7078],[-71.491,42.7118],[-71.4985,42.7195],[-71.4939,42.7231],[-71.501,42.7346],[-71.4912,42.744],[-71.4933,42.7641],[-71.5054,42.7504],[-71.5318,42.736],[-71.5426,42.7028]]]},"properties":{"geoid":"33509","state":"33","district":"Hillsborough 09","name":"State House District Hillsborough 09","chamber":"House"}},{"type":"Feature","geometry":{"type":"Polygon","coordinates":[[[-71.501,42.7346],[-71.4939,42.7231],[-71.4985,42.7195],[-71.491,42.7118],[-71.4953,42.7078],[-71.4859,42.7112],[-71.4907,42.706],[-71.488,42.7013],[-71.4517,42.7004],[-71.4705,42.7119],[-71.4825,42.7138],[-71.471,42.7316],[-71.496,42.741],[-71.501,42.7346]]]},"properties":{"geoid":"33510","state":"33","district":"Hillsborough 10","name":"State House District Hillsborough 10","chamber":"House"}},{"type":"Feature","geometry":{"type":"Polygon","coordinates":[[[-71.4825,42.7138],[-71.4705,42.7119],[-71.4517,42.7004],[-71.4505,42.7081],[-71.442,42.7103],[-71.4439,42.7226],[-71.4502,42.7229],[-71.4599,42.7347],[-71.4706,42.7329],[-71.4825,42.7138]]]},"properties":{"geoid":"33511","state":"33","district":"Hillsborough 11","name":"State House District Hillsborough 11","chamber":"House"}},{"type":"Feature","geometry":{"type":"Polygon","coordinates":[[[-71.5775,42.8954],[-71.5562,42.7923],[-71.5426,42.8059],[-71.5253,42.8004],[-71.4961,42.8055],[-71.493,42.7944],[-71.4771,42.7907],[-71.4696,42.7939],[-71.4684,42.8006],[-71.4848,42.8381],[-71.4817,42.8484],[-71.4862,42.8632],[-71.4549,42.9001],[-71.4526,42.9111],[-71.5775,42.8954]]]},"properties":{"geoid":"33512","state":"33","district":"Hillsborough 12","name":"State House District Hillsborough 12","chamber":"House"}},{"type":"Feature","geometry":{"type":"Polygon","coordinates":[[[-71.4633,42.7965],[-71.4572,42.7909],[-71.4561,42.7756],[-71.4399,42.756],[-71.4328,42.7004],[-71.387,42.6989],[-71.3649,42.7752],[-71.3662,42.792],[-71.3607,42.799],[-71.3872,42.8236],[-71.4271,42.8248],[-71.4218,42.8016],[-71.4633,42.7965]]]},"properties":{"geoid":"33513","state":"33","district":"Hillsborough 13","name":"State House District Hillsborough 13","chamber":"House"}},{"type":"Feature","geometry":{"type":"Polygon","coordinates":[[[-71.4863,42.8622],[-71.4817,42.8484],[-71.4848,42.8378],[-71.4684,42.8006],[-71.4633,42.7965],[-71.4218,42.8016],[-71.4423,42.8904],[-71.4534,42.9046],[-71.4863,42.8622]]]},"properties":{"geoid":"33514","state":"33","district":"Hillsborough 14","name":"State House District Hillsborough 14","chamber":"House"}},{"type":"Feature","geometry":{"type":"Polygon","coordinates":[[[-71.4606,42.9473],[-71.4535,42.9276],[-71.4534,42.9046],[-71.4423,42.8904],[-71.4512,42.9309],[-71.3841,42.9383],[-71.4081,42.9595],[-71.4198,42.9623],[-71.4274,42.974],[-71.4507,42.9679],[-71.4362,42.9571],[-71.4606,42.9473]]]},"properties":{"geoid":"33515","state":"33","district":"Hillsborough 15","name":"State House District Hillsborough 15","chamber":"House"}},{"type":"Feature","geometry":{"type":"Polygon","coordinates":[[[-71.4256,42.9723],[-71.4198,42.9623],[-71.4081,42.9595],[-71.3841,42.9383],[-71.3754,42.9393],[-71.3923,43.009],[-71.425,43.0015],[-71.4139,42.9976],[-71.4256,42.9723]]]},"properties":{"geoid":"33516","state":"33","district":"Hillsborough 16","name":"State House District Hillsborough 16","chamber":"House"}},{"type":"Feature","geometry":{"type":"Polygon","coordinates":[[[-71.46,43.0069],[-71.4579,42.9962],[-71.4397,42.9956],[-71.4154,43.0063],[-71.3923,43.009],[-71.4406,43.0184],[-71.4371,43.012],[-71.46,43.0069]]]},"properties":{"geoid":"33517","state":"33","district":"Hillsborough 17","name":"State House District Hillsborough 17","chamber":"House"}},{"type":"Feature","geometry":{"type":"Polygon","coordinates":[[[-71.5128,43.0496],[-71.5014,43.002],[-71.4867,42.9967],[-71.4809,42.999],[-71.4812,43.005],[-71.4696,43.0035],[-71.4801,43.0238],[-71.4758,43.0376],[-71.4891,43.0518],[-71.5128,43.0496]]]},"properties":{"geoid":"33518","state":"33","district":"Hillsborough 18","name":"State House District Hillsborough 18","chamber":"House"}},{"type":"Feature","geometry":{"type":"Polygon","coordinates":[[[-71.5005,42.9986],[-71.4908,42.9643],[-71.4759,42.9665],[-71.4695,42.9853],[-71.4773,42.9866],[-71.4801,42.9829],[-71.5005,42.9986]]]},"properties":{"geoid":"33519","state":"33","district":"Hillsborough 19","name":"State House District Hillsborough 19","chamber":"House"}},{"type":"Feature","geometry":{"type":"Polygon","coordinates":[[[-71.4758,42.9667],[-71.4713,42.9543],[-71.4606,42.9473],[-71.4362,42.9571],[-71.451,42.9677],[-71.4464,42.9683],[-71.4463,42.9737],[-71.4554,42.9738],[-71.4554,42.9774],[-71.4609,42.9774],[-71.458,42.9731],[-71.4718,42.9741],[-71.4758,42.9667]]]},"properties":{"geoid":"33520","state":"33","district":"Hillsborough 20","name":"State House District Hillsborough 20","chamber":"House"}},{"type":"Feature","geometry":{"type":"Polygon","coordinates":[[[-71.4802,43.0253],[-71.4682,43.006],[-71.4431,43.0086],[-71.4364,43.0133],[-71.45,43.0201],[-71.4548,43.044],[-71.474,43.0353],[-71.4802,43.0253]]]},"properties":{"geoid":"33521","state":"33","district":"Hillsborough 21","name":"State House District Hillsborough 21","chamber":"House"}},{"type":"Feature","geometry":{"type":"Polygon","coordinates":[[[-71.5014,43.002],[-71.4945,42.9917],[-71.4801,42.9829],[-71.4773,42.9866],[-71.4695,42.9853],[-71.4694,42.9968],[-71.4738,43],[-71.4704,43.004],[-71.4812,43.005],[-71.4809,42.999],[-71.4867,42.9967],[-71.5014,43.002]]]},"properties":{"geoid":"33522","state":"33","district":"Hillsborough 22","name":"State House District Hillsborough 22","chamber":"House"}},{"type":"Feature","geometry":{"type":"Polygon","coordinates":[[[-71.4737,43.0012],[-71.4693,42.9958],[-71.4718,42.9741],[-71.4577,42.9732],[-71.462,42.9793],[-71.4574,42.9813],[-71.46,43.0069],[-71.4728,43.0088],[-71.4695,43.0037],[-71.4737,43.0012]]]},"properties":{"geoid":"33523","state":"33","district":"Hillsborough 23","name":"State House District Hillsborough 23","chamber":"House"}},{"type":"Feature","geometry":{"type":"Polygon","coordinates":[[[-71.4579,42.9962],[-71.4574,42.9894],[-71.419,42.9872],[-71.4139,42.9976],[-71.4231,43.0016],[-71.4385,42.9957],[-71.4579,42.9962]]]},"properties":{"geoid":"33524","state":"33","district":"Hillsborough 24","name":"State House District Hillsborough 24","chamber":"House"}},{"type":"Feature","geometry":{"type":"Polygon","coordinates":[[[-71.4574,42.9878],[-71.4574,42.9813],[-71.4315,42.9803],[-71.4198,42.985],[-71.4574,42.9878]]]},"properties":{"geoid":"33525","state":"33","district":"Hillsborough 25","name":"State House District Hillsborough 25","chamber":"House"}},{"type":"Feature","geometry":{"type":"Polygon","coordinates":[[[-71.462,42.9798],[-71.4554,42.9738],[-71.4463,42.9737],[-71.4464,42.9697],[-71.4224,42.9728],[-71.4214,42.9805],[-71.462,42.9798]]]},"properties":{"geoid":"33526","state":"33","district":"Hillsborough 26","name":"State House District Hillsborough 26","chamber":"House"}},{"type":"Feature","geometry":{"type":"Polygon","coordinates":[[[-71.9159,43.0846],[-71.9123,43.082],[-71.9152,43.0751],[-71.9094,43.0715],[-71.9116,43.0513],[-71.8985,43.0401],[-71.8865,43.0404],[-71.8848,43.0326],[-71.8797,43.0328],[-71.8726,43.0116],[-71.8768,43.0087],[-71.8857,43.013],[-71.8845,43.0037],[-71.8758,43.0004],[-71.8674,42.9636],[-71.8168,42.9689],[-71.816,42.9655],[-71.8228,42.9645],[-71.821,42.9559],[-71.815,42.9569],[-71.8112,42.95],[-71.7476,42.9585],[-71.7653,43.0226],[-71.7807,43.0196],[-71.8103,43.1243],[-71.8996,43.1064],[-71.8992,43.1032],[-71.9085,43.1088],[-71.9159,43.0846]]]},"properties":{"geoid":"33527","state":"33","district":"Hillsborough 27","name":"State House District Hillsborough 27","chamber":"House"}},{"type":"Feature","geometry":{"type":"Polygon","coordinates":[[[-71.8103,43.1243],[-71.7807,43.0196],[-71.7653,43.0226],[-71.763,43.0141],[-71.6349,43.0336],[-71.6678,43.1525],[-71.8103,43.1243]]]},"properties":{"geoid":"33528","state":"33","district":"Hillsborough 28","name":"State House District Hillsborough 28","chamber":"House"}},{"type":"Feature","geometry":{"type":"Polygon","coordinates":[[[-71.6413,43.0542],[-71.6349,43.0336],[-71.6412,43.0258],[-71.6316,43.0225],[-71.6165,42.9693],[-71.4964,42.9827],[-71.5175,43.0689],[-71.6413,43.0542]]]},"properties":{"geoid":"33529","state":"33","district":"Hillsborough 29","name":"State House District Hillsborough 29","chamber":"House"}},{"type":"Feature","geometry":{"type":"Polygon","coordinates":[[[-72.0587,43.0073],[-71.9421,43.0187],[-71.9374,42.9944],[-71.9466,42.9907],[-71.9363,42.9917],[-71.9362,42.9878],[-71.921,42.9829],[-71.8729,42.988],[-71.8758,43.0004],[-71.8845,43.0037],[-71.8857,43.013],[-71.8768,43.0087],[-71.8726,43.0116],[-71.8797,43.0328],[-71.8848,43.0326],[-71.8865,43.0404],[-71.8985,43.0401],[-71.9116,43.0513],[-71.9084,43.0631],[-71.9121,43.0677],[-71.9095,43.0717],[-71.9152,43.0751],[-71.9151,43.0953],[-71.9085,43.1088],[-71.8992,43.1032],[-71.8996,43.1064],[-71.8561,43.1151],[-71.9132,43.2071],[-72.0368,43.1825],[-72.0235,43.1601],[-72.0381,43.1288],[-72.0341,43.1287],[-72.0587,43.0073]]]},"properties":{"geoid":"33530","state":"33","district":"Hillsborough 30","name":"State House District Hillsborough 30","chamber":"House"}},{"type":"Feature","geometry":{"type":"Polygon","coordinates":[[[-72.0622,42.9448],[-72.0062,42.9438],[-72.0035,42.9302],[-71.8928,42.9457],[-71.8791,42.8787],[-71.8525,42.8818],[-71.8551,42.8905],[-71.8344,42.8927],[-71.8397,42.9099],[-71.826,42.9122],[-71.8279,42.9191],[-71.8095,42.9273],[-71.8126,42.939],[-71.8026,42.9401],[-71.815,42.9569],[-71.821,42.9559],[-71.8228,42.9645],[-71.816,42.9655],[-71.8168,42.9689],[-71.8674,42.9636],[-71.8729,42.988],[-71.921,42.9829],[-71.9362,42.9878],[-71.9363,42.9917],[-71.9466,42.9907],[-71.9374,42.9944],[-71.9421,43.0187],[-72.0276,43.0089],[-72.0295,43.012],[-72.0318,43.0084],[-72.0588,43.0051],[-72.0622,42.9448]]]},"properties":{"geoid":"33531","state":"33","district":"Hillsborough 31","name":"State House District Hillsborough 31","chamber":"House"}},{"type":"Feature","geometry":{"type":"Polygon","coordinates":[[[-71.9443,42.7884],[-71.929,42.7121],[-71.8054,42.7089],[-71.8214,42.7863],[-71.719,42.797],[-71.7347,42.8751],[-71.8279,42.8651],[-71.8321,42.8842],[-71.8791,42.8787],[-71.8753,42.8599],[-71.8877,42.8577],[-71.8844,42.848],[-71.8909,42.8435],[-71.8867,42.842],[-71.8854,42.8274],[-71.8935,42.8116],[-71.904,42.8055],[-71.9006,42.7879],[-71.9443,42.7884]]]},"properties":{"geoid":"33532","state":"33","district":"Hillsborough 32","name":"State House District Hillsborough 32","chamber":"House"}},{"type":"Feature","geometry":{"type":"Polygon","coordinates":[[[-72.0035,42.9302],[-71.9747,42.7894],[-71.9006,42.7879],[-71.904,42.8055],[-71.8935,42.8116],[-71.8854,42.8274],[-71.8867,42.842],[-71.8909,42.8435],[-71.8844,42.848],[-71.8877,42.8577],[-71.8753,42.8599],[-71.8928,42.9457],[-72.0035,42.9302]]]},"properties":{"geoid":"33533","state":"33","district":"Hillsborough 33","name":"State House District Hillsborough 33","chamber":"House"}},{"type":"Feature","geometry":{"type":"Polygon","coordinates":[[[-71.6667,42.8665],[-71.6647,42.8511],[-71.6524,42.8524],[-71.6492,42.8434],[-71.6387,42.842],[-71.6355,42.8321],[-71.6158,42.8278],[-71.6114,42.7982],[-71.5579,42.8036],[-71.5775,42.8954],[-71.5704,42.8963],[-71.5821,42.9435],[-71.6413,42.9355],[-71.6378,42.9021],[-71.6419,42.9017],[-71.635,42.8856],[-71.6633,42.8822],[-71.6667,42.8665]]]},"properties":{"geoid":"33534","state":"33","district":"Hillsborough 34","name":"State House District Hillsborough 34","chamber":"House"}},{"type":"Feature","geometry":{"type":"Polygon","coordinates":[[[-71.6417,42.774],[-71.6306,42.7044],[-71.5422,42.7033],[-71.5286,42.739],[-71.5248,42.7717],[-71.5316,42.7803],[-71.5523,42.7769],[-71.5479,42.7849],[-71.5614,42.7888],[-71.5562,42.7923],[-71.5579,42.8036],[-71.6073,42.7987],[-71.6059,42.7916],[-71.6417,42.774]]]},"properties":{"geoid":"33535","state":"33","district":"Hillsborough 35","name":"State House District Hillsborough 35","chamber":"House"}},{"type":"Feature","geometry":{"type":"Polygon","coordinates":[[[-71.8214,42.7863],[-71.8054,42.7089],[-71.6306,42.7044],[-71.6451,42.795],[-71.6942,42.7902],[-71.6908,42.7707],[-71.7134,42.7687],[-71.719,42.797],[-71.8214,42.7863]]]},"properties":{"geoid":"33536","state":"33","district":"Hillsborough 36","name":"State House District Hillsborough 36","chamber":"House"}},{"type":"Feature","geometry":{"type":"Polygon","coordinates":[[[-71.8551,42.8905],[-71.8525,42.8818],[-71.8321,42.8842],[-71.8279,42.8651],[-71.7347,42.8751],[-71.7297,42.8506],[-71.6928,42.8562],[-71.6947,42.8637],[-71.6646,42.8668],[-71.6633,42.8822],[-71.635,42.8856],[-71.6419,42.9017],[-71.6378,42.9021],[-71.6413,42.9355],[-71.6104,42.9397],[-71.6317,43.0229],[-71.6412,43.0258],[-71.6387,43.033],[-71.763,43.0141],[-71.7476,42.9585],[-71.8079,42.9505],[-71.8026,42.9401],[-71.8126,42.939],[-71.8095,42.9273],[-71.8279,42.9191],[-71.826,42.9122],[-71.8397,42.9099],[-71.8344,42.8927],[-71.8551,42.8905]]]},"properties":{"geoid":"33542","state":"33","district":"Hillsborough 42","name":"State House District Hillsborough 42","chamber":"House"}},{"type":"Feature","geometry":{"type":"Polygon","coordinates":[[[-71.7297,42.8506],[-71.7134,42.7687],[-71.6908,42.7707],[-71.6942,42.7902],[-71.6451,42.795],[-71.6417,42.774],[-71.6059,42.7916],[-71.6073,42.7987],[-71.6114,42.7982],[-71.6158,42.8278],[-71.6355,42.8321],[-71.6387,42.842],[-71.6492,42.8434],[-71.6524,42.8524],[-71.6647,42.8511],[-71.6667,42.8665],[-71.6947,42.8637],[-71.6928,42.8562],[-71.7297,42.8506]]]},"properties":{"geoid":"33543","state":"33","district":"Hillsborough 43","name":"State House District Hillsborough 43","chamber":"House"}},{"type":"Feature","geometry":{"type":"Polygon","coordinates":[[[-71.7165,43.3605],[-71.7118,43.3482],[-71.7006,43.3384],[-71.7009,43.3277],[-71.6861,43.316],[-71.6762,43.2964],[-71.6698,43.297],[-71.6498,43.2662],[-71.5874,43.2898],[-71.5906,43.2954],[-71.5859,43.3028],[-71.6036,43.3042],[-71.5942,43.3152],[-71.6178,43.3175],[-71.613,43.3267],[-71.6275,43.3271],[-71.6257,43.3338],[-71.6337,43.3426],[-71.6325,43.353],[-71.6463,43.362],[-71.6512,43.3709],[-71.6483,43.3854],[-71.7165,43.3605]]]},"properties":{"geoid":"33601","state":"33","district":"Merrimack 01","name":"State House District Merrimack 01","chamber":"House"}},{"type":"Feature","geometry":{"type":"Polygon","coordinates":[[[-71.6521,43.375],[-71.6459,43.3635],[-71.4715,43.4113],[-71.5565,43.4553],[-71.5873,43.4417],[-71.5928,43.4433],[-71.6005,43.4349],[-71.6045,43.4406],[-71.6121,43.4378],[-71.6163,43.4436],[-71.6257,43.4439],[-71.6263,43.4363],[-71.6206,43.4303],[-71.6297,43.4294],[-71.6252,43.407],[-71.6416,43.4057],[-71.644,43.3891],[-71.6521,43.375]]]},"properties":{"geoid":"33602","state":"33","district":"Merrimack 02","name":"State House District Merrimack 02","chamber":"House"}},{"type":"Feature","geometry":{"type":"Polygon","coordinates":[[[-71.7337,43.5031],[-71.7194,43.4921],[-71.7064,43.4735],[-71.6956,43.4446],[-71.6906,43.4279],[-71.6976,43.4255],[-71.7003,43.4042],[-71.6914,43.4069],[-71.6873,43.3904],[-71.671,43.3845],[-71.6697,43.3777],[-71.6452,43.3872],[-71.6416,43.4057],[-71.6252,43.407],[-71.6297,43.4294],[-71.6206,43.4303],[-71.6281,43.4431],[-71.62,43.4439],[-71.6281,43.4586],[-71.625,43.4595],[-71.629,43.4686],[-71.6241,43.4699],[-71.638,43.4918],[-71.6535,43.4876],[-71.6555,43.4925],[-71.6773,43.5005],[-71.691,43.5179],[-71.7337,43.5031]]]},"properties":{"geoid":"33603","state":"33","district":"Merrimack 03","name":"State House District Merrimack 03","chamber":"House"}},{"type":"Feature","geometry":{"type":"Polygon","coordinates":[[[-71.6463,43.3626],[-71.6325,43.353],[-71.6337,43.3426],[-71.6257,43.3338],[-71.6268,43.3262],[-71.6121,43.3254],[-71.6199,43.3192],[-71.5942,43.3152],[-71.6036,43.3042],[-71.5855,43.3025],[-71.5906,43.2954],[-71.5889,43.2868],[-71.5296,43.3095],[-71.5063,43.2755],[-71.4501,43.2452],[-71.3491,43.3466],[-71.4715,43.4113],[-71.6463,43.3626]]]},"properties":{"geoid":"33604","state":"33","district":"Merrimack 04","name":"State House District Merrimack 04","chamber":"House"}},{"type":"Feature","geometry":{"type":"Polygon","coordinates":[[[-71.931,43.5339],[-71.8944,43.463],[-71.8747,43.4794],[-71.8637,43.458],[-71.8942,43.4492],[-71.8562,43.389],[-71.8383,43.3953],[-71.8346,43.3174],[-71.7861,43.3343],[-71.7233,43.2405],[-71.6498,43.2662],[-71.6698,43.297],[-71.6762,43.2964],[-71.6861,43.316],[-71.7009,43.3277],[-71.7006,43.3384],[-71.7118,43.3482],[-71.7165,43.3601],[-71.6697,43.3777],[-71.671,43.3845],[-71.6873,43.3904],[-71.6914,43.4069],[-71.7003,43.4042],[-71.6976,43.4255],[-71.6906,43.4279],[-71.6956,43.4446],[-71.7064,43.4735],[-71.7194,43.4921],[-71.7337,43.5031],[-71.691,43.5179],[-71.6879,43.5286],[-71.708,43.5389],[-71.7142,43.5504],[-71.7225,43.5532],[-71.7285,43.566],[-71.7358,43.5693],[-71.7447,43.5652],[-71.761,43.5677],[-71.7775,43.5525],[-71.7853,43.5615],[-71.7982,43.5593],[-71.8039,43.5529],[-71.8151,43.5509],[-71.8179,43.5442],[-71.8492,43.6112],[-71.931,43.5339]]]},"properties":{"geoid":"33605","state":"33","district":"Merrimack 05","name":"State House District Merrimack 05","chamber":"House"}},{"type":"Feature","geometry":{"type":"Polygon","coordinates":[[[-72.0144,43.3834],[-71.9524,43.2782],[-71.8482,43.2948],[-71.8838,43.3645],[-71.8571,43.3833],[-71.8562,43.389],[-71.8942,43.4492],[-71.8637,43.458],[-71.8747,43.4794],[-71.8944,43.463],[-71.931,43.5339],[-71.9903,43.4649],[-71.9209,43.433],[-71.9353,43.4152],[-71.907,43.4028],[-72.0144,43.3834]]]},"properties":{"geoid":"33606","state":"33","district":"Merrimack 06","name":"State House District Merrimack 06","chamber":"House"}},{"type":"Feature","geometry":{"type":"Polygon","coordinates":[[[-72.0901,43.3226],[-72.0654,43.2551],[-71.9524,43.2782],[-72.0144,43.3834],[-71.907,43.4028],[-71.9353,43.4152],[-71.9209,43.433],[-71.9903,43.4649],[-72.0114,43.4369],[-72.0538,43.4411],[-72.058,43.4229],[-72.0468,43.4109],[-72.0503,43.3783],[-72.0901,43.3226]]]},"properties":{"geoid":"33607","state":"33","district":"Merrimack 07","name":"State House District Merrimack 07","chamber":"House"}},{"type":"Feature","geometry":{"type":"Polygon","coordinates":[[[-72.0654,43.2551],[-72.0453,43.2548],[-72.0415,43.2227],[-72.0091,43.1879],[-71.9132,43.2071],[-71.8561,43.1151],[-71.7326,43.1398],[-71.7878,43.2319],[-71.7257,43.2442],[-71.7861,43.3343],[-71.8347,43.3175],[-71.8383,43.3953],[-71.8562,43.389],[-71.8571,43.3833],[-71.8838,43.3645],[-71.8482,43.2948],[-72.0654,43.2551]]]},"properties":{"geoid":"33608","state":"33","district":"Merrimack 08","name":"State House District Merrimack 08","chamber":"House"}},{"type":"Feature","geometry":{"type":"Polygon","coordinates":[[[-71.7878,43.2319],[-71.7326,43.1398],[-71.6282,43.1602],[-71.578,43.132],[-71.581,43.1299],[-71.5728,43.1259],[-71.5801,43.1184],[-71.579,43.1124],[-71.5126,43.076],[-71.4663,43.1223],[-71.4618,43.1336],[-71.4805,43.1527],[-71.5235,43.1697],[-71.5224,43.1789],[-71.5937,43.1518],[-71.668,43.2601],[-71.7233,43.2405],[-71.7257,43.2442],[-71.7878,43.2319]]]},"properties":{"geoid":"33609","state":"33","district":"Merrimack 09","name":"State House District Merrimack 09","chamber":"House"}},{"type":"Feature","geometry":{"type":"Polygon","coordinates":[[[-71.6678,43.1525],[-71.6413,43.0542],[-71.5175,43.0689],[-71.5128,43.0496],[-71.4891,43.0518],[-71.474,43.0353],[-71.4548,43.044],[-71.45,43.0201],[-71.3924,43.0093],[-71.403,43.0411],[-71.3922,43.0393],[-71.3561,43.102],[-71.4566,43.1199],[-71.466,43.1176],[-71.4663,43.1223],[-71.5126,43.076],[-71.579,43.1124],[-71.5801,43.1184],[-71.5728,43.1259],[-71.581,43.1299],[-71.578,43.132],[-71.6282,43.1602],[-71.6678,43.1525]]]},"properties":{"geoid":"33610","state":"33","district":"Merrimack 10","name":"State House District Merrimack 10","chamber":"House"}},{"type":"Feature","geometry":{"type":"Polygon","coordinates":[[[-71.4664,43.1227],[-71.466,43.1176],[-71.4566,43.1199],[-71.3561,43.102],[-71.3177,43.1624],[-71.3943,43.1752],[-71.4126,43.1489],[-71.4222,43.1531],[-71.4283,43.1386],[-71.4391,43.1297],[-71.4603,43.1295],[-71.4664,43.1227]]]},"properties":{"geoid":"33611","state":"33","district":"Merrimack 11","name":"State House District Merrimack 11","chamber":"House"}},{"type":"Feature","geometry":{"type":"Polygon","coordinates":[[[-71.5029,43.1767],[-71.4892,43.173],[-71.4886,43.1668],[-71.497,43.1686],[-71.493,43.1653],[-71.495,43.1583],[-71.4656,43.1414],[-71.4618,43.1341],[-71.4652,43.1275],[-71.4391,43.1297],[-71.4283,43.1386],[-71.4222,43.1531],[-71.4142,43.1484],[-71.407,43.1545],[-71.4043,43.166],[-71.3943,43.1752],[-71.4165,43.1786],[-71.4045,43.201],[-71.4623,43.2319],[-71.4501,43.2452],[-71.4569,43.2489],[-71.4636,43.2448],[-71.46,43.2409],[-71.4657,43.231],[-71.4707,43.2308],[-71.4709,43.2253],[-71.4817,43.2179],[-71.4754,43.2036],[-71.4861,43.1987],[-71.5003,43.2011],[-71.4905,43.184],[-71.5029,43.1767]]]},"properties":{"geoid":"33612","state":"33","district":"Merrimack 12","name":"State House District Merrimack 12","chamber":"House"}},{"type":"Feature","geometry":{"type":"Polygon","coordinates":[[[-71.4622,43.232],[-71.4045,43.201],[-71.3615,43.268],[-71.2621,43.2509],[-71.247,43.2762],[-71.236,43.285],[-71.3491,43.3466],[-71.4622,43.232]]]},"properties":{"geoid":"33613","state":"33","district":"Merrimack 13","name":"State House District Merrimack 13","chamber":"House"}},{"type":"Feature","geometry":{"type":"Polygon","coordinates":[[[-71.4162,43.1791],[-71.3155,43.1621],[-71.2621,43.2509],[-71.3615,43.268],[-71.4162,43.1791]]]},"properties":{"geoid":"33614","state":"33","district":"Merrimack 14","name":"State House District Merrimack 14","chamber":"House"}},{"type":"Feature","geometry":{"type":"Polygon","coordinates":[[[-71.668,43.2601],[-71.6623,43.2512],[-71.6475,43.2501],[-71.6441,43.2338],[-71.6374,43.24],[-71.6252,43.2406],[-71.6181,43.2513],[-71.6213,43.2615],[-71.6058,43.2693],[-71.5735,43.2643],[-71.5629,43.2727],[-71.5756,43.2921],[-71.668,43.2601]]]},"properties":{"geoid":"33615","state":"33","district":"Merrimack 15","name":"State House District Merrimack 15","chamber":"House"}},{"type":"Feature","geometry":{"type":"Polygon","coordinates":[[[-71.6621,43.2512],[-71.6387,43.2161],[-71.6079,43.2188],[-71.5999,43.2225],[-71.6124,43.24],[-71.5881,43.2426],[-71.5895,43.2522],[-71.5773,43.2554],[-71.5822,43.2612],[-71.5716,43.2609],[-71.6058,43.2693],[-71.6213,43.2615],[-71.6181,43.2513],[-71.6252,43.2406],[-71.6374,43.24],[-71.6441,43.2338],[-71.6475,43.2501],[-71.6621,43.2512]]]},"properties":{"geoid":"33616","state":"33","district":"Merrimack 16","name":"State House District Merrimack 16","chamber":"House"}},{"type":"Feature","geometry":{"type":"Polygon","coordinates":[[[-71.5819,43.2613],[-71.5596,43.2312],[-71.5621,43.2276],[-71.5507,43.2199],[-71.5379,43.2239],[-71.5375,43.229],[-71.5499,43.2258],[-71.553,43.2381],[-71.5613,43.2424],[-71.5539,43.2603],[-71.5632,43.2705],[-71.5735,43.2643],[-71.5716,43.2609],[-71.5819,43.2613]]]},"properties":{"geoid":"33617","state":"33","district":"Merrimack 17","name":"State House District Merrimack 17","chamber":"House"}},{"type":"Feature","geometry":{"type":"Polygon","coordinates":[[[-71.5556,43.2135],[-71.5486,43.2041],[-71.5209,43.2152],[-71.5243,43.2271],[-71.5352,43.2294],[-71.5379,43.2239],[-71.5501,43.2215],[-71.5495,43.2162],[-71.5556,43.2135]]]},"properties":{"geoid":"33618","state":"33","district":"Merrimack 18","name":"State House District Merrimack 18","chamber":"House"}},{"type":"Feature","geometry":{"type":"Polygon","coordinates":[[[-71.6386,43.2161],[-71.5973,43.157],[-71.555,43.1878],[-71.5638,43.1967],[-71.5407,43.202],[-71.5431,43.2062],[-71.5486,43.2041],[-71.5503,43.2098],[-71.5548,43.2082],[-71.5544,43.2157],[-71.5495,43.2162],[-71.5516,43.2223],[-71.5621,43.2276],[-71.5596,43.2312],[-71.5773,43.2554],[-71.5895,43.2522],[-71.5881,43.2426],[-71.6124,43.24],[-71.5995,43.2201],[-71.6386,43.2161]]]},"properties":{"geoid":"33619","state":"33","district":"Merrimack 19","name":"State House District Merrimack 19","chamber":"House"}},{"type":"Feature","geometry":{"type":"Polygon","coordinates":[[[-71.5638,43.1967],[-71.555,43.1878],[-71.5328,43.196],[-71.5297,43.1761],[-71.511,43.1772],[-71.5303,43.2089],[-71.5436,43.2008],[-71.5638,43.1967]]]},"properties":{"geoid":"33620","state":"33","district":"Merrimack 20","name":"State House District Merrimack 20","chamber":"House"}},{"type":"Feature","geometry":{"type":"Polygon","coordinates":[[[-71.5973,43.157],[-71.5937,43.1518],[-71.5297,43.1761],[-71.5328,43.196],[-71.5586,43.1859],[-71.5973,43.157]]]},"properties":{"geoid":"33621","state":"33","district":"Merrimack 21","name":"State House District Merrimack 21","chamber":"House"}},{"type":"Feature","geometry":{"type":"Polygon","coordinates":[[[-71.5311,43.2074],[-71.5108,43.179],[-71.5224,43.1789],[-71.5255,43.1715],[-71.495,43.1583],[-71.493,43.1653],[-71.4969,43.1688],[-71.4878,43.1699],[-71.492,43.1761],[-71.5028,43.1766],[-71.4905,43.184],[-71.5003,43.2011],[-71.4861,43.1987],[-71.4754,43.2036],[-71.4817,43.2179],[-71.4709,43.2253],[-71.4707,43.2308],[-71.4657,43.231],[-71.46,43.2409],[-71.4636,43.2448],[-71.4569,43.2489],[-71.4638,43.251],[-71.476,43.2356],[-71.4714,43.2332],[-71.5055,43.2169],[-71.5053,43.2133],[-71.5107,43.2125],[-71.5135,43.2178],[-71.5074,43.224],[-71.5231,43.2195],[-71.5211,43.2146],[-71.5311,43.2074]]]},"properties":{"geoid":"33622","state":"33","district":"Merrimack 22","name":"State House District Merrimack 22","chamber":"House"}},{"type":"Feature","geometry":{"type":"Polygon","coordinates":[[[-71.5135,43.2178],[-71.5107,43.2125],[-71.5053,43.2133],[-71.5059,43.2167],[-71.4705,43.2349],[-71.4937,43.2284],[-71.5064,43.2347],[-71.5104,43.2307],[-71.5069,43.2221],[-71.5135,43.2178]]]},"properties":{"geoid":"33623","state":"33","district":"Merrimack 23","name":"State House District Merrimack 23","chamber":"House"}},{"type":"Feature","geometry":{"type":"Polygon","coordinates":[[[-71.5756,43.2921],[-71.5539,43.2603],[-71.5613,43.2424],[-71.553,43.2381],[-71.5484,43.2252],[-71.5294,43.2289],[-71.5243,43.2271],[-71.5231,43.2195],[-71.5074,43.224],[-71.5104,43.2307],[-71.5064,43.2347],[-71.4937,43.2284],[-71.4703,43.2348],[-71.476,43.2356],[-71.4623,43.2519],[-71.5063,43.2755],[-71.5296,43.3095],[-71.5756,43.2921]]]},"properties":{"geoid":"33624","state":"33","district":"Merrimack 24","name":"State House District Merrimack 24","chamber":"House"}},{"type":"Feature","geometry":{"type":"Polygon","coordinates":[[[-71.2808,43.2186],[-71.2601,43.213],[-71.2688,43.2024],[-71.2524,43.1926],[-71.2584,43.1837],[-71.1567,43.1669],[-71.1772,43.144],[-71.1595,43.1356],[-71.1729,43.1216],[-71.1886,43.1318],[-71.2064,43.1123],[-71.1897,43.1097],[-71.213,43.077],[-71.1309,43.0625],[-71.1218,43.0814],[-71.0729,43.0817],[-71.0267,43.1379],[-71.2473,43.2752],[-71.2808,43.2186]]]},"properties":{"geoid":"33701","state":"33","district":"Rockingham 01","name":"State House District Rockingham 01","chamber":"House"}},{"type":"Feature","geometry":{"type":"Polygon","coordinates":[[[-71.4027,43.041],[-71.3772,42.9471],[-71.311,42.9357],[-71.294,42.9823],[-71.2981,42.9829],[-71.2882,43.0214],[-71.2613,43.016],[-71.2305,43.0801],[-71.213,43.077],[-71.1897,43.1097],[-71.2064,43.1123],[-71.1886,43.1318],[-71.1729,43.1216],[-71.1595,43.1356],[-71.1772,43.144],[-71.1567,43.1669],[-71.2584,43.1837],[-71.2524,43.1926],[-71.2688,43.2024],[-71.2601,43.213],[-71.2808,43.2186],[-71.3922,43.0393],[-71.4027,43.041]]]},"properties":{"geoid":"33702","state":"33","district":"Rockingham 02","name":"State House District Rockingham 02","chamber":"House"}},{"type":"Feature","geometry":{"type":"Polygon","coordinates":[[[-71.31,42.9386],[-71.311,42.9357],[-71.2198,42.9199],[-71.2237,42.9651],[-71.1793,42.9604],[-71.1679,42.9845],[-71.2677,43.0025],[-71.2613,43.016],[-71.2881,43.0214],[-71.2981,42.9829],[-71.294,42.9823],[-71.31,42.9386]]]},"properties":{"geoid":"33703","state":"33","district":"Rockingham 03","name":"State House District Rockingham 03","chamber":"House"}},{"type":"Feature","geometry":{"type":"Polygon","coordinates":[[[-71.2677,43.0025],[-71.1679,42.9845],[-71.1309,43.0625],[-71.2305,43.0801],[-71.2677,43.0025]]]},"properties":{"geoid":"33704","state":"33","district":"Rockingham 04","name":"State House District Rockingham 04","chamber":"House"}},{"type":"Feature","geometry":{"type":"Polygon","coordinates":[[[-71.1501,43.0213],[-71.011,43.0204],[-71.0126,43.082],[-71.1218,43.0814],[-71.1501,43.0213]]]},"properties":{"geoid":"33705","state":"33","district":"Rockingham 05","name":"State House District Rockingham 05","chamber":"House"}},{"type":"Feature","geometry":{"type":"Polygon","coordinates":[[[-71.0881,42.9593],[-71.0059,42.9583],[-71.0078,42.968],[-70.9999,42.9699],[-71.011,43.0204],[-71.0803,43.0209],[-71.0881,42.9593]]]},"properties":{"geoid":"33706","state":"33","district":"Rockingham 06","name":"State House District Rockingham 06","chamber":"House"}},{"type":"Feature","geometry":{"type":"Polygon","coordinates":[[[-71.1792,42.9607],[-71.0881,42.9592],[-71.0803,43.0209],[-71.1502,43.0212],[-71.1792,42.9607]]]},"properties":{"geoid":"33707","state":"33","district":"Rockingham 07","name":"State House District Rockingham 07","chamber":"House"}},{"type":"Feature","geometry":{"type":"Polygon","coordinates":[[[-71.1495,42.9598],[-71.1463,42.8976],[-71.0958,42.8969],[-71.0923,42.9592],[-71.1495,42.9598]]]},"properties":{"geoid":"33708","state":"33","district":"Rockingham 08","name":"State House District Rockingham 08","chamber":"House"}},{"type":"Feature","geometry":{"type":"Polygon","coordinates":[[[-71.2237,42.9651],[-71.2194,42.9123],[-71.1958,42.9106],[-71.1635,42.8987],[-71.1463,42.8976],[-71.1495,42.9598],[-71.2237,42.9651]]]},"properties":{"geoid":"33709","state":"33","district":"Rockingham 09","name":"State House District Rockingham 09","chamber":"House"}},{"type":"Feature","geometry":{"type":"Polygon","coordinates":[[[-71.0138,43.0352],[-70.9476,43.0192],[-70.9332,43.021],[-70.9362,43.0346],[-70.9177,43.044],[-70.9085,43.0592],[-70.8754,43.0804],[-70.9338,43.0902],[-71.0126,43.082],[-71.0138,43.0352]]]},"properties":{"geoid":"33710","state":"33","district":"Rockingham 10","name":"State House District Rockingham 10","chamber":"House"}},{"type":"Feature","geometry":{"type":"Polygon","coordinates":[[[-71.0138,43.0339],[-70.9999,42.97],[-71.0078,42.968],[-71.0058,42.9586],[-70.9336,42.9584],[-70.888,42.971],[-70.9379,42.9961],[-70.9399,43.0106],[-70.9332,43.021],[-70.9476,43.0192],[-70.9578,43.0248],[-71.0138,43.0339]]]},"properties":{"geoid":"33711","state":"33","district":"Rockingham 11","name":"State House District Rockingham 11","chamber":"House"}},{"type":"Feature","geometry":{"type":"Polygon","coordinates":[[[-70.9399,43.0106],[-70.9379,42.9961],[-70.888,42.971],[-70.8587,43.0219],[-70.8633,43.0239],[-70.859,43.0279],[-70.8722,43.0352],[-70.8689,43.0396],[-70.9076,43.0599],[-70.9174,43.0442],[-70.9364,43.0343],[-70.9326,43.0198],[-70.9399,43.0106]]]},"properties":{"geoid":"33712","state":"33","district":"Rockingham 12","name":"State House District Rockingham 12","chamber":"House"}},{"type":"Feature","geometry":{"type":"Polygon","coordinates":[[[-71.3466,42.9418],[-71.3327,42.841],[-71.2069,42.8522],[-71.2196,42.9199],[-71.3466,42.9418]]]},"properties":{"geoid":"33713","state":"33","district":"Rockingham 13","name":"State House District Rockingham 13","chamber":"House"}},{"type":"Feature","geometry":{"type":"Polygon","coordinates":[[[-71.1251,42.8778],[-71.1165,42.8799],[-71.0912,42.8597],[-71.0792,42.8576],[-71.056,42.8934],[-70.9768,42.8986],[-70.9827,42.9567],[-71.0923,42.9592],[-71.0958,42.8969],[-71.1065,42.8954],[-71.1251,42.8778]]]},"properties":{"geoid":"33714","state":"33","district":"Rockingham 14","name":"State House District Rockingham 14","chamber":"House"}},{"type":"Feature","geometry":{"type":"Polygon","coordinates":[[[-71.2194,42.9123],[-71.2085,42.8592],[-71.1978,42.8667],[-71.1904,42.8553],[-71.1863,42.8603],[-71.181,42.856],[-71.1438,42.8535],[-71.1065,42.8954],[-71.1635,42.8987],[-71.1958,42.9106],[-71.2194,42.9123]]]},"properties":{"geoid":"33715","state":"33","district":"Rockingham 15","name":"State House District Rockingham 15","chamber":"House"}},{"type":"Feature","geometry":{"type":"Polygon","coordinates":[[[-71.4512,42.9304],[-71.4271,42.8248],[-71.3872,42.8236],[-71.3575,42.7994],[-71.3446,42.8171],[-71.3495,42.8392],[-71.3327,42.841],[-71.3467,42.9418],[-71.3772,42.9471],[-71.3754,42.9393],[-71.4512,42.9304]]]},"properties":{"geoid":"33716","state":"33","district":"Rockingham 16","name":"State House District Rockingham 16","chamber":"House"}},{"type":"Feature","geometry":{"type":"Polygon","coordinates":[[[-71.3662,42.792],[-71.3624,42.783],[-71.353,42.7832],[-71.351,42.7722],[-71.2843,42.7601],[-71.237,42.8222],[-71.2431,42.8507],[-71.3495,42.8392],[-71.3446,42.8171],[-71.3662,42.792]]]},"properties":{"geoid":"33717","state":"33","district":"Rockingham 17","name":"State House District Rockingham 17","chamber":"House"}},{"type":"Feature","geometry":{"type":"Polygon","coordinates":[[[-71.2085,42.8592],[-71.2068,42.8505],[-71.1866,42.8298],[-71.192,42.8129],[-71.1731,42.8154],[-71.1666,42.8089],[-71.1328,42.8215],[-71.1158,42.8177],[-71.1122,42.8233],[-71.1189,42.8423],[-71.1365,42.8605],[-71.1438,42.8535],[-71.181,42.856],[-71.1863,42.8603],[-71.1904,42.8553],[-71.1978,42.8667],[-71.2085,42.8592]]]},"properties":{"geoid":"33718","state":"33","district":"Rockingham 18","name":"State House District Rockingham 18","chamber":"House"}},{"type":"Feature","geometry":{"type":"Polygon","coordinates":[[[-70.9827,42.9567],[-70.9768,42.8986],[-70.9165,42.8984],[-70.9156,42.9069],[-70.9034,42.9022],[-70.8595,42.9055],[-70.8392,42.9013],[-70.8292,42.8886],[-70.8305,42.8982],[-70.8225,42.8976],[-70.8239,42.9066],[-70.84,42.916],[-70.8461,42.9133],[-70.8552,42.9286],[-70.8742,42.9368],[-70.8775,42.9468],[-70.902,42.9672],[-70.9336,42.9584],[-70.9827,42.9567]]]},"properties":{"geoid":"33719","state":"33","district":"Rockingham 19","name":"State House District Rockingham 19","chamber":"House"}},{"type":"Feature","geometry":{"type":"Polygon","coordinates":[[[-71.1363,42.8607],[-71.1165,42.838],[-71.1187,42.833],[-71.1122,42.8233],[-71.1158,42.8177],[-71.0644,42.8063],[-71.0449,42.8487],[-71.0312,42.8591],[-70.967,42.8688],[-70.9296,42.885],[-70.9145,42.8866],[-70.9165,42.8984],[-70.9518,42.9009],[-71.0536,42.8937],[-71.068,42.8794],[-71.0684,42.8692],[-71.0792,42.8576],[-71.0912,42.8597],[-71.1165,42.8799],[-71.1252,42.8777],[-71.1363,42.8607]]]},"properties":{"geoid":"33720","state":"33","district":"Rockingham 20","name":"State House District Rockingham 20","chamber":"House"}},{"type":"Feature","geometry":{"type":"Polygon","coordinates":[[[-70.8786,43.0781],[-70.8637,43.0652],[-70.8344,43.059],[-70.8181,43.0627],[-70.8231,43.0823],[-70.7941,43.0942],[-70.775,43.0719],[-70.7652,43.0797],[-70.7608,43.0758],[-70.7526,43.0796],[-70.7659,43.0925],[-70.7797,43.0962],[-70.82,43.1225],[-70.833,43.1178],[-70.8528,43.1271],[-70.8643,43.1222],[-70.8598,43.1156],[-70.8625,43.0891],[-70.8786,43.0781]]]},"properties":{"geoid":"33721","state":"33","district":"Rockingham 21","name":"State House District Rockingham 21","chamber":"House"}},{"type":"Feature","geometry":{"type":"Polygon","coordinates":[[[-70.7705,43.0519],[-70.7421,43.0542],[-70.7323,43.0595],[-70.7159,43.0554],[-70.7012,43.0452],[-70.7063,43.0753],[-70.738,43.0737],[-70.7526,43.0796],[-70.7608,43.0758],[-70.7589,43.0657],[-70.7664,43.0625],[-70.7705,43.0519]]]},"properties":{"geoid":"33722","state":"33","district":"Rockingham 22","name":"State House District Rockingham 22","chamber":"House"}},{"type":"Feature","geometry":{"type":"Polygon","coordinates":[[[-70.8878,42.9713],[-70.7776,42.9508],[-70.7628,42.9666],[-70.7883,42.9816],[-70.8118,42.9861],[-70.7976,42.9991],[-70.8529,43.007],[-70.8683,43.0051],[-70.8878,42.9713]]]},"properties":{"geoid":"33723","state":"33","district":"Rockingham 23","name":"State House District Rockingham 23","chamber":"House"}},{"type":"Feature","geometry":{"type":"Polygon","coordinates":[[[-70.9073,43.0602],[-70.8689,43.0396],[-70.8722,43.0352],[-70.859,43.0279],[-70.8683,43.0051],[-70.8529,43.007],[-70.7978,42.9992],[-70.8118,42.9861],[-70.7883,42.9816],[-70.7628,42.9666],[-70.7565,42.9835],[-70.7366,43.0004],[-70.6321,42.9667],[-70.6056,42.9722],[-70.6118,42.9794],[-70.6307,42.9853],[-70.7168,43.0558],[-70.7351,43.0596],[-70.7819,43.0135],[-70.8099,43.0201],[-70.8181,43.0627],[-70.8344,43.059],[-70.8571,43.063],[-70.88,43.0771],[-70.9073,43.0602]]]},"properties":{"geoid":"33724","state":"33","district":"Rockingham 24","name":"State House District Rockingham 24","chamber":"House"}},{"type":"Feature","geometry":{"type":"Polygon","coordinates":[[[-71.2838,42.7607],[-71.2601,42.7557],[-71.2455,42.7425],[-71.2238,42.7465],[-71.1818,42.7373],[-71.1861,42.7909],[-71.1666,42.8089],[-71.1731,42.8154],[-71.192,42.8129],[-71.1866,42.8298],[-71.2069,42.8522],[-71.2425,42.8481],[-71.237,42.8222],[-71.2838,42.7607]]]},"properties":{"geoid":"33725","state":"33","district":"Rockingham 25","name":"State House District Rockingham 25","chamber":"House"}},{"type":"Feature","geometry":{"type":"Polygon","coordinates":[[[-70.8229,43.0824],[-70.8099,43.0201],[-70.8014,43.0167],[-70.7745,43.041],[-70.7728,43.0452],[-70.779,43.0532],[-70.7713,43.0581],[-70.7771,43.0668],[-70.7721,43.0706],[-70.7941,43.0942],[-70.8229,43.0824]]]},"properties":{"geoid":"33726","state":"33","district":"Rockingham 26","name":"State House District Rockingham 26","chamber":"House"}},{"type":"Feature","geometry":{"type":"Polygon","coordinates":[[[-70.8014,43.0167],[-70.7819,43.0135],[-70.7421,43.0542],[-70.7689,43.0502],[-70.7664,43.0625],[-70.7743,43.0618],[-70.7713,43.0581],[-70.779,43.0532],[-70.7728,43.0452],[-70.7747,43.0406],[-70.8014,43.0167]]]},"properties":{"geoid":"33727","state":"33","district":"Rockingham 27","name":"State House District Rockingham 27","chamber":"House"}},{"type":"Feature","geometry":{"type":"Polygon","coordinates":[[[-70.7771,43.0668],[-70.7743,43.0618],[-70.7638,43.063],[-70.7589,43.0657],[-70.7582,43.0733],[-70.7652,43.0797],[-70.7771,43.0668]]]},"properties":{"geoid":"33728","state":"33","district":"Rockingham 28","name":"State House District Rockingham 28","chamber":"House"}},{"type":"Feature","geometry":{"type":"Polygon","coordinates":[[[-70.902,42.9672],[-70.8775,42.9468],[-70.8742,42.9368],[-70.8552,42.9286],[-70.8461,42.9133],[-70.84,42.916],[-70.8239,42.9066],[-70.8225,42.8976],[-70.8114,42.8886],[-70.807,42.9114],[-70.7936,42.9178],[-70.7928,42.9377],[-70.7876,42.9367],[-70.7776,42.9508],[-70.888,42.971],[-70.902,42.9672]]]},"properties":{"geoid":"33729","state":"33","district":"Rockingham 29","name":"State House District Rockingham 29","chamber":"House"}},{"type":"Feature","geometry":{"type":"Polygon","coordinates":[[[-70.9177,42.9067],[-70.9146,42.8867],[-70.8856,42.8828],[-70.8477,42.8609],[-70.8138,42.8723],[-70.8114,42.8886],[-70.8225,42.8976],[-70.8305,42.8982],[-70.8292,42.8886],[-70.84,42.9015],[-70.8595,42.9055],[-70.9034,42.9022],[-70.9177,42.9067]]]},"properties":{"geoid":"33730","state":"33","district":"Rockingham 30","name":"State House District Rockingham 30","chamber":"House"}},{"type":"Feature","geometry":{"type":"Polygon","coordinates":[[[-71.1592,43.3552],[-71.0706,43.2993],[-70.9912,43.3739],[-71.0853,43.4244],[-71.1592,43.3552]]]},"properties":{"geoid":"33801","state":"33","district":"Strafford 01","name":"State House District Strafford 01","chamber":"House"}},{"type":"Feature","geometry":{"type":"Polygon","coordinates":[[[-71.0853,43.4244],[-70.9912,43.3739],[-71.0706,43.2993],[-71.0207,43.268],[-71.0115,43.284],[-71.0299,43.2991],[-70.995,43.305],[-70.9967,43.3159],[-70.9929,43.3211],[-70.9905,43.3144],[-70.9851,43.3152],[-70.98,43.3055],[-70.9766,43.3067],[-70.9739,43.3441],[-70.9794,43.3551],[-70.9729,43.3548],[-70.9734,43.3491],[-70.972,43.3546],[-70.9781,43.3584],[-70.9746,43.3636],[-70.9859,43.3801],[-70.9874,43.3933],[-70.9823,43.3983],[-70.9871,43.4127],[-70.9609,43.4389],[-70.9666,43.4513],[-70.9611,43.4692],[-70.976,43.4784],[-70.9675,43.4809],[-70.9683,43.4895],[-70.9545,43.5097],[-70.9539,43.5223],[-70.963,43.5353],[-70.9619,43.5409],[-71.0853,43.4244]]]},"properties":{"geoid":"33802","state":"33","district":"Strafford 02","name":"State House District Strafford 02","chamber":"House"}},{"type":"Feature","geometry":{"type":"Polygon","coordinates":[[[-71.1908,43.515],[-71.1594,43.3551],[-71.0242,43.4829],[-71.0379,43.5298],[-71.0445,43.5248],[-71.0464,43.5297],[-71.0525,43.5247],[-71.0676,43.5272],[-71.0848,43.5067],[-71.0895,43.5127],[-71.0932,43.5072],[-71.0969,43.5117],[-71.1021,43.5069],[-71.1065,43.5122],[-71.1115,43.5067],[-71.1278,43.5728],[-71.1908,43.515]]]},"properties":{"geoid":"33803","state":"33","district":"Strafford 03","name":"State House District Strafford 03","chamber":"House"}},{"type":"Feature","geometry":{"type":"Polygon","coordinates":[[[-71.2473,43.2753],[-71.0267,43.1379],[-70.9528,43.2257],[-71.1594,43.3551],[-71.2473,43.2753]]]},"properties":{"geoid":"33804","state":"33","district":"Strafford 04","name":"State House District Strafford 04","chamber":"House"}},{"type":"Feature","geometry":{"type":"Polygon","coordinates":[[[-70.9796,43.3505],[-70.9741,43.3457],[-70.9749,43.3301],[-70.948,43.3221],[-70.9588,43.3135],[-70.9597,43.3066],[-70.9171,43.2815],[-70.9209,43.2775],[-70.912,43.2722],[-70.8963,43.2922],[-70.9075,43.2933],[-70.8963,43.2984],[-70.9138,43.3089],[-70.9114,43.3197],[-70.9244,43.3238],[-70.9328,43.3372],[-70.9562,43.3341],[-70.968,43.3446],[-70.9674,43.3492],[-70.9735,43.3492],[-70.9762,43.3578],[-70.9796,43.3505]]]},"properties":{"geoid":"33805","state":"33","district":"Strafford 05","name":"State House District Strafford 05","chamber":"House"}},{"type":"Feature","geometry":{"type":"Polygon","coordinates":[[[-70.9805,43.2953],[-70.9763,43.2918],[-70.9793,43.2824],[-70.9571,43.2686],[-70.9531,43.2722],[-70.9246,43.2582],[-70.912,43.2722],[-70.9209,43.2775],[-70.9171,43.2815],[-70.9597,43.3066],[-70.9727,43.2935],[-70.9772,43.3018],[-70.9802,43.2992],[-70.9758,43.2965],[-70.9805,43.2953]]]},"properties":{"geoid":"33806","state":"33","district":"Strafford 06","name":"State House District Strafford 06","chamber":"House"}},{"type":"Feature","geometry":{"type":"Polygon","coordinates":[[[-71.0206,43.268],[-70.9528,43.2257],[-70.9246,43.2582],[-70.9531,43.2722],[-70.9571,43.2686],[-70.9887,43.2897],[-71.0012,43.2883],[-70.9818,43.2757],[-71.0054,43.2753],[-71.0115,43.284],[-71.0206,43.268]]]},"properties":{"geoid":"33807","state":"33","district":"Strafford 07","name":"State House District Strafford 07","chamber":"House"}},{"type":"Feature","geometry":{"type":"Polygon","coordinates":[[[-71.0297,43.2992],[-71.0178,43.2921],[-71.0051,43.2752],[-70.9807,43.2781],[-71.0012,43.2883],[-70.9887,43.2897],[-70.9793,43.2824],[-70.9762,43.289],[-70.9805,43.2953],[-70.9757,43.2975],[-70.9802,43.2992],[-70.9798,43.3096],[-70.9905,43.3144],[-70.9929,43.3211],[-70.9967,43.3159],[-70.995,43.305],[-71.0297,43.2992]]]},"properties":{"geoid":"33808","state":"33","district":"Strafford 08","name":"State House District Strafford 08","chamber":"House"}},{"type":"Feature","geometry":{"type":"Polygon","coordinates":[[[-70.9801,43.3051],[-70.9727,43.2935],[-70.948,43.3221],[-70.9749,43.3301],[-70.9766,43.3067],[-70.9801,43.3051]]]},"properties":{"geoid":"33809","state":"33","district":"Strafford 09","name":"State House District Strafford 09","chamber":"House"}},{"type":"Feature","geometry":{"type":"Polygon","coordinates":[[[-70.9805,43.0837],[-70.9338,43.0902],[-70.8754,43.0804],[-70.8615,43.0927],[-70.8598,43.1156],[-70.864,43.1227],[-70.8469,43.1261],[-70.9032,43.1484],[-70.9605,43.1629],[-70.9805,43.0837]]]},"properties":{"geoid":"33810","state":"33","district":"Strafford 10","name":"State House District Strafford 10","chamber":"House"}},{"type":"Feature","geometry":{"type":"Polygon","coordinates":[[[-71.0729,43.0817],[-70.9808,43.0824],[-70.9605,43.1629],[-70.8442,43.1284],[-70.8401,43.1317],[-70.8441,43.1487],[-70.8775,43.1809],[-70.8908,43.1679],[-70.9026,43.1668],[-70.9615,43.2158],[-71.0729,43.0817]]]},"properties":{"geoid":"33811","state":"33","district":"Strafford 11","name":"State House District Strafford 11","chamber":"House"}},{"type":"Feature","geometry":{"type":"Polygon","coordinates":[[[-70.9276,43.255],[-70.8681,43.2079],[-70.8494,43.2028],[-70.8387,43.2053],[-70.8363,43.1975],[-70.8198,43.1969],[-70.8169,43.2145],[-70.8095,43.2249],[-70.8172,43.2293],[-70.8178,43.2382],[-70.8274,43.2434],[-70.8379,43.2424],[-70.8428,43.2542],[-70.8575,43.2558],[-70.8629,43.2648],[-70.8831,43.273],[-70.8836,43.2834],[-70.8984,43.2874],[-70.9276,43.255]]]},"properties":{"geoid":"33812","state":"33","district":"Strafford 12","name":"State House District Strafford 12","chamber":"House"}},{"type":"Feature","geometry":{"type":"Polygon","coordinates":[[[-70.9596,43.2179],[-70.9381,43.2055],[-70.897,43.2],[-70.8922,43.2126],[-70.8808,43.2161],[-70.9276,43.255],[-70.9596,43.2179]]]},"properties":{"geoid":"33813","state":"33","district":"Strafford 13","name":"State House District Strafford 13","chamber":"House"}},{"type":"Feature","geometry":{"type":"Polygon","coordinates":[[[-70.8965,43.2066],[-70.8836,43.2025],[-70.8765,43.1948],[-70.8718,43.1951],[-70.8749,43.1993],[-70.8667,43.2077],[-70.8836,43.2217],[-70.881,43.2158],[-70.8965,43.2066]]]},"properties":{"geoid":"33814","state":"33","district":"Strafford 14","name":"State House District Strafford 14","chamber":"House"}},{"type":"Feature","geometry":{"type":"Polygon","coordinates":[[[-70.8858,43.1941],[-70.8842,43.189],[-70.8759,43.1871],[-70.8762,43.1821],[-70.8741,43.189],[-70.8646,43.1862],[-70.8568,43.1953],[-70.8319,43.1825],[-70.825,43.1727],[-70.8283,43.1878],[-70.819,43.1945],[-70.8363,43.1975],[-70.8387,43.2053],[-70.8494,43.2028],[-70.8667,43.2077],[-70.8749,43.1993],[-70.8718,43.1951],[-70.8858,43.1941]]]},"properties":{"geoid":"33815","state":"33","district":"Strafford 15","name":"State House District Strafford 15","chamber":"House"}},{"type":"Feature","geometry":{"type":"Polygon","coordinates":[[[-70.8916,43.1906],[-70.8632,43.1711],[-70.8456,43.1518],[-70.8402,43.131],[-70.8531,43.1302],[-70.8339,43.118],[-70.82,43.1225],[-70.8277,43.1283],[-70.8334,43.1451],[-70.825,43.1727],[-70.8319,43.1825],[-70.8568,43.1953],[-70.8646,43.1862],[-70.8741,43.189],[-70.8762,43.1821],[-70.8759,43.1871],[-70.8842,43.189],[-70.8858,43.1941],[-70.8916,43.1906]]]},"properties":{"geoid":"33816","state":"33","district":"Strafford 16","name":"State House District Strafford 16","chamber":"House"}},{"type":"Feature","geometry":{"type":"Polygon","coordinates":[[[-70.9615,43.2158],[-70.9026,43.1668],[-70.8908,43.1679],[-70.8769,43.1815],[-70.8916,43.1906],[-70.8755,43.1935],[-70.8836,43.2025],[-70.8965,43.2066],[-70.897,43.2],[-70.93,43.204],[-70.9615,43.2158]]]},"properties":{"geoid":"33817","state":"33","district":"Strafford 17","name":"State House District Strafford 17","chamber":"House"}},{"type":"Feature","geometry":{"type":"Polygon","coordinates":[[[-72.2145,43.4896],[-72.1436,43.4689],[-72.1363,43.4769],[-72.1114,43.4698],[-72.0923,43.5028],[-72.1111,43.5053],[-72.0909,43.5289],[-72.1202,43.5383],[-72.1064,43.5535],[-72.1712,43.574],[-72.19,43.5506],[-72.1907,43.515],[-72.2145,43.4896]]]},"properties":{"geoid":"33901","state":"33","district":"Sullivan 01","name":"State House District Sullivan 01","chamber":"House"}},{"type":"Feature","geometry":{"type":"Polygon","coordinates":[[[-72.3989,43.5127],[-72.3799,43.4912],[-72.3825,43.4759],[-72.3926,43.4669],[-72.3903,43.4516],[-72.396,43.4288],[-72.2695,43.4237],[-72.2693,43.477],[-72.2443,43.4731],[-72.2303,43.4934],[-72.215,43.489],[-72.1907,43.515],[-72.19,43.5506],[-72.1712,43.574],[-72.2083,43.5852],[-72.3318,43.5999],[-72.3798,43.5742],[-72.3807,43.5404],[-72.3943,43.5274],[-72.3989,43.5127]]]},"properties":{"geoid":"33902","state":"33","district":"Sullivan 02","name":"State House District Sullivan 02","chamber":"House"}},{"type":"Feature","geometry":{"type":"Polygon","coordinates":[[[-72.4529,43.1719],[-72.4523,43.1614],[-72.4063,43.1579],[-72.4162,43.1938],[-72.342,43.2045],[-72.3563,43.2578],[-72.1597,43.2809],[-72.1656,43.3084],[-72.159,43.3144],[-72.1511,43.3124],[-72.143,43.3288],[-72.1275,43.3267],[-72.1259,43.3944],[-72.2695,43.4237],[-72.2675,43.3315],[-72.3376,43.3322],[-72.3405,43.3226],[-72.3549,43.322],[-72.3518,43.3348],[-72.4065,43.3376],[-72.4101,43.33],[-72.3953,43.3127],[-72.416,43.2702],[-72.4371,43.2561],[-72.4395,43.2443],[-72.4342,43.2319],[-72.441,43.2182],[-72.4382,43.2029],[-72.4505,43.1927],[-72.4439,43.1804],[-72.4529,43.1719]]]},"properties":{"geoid":"33903","state":"33","district":"Sullivan 03","name":"State House District Sullivan 03","chamber":"House"}},{"type":"Feature","geometry":{"type":"Polygon","coordinates":[[[-72.4321,43.1598],[-72.4316,43.1356],[-72.372,43.1321],[-72.3764,43.1577],[-72.3303,43.1552],[-72.3321,43.1628],[-72.1567,43.182],[-72.1785,43.1319],[-72.0381,43.1288],[-72.0235,43.1601],[-72.0368,43.1825],[-72.0091,43.1879],[-72.0415,43.2227],[-72.0453,43.2548],[-72.0654,43.2551],[-72.0901,43.3226],[-72.0786,43.3386],[-72.0917,43.3408],[-72.1275,43.3267],[-72.143,43.3288],[-72.1511,43.3124],[-72.159,43.3144],[-72.1656,43.3084],[-72.1597,43.2809],[-72.3563,43.2578],[-72.342,43.2045],[-72.4162,43.1938],[-72.4063,43.1579],[-72.4321,43.1598]]]},"properties":{"geoid":"33904","state":"33","district":"Sullivan 04","name":"State House District Sullivan 04","chamber":"House"}},{"type":"Feature","geometry":{"type":"Polygon","coordinates":[[[-72.1274,43.3298],[-72.0917,43.3408],[-72.0786,43.3386],[-72.0497,43.3803],[-72.0468,43.4109],[-72.058,43.4232],[-72.0538,43.4411],[-72.0114,43.4369],[-71.9353,43.5289],[-72.0672,43.544],[-72.0695,43.5532],[-72.1111,43.5053],[-72.0923,43.5028],[-72.1114,43.4698],[-72.1259,43.3944],[-72.1274,43.3298]]]},"properties":{"geoid":"33905","state":"33","district":"Sullivan 05","name":"State House District Sullivan 05","chamber":"House"}},{"type":"Feature","geometry":{"type":"MultiPolygon","coordinates":[[[[-72.416,43.3771],[-72.4126,43.3623],[-72.3898,43.3563],[-72.4065,43.3376],[-72.3518,43.3348],[-72.3549,43.322],[-72.3405,43.3226],[-72.3376,43.3322],[-72.2675,43.3315],[-72.2695,43.4237],[-72.396,43.4288],[-72.4035,43.3916],[-72.416,43.3771]]],[[[-72.2719,43.4564],[-72.2695,43.4237],[-72.1259,43.3944],[-72.1114,43.4698],[-72.1363,43.4769],[-72.1436,43.4689],[-72.2303,43.4934],[-72.2443,43.4731],[-72.2693,43.477],[-72.2719,43.4564]]]]},"properties":{"geoid":"33906","state":"33","district":"Sullivan 06","name":"State House District Sullivan 06","chamber":"House"}},{"type":"Feature","geometry":{"type":"Polygon","coordinates":[[[-70.8141,42.8769],[-70.8138,42.8723],[-70.735,42.8747],[-70.7273,42.8936],[-70.726,42.9285],[-70.709,42.9381],[-70.6944,42.9568],[-70.6809,42.9369],[-70.6551,42.9221],[-70.6107,42.9125],[-70.5751,42.9171],[-70.5841,42.943],[-70.6056,42.9722],[-70.6321,42.9667],[-70.7366,43.0004],[-70.7565,42.9835],[-70.7702,42.9556],[-70.7876,42.9367],[-70.7928,42.9377],[-70.7936,42.9178],[-70.807,42.9114],[-70.8141,42.8769]]]},"properties":{"geoid":"33ZZZ","state":"33","district":"State House Districts not defined","name":"State House Districts not defined","chamber":"House"}}]}