{"type":"FeatureCollection","features":[{"type":"Feature","geometry":{"type":"Polygon","coordinates":[[[-72.117,43.9938],[-72.112,43.986],[-72.1144,43.9681],[-72.091,43.9662],[-72.1007,43.963],[-72.0991,43.9574],[-71.9711,43.9156],[-71.9686,43.9195],[-71.9594,43.9167],[-71.9588,43.9112],[-71.826,43.8858],[-71.9071,43.8041],[-71.7671,43.7684],[-71.7227,43.8556],[-71.7317,43.9304],[-71.6958,43.9196],[-71.6411,44.0235],[-71.7724,44.0714],[-71.7271,44.1586],[-71.5815,44.1121],[-71.5376,44.1975],[-71.4132,44.1675],[-71.4265,44.2109],[-71.3949,44.2147],[-71.4116,44.2284],[-71.4407,44.2704],[-71.2454,44.34],[-71.0129,44.3409],[-71.0384,44.767],[-71.0839,45.3055],[-71.1053,45.2949],[-71.111,45.2844],[-71.1064,45.28],[-71.1163,45.2741],[-71.1241,45.2551],[-71.1329,45.2445],[-71.1476,45.2394],[-71.1623,45.2503],[-71.1801,45.2399],[-71.1964,45.2541],[-71.2306,45.2494],[-71.2356,45.2609],[-71.2456,45.2688],[-71.2594,45.272],[-71.2649,45.2938],[-71.2805,45.2946],[-71.2842,45.3024],[-71.3005,45.2966],[-71.3076,45.2875],[-71.3308,45.2803],[-71.3364,45.2727],[-71.3603,45.2703],[-71.3632,45.2667],[-71.3565,45.2539],[-71.3783,45.2435],[-71.3841,45.2335],[-71.4021,45.2426],[-71.4211,45.2322],[-71.4428,45.2383],[-71.4435,45.2348],[-71.4158,45.2184],[-71.4031,45.2153],[-71.3973,45.2035],[-71.4144,45.1848],[-71.4185,45.1705],[-71.4249,45.1658],[-71.4264,45.1527],[-71.4376,45.1419],[-71.4261,45.1295],[-71.4284,45.1237],[-71.4403,45.1137],[-71.4488,45.1126],[-71.4493,45.1045],[-71.4644,45.0934],[-71.4679,45.0837],[-71.4781,45.0843],[-71.4873,45.0787],[-71.4878,45.0714],[-71.498,45.0702],[-71.4957,45.0648],[-71.5013,45.0587],[-71.4972,45.0558],[-71.5064,45.0485],[-71.491,45.0432],[-71.4925,45.0335],[-71.5001,45.0261],[-71.4971,45.0236],[-71.5011,45.0133],[-71.4651,45.0129],[-71.4883,45.0007],[-71.5088,45.0078],[-71.5304,44.9994],[-71.5415,44.9848],[-71.5229,44.9662],[-71.518,44.9677],[-71.5237,44.9643],[-71.5163,44.9645],[-71.5192,44.9496],[-71.5148,44.9437],[-71.5171,44.9391],[-71.5228,44.9399],[-71.4999,44.9112],[-71.4932,44.9114],[-71.4949,44.9043],[-71.5074,44.8995],[-71.5139,44.8943],[-71.5107,44.8904],[-71.5161,44.8845],[-71.5495,44.8621],[-71.5475,44.8554],[-71.5558,44.8486],[-71.5511,44.837],[-71.5618,44.8236],[-71.5732,44.8208],[-71.5769,44.8152],[-71.5684,44.807],[-71.5728,44.7909],[-71.5792,44.7849],[-71.5925,44.7827],[-71.6167,44.7563],[-71.6321,44.7516],[-71.6251,44.7434],[-71.6261,44.7285],[-71.6171,44.7287],[-71.6186,44.7222],[-71.5994,44.7053],[-71.6008,44.699],[-71.5939,44.6964],[-71.5979,44.6922],[-71.594,44.6834],[-71.5966,44.6781],[-71.5815,44.6732],[-71.5879,44.6699],[-71.5874,44.6597],[-71.5752,44.6558],[-71.5801,44.6521],[-71.5771,44.6507],[-71.5628,44.6524],[-71.5578,44.642],[-71.5637,44.6372],[-71.5468,44.6298],[-71.557,44.6295],[-71.5463,44.623],[-71.5551,44.6252],[-71.5536,44.6061],[-71.5621,44.6012],[-71.5509,44.601],[-71.5552,44.5933],[-71.546,44.5971],[-71.5469,44.5908],[-71.5385,44.5942],[-71.5401,44.5885],[-71.5349,44.5879],[-71.5458,44.5779],[-71.5524,44.5844],[-71.5548,44.5794],[-71.5477,44.5714],[-71.5577,44.5704],[-71.5597,44.564],[-71.5896,44.5657],[-71.597,44.5595],[-71.5986,44.5548],[-71.5719,44.5379],[-71.5807,44.5246],[-71.5941,44.5216],[-71.577,44.5021],[-71.5881,44.5066],[-71.5859,44.4994],[-71.5939,44.501],[-71.5986,44.4868],[-71.6178,44.4858],[-71.6262,44.4745],[-71.6345,44.4756],[-71.6247,44.4817],[-71.6328,44.4838],[-71.6468,44.4732],[-71.639,44.4644],[-71.6542,44.4588],[-71.6609,44.4399],[-71.678,44.4353],[-71.677,44.4268],[-71.6827,44.4273],[-71.7026,44.4135],[-71.7354,44.41],[-71.7437,44.401],[-71.762,44.407],[-71.7784,44.3998],[-71.7945,44.399],[-71.8035,44.3919],[-71.8006,44.384],[-71.8144,44.3819],[-71.8123,44.3716],[-71.8163,44.3674],[-71.8124,44.3573],[-71.8158,44.354],[-71.8716,44.3367],[-71.9124,44.3481],[-71.934,44.336],[-71.9814,44.3374],[-71.9881,44.3301],[-72.0091,44.3222],[-72.0328,44.3205],[-72.0329,44.3022],[-72.0586,44.2865],[-72.0685,44.2708],[-72.0583,44.2701],[-72.0615,44.2611],[-72.0477,44.239],[-72.0662,44.1901],[-72.0518,44.1665],[-72.039,44.1568],[-72.042,44.137],[-72.0333,44.1317],[-72.0373,44.1249],[-72.0531,44.1195],[-72.0553,44.1106],[-72.0479,44.0966],[-72.0395,44.1035],[-72.0313,44.1004],[-72.0333,44.0905],[-72.0453,44.0873],[-72.0317,44.079],[-72.0529,44.0763],[-72.0483,44.0697],[-72.0573,44.0583],[-72.0681,44.0574],[-72.0619,44.0496],[-72.0783,44.0434],[-72.0748,44.0324],[-72.0827,44.0218],[-72.0954,44.0218],[-72.0905,44.0099],[-72.0976,44.0152],[-72.1053,44.0131],[-72.1041,44.0024],[-72.117,43.9938]]]},"properties":{"geoid":"33001","state":"33","district":"01","name":"State Senate District 1","chamber":"Senate"}},{"type":"Feature","geometry":{"type":"Polygon","coordinates":[[[-71.7493,43.8024],[-71.737,43.7981],[-71.7313,43.79],[-71.7232,43.7895],[-71.7228,43.7826],[-71.6694,43.7827],[-71.6861,43.7634],[-71.685,43.7534],[-71.6778,43.7488],[-71.6771,43.7401],[-71.6612,43.7285],[-71.6544,43.711],[-71.6568,43.7022],[-71.6471,43.6904],[-71.6512,43.6806],[-71.649,43.6707],[-71.6551,43.6613],[-71.6508,43.644],[-71.6571,43.6308],[-71.6511,43.6212],[-71.6651,43.6136],[-71.6632,43.6052],[-71.689,43.5949],[-71.7033,43.5946],[-71.7125,43.6007],[-71.7317,43.5901],[-71.7157,43.5782],[-71.7251,43.5702],[-71.728,43.5589],[-71.7142,43.5504],[-71.708,43.5389],[-71.6879,43.5286],[-71.6913,43.5158],[-71.6773,43.5005],[-71.6555,43.4925],[-71.6534,43.4876],[-71.638,43.4918],[-71.6241,43.4699],[-71.5103,43.5026],[-71.5215,43.4932],[-71.5187,43.4878],[-71.5237,43.4816],[-71.5356,43.4824],[-71.5333,43.4681],[-71.5392,43.4577],[-71.5494,43.4524],[-71.4715,43.4113],[-71.4642,43.4136],[-71.3909,43.4873],[-71.3174,43.5094],[-71.3289,43.5654],[-71.3135,43.564],[-71.3127,43.5746],[-71.3166,43.5794],[-71.3326,43.58],[-71.3436,43.6288],[-71.5323,43.7648],[-71.3288,43.7827],[-71.362,43.9159],[-71.5688,43.8927],[-71.628,44.0287],[-71.6318,44.0201],[-71.6411,44.0235],[-71.6958,43.9196],[-71.7317,43.9304],[-71.7227,43.8556],[-71.7493,43.8024]]]},"properties":{"geoid":"33002","state":"33","district":"02","name":"State Senate District 2","chamber":"Senate"}},{"type":"Feature","geometry":{"type":"Polygon","coordinates":[[[-71.7723,44.0716],[-71.6318,44.0201],[-71.628,44.0287],[-71.5688,43.8927],[-71.362,43.9159],[-71.3288,43.7827],[-71.5323,43.7648],[-71.5317,43.761],[-71.2585,43.5714],[-71.2279,43.5647],[-71.2089,43.5505],[-71.1995,43.5591],[-71.1627,43.539],[-71.1278,43.5728],[-71.0885,43.4215],[-71.0853,43.4244],[-71.0768,43.4207],[-70.9914,43.3739],[-70.9856,43.3791],[-70.9879,43.3902],[-70.9823,43.3983],[-70.9868,43.4138],[-70.9609,43.4389],[-70.9666,43.4513],[-70.9611,43.4692],[-70.976,43.4784],[-70.9675,43.4809],[-70.9683,43.4895],[-70.9547,43.5093],[-70.9539,43.5223],[-70.9638,43.5394],[-70.9535,43.5406],[-70.9506,43.5513],[-70.9573,43.5613],[-70.9728,43.5705],[-70.989,43.7901],[-71.0129,44.3409],[-71.2456,44.3399],[-71.4407,44.2704],[-71.4116,44.2284],[-71.3949,44.2147],[-71.4265,44.2109],[-71.4132,44.1675],[-71.5376,44.1975],[-71.5815,44.1121],[-71.7271,44.1586],[-71.7723,44.0716]]]},"properties":{"geoid":"33003","state":"33","district":"03","name":"State Senate District 3","chamber":"Senate"}},{"type":"Feature","geometry":{"type":"Polygon","coordinates":[[[-71.1336,43.2036],[-71.0267,43.1379],[-70.9615,43.2158],[-70.884,43.1519],[-70.839,43.1201],[-70.8288,43.1177],[-70.82,43.1225],[-70.8277,43.1283],[-70.8336,43.1461],[-70.8236,43.1742],[-70.8283,43.1878],[-70.8193,43.193],[-70.8169,43.2145],[-70.8095,43.2252],[-70.8172,43.2293],[-70.8178,43.2382],[-70.8274,43.2434],[-70.8379,43.2424],[-70.8422,43.2538],[-70.8575,43.2558],[-70.8629,43.2648],[-70.8833,43.2732],[-70.8836,43.2834],[-70.8984,43.2873],[-70.9528,43.2257],[-71.0544,43.2897],[-71.1336,43.2036]]]},"properties":{"geoid":"33004","state":"33","district":"04","name":"State Senate District 4","chamber":"Senate"}},{"type":"Feature","geometry":{"type":"Polygon","coordinates":[[[-72.3989,43.5127],[-72.3799,43.4912],[-72.3825,43.4759],[-72.3926,43.4669],[-72.3903,43.4516],[-72.396,43.4288],[-72.2695,43.4237],[-72.2693,43.477],[-72.2443,43.4731],[-72.2303,43.4934],[-72.1436,43.4689],[-72.1363,43.4769],[-72.1114,43.4698],[-72.1155,43.4468],[-72.0538,43.4411],[-72.058,43.4232],[-72.0468,43.4109],[-72.0497,43.3803],[-71.907,43.4028],[-71.9353,43.4152],[-71.9209,43.433],[-71.9903,43.4649],[-71.9353,43.5289],[-72.0672,43.544],[-72.0695,43.5532],[-71.9471,43.6967],[-71.9321,43.7061],[-71.8446,43.6873],[-71.7995,43.7384],[-71.7556,43.7224],[-71.7337,43.6854],[-71.6585,43.7175],[-71.6612,43.7285],[-71.6771,43.7401],[-71.6778,43.7488],[-71.685,43.7534],[-71.6861,43.7634],[-71.6694,43.7827],[-71.7228,43.7826],[-71.7232,43.7895],[-71.7313,43.79],[-71.737,43.7981],[-71.7493,43.8024],[-71.7671,43.7684],[-71.9071,43.8041],[-71.826,43.8858],[-71.9588,43.9112],[-71.9594,43.9167],[-71.9686,43.9195],[-71.9711,43.9156],[-72.0991,43.9574],[-72.1064,43.9494],[-72.1183,43.9465],[-72.1205,43.9196],[-72.1505,43.9021],[-72.1597,43.8877],[-72.1721,43.885],[-72.1679,43.8691],[-72.1846,43.8641],[-72.188,43.8552],[-72.1824,43.8341],[-72.1889,43.8212],[-72.1841,43.8064],[-72.2055,43.7846],[-72.2052,43.7709],[-72.2185,43.7655],[-72.2342,43.746],[-72.2711,43.7339],[-72.2997,43.7061],[-72.3051,43.6953],[-72.3031,43.6686],[-72.3136,43.6569],[-72.3147,43.6419],[-72.3291,43.6355],[-72.3274,43.6307],[-72.3348,43.618],[-72.3283,43.6011],[-72.3798,43.5742],[-72.3807,43.5404],[-72.3943,43.5274],[-72.3989,43.5127]]]},"properties":{"geoid":"33005","state":"33","district":"05","name":"State Senate District 5","chamber":"Senate"}},{"type":"Feature","geometry":{"type":"Polygon","coordinates":[[[-71.4715,43.4113],[-71.3491,43.3466],[-71.2811,43.4184],[-71.1594,43.3551],[-71.2473,43.2752],[-71.1336,43.2036],[-71.0544,43.2897],[-70.9528,43.2257],[-70.8963,43.2921],[-70.9066,43.292],[-70.8963,43.2986],[-70.9037,43.3063],[-70.9126,43.3076],[-70.9154,43.3154],[-70.9114,43.3197],[-70.9244,43.3238],[-70.9317,43.3309],[-70.9312,43.3365],[-70.9559,43.334],[-70.968,43.3446],[-70.9674,43.3492],[-70.973,43.3488],[-70.972,43.3546],[-70.9782,43.3587],[-70.9746,43.3636],[-70.9829,43.3781],[-70.9914,43.3739],[-71.0768,43.4207],[-71.0853,43.4244],[-71.0885,43.4215],[-71.1278,43.5728],[-71.1627,43.539],[-71.1995,43.5591],[-71.2089,43.5505],[-71.2279,43.5647],[-71.2585,43.5714],[-71.3436,43.6288],[-71.3326,43.58],[-71.3166,43.5794],[-71.3127,43.5746],[-71.3135,43.564],[-71.3289,43.5654],[-71.3174,43.5094],[-71.3909,43.4873],[-71.4642,43.4136],[-71.4715,43.4113]]]},"properties":{"geoid":"33006","state":"33","district":"06","name":"State Senate District 6","chamber":"Senate"}},{"type":"Feature","geometry":{"type":"Polygon","coordinates":[[[-72.1656,43.3084],[-72.1597,43.2809],[-72.1539,43.2816],[-72.1498,43.2497],[-72.0634,43.2491],[-72.0654,43.2551],[-72.0453,43.2548],[-72.0415,43.2227],[-72.0091,43.1879],[-72.0368,43.1825],[-71.9836,43.0917],[-71.9102,43.1046],[-71.9077,43.109],[-71.8992,43.1032],[-71.8996,43.1064],[-71.7326,43.1398],[-71.7878,43.2319],[-71.7257,43.2442],[-71.7233,43.2405],[-71.589,43.2871],[-71.5906,43.2954],[-71.5855,43.3025],[-71.6036,43.3042],[-71.5942,43.3152],[-71.6199,43.3192],[-71.6121,43.3254],[-71.6268,43.3262],[-71.6257,43.3338],[-71.6337,43.3426],[-71.6325,43.353],[-71.6463,43.362],[-71.6519,43.3735],[-71.6416,43.4057],[-71.6252,43.407],[-71.6297,43.4294],[-71.6206,43.4303],[-71.6281,43.4431],[-71.6163,43.4436],[-71.6121,43.4378],[-71.6047,43.4407],[-71.6005,43.4349],[-71.5931,43.4431],[-71.5796,43.4445],[-71.5691,43.4525],[-71.5615,43.4505],[-71.5594,43.4555],[-71.5473,43.4526],[-71.5333,43.4681],[-71.5356,43.4824],[-71.5237,43.4816],[-71.5187,43.4878],[-71.5215,43.4932],[-71.5103,43.5026],[-71.6241,43.4699],[-71.638,43.4918],[-71.6534,43.4876],[-71.6555,43.4925],[-71.6773,43.5005],[-71.6913,43.5158],[-71.6879,43.5286],[-71.708,43.5389],[-71.7142,43.5504],[-71.728,43.5589],[-71.7251,43.5702],[-71.7157,43.5782],[-71.7312,43.5881],[-71.7281,43.5949],[-71.7086,43.6012],[-71.7033,43.5946],[-71.6869,43.5953],[-71.6635,43.605],[-71.6651,43.6136],[-71.6512,43.6211],[-71.6571,43.6308],[-71.6508,43.644],[-71.6551,43.6613],[-71.649,43.6707],[-71.6512,43.6806],[-71.647,43.6897],[-71.6566,43.7017],[-71.6543,43.7104],[-71.6585,43.7175],[-71.7337,43.6854],[-71.7556,43.7224],[-71.7995,43.7384],[-71.8446,43.6873],[-71.9321,43.7061],[-71.9471,43.6967],[-72.0695,43.5532],[-72.0672,43.544],[-71.9353,43.5289],[-71.9903,43.4649],[-71.9209,43.433],[-71.9353,43.4152],[-71.907,43.4028],[-72.0497,43.3803],[-72.0786,43.3386],[-72.0917,43.3408],[-72.1275,43.3267],[-72.143,43.3288],[-72.1511,43.3124],[-72.159,43.3144],[-72.1656,43.3084]]]},"properties":{"geoid":"33007","state":"33","district":"07","name":"State Senate District 7","chamber":"Senate"}},{"type":"Feature","geometry":{"type":"Polygon","coordinates":[[[-72.4529,43.1719],[-72.4523,43.1614],[-72.4321,43.1598],[-72.4316,43.1356],[-72.372,43.1321],[-72.3764,43.1577],[-72.3303,43.1552],[-72.3321,43.1628],[-72.2625,43.17],[-72.2431,43.0708],[-72.3084,43.0653],[-72.295,42.9899],[-72.2495,43],[-72.2596,43.0465],[-72.1743,43.0523],[-72.1761,43.0233],[-72.174,43.0308],[-72.153,43.0299],[-72.1551,43.0219],[-72.0579,43.0189],[-72.0588,43.0051],[-72.0318,43.0084],[-72.0295,43.012],[-72.0276,43.0089],[-71.9421,43.0187],[-71.9374,42.9944],[-71.9466,42.9907],[-71.9363,42.9917],[-71.9362,42.9878],[-71.921,42.9829],[-71.8729,42.988],[-71.8674,42.9636],[-71.8168,42.9689],[-71.816,42.9655],[-71.8228,42.9645],[-71.821,42.9559],[-71.815,42.9569],[-71.8112,42.95],[-71.7476,42.9585],[-71.763,43.0141],[-71.6349,43.0336],[-71.6413,43.0542],[-71.5111,43.0697],[-71.5126,43.076],[-71.579,43.1124],[-71.5801,43.1184],[-71.5728,43.1259],[-71.581,43.1299],[-71.578,43.132],[-71.6282,43.1602],[-71.8996,43.1064],[-71.8992,43.1032],[-71.9077,43.109],[-71.9102,43.1046],[-71.9836,43.0917],[-72.0368,43.1825],[-72.0091,43.1879],[-72.0415,43.2227],[-72.0453,43.2548],[-72.0654,43.2551],[-72.0634,43.2491],[-72.1498,43.2497],[-72.1539,43.2816],[-72.1597,43.2809],[-72.1656,43.3084],[-72.159,43.3144],[-72.1511,43.3124],[-72.143,43.3288],[-72.1275,43.3267],[-72.0917,43.3408],[-72.0786,43.3386],[-72.0497,43.3803],[-72.0468,43.4109],[-72.058,43.4232],[-72.0538,43.4411],[-72.1155,43.4468],[-72.1114,43.4698],[-72.1363,43.4769],[-72.1436,43.4689],[-72.2303,43.4934],[-72.2443,43.4731],[-72.2693,43.477],[-72.2695,43.4237],[-72.396,43.4288],[-72.4035,43.3916],[-72.416,43.3765],[-72.4126,43.3623],[-72.3899,43.3566],[-72.4106,43.3311],[-72.3953,43.3127],[-72.416,43.2702],[-72.4371,43.2561],[-72.4395,43.2443],[-72.4342,43.2319],[-72.441,43.2182],[-72.4382,43.2029],[-72.4505,43.1927],[-72.4439,43.1804],[-72.4529,43.1719]]]},"properties":{"geoid":"33008","state":"33","district":"08","name":"State Senate District 8","chamber":"Senate"}},{"type":"Feature","geometry":{"type":"Polygon","coordinates":[[[-72.5571,42.8535],[-72.5474,42.8395],[-72.5415,42.8071],[-72.5087,42.7795],[-72.5155,42.7656],[-72.5084,42.7644],[-72.4977,42.7734],[-72.4905,42.7727],[-72.477,42.7608],[-72.4734,42.7462],[-72.4584,42.7269],[-72.0786,42.7162],[-72.0913,42.7933],[-71.8107,42.7878],[-71.8279,42.8651],[-71.7347,42.8751],[-71.7297,42.8506],[-71.6928,42.8562],[-71.6947,42.8637],[-71.6646,42.8668],[-71.6633,42.8822],[-71.635,42.8856],[-71.6419,42.9017],[-71.6378,42.9021],[-71.6413,42.9355],[-71.5821,42.9435],[-71.5704,42.8963],[-71.4526,42.9111],[-71.4535,42.9276],[-71.4606,42.9473],[-71.4713,42.9543],[-71.4759,42.9665],[-71.4908,42.9643],[-71.4944,42.9829],[-71.6165,42.9693],[-71.6316,43.0225],[-71.6412,43.0258],[-71.6387,43.033],[-71.763,43.0141],[-71.7476,42.9585],[-71.8112,42.95],[-71.815,42.9569],[-71.821,42.9559],[-71.8228,42.9645],[-71.816,42.9655],[-71.8168,42.9689],[-71.8674,42.9636],[-71.8729,42.988],[-71.921,42.9829],[-71.9345,42.9872],[-71.9309,42.9577],[-71.9396,42.9559],[-71.9481,42.9417],[-71.8928,42.9457],[-71.8753,42.8599],[-71.8877,42.8577],[-71.8844,42.848],[-71.9842,42.8338],[-71.9907,42.8651],[-72.1447,42.869],[-72.1398,42.8464],[-72.1475,42.845],[-72.1494,42.8524],[-72.1904,42.8473],[-72.2104,42.8685],[-72.2236,42.8674],[-72.2226,42.843],[-72.2308,42.8433],[-72.2293,42.8334],[-72.2349,42.832],[-72.2364,42.815],[-72.2909,42.817],[-72.2988,42.8056],[-72.3435,42.8124],[-72.3498,42.846],[-72.5551,42.8581],[-72.5571,42.8535]]]},"properties":{"geoid":"33009","state":"33","district":"09","name":"State Senate District 9","chamber":"Senate"}},{"type":"Feature","geometry":{"type":"Polygon","coordinates":[[[-72.5556,42.8677],[-72.5551,42.8581],[-72.3498,42.846],[-72.3435,42.8124],[-72.2988,42.8056],[-72.2909,42.817],[-72.2364,42.815],[-72.2349,42.832],[-72.2293,42.8334],[-72.2308,42.8433],[-72.2226,42.843],[-72.2236,42.8674],[-72.2104,42.8685],[-72.1904,42.8473],[-72.1494,42.8524],[-72.1475,42.845],[-72.1398,42.8464],[-72.1447,42.869],[-71.9907,42.8651],[-71.9842,42.8338],[-71.8844,42.848],[-71.8877,42.8577],[-71.8753,42.8599],[-71.8928,42.9457],[-71.9481,42.9417],[-71.9396,42.9559],[-71.9307,42.9584],[-71.9363,42.9917],[-71.9474,42.9931],[-71.9374,42.9944],[-71.9421,43.0187],[-72.0276,43.0089],[-72.0295,43.012],[-72.0318,43.0084],[-72.0588,43.0051],[-72.0579,43.0189],[-72.1551,43.0219],[-72.153,43.0299],[-72.174,43.0308],[-72.1761,43.0233],[-72.1743,43.0523],[-72.1995,43.0534],[-72.2596,43.0465],[-72.2495,43],[-72.295,42.9899],[-72.3084,43.0653],[-72.2431,43.0708],[-72.2625,43.17],[-72.3321,43.1628],[-72.3303,43.1552],[-72.3764,43.1577],[-72.372,43.1321],[-72.4316,43.1356],[-72.4321,43.1598],[-72.4523,43.1614],[-72.4572,43.1465],[-72.4521,43.1386],[-72.4408,43.1366],[-72.4423,43.1293],[-72.4327,43.1198],[-72.4335,43.1106],[-72.4432,43.1028],[-72.434,43.0845],[-72.4679,43.0525],[-72.4604,43.0414],[-72.4626,43.0258],[-72.4436,43.0066],[-72.4494,43.0003],[-72.4625,42.9974],[-72.4654,42.9896],[-72.4617,42.9829],[-72.4737,42.9721],[-72.4816,42.974],[-72.4922,42.9677],[-72.5184,42.9631],[-72.5322,42.9547],[-72.5344,42.9494],[-72.5269,42.9414],[-72.5245,42.9151],[-72.5304,42.9111],[-72.5334,42.8953],[-72.5526,42.8851],[-72.5556,42.8677]]]},"properties":{"geoid":"33010","state":"33","district":"10","name":"State Senate District 10","chamber":"Senate"}},{"type":"Feature","geometry":{"type":"Polygon","coordinates":[[[-71.8279,42.8651],[-71.8107,42.7878],[-71.719,42.797],[-71.7134,42.7687],[-71.6908,42.7707],[-71.6942,42.7902],[-71.6451,42.795],[-71.6417,42.774],[-71.6059,42.7916],[-71.6073,42.7987],[-71.5579,42.8036],[-71.5562,42.7923],[-71.5436,42.8058],[-71.5253,42.8004],[-71.4959,42.8055],[-71.4936,42.7948],[-71.4762,42.7908],[-71.4696,42.7939],[-71.4684,42.8006],[-71.4848,42.8378],[-71.4817,42.8484],[-71.4862,42.8632],[-71.4549,42.9001],[-71.4526,42.9111],[-71.5704,42.8963],[-71.5821,42.9435],[-71.6413,42.9355],[-71.6378,42.9021],[-71.6419,42.9017],[-71.635,42.8856],[-71.6633,42.8822],[-71.6646,42.8668],[-71.6947,42.8637],[-71.6928,42.8562],[-71.7297,42.8506],[-71.7347,42.8751],[-71.8279,42.8651]]]},"properties":{"geoid":"33011","state":"33","district":"11","name":"State Senate District 11","chamber":"Senate"}},{"type":"Feature","geometry":{"type":"Polygon","coordinates":[[[-72.0913,42.7933],[-72.0786,42.7162],[-71.4882,42.7013],[-71.4892,42.7067],[-71.4953,42.7078],[-71.491,42.7118],[-71.4985,42.7195],[-71.4939,42.7231],[-71.501,42.7346],[-71.4912,42.744],[-71.4928,42.7767],[-71.4764,42.7677],[-71.4712,42.7724],[-71.4789,42.7835],[-71.4681,42.7869],[-71.4707,42.7935],[-71.4771,42.7907],[-71.4932,42.7945],[-71.4959,42.8055],[-71.5253,42.8004],[-71.5426,42.8059],[-71.5562,42.7923],[-71.5579,42.8036],[-71.6073,42.7987],[-71.6059,42.7916],[-71.6417,42.774],[-71.6451,42.795],[-71.6942,42.7902],[-71.6908,42.7707],[-71.7134,42.7687],[-71.719,42.797],[-71.8214,42.7863],[-72.0913,42.7933]]]},"properties":{"geoid":"33012","state":"33","district":"12","name":"State Senate District 12","chamber":"Senate"}},{"type":"Feature","geometry":{"type":"Polygon","coordinates":[[[-71.501,42.7346],[-71.4939,42.7231],[-71.4985,42.7195],[-71.491,42.7118],[-71.4953,42.7078],[-71.4892,42.7067],[-71.488,42.7013],[-71.4323,42.7],[-71.4371,42.711],[-71.4383,42.7237],[-71.4341,42.7313],[-71.4395,42.7401],[-71.4402,42.757],[-71.4565,42.7763],[-71.4586,42.7932],[-71.4684,42.8006],[-71.4681,42.7869],[-71.4789,42.7835],[-71.4712,42.7724],[-71.4791,42.7681],[-71.4928,42.7767],[-71.4912,42.744],[-71.501,42.7346]]]},"properties":{"geoid":"33013","state":"33","district":"13","name":"State Senate District 13","chamber":"Senate"}},{"type":"Feature","geometry":{"type":"Polygon","coordinates":[[[-71.4633,42.7965],[-71.4572,42.7909],[-71.4561,42.7756],[-71.4399,42.756],[-71.4328,42.7004],[-71.387,42.6989],[-71.3649,42.7752],[-71.3662,42.792],[-71.3446,42.8171],[-71.3495,42.8392],[-71.3327,42.841],[-71.3467,42.9418],[-71.311,42.9357],[-71.294,42.9823],[-71.2981,42.9829],[-71.2882,43.0214],[-71.403,43.0411],[-71.3754,42.9393],[-71.4512,42.9309],[-71.4218,42.8016],[-71.4633,42.7965]]]},"properties":{"geoid":"33014","state":"33","district":"14","name":"State Senate District 14","chamber":"Senate"}},{"type":"Feature","geometry":{"type":"Polygon","coordinates":[[[-71.7878,43.2319],[-71.7326,43.1398],[-71.6282,43.1602],[-71.578,43.132],[-71.581,43.1299],[-71.5728,43.1259],[-71.5801,43.1184],[-71.579,43.1124],[-71.5126,43.076],[-71.4663,43.1223],[-71.4618,43.1336],[-71.4768,43.1502],[-71.495,43.1583],[-71.493,43.1653],[-71.4969,43.1688],[-71.4879,43.1676],[-71.4919,43.176],[-71.5029,43.1767],[-71.4905,43.184],[-71.5003,43.2011],[-71.4861,43.1987],[-71.4754,43.2036],[-71.4817,43.2179],[-71.4709,43.2253],[-71.4707,43.2308],[-71.4657,43.231],[-71.46,43.2409],[-71.4636,43.2448],[-71.4569,43.2489],[-71.5063,43.2755],[-71.5296,43.3095],[-71.7233,43.2405],[-71.7257,43.2442],[-71.7878,43.2319]]]},"properties":{"geoid":"33015","state":"33","district":"15","name":"State Senate District 15","chamber":"Senate"}},{"type":"Feature","geometry":{"type":"Polygon","coordinates":[[[-71.6413,43.0542],[-71.6349,43.0336],[-71.6412,43.0258],[-71.6316,43.0225],[-71.6165,42.9693],[-71.4964,42.9827],[-71.5128,43.0496],[-71.4891,43.0518],[-71.474,43.0353],[-71.4801,43.0238],[-71.4682,43.006],[-71.4431,43.0086],[-71.4364,43.0133],[-71.4406,43.0184],[-71.3924,43.0093],[-71.403,43.0411],[-71.3912,43.041],[-71.2613,43.016],[-71.2677,43.0025],[-71.1679,42.9845],[-71.1309,43.0625],[-71.4566,43.1199],[-71.466,43.1176],[-71.4663,43.1223],[-71.5126,43.076],[-71.5111,43.0697],[-71.6413,43.0542]]]},"properties":{"geoid":"33016","state":"33","district":"16","name":"State Senate District 16","chamber":"Senate"}},{"type":"Feature","geometry":{"type":"Polygon","coordinates":[[[-71.6521,43.375],[-71.6463,43.362],[-71.6325,43.353],[-71.6337,43.3426],[-71.6257,43.3338],[-71.6268,43.3262],[-71.616,43.3285],[-71.6121,43.3254],[-71.6178,43.3175],[-71.5942,43.3152],[-71.6036,43.3042],[-71.5855,43.3025],[-71.5906,43.2954],[-71.5889,43.2868],[-71.5296,43.3095],[-71.5063,43.2755],[-71.4569,43.2489],[-71.4636,43.2448],[-71.46,43.2409],[-71.4657,43.231],[-71.4707,43.2308],[-71.4709,43.2253],[-71.4817,43.2179],[-71.4754,43.2036],[-71.4861,43.1987],[-71.5003,43.2011],[-71.4905,43.184],[-71.5029,43.1767],[-71.492,43.1761],[-71.488,43.1705],[-71.4886,43.1668],[-71.497,43.1687],[-71.493,43.1653],[-71.495,43.1583],[-71.4644,43.1398],[-71.4618,43.1338],[-71.466,43.1176],[-71.4566,43.1199],[-71.1309,43.0625],[-71.1218,43.0814],[-71.0729,43.0817],[-71.0267,43.1379],[-71.2473,43.2752],[-71.1594,43.3551],[-71.2811,43.4184],[-71.3491,43.3466],[-71.5594,43.4555],[-71.5615,43.4505],[-71.5688,43.4525],[-71.5796,43.4445],[-71.5931,43.4431],[-71.6005,43.4349],[-71.6047,43.4407],[-71.6121,43.4378],[-71.6163,43.4436],[-71.6281,43.4431],[-71.6206,43.4303],[-71.6297,43.4294],[-71.6252,43.407],[-71.6416,43.4057],[-71.644,43.3891],[-71.6521,43.375]]]},"properties":{"geoid":"33017","state":"33","district":"17","name":"State Senate District 17","chamber":"Senate"}},{"type":"Feature","geometry":{"type":"Polygon","coordinates":[[[-71.4863,42.8622],[-71.4817,42.8484],[-71.4848,42.8378],[-71.4684,42.8006],[-71.4633,42.7965],[-71.4218,42.8016],[-71.4512,42.9304],[-71.3754,42.9393],[-71.3923,43.009],[-71.425,43.0015],[-71.4146,43.0002],[-71.4161,42.9877],[-71.4574,42.9894],[-71.4574,42.9813],[-71.4619,42.9814],[-71.4577,42.9732],[-71.4738,42.9712],[-71.4723,42.9559],[-71.4609,42.9477],[-71.456,42.9352],[-71.4526,42.9106],[-71.4549,42.9001],[-71.4863,42.8622]]]},"properties":{"geoid":"33018","state":"33","district":"18","name":"State Senate District 18","chamber":"Senate"}},{"type":"Feature","geometry":{"type":"Polygon","coordinates":[[[-71.3662,42.792],[-71.3624,42.783],[-71.353,42.7832],[-71.351,42.7722],[-71.2843,42.7601],[-71.237,42.8222],[-71.2425,42.8481],[-71.2069,42.8522],[-71.2085,42.8592],[-71.1978,42.8667],[-71.1904,42.8553],[-71.1863,42.8603],[-71.181,42.856],[-71.1438,42.8535],[-71.1065,42.8954],[-71.1635,42.8987],[-71.1958,42.9106],[-71.2194,42.9123],[-71.2196,42.9199],[-71.3467,42.9418],[-71.3327,42.841],[-71.3495,42.8392],[-71.3446,42.8171],[-71.3662,42.792]]]},"properties":{"geoid":"33019","state":"33","district":"19","name":"State Senate District 19","chamber":"Senate"}},{"type":"Feature","geometry":{"type":"Polygon","coordinates":[[[-71.5128,43.0496],[-71.4908,42.9643],[-71.4759,42.9665],[-71.4718,42.9741],[-71.4577,42.9732],[-71.4619,42.9814],[-71.4574,42.9813],[-71.4574,42.9894],[-71.4161,42.9877],[-71.4146,43.0002],[-71.425,43.0015],[-71.3923,43.009],[-71.4406,43.0184],[-71.4364,43.0133],[-71.4431,43.0086],[-71.4682,43.006],[-71.4801,43.0238],[-71.474,43.0353],[-71.4891,43.0518],[-71.5128,43.0496]]]},"properties":{"geoid":"33020","state":"33","district":"20","name":"State Senate District 20","chamber":"Senate"}},{"type":"Feature","geometry":{"type":"Polygon","coordinates":[[[-71.0729,43.0817],[-71.0126,43.082],[-71.0138,43.0339],[-70.9578,43.0248],[-70.9476,43.0192],[-70.9332,43.021],[-70.9362,43.0346],[-70.9177,43.044],[-70.9085,43.0592],[-70.88,43.0771],[-70.8571,43.063],[-70.8344,43.059],[-70.8181,43.0627],[-70.8099,43.0201],[-70.8015,43.0167],[-70.7819,43.0135],[-70.7351,43.0596],[-70.7159,43.0554],[-70.7012,43.0452],[-70.7063,43.0753],[-70.738,43.0737],[-70.7568,43.0803],[-70.7659,43.0925],[-70.7797,43.0962],[-70.82,43.1225],[-70.8265,43.1179],[-70.8379,43.1195],[-70.9615,43.2158],[-71.0729,43.0817]]]},"properties":{"geoid":"33021","state":"33","district":"21","name":"State Senate District 21","chamber":"Senate"}},{"type":"Feature","geometry":{"type":"Polygon","coordinates":[[[-71.387,42.6989],[-71.2946,42.697],[-71.2679,42.726],[-71.2454,42.7425],[-71.2238,42.7465],[-71.1818,42.7373],[-71.1861,42.7909],[-71.1666,42.8089],[-71.1328,42.8215],[-71.0644,42.8063],[-71.054,42.8334],[-71.0868,42.8492],[-71.0792,42.8576],[-71.0912,42.8597],[-71.1165,42.8799],[-71.1252,42.8777],[-71.1438,42.8535],[-71.181,42.856],[-71.1863,42.8603],[-71.1904,42.8553],[-71.1978,42.8667],[-71.2022,42.8661],[-71.2085,42.8592],[-71.2069,42.8522],[-71.2425,42.8481],[-71.237,42.8222],[-71.2843,42.7601],[-71.351,42.7722],[-71.353,42.7832],[-71.3644,42.7852],[-71.387,42.6989]]]},"properties":{"geoid":"33022","state":"33","district":"22","name":"State Senate District 22","chamber":"Senate"}},{"type":"Feature","geometry":{"type":"Polygon","coordinates":[[[-71.31,42.9386],[-71.311,42.9357],[-71.2196,42.9199],[-71.2194,42.9123],[-71.1958,42.9106],[-71.1635,42.8987],[-71.1065,42.8954],[-71.1252,42.8777],[-71.1165,42.8799],[-71.0912,42.8597],[-71.0792,42.8576],[-71.0868,42.8492],[-71.054,42.8334],[-71.0449,42.8487],[-71.0312,42.8591],[-70.967,42.8688],[-70.9296,42.885],[-70.9035,42.8868],[-70.8856,42.8828],[-70.8477,42.8609],[-70.8138,42.8723],[-70.8114,42.8886],[-70.8225,42.8976],[-70.8305,42.8982],[-70.8292,42.8886],[-70.8392,42.9013],[-70.8595,42.9055],[-70.9034,42.9022],[-70.9177,42.9067],[-70.926,42.9606],[-71.0058,42.9586],[-71.0078,42.968],[-70.9999,42.9699],[-71.0138,43.0341],[-71.0127,43.082],[-71.1218,43.0814],[-71.1679,42.9845],[-71.2677,43.0025],[-71.2613,43.016],[-71.2881,43.0214],[-71.2981,42.9829],[-71.294,42.9823],[-71.31,42.9386]]]},"properties":{"geoid":"33023","state":"33","district":"23","name":"State Senate District 23","chamber":"Senate"}},{"type":"Feature","geometry":{"type":"Polygon","coordinates":[[[-71.0138,43.0339],[-70.9999,42.97],[-71.0078,42.968],[-71.0058,42.9586],[-70.926,42.9606],[-70.9177,42.9067],[-70.9034,42.9022],[-70.8595,42.9055],[-70.84,42.9015],[-70.8292,42.8886],[-70.8305,42.8982],[-70.8225,42.8976],[-70.8114,42.8886],[-70.807,42.9114],[-70.7936,42.9178],[-70.7928,42.9377],[-70.7876,42.9367],[-70.7702,42.9556],[-70.7565,42.9835],[-70.7366,43.0004],[-70.6321,42.9667],[-70.6056,42.9722],[-70.6118,42.9794],[-70.6307,42.9853],[-70.7159,43.0554],[-70.7323,43.0595],[-70.7819,43.0135],[-70.8099,43.0201],[-70.8181,43.0627],[-70.8344,43.059],[-70.8571,43.063],[-70.88,43.0771],[-70.9085,43.0592],[-70.9177,43.044],[-70.9362,43.0346],[-70.9332,43.021],[-70.9476,43.0192],[-70.9578,43.0248],[-71.0138,43.0339]]]},"properties":{"geoid":"33024","state":"33","district":"24","name":"State Senate District 24","chamber":"Senate"}},{"type":"Feature","geometry":{"type":"Polygon","coordinates":[[[-70.8141,42.8769],[-70.8138,42.8723],[-70.735,42.8747],[-70.7273,42.8936],[-70.726,42.9285],[-70.709,42.9381],[-70.6944,42.9568],[-70.6809,42.9369],[-70.6551,42.9221],[-70.6107,42.9125],[-70.5751,42.9171],[-70.5841,42.943],[-70.6056,42.9722],[-70.6321,42.9667],[-70.7366,43.0004],[-70.7565,42.9835],[-70.7702,42.9556],[-70.7876,42.9367],[-70.7928,42.9377],[-70.7936,42.9178],[-70.807,42.9114],[-70.8141,42.8769]]]},"properties":{"geoid":"33ZZZ","state":"33","district":"State Senate Districts not defined","name":"State Senate Districts not defined","chamber":"Senate"}}]}