{"type":"FeatureCollection","features":[{"type":"Feature","geometry":{"type":"Polygon","coordinates":[[[-75.4448,39.3551],[-75.321,39.2514],[-75.1917,39.079],[-75.1685,39.0562],[-75.0151,38.7887],[-74.908,38.8793],[-74.8243,38.8963],[-74.7739,38.9428],[-74.7496,38.9541],[-74.7334,38.9677],[-74.7156,39.0092],[-74.6822,39.0498],[-74.6616,39.0613],[-74.6469,39.0762],[-74.6399,39.0947],[-74.6443,39.1148],[-74.6246,39.1436],[-74.5652,39.2106],[-74.524,39.2403],[-74.5085,39.261],[-74.4649,39.2982],[-74.5391,39.2982],[-74.546,39.3022],[-74.5654,39.2986],[-74.5882,39.3101],[-74.6206,39.2926],[-74.6401,39.296],[-74.6438,39.3022],[-74.6566,39.3074],[-74.6544,39.3184],[-74.6652,39.3238],[-74.6738,39.3209],[-74.6742,39.3284],[-74.6993,39.3317],[-74.7002,39.3416],[-74.7129,39.3525],[-74.715,39.3662],[-74.7218,39.369],[-74.7195,39.3761],[-74.7238,39.386],[-74.7179,39.3954],[-74.7185,39.4131],[-74.713,39.426],[-74.7213,39.4336],[-74.7236,39.4461],[-74.8567,39.4208],[-74.856,39.4242],[-74.8717,39.4358],[-75.0619,39.5687],[-75.0745,39.5445],[-75.0711,39.5315],[-75.0798,39.5012],[-75.0732,39.4853],[-75.0806,39.4717],[-75.0845,39.4441],[-75.1079,39.4343],[-75.1501,39.4283],[-75.1838,39.4375],[-75.2063,39.4344],[-75.2119,39.4557],[-75.2323,39.4443],[-75.2473,39.4475],[-75.253,39.4441],[-75.2512,39.4162],[-75.2409,39.4098],[-75.2317,39.4108],[-75.232,39.4028],[-75.2267,39.3997],[-75.2277,39.382],[-75.26,39.3765],[-75.2618,39.3821],[-75.2687,39.3792],[-75.2729,39.386],[-75.2764,39.3792],[-75.2843,39.3818],[-75.2931,39.3745],[-75.2979,39.382],[-75.3057,39.3815],[-75.3088,39.3893],[-75.3194,39.3898],[-75.3224,39.3814],[-75.3332,39.3867],[-75.3308,39.3799],[-75.3343,39.3777],[-75.3494,39.3827],[-75.3546,39.3778],[-75.3489,39.3753],[-75.3484,39.3697],[-75.3561,39.3683],[-75.3555,39.3611],[-75.3662,39.3558],[-75.3567,39.3508],[-75.3637,39.3471],[-75.357,39.3441],[-75.3597,39.339],[-75.37,39.3517],[-75.3917,39.3598],[-75.3942,39.3721],[-75.4023,39.3811],[-75.4448,39.3551]]]},"properties":{"geoid":"34001","state":"34","district":"01","name":"State Senate District 1","chamber":"Senate"}},{"type":"Feature","geometry":{"type":"Polygon","coordinates":[[[-74.8699,39.5239],[-74.8377,39.4244],[-74.7236,39.4461],[-74.7213,39.4336],[-74.7129,39.4251],[-74.7184,39.4134],[-74.7179,39.3954],[-74.7238,39.3864],[-74.7195,39.3761],[-74.7219,39.3695],[-74.715,39.3662],[-74.7169,39.3604],[-74.7093,39.3472],[-74.7002,39.3416],[-74.7007,39.3331],[-74.6742,39.3284],[-74.6735,39.3208],[-74.6657,39.3239],[-74.655,39.3188],[-74.6566,39.3074],[-74.6438,39.3022],[-74.6401,39.296],[-74.6241,39.2924],[-74.5887,39.3101],[-74.5654,39.2986],[-74.546,39.3022],[-74.5391,39.2982],[-74.4649,39.2982],[-74.3746,39.3175],[-74.3625,39.3258],[-74.35,39.3458],[-74.3254,39.3623],[-74.2873,39.3983],[-74.2659,39.4224],[-74.2321,39.4752],[-74.2965,39.4753],[-74.3126,39.5001],[-74.3264,39.5063],[-74.3542,39.5056],[-74.3808,39.4985],[-74.4023,39.5388],[-74.4162,39.5498],[-74.4175,39.5574],[-74.438,39.5538],[-74.4334,39.5438],[-74.438,39.5413],[-74.4457,39.5464],[-74.4463,39.5589],[-74.4521,39.5575],[-74.4573,39.5473],[-74.463,39.5564],[-74.474,39.5512],[-74.4829,39.5585],[-74.4934,39.5557],[-74.4955,39.562],[-74.5159,39.5743],[-74.5287,39.5679],[-74.5745,39.5722],[-74.6368,39.5185],[-74.6595,39.5343],[-74.6742,39.5272],[-74.7804,39.6012],[-74.8699,39.5239]]]},"properties":{"geoid":"34002","state":"34","district":"02","name":"State Senate District 2","chamber":"Senate"}},{"type":"Feature","geometry":{"type":"Polygon","coordinates":[[[-75.5636,39.4833],[-75.5605,39.4556],[-75.4448,39.3551],[-75.4023,39.3811],[-75.3942,39.3721],[-75.3917,39.3598],[-75.37,39.3517],[-75.3599,39.339],[-75.3565,39.3431],[-75.3637,39.3471],[-75.3567,39.3508],[-75.3662,39.3558],[-75.3555,39.3611],[-75.3561,39.3683],[-75.3484,39.3697],[-75.3489,39.3753],[-75.3546,39.3778],[-75.3494,39.3827],[-75.3343,39.3777],[-75.3308,39.3799],[-75.3332,39.3867],[-75.3224,39.3814],[-75.3194,39.3898],[-75.3088,39.3893],[-75.3057,39.3815],[-75.2979,39.382],[-75.2931,39.3745],[-75.2843,39.3818],[-75.2764,39.3792],[-75.2729,39.386],[-75.2687,39.3792],[-75.2618,39.3821],[-75.26,39.3765],[-75.2269,39.3826],[-75.2267,39.3997],[-75.232,39.4028],[-75.2317,39.4108],[-75.2409,39.4098],[-75.2512,39.4162],[-75.253,39.4441],[-75.2473,39.4475],[-75.2323,39.4443],[-75.2119,39.4557],[-75.2063,39.4344],[-75.1838,39.4375],[-75.1501,39.4283],[-75.1079,39.4343],[-75.0845,39.4441],[-75.0806,39.4717],[-75.0732,39.4853],[-75.0798,39.5012],[-75.0711,39.5315],[-75.0745,39.5445],[-75.0619,39.5687],[-75.134,39.6204],[-75.1079,39.6384],[-75.0317,39.6627],[-75.0865,39.7006],[-75.0921,39.7152],[-75.121,39.7442],[-75.1138,39.7616],[-75.1521,39.783],[-75.1381,39.7807],[-75.1446,39.8026],[-75.1529,39.8019],[-75.1593,39.7919],[-75.172,39.795],[-75.1606,39.8242],[-75.1634,39.8328],[-75.1711,39.8354],[-75.1675,39.8469],[-75.1552,39.8413],[-75.1469,39.8552],[-75.1427,39.8513],[-75.1354,39.8618],[-75.1303,39.8563],[-75.1127,39.8626],[-75.118,39.8675],[-75.1188,39.8628],[-75.1244,39.8718],[-75.1209,39.873],[-75.1314,39.8773],[-75.1288,39.8829],[-75.139,39.8879],[-75.187,39.8806],[-75.2286,39.8586],[-75.2719,39.8491],[-75.3418,39.8461],[-75.415,39.802],[-75.4054,39.7964],[-75.4383,39.7844],[-75.4507,39.7751],[-75.4639,39.7608],[-75.4757,39.7337],[-75.4764,39.7162],[-75.4884,39.7147],[-75.4963,39.701],[-75.5099,39.6939],[-75.5155,39.6663],[-75.5588,39.63],[-75.5535,39.6018],[-75.5277,39.5841],[-75.5147,39.5809],[-75.512,39.5673],[-75.534,39.5407],[-75.5268,39.5314],[-75.5301,39.5054],[-75.5268,39.4994],[-75.5591,39.4958],[-75.5636,39.4833]]]},"properties":{"geoid":"34003","state":"34","district":"03","name":"State Senate District 3","chamber":"Senate"}},{"type":"Feature","geometry":{"type":"Polygon","coordinates":[[[-75.134,39.6204],[-74.8717,39.4358],[-74.856,39.4242],[-74.8567,39.4208],[-74.8377,39.4244],[-74.8699,39.5239],[-74.8259,39.5617],[-74.8844,39.6022],[-74.7362,39.7298],[-74.7726,39.7506],[-74.8061,39.783],[-74.8202,39.7882],[-74.8432,39.7899],[-74.8883,39.7818],[-74.9024,39.791],[-74.9132,39.7768],[-74.9395,39.7781],[-74.9478,39.7848],[-74.9684,39.7671],[-74.985,39.778],[-75.008,39.7796],[-75.0145,39.7962],[-75.0237,39.8042],[-75.0298,39.8253],[-75.0388,39.8295],[-75.0283,39.8318],[-75.0295,39.8418],[-75.0374,39.8425],[-75.0417,39.8526],[-75.0529,39.8498],[-75.0867,39.8387],[-75.0827,39.8272],[-75.0887,39.8142],[-75.0754,39.804],[-75.0914,39.7932],[-75.0929,39.7869],[-75.1297,39.768],[-75.1138,39.7616],[-75.121,39.7442],[-75.0921,39.7152],[-75.0865,39.7006],[-75.0317,39.6627],[-75.1079,39.6384],[-75.134,39.6204]]]},"properties":{"geoid":"34004","state":"34","district":"04","name":"State Senate District 4","chamber":"Senate"}},{"type":"Feature","geometry":{"type":"Polygon","coordinates":[[[-75.172,39.7951],[-75.1593,39.7919],[-75.1529,39.8019],[-75.1446,39.8026],[-75.1381,39.7807],[-75.1521,39.783],[-75.1282,39.7685],[-75.1176,39.7708],[-75.1129,39.7786],[-75.0929,39.7869],[-75.0914,39.7932],[-75.077,39.8019],[-75.0757,39.8049],[-75.0887,39.8142],[-75.0827,39.8272],[-75.0869,39.8385],[-75.0492,39.8507],[-75.0493,39.8587],[-75.0411,39.8623],[-75.0472,39.8703],[-75.0373,39.8749],[-75.0376,39.8843],[-75.0466,39.8836],[-75.0652,39.9014],[-75.0785,39.8945],[-75.0915,39.8941],[-75.0895,39.8887],[-75.1032,39.8954],[-75.0948,39.9015],[-75.097,39.9083],[-75.0735,39.9101],[-75.0699,39.9046],[-75.0666,39.91],[-75.059,39.9093],[-75.0562,39.9127],[-75.0661,39.9258],[-75.0474,39.9468],[-75.0133,39.9542],[-75.0202,39.9683],[-75.0101,39.9798],[-75.0189,39.9896],[-75.0364,39.9961],[-75.0606,39.9915],[-75.0745,39.9789],[-75.1051,39.9716],[-75.1311,39.9589],[-75.1359,39.9324],[-75.1293,39.9074],[-75.139,39.8879],[-75.1275,39.8815],[-75.1321,39.8783],[-75.1209,39.873],[-75.1244,39.8718],[-75.1188,39.8628],[-75.118,39.8675],[-75.1127,39.8626],[-75.1303,39.8563],[-75.1354,39.8618],[-75.1427,39.8513],[-75.1469,39.8552],[-75.1552,39.8413],[-75.1675,39.8469],[-75.1711,39.8354],[-75.1634,39.8328],[-75.1606,39.8242],[-75.172,39.7951]]]},"properties":{"geoid":"34005","state":"34","district":"05","name":"State Senate District 5","chamber":"Senate"}},{"type":"Feature","geometry":{"type":"Polygon","coordinates":[[[-75.1037,39.8926],[-75.0895,39.8887],[-75.0915,39.8941],[-75.0785,39.8945],[-75.0652,39.9014],[-75.0466,39.8836],[-75.0377,39.8846],[-75.0373,39.8749],[-75.0472,39.8703],[-75.0411,39.8623],[-75.0493,39.8587],[-75.0498,39.8522],[-75.0417,39.8526],[-75.0374,39.8425],[-75.0295,39.8418],[-75.0283,39.8318],[-75.0388,39.8295],[-75.0298,39.8253],[-75.0237,39.8042],[-75.0145,39.7962],[-75.008,39.7796],[-74.985,39.778],[-74.9684,39.7671],[-74.9478,39.7848],[-74.9395,39.7781],[-74.9132,39.7768],[-74.9024,39.791],[-74.9307,39.8859],[-74.9496,39.8983],[-74.9629,39.9202],[-74.9839,39.9268],[-74.9668,39.938],[-74.9686,39.9452],[-75.0054,39.973],[-75.0193,39.9674],[-75.0133,39.9542],[-75.0474,39.9468],[-75.0661,39.9258],[-75.0562,39.9127],[-75.059,39.9093],[-75.0666,39.91],[-75.0699,39.9046],[-75.0735,39.9101],[-75.097,39.9083],[-75.0948,39.9015],[-75.1037,39.8926]]]},"properties":{"geoid":"34006","state":"34","district":"06","name":"State Senate District 6","chamber":"Senate"}},{"type":"Feature","geometry":{"type":"Polygon","coordinates":[[[-75.0601,39.9926],[-75.0364,39.9961],[-75.0189,39.9896],[-75.0101,39.9798],[-75.0201,39.968],[-75.0054,39.973],[-74.9827,39.9535],[-74.975,39.9531],[-74.9668,39.938],[-74.984,39.9269],[-74.9573,39.9143],[-74.8626,39.9198],[-74.8624,39.9624],[-74.8569,39.9716],[-74.8601,39.976],[-74.8484,39.9914],[-74.8724,39.9977],[-74.8678,40.0087],[-74.8723,40.0099],[-74.8646,40.012],[-74.8581,40.0323],[-74.8246,40.0247],[-74.8214,40.0364],[-74.7988,40.0407],[-74.7974,40.0441],[-74.8089,40.0508],[-74.812,40.0766],[-74.8079,40.0712],[-74.799,40.0722],[-74.7977,40.0617],[-74.7899,40.0669],[-74.7855,40.0607],[-74.7833,40.0661],[-74.7735,40.064],[-74.7542,40.0978],[-74.7629,40.104],[-74.7632,40.1117],[-74.7696,40.1127],[-74.7623,40.1219],[-74.7422,40.1271],[-74.7229,40.1132],[-74.6801,40.1255],[-74.6821,40.1636],[-74.6744,40.1735],[-74.6962,40.1789],[-74.6953,40.1827],[-74.7101,40.1813],[-74.7129,40.1748],[-74.7084,40.1718],[-74.7101,40.1667],[-74.7042,40.1687],[-74.7065,40.1613],[-74.7406,40.1355],[-74.7597,40.1338],[-74.7848,40.1204],[-74.8225,40.1268],[-74.8359,40.1035],[-74.8546,40.0933],[-74.8618,40.0835],[-74.9389,40.0661],[-74.9806,40.0459],[-75.0149,40.0199],[-75.048,40.0097],[-75.0601,39.9926]]]},"properties":{"geoid":"34007","state":"34","district":"07","name":"State Senate District 7","chamber":"Senate"}},{"type":"Feature","geometry":{"type":"Polygon","coordinates":[[[-74.9573,39.9143],[-74.9496,39.8983],[-74.9307,39.8859],[-74.903,39.7911],[-74.8948,39.7833],[-74.8762,39.7815],[-74.8432,39.7899],[-74.8194,39.788],[-74.7908,39.7713],[-74.7726,39.7506],[-74.7362,39.7298],[-74.8844,39.6022],[-74.8259,39.5617],[-74.7804,39.6012],[-74.6742,39.5272],[-74.6595,39.5343],[-74.6368,39.5185],[-74.5745,39.5722],[-74.5287,39.5679],[-74.5153,39.5742],[-74.4955,39.562],[-74.4934,39.5557],[-74.4829,39.5585],[-74.474,39.5512],[-74.463,39.5564],[-74.4573,39.5473],[-74.4467,39.5591],[-74.4457,39.5464],[-74.4375,39.5412],[-74.4335,39.5441],[-74.4384,39.5535],[-74.4174,39.5573],[-74.4141,39.5624],[-74.4188,39.5686],[-74.4052,39.5696],[-74.3981,39.5766],[-74.3904,39.5965],[-74.3897,39.7733],[-74.5404,40.0578],[-74.546,40.0516],[-74.5755,40.0495],[-74.5918,40.0386],[-74.6278,40.0397],[-74.6179,40.06],[-74.6116,40.1072],[-74.5956,40.1378],[-74.6218,40.1411],[-74.6235,40.1491],[-74.6337,40.149],[-74.6623,40.1652],[-74.68,40.1681],[-74.6801,40.1255],[-74.7229,40.1132],[-74.7422,40.1271],[-74.7623,40.1219],[-74.7696,40.1127],[-74.7632,40.1117],[-74.7629,40.104],[-74.7542,40.0978],[-74.7735,40.064],[-74.7833,40.0661],[-74.7855,40.0607],[-74.7899,40.0669],[-74.7977,40.0617],[-74.799,40.0722],[-74.8079,40.0712],[-74.812,40.0766],[-74.8089,40.0508],[-74.7974,40.0441],[-74.7988,40.0407],[-74.8214,40.0364],[-74.8246,40.0247],[-74.8581,40.0323],[-74.8646,40.012],[-74.8712,40.0126],[-74.8678,40.0087],[-74.8724,39.9977],[-74.8484,39.9914],[-74.8601,39.976],[-74.8569,39.9716],[-74.8624,39.9624],[-74.8626,39.9198],[-74.9573,39.9143]]]},"properties":{"geoid":"34008","state":"34","district":"08","name":"State Senate District 8","chamber":"Senate"}},{"type":"Feature","geometry":{"type":"Polygon","coordinates":[[[-74.4969,39.9731],[-74.3897,39.7733],[-74.3904,39.596],[-74.4008,39.5722],[-74.419,39.5684],[-74.4141,39.5624],[-74.4167,39.5505],[-74.4024,39.5391],[-74.3808,39.4985],[-74.3542,39.5056],[-74.3264,39.5063],[-74.3126,39.5001],[-74.2965,39.4753],[-74.2321,39.4752],[-74.1832,39.533],[-74.0965,39.6499],[-74.0439,39.7364],[-74.0331,39.77],[-74.0199,39.8751],[-73.9996,39.9768],[-73.9654,40.0976],[-74.0335,40.0995],[-74.0768,39.9127],[-74.0858,39.9138],[-74.0809,39.9239],[-74.0843,39.9307],[-74.0806,39.9457],[-74.1337,39.9332],[-74.1685,39.9435],[-74.1853,39.9435],[-74.1893,39.9481],[-74.2049,39.9351],[-74.2211,39.9326],[-74.2261,39.9468],[-74.2116,39.9435],[-74.2033,39.9479],[-74.2714,39.9877],[-74.2327,39.9988],[-74.2313,40.0025],[-74.2538,40.0339],[-74.2539,40.0444],[-74.2654,40.0556],[-74.4969,39.9731]]]},"properties":{"geoid":"34009","state":"34","district":"09","name":"State Senate District 9","chamber":"Senate"}},{"type":"Feature","geometry":{"type":"Polygon","coordinates":[[[-74.2714,39.9877],[-74.2033,39.9479],[-74.2116,39.9435],[-74.2261,39.9468],[-74.2211,39.9326],[-74.2049,39.9351],[-74.1893,39.9481],[-74.1853,39.9435],[-74.1685,39.9435],[-74.1337,39.9332],[-74.0806,39.9457],[-74.0843,39.9307],[-74.0809,39.9239],[-74.0858,39.9138],[-74.0768,39.9127],[-74.0355,40.0943],[-74.0317,40.101],[-74.0072,40.0977],[-74.0283,40.1174],[-74.0148,40.1675],[-74.0518,40.1604],[-74.0539,40.1445],[-74.0422,40.1407],[-74.0463,40.1312],[-74.0521,40.1327],[-74.0841,40.0989],[-74.0945,40.1081],[-74.0957,40.1285],[-74.1075,40.137],[-74.1503,40.0989],[-74.1543,40.0996],[-74.151,40.0797],[-74.1565,40.0788],[-74.1604,40.0596],[-74.1591,40.0239],[-74.2541,40.0596],[-74.2654,40.0556],[-74.2539,40.0444],[-74.2538,40.0339],[-74.2313,40.0025],[-74.2327,39.9988],[-74.2714,39.9877]]]},"properties":{"geoid":"34010","state":"34","district":"10","name":"State Senate District 10","chamber":"Senate"}},{"type":"Feature","geometry":{"type":"Polygon","coordinates":[[[-74.4062,40.1728],[-74.2615,40.167],[-74.2664,40.169],[-74.2702,40.2038],[-74.2239,40.2612],[-74.125,40.2496],[-74.1248,40.2219],[-74.1096,40.2117],[-74.0628,40.1967],[-74.0567,40.188],[-74.0414,40.1815],[-74.0317,40.1887],[-74.0282,40.1884],[-74.0298,40.1828],[-74.0256,40.1853],[-74.0213,40.1975],[-74.005,40.195],[-74.0283,40.1174],[-74.0072,40.0977],[-73.9654,40.0976],[-73.9627,40.1199],[-73.8982,40.2744],[-73.8908,40.3107],[-73.9773,40.3222],[-73.9972,40.3298],[-73.9974,40.3167],[-74.0128,40.3062],[-74.0016,40.293],[-74.0029,40.2764],[-74.0258,40.2722],[-74.0294,40.2835],[-74.0357,40.2848],[-74.0385,40.2915],[-74.0326,40.2988],[-74.0511,40.315],[-74.0409,40.3204],[-74.043,40.326],[-74.0637,40.3383],[-74.0511,40.348],[-74.019,40.3605],[-74.0337,40.3757],[-74.0674,40.3567],[-74.0767,40.3562],[-74.0843,40.3442],[-74.0818,40.3399],[-74.0903,40.3396],[-74.0874,40.3329],[-74.0955,40.3333],[-74.0961,40.3254],[-74.1107,40.3241],[-74.1194,40.3165],[-74.131,40.3169],[-74.1413,40.3244],[-74.1707,40.3274],[-74.1752,40.3342],[-74.1926,40.3396],[-74.1938,40.3448],[-74.2131,40.3438],[-74.2253,40.3395],[-74.221,40.3331],[-74.2229,40.2781],[-74.2619,40.2951],[-74.2903,40.2936],[-74.3151,40.2623],[-74.3327,40.2223],[-74.4062,40.1728]]]},"properties":{"geoid":"34011","state":"34","district":"11","name":"State Senate District 11","chamber":"Senate"}},{"type":"Feature","geometry":{"type":"Polygon","coordinates":[[[-74.6278,40.0397],[-74.5918,40.0386],[-74.5755,40.0495],[-74.546,40.0516],[-74.5404,40.0578],[-74.4969,39.9731],[-74.2541,40.0596],[-74.2586,40.1203],[-74.2448,40.1133],[-74.2416,40.13],[-74.2511,40.1465],[-74.2598,40.1491],[-74.261,40.1668],[-74.4067,40.1724],[-74.3327,40.2223],[-74.3151,40.2623],[-74.2903,40.2936],[-74.2825,40.3132],[-74.3274,40.3446],[-74.2479,40.4072],[-74.24,40.4042],[-74.2451,40.3992],[-74.2388,40.3978],[-74.2449,40.3928],[-74.233,40.3907],[-74.2336,40.3958],[-74.228,40.3962],[-74.2335,40.4065],[-74.224,40.4139],[-74.2228,40.4257],[-74.2375,40.4292],[-74.2394,40.4248],[-74.2478,40.4297],[-74.2364,40.4434],[-74.2265,40.4446],[-74.2231,40.4495],[-74.2282,40.4776],[-74.2438,40.4833],[-74.2697,40.4551],[-74.2731,40.443],[-74.3064,40.4586],[-74.3245,40.439],[-74.3615,40.4166],[-74.3573,40.4141],[-74.3675,40.4127],[-74.3695,40.4029],[-74.3811,40.4091],[-74.4094,40.4008],[-74.3989,40.3923],[-74.42,40.3836],[-74.4239,40.3865],[-74.4387,40.3713],[-74.4284,40.3667],[-74.4265,40.3746],[-74.4138,40.3747],[-74.3935,40.3855],[-74.3936,40.382],[-74.3815,40.3832],[-74.3671,40.3666],[-74.3729,40.3354],[-74.3525,40.325],[-74.3942,40.2884],[-74.3935,40.2795],[-74.461,40.2511],[-74.4874,40.2531],[-74.4815,40.2429],[-74.5433,40.2167],[-74.5622,40.1903],[-74.5712,40.1853],[-74.5937,40.1794],[-74.5996,40.1868],[-74.6146,40.1824],[-74.5878,40.1383],[-74.5953,40.1383],[-74.6116,40.1072],[-74.6179,40.06],[-74.6278,40.0397]]]},"properties":{"geoid":"34012","state":"34","district":"12","name":"State Senate District 12","chamber":"Senate"}},{"type":"Feature","geometry":{"type":"Polygon","coordinates":[[[-74.3274,40.3446],[-74.2825,40.3132],[-74.2903,40.2936],[-74.2619,40.2951],[-74.2229,40.2781],[-74.221,40.3331],[-74.2253,40.3395],[-74.1949,40.3451],[-74.1926,40.3396],[-74.1752,40.3342],[-74.1707,40.3274],[-74.1413,40.3244],[-74.131,40.3169],[-74.1194,40.3165],[-74.1107,40.3241],[-74.0961,40.3254],[-74.0955,40.3333],[-74.0874,40.3329],[-74.0903,40.3396],[-74.0818,40.3399],[-74.0843,40.3442],[-74.0767,40.3562],[-74.0674,40.3567],[-74.0337,40.3757],[-74.019,40.3605],[-74.0511,40.348],[-74.0637,40.3383],[-74.043,40.326],[-74.0409,40.3204],[-74.0511,40.315],[-74.0326,40.2988],[-74.0385,40.2915],[-74.0357,40.2848],[-74.0294,40.2835],[-74.0276,40.2727],[-74.0029,40.2764],[-74.0016,40.293],[-74.0128,40.3062],[-73.9974,40.3167],[-73.9972,40.3298],[-73.9773,40.3222],[-73.8908,40.3107],[-73.8851,40.4528],[-73.8884,40.484],[-73.9779,40.5191],[-74.2282,40.4776],[-74.2231,40.4495],[-74.2265,40.4446],[-74.2364,40.4434],[-74.2478,40.4297],[-74.2394,40.4248],[-74.2375,40.4292],[-74.2228,40.4257],[-74.224,40.4139],[-74.2335,40.4065],[-74.228,40.3962],[-74.2336,40.3958],[-74.233,40.3907],[-74.2449,40.3928],[-74.2388,40.3978],[-74.2451,40.3992],[-74.24,40.4042],[-74.2479,40.4072],[-74.3274,40.3446]]]},"properties":{"geoid":"34013","state":"34","district":"13","name":"State Senate District 13","chamber":"Senate"}},{"type":"Feature","geometry":{"type":"Polygon","coordinates":[[[-74.7528,40.1984],[-74.7461,40.1857],[-74.7517,40.1833],[-74.7338,40.1745],[-74.7223,40.1607],[-74.7217,40.1502],[-74.7063,40.1618],[-74.7042,40.1687],[-74.7106,40.1674],[-74.7111,40.1807],[-74.7004,40.1837],[-74.6744,40.1736],[-74.6774,40.1661],[-74.6623,40.1652],[-74.6337,40.149],[-74.6235,40.1491],[-74.6218,40.1411],[-74.588,40.1382],[-74.6146,40.1824],[-74.5996,40.1868],[-74.5937,40.1794],[-74.5712,40.1853],[-74.5622,40.1903],[-74.5433,40.2167],[-74.4815,40.2429],[-74.4874,40.2531],[-74.461,40.2511],[-74.3935,40.2795],[-74.3942,40.2884],[-74.3525,40.325],[-74.3729,40.3354],[-74.3671,40.3666],[-74.3815,40.3832],[-74.3936,40.382],[-74.3935,40.3855],[-74.4138,40.3747],[-74.4265,40.3746],[-74.4284,40.3667],[-74.4519,40.3776],[-74.4846,40.3386],[-74.5013,40.3398],[-74.5061,40.3284],[-74.5493,40.3364],[-74.5486,40.3441],[-74.5571,40.3468],[-74.5514,40.3576],[-74.5733,40.3634],[-74.5805,40.3577],[-74.5892,40.3581],[-74.6244,40.3652],[-74.631,40.3403],[-74.6232,40.3343],[-74.6225,40.3248],[-74.5855,40.3132],[-74.5829,40.3061],[-74.5734,40.3009],[-74.5674,40.2785],[-74.5993,40.2468],[-74.6077,40.2532],[-74.6499,40.2418],[-74.6667,40.2686],[-74.7069,40.2687],[-74.7145,40.2632],[-74.7193,40.2491],[-74.7313,40.2458],[-74.7386,40.2346],[-74.7288,40.2208],[-74.7374,40.2097],[-74.7326,40.2034],[-74.7528,40.1984]]]},"properties":{"geoid":"34014","state":"34","district":"14","name":"State Senate District 14","chamber":"Senate"}},{"type":"Feature","geometry":{"type":"Polygon","coordinates":[[[-75.0706,40.4573],[-75.0576,40.4173],[-75.0276,40.4038],[-74.9959,40.4104],[-74.9666,40.3982],[-74.9397,40.338],[-74.9083,40.3169],[-74.8806,40.3056],[-74.8647,40.2907],[-74.8423,40.2505],[-74.7714,40.2152],[-74.7518,40.1838],[-74.7461,40.1857],[-74.7528,40.1983],[-74.7326,40.2034],[-74.7374,40.2097],[-74.7288,40.2208],[-74.7395,40.2315],[-74.7378,40.2362],[-74.7308,40.2462],[-74.7193,40.2491],[-74.7145,40.2632],[-74.7069,40.2687],[-74.6667,40.2686],[-74.6499,40.2418],[-74.6077,40.2532],[-74.5993,40.2468],[-74.5674,40.2785],[-74.5751,40.3036],[-74.5829,40.3061],[-74.5856,40.3132],[-74.6003,40.3155],[-74.6033,40.3214],[-74.6222,40.3245],[-74.6302,40.3431],[-74.6469,40.3398],[-74.6564,40.3256],[-74.6846,40.3049],[-74.7825,40.4878],[-74.8176,40.4781],[-74.83,40.4602],[-74.8562,40.4417],[-74.8582,40.4459],[-74.8728,40.4407],[-74.8848,40.467],[-74.9008,40.4788],[-74.9223,40.4858],[-74.9364,40.5194],[-74.9538,40.5032],[-74.9908,40.5599],[-75.0497,40.5361],[-75.0668,40.5365],[-75.0627,40.4804],[-75.0706,40.4573]]]},"properties":{"geoid":"34015","state":"34","district":"15","name":"State Senate District 15","chamber":"Senate"}},{"type":"Feature","geometry":{"type":"Polygon","coordinates":[[[-74.9364,40.5194],[-74.9223,40.4858],[-74.9008,40.4788],[-74.8848,40.467],[-74.8728,40.4407],[-74.8582,40.4459],[-74.8562,40.4417],[-74.83,40.4602],[-74.8176,40.4781],[-74.7825,40.4878],[-74.6846,40.3049],[-74.6564,40.3256],[-74.6469,40.3398],[-74.6302,40.3431],[-74.6244,40.3652],[-74.5892,40.3581],[-74.5805,40.3577],[-74.5733,40.3634],[-74.5514,40.3576],[-74.5571,40.3468],[-74.5486,40.3441],[-74.5493,40.3364],[-74.5061,40.3284],[-74.5013,40.3398],[-74.4846,40.3386],[-74.4369,40.3922],[-74.4464,40.4067],[-74.4561,40.4056],[-74.4856,40.4209],[-74.5138,40.4127],[-74.5083,40.4269],[-74.5186,40.4291],[-74.5161,40.4317],[-74.5315,40.4414],[-74.585,40.4182],[-74.5883,40.3935],[-74.6025,40.3808],[-74.6202,40.3737],[-74.6179,40.3794],[-74.6372,40.4085],[-74.6328,40.4202],[-74.6275,40.4197],[-74.6172,40.4314],[-74.6141,40.4438],[-74.5722,40.4717],[-74.5871,40.5023],[-74.578,40.508],[-74.5768,40.5148],[-74.588,40.52],[-74.5893,40.528],[-74.6092,40.5274],[-74.6005,40.5324],[-74.6052,40.5422],[-74.6006,40.543],[-74.6025,40.5546],[-74.5986,40.5577],[-74.6169,40.5561],[-74.6238,40.5624],[-74.6371,40.5648],[-74.6547,40.5518],[-74.6787,40.5482],[-74.6879,40.5561],[-74.676,40.5658],[-74.6836,40.5852],[-74.6681,40.6047],[-74.6664,40.6146],[-74.6796,40.6228],[-74.6832,40.635],[-74.6983,40.632],[-74.6994,40.6226],[-74.7056,40.6217],[-74.7135,40.6308],[-74.7264,40.6322],[-74.724,40.6469],[-74.742,40.6547],[-74.763,40.6254],[-74.7669,40.6304],[-74.7583,40.6398],[-74.7657,40.6481],[-74.7614,40.6583],[-74.7672,40.6667],[-74.7761,40.6671],[-74.7877,40.6543],[-74.8265,40.6682],[-74.8431,40.6927],[-74.911,40.6767],[-74.9119,40.6701],[-74.9226,40.6678],[-74.9223,40.6525],[-74.9165,40.6526],[-74.9164,40.6487],[-74.9221,40.6374],[-74.9296,40.6368],[-74.929,40.6324],[-74.9168,40.6315],[-74.9172,40.6253],[-74.9096,40.6255],[-74.9145,40.6161],[-74.9011,40.6062],[-74.9053,40.5989],[-74.8913,40.5956],[-74.888,40.5789],[-74.8782,40.5794],[-74.9364,40.5194]]]},"properties":{"geoid":"34016","state":"34","district":"16","name":"State Senate District 16","chamber":"Senate"}},{"type":"Feature","geometry":{"type":"Polygon","coordinates":[[[-74.6373,40.4092],[-74.6179,40.3794],[-74.6202,40.3737],[-74.6162,40.3747],[-74.5882,40.3937],[-74.5842,40.4187],[-74.5315,40.4414],[-74.5161,40.4317],[-74.5186,40.4291],[-74.5083,40.4269],[-74.514,40.4128],[-74.4915,40.4178],[-74.4779,40.4243],[-74.4669,40.4402],[-74.4477,40.449],[-74.4497,40.4589],[-74.4451,40.4632],[-74.4335,40.4593],[-74.4181,40.4688],[-74.4197,40.4732],[-74.4118,40.4839],[-74.4021,40.4796],[-74.3928,40.4846],[-74.3985,40.4919],[-74.4116,40.4937],[-74.4307,40.4886],[-74.4463,40.5057],[-74.4395,40.516],[-74.4139,40.5301],[-74.4086,40.5438],[-74.4274,40.5465],[-74.4397,40.5594],[-74.4356,40.5618],[-74.4409,40.5941],[-74.4371,40.5975],[-74.4551,40.596],[-74.4578,40.5942],[-74.4524,40.5893],[-74.4597,40.5816],[-74.4689,40.5807],[-74.4697,40.5856],[-74.4813,40.5781],[-74.4795,40.5738],[-74.4986,40.5629],[-74.5198,40.5556],[-74.5356,40.5587],[-74.5786,40.5408],[-74.5899,40.5252],[-74.5768,40.5148],[-74.578,40.508],[-74.5871,40.5023],[-74.5723,40.4715],[-74.6143,40.4437],[-74.6187,40.4378],[-74.6152,40.4366],[-74.617,40.4317],[-74.6275,40.4197],[-74.6327,40.4204],[-74.6373,40.4092]]]},"properties":{"geoid":"34017","state":"34","district":"17","name":"State Senate District 17","chamber":"Senate"}},{"type":"Feature","geometry":{"type":"Polygon","coordinates":[[[-74.4856,40.4209],[-74.4561,40.4056],[-74.4464,40.4067],[-74.4369,40.3922],[-74.4519,40.3776],[-74.4387,40.3713],[-74.4239,40.3865],[-74.42,40.3836],[-74.3989,40.3923],[-74.4094,40.4008],[-74.3811,40.4091],[-74.3695,40.4029],[-74.3675,40.4127],[-74.3573,40.4141],[-74.3634,40.4189],[-74.356,40.4235],[-74.3566,40.4383],[-74.3697,40.4485],[-74.3716,40.4562],[-74.3784,40.4525],[-74.3757,40.4611],[-74.3862,40.4603],[-74.3792,40.4629],[-74.3821,40.469],[-74.3716,40.4813],[-74.3663,40.4794],[-74.3651,40.4708],[-74.3575,40.4738],[-74.3538,40.4828],[-74.3389,40.4825],[-74.3282,40.4879],[-74.3314,40.5119],[-74.3263,40.5244],[-74.3161,40.529],[-74.3289,40.547],[-74.3385,40.6057],[-74.4409,40.5941],[-74.4356,40.5619],[-74.4397,40.5594],[-74.4274,40.5465],[-74.4086,40.5438],[-74.4139,40.5301],[-74.4395,40.516],[-74.4463,40.5057],[-74.4307,40.4886],[-74.4116,40.4937],[-74.3985,40.4919],[-74.3925,40.4853],[-74.4021,40.4796],[-74.4118,40.4839],[-74.4197,40.4732],[-74.4181,40.4688],[-74.4335,40.4593],[-74.4451,40.4632],[-74.4497,40.4589],[-74.4477,40.449],[-74.4669,40.4402],[-74.4778,40.4244],[-74.4856,40.4209]]]},"properties":{"geoid":"34018","state":"34","district":"18","name":"State Senate District 18","chamber":"Senate"}},{"type":"Feature","geometry":{"type":"Polygon","coordinates":[[[-74.3862,40.4603],[-74.3757,40.4611],[-74.3784,40.4525],[-74.3716,40.4562],[-74.3697,40.4485],[-74.3566,40.4383],[-74.3536,40.4318],[-74.3615,40.4166],[-74.3245,40.439],[-74.3064,40.4586],[-74.2731,40.443],[-74.2697,40.4551],[-74.2438,40.4833],[-74.253,40.4867],[-74.2588,40.4989],[-74.2581,40.5087],[-74.246,40.521],[-74.2503,40.5423],[-74.2475,40.5494],[-74.2314,40.5592],[-74.218,40.5571],[-74.2033,40.593],[-74.2145,40.6041],[-74.2302,40.5988],[-74.2356,40.6025],[-74.2577,40.6023],[-74.2596,40.5973],[-74.291,40.5919],[-74.3053,40.6006],[-74.3029,40.6087],[-74.3385,40.6057],[-74.3289,40.547],[-74.3161,40.529],[-74.3263,40.5244],[-74.3314,40.5119],[-74.3282,40.4879],[-74.3389,40.4825],[-74.3538,40.4828],[-74.3575,40.4738],[-74.3651,40.4708],[-74.3663,40.4794],[-74.3716,40.4813],[-74.3821,40.469],[-74.3792,40.4629],[-74.3862,40.4603]]]},"properties":{"geoid":"34019","state":"34","district":"19","name":"State Senate District 19","chamber":"Senate"}},{"type":"Feature","geometry":{"type":"Polygon","coordinates":[[[-74.3141,40.6738],[-74.291,40.6732],[-74.284,40.6652],[-74.259,40.6726],[-74.2467,40.6632],[-74.2852,40.655],[-74.2644,40.6373],[-74.2325,40.6549],[-74.2007,40.6329],[-74.1856,40.646],[-74.1614,40.6441],[-74.1358,40.6756],[-74.1644,40.69],[-74.2015,40.6867],[-74.2092,40.6907],[-74.2246,40.6755],[-74.2293,40.6847],[-74.2373,40.6865],[-74.24,40.6958],[-74.2491,40.7002],[-74.2444,40.7113],[-74.2855,40.7223],[-74.294,40.7197],[-74.3011,40.7046],[-74.3111,40.7012],[-74.3065,40.6938],[-74.312,40.6867],[-74.3068,40.6806],[-74.3141,40.6738]]]},"properties":{"geoid":"34020","state":"34","district":"20","name":"State Senate District 20","chamber":"Senate"}},{"type":"Feature","geometry":{"type":"Polygon","coordinates":[[[-74.6795,40.7289],[-74.6757,40.6979],[-74.6485,40.6948],[-74.6446,40.6847],[-74.6366,40.682],[-74.6242,40.6494],[-74.5542,40.6051],[-74.5353,40.6056],[-74.532,40.5955],[-74.5157,40.5861],[-74.5122,40.5821],[-74.5259,40.5683],[-74.5267,40.5595],[-74.5198,40.5556],[-74.4813,40.5727],[-74.4813,40.5781],[-74.4697,40.5856],[-74.4689,40.5807],[-74.4597,40.5816],[-74.4524,40.5893],[-74.4578,40.5942],[-74.4551,40.596],[-74.4633,40.5992],[-74.4574,40.6023],[-74.465,40.6113],[-74.4417,40.6294],[-74.4084,40.6428],[-74.4017,40.6707],[-74.3873,40.6786],[-74.3611,40.6393],[-74.3374,40.6242],[-74.3251,40.6252],[-74.3128,40.6383],[-74.3207,40.6474],[-74.3125,40.6541],[-74.326,40.6562],[-74.3261,40.6678],[-74.3225,40.6768],[-74.3068,40.6806],[-74.312,40.6867],[-74.3065,40.6938],[-74.3111,40.7011],[-74.3011,40.7046],[-74.296,40.7124],[-74.3163,40.7193],[-74.3256,40.7171],[-74.3717,40.7396],[-74.3651,40.7498],[-74.3806,40.7551],[-74.3915,40.7521],[-74.4055,40.7399],[-74.43,40.746],[-74.4288,40.7496],[-74.44,40.7547],[-74.4364,40.766],[-74.4435,40.7716],[-74.4552,40.745],[-74.4494,40.7174],[-74.5137,40.6978],[-74.5262,40.7094],[-74.5241,40.7156],[-74.5312,40.7197],[-74.5309,40.7299],[-74.5494,40.7339],[-74.5487,40.7461],[-74.556,40.7583],[-74.6795,40.7289]]]},"properties":{"geoid":"34021","state":"34","district":"21","name":"State Senate District 21","chamber":"Senate"}},{"type":"Feature","geometry":{"type":"Polygon","coordinates":[[[-74.4649,40.6113],[-74.4574,40.6023],[-74.4633,40.5992],[-74.4585,40.5948],[-74.3029,40.6087],[-74.3053,40.6006],[-74.291,40.5919],[-74.2596,40.5973],[-74.2577,40.6023],[-74.2356,40.6025],[-74.2302,40.5988],[-74.2145,40.6041],[-74.2033,40.593],[-74.1996,40.5978],[-74.2048,40.6061],[-74.2014,40.634],[-74.2325,40.6549],[-74.2643,40.6372],[-74.2852,40.655],[-74.2467,40.6632],[-74.2483,40.667],[-74.259,40.6726],[-74.2854,40.6653],[-74.291,40.6732],[-74.3141,40.6737],[-74.3104,40.6785],[-74.3225,40.6768],[-74.3261,40.6678],[-74.326,40.6562],[-74.3125,40.6541],[-74.3207,40.6474],[-74.3128,40.6383],[-74.3251,40.6252],[-74.3374,40.6242],[-74.3611,40.6393],[-74.3871,40.6787],[-74.4017,40.6707],[-74.4084,40.6428],[-74.4417,40.6294],[-74.4649,40.6113]]]},"properties":{"geoid":"34022","state":"34","district":"22","name":"State Senate District 22","chamber":"Senate"}},{"type":"Feature","geometry":{"type":"Polygon","coordinates":[[[-75.2039,40.6915],[-75.1969,40.6813],[-75.1768,40.6757],[-75.2006,40.6479],[-75.1907,40.6359],[-75.1886,40.6246],[-75.2018,40.6159],[-75.1923,40.6027],[-75.1894,40.5887],[-75.1955,40.5786],[-75.1879,40.5703],[-75.1641,40.5641],[-75.1402,40.5754],[-75.1155,40.5729],[-75.0965,40.5651],[-75.0668,40.5365],[-75.0497,40.5361],[-74.9908,40.5599],[-74.9538,40.5032],[-74.8782,40.5794],[-74.888,40.5789],[-74.8913,40.5956],[-74.9053,40.5989],[-74.9011,40.6062],[-74.9145,40.6161],[-74.9096,40.6255],[-74.9172,40.6253],[-74.9168,40.6315],[-74.929,40.6324],[-74.9296,40.6368],[-74.9221,40.6374],[-74.9164,40.6487],[-74.9165,40.6526],[-74.9223,40.6525],[-74.9226,40.6678],[-74.9119,40.6701],[-74.911,40.6767],[-74.8431,40.6927],[-74.8265,40.6682],[-74.7877,40.6543],[-74.7761,40.6671],[-74.7672,40.6667],[-74.7614,40.6583],[-74.7657,40.6481],[-74.7583,40.6398],[-74.7669,40.6304],[-74.763,40.6254],[-74.742,40.6547],[-74.724,40.6469],[-74.7264,40.6322],[-74.7135,40.6308],[-74.7056,40.6217],[-74.6994,40.6226],[-74.6983,40.632],[-74.6832,40.635],[-74.6796,40.6228],[-74.6664,40.6146],[-74.6681,40.6047],[-74.6836,40.5852],[-74.676,40.5658],[-74.6879,40.5561],[-74.6781,40.5479],[-74.6539,40.5521],[-74.6371,40.5648],[-74.6238,40.5624],[-74.6169,40.5561],[-74.6022,40.5588],[-74.5986,40.5577],[-74.6025,40.5546],[-74.6006,40.543],[-74.6052,40.5422],[-74.6005,40.5324],[-74.6092,40.5274],[-74.5893,40.528],[-74.578,40.5411],[-74.5267,40.5595],[-74.5227,40.5734],[-74.5122,40.5821],[-74.532,40.5955],[-74.5353,40.6056],[-74.5542,40.6051],[-74.6242,40.6494],[-74.6366,40.682],[-74.6446,40.6847],[-74.6485,40.6948],[-74.6757,40.6979],[-74.6794,40.7301],[-74.7327,40.7201],[-74.771,40.736],[-74.8236,40.7422],[-74.8898,40.7877],[-74.8693,40.7951],[-74.8644,40.8032],[-74.8505,40.804],[-74.8302,40.8248],[-74.8313,40.8288],[-74.8186,40.8365],[-74.8238,40.8438],[-74.8216,40.8492],[-74.8019,40.8639],[-74.8083,40.8695],[-74.8068,40.8821],[-74.8144,40.8795],[-74.8187,40.8645],[-74.8283,40.8688],[-74.8392,40.8592],[-74.8555,40.8361],[-74.9142,40.8581],[-74.9283,40.9065],[-74.8808,40.9379],[-74.8227,40.9601],[-74.9669,41.0944],[-74.971,41.0853],[-75.0125,41.0672],[-75.0271,41.0395],[-75.0845,41.0159],[-75.1311,40.9905],[-75.1347,40.972],[-75.1202,40.9687],[-75.1178,40.953],[-75.0955,40.9241],[-75.0793,40.9139],[-75.0753,40.8942],[-75.0537,40.8737],[-75.051,40.8657],[-75.0638,40.8556],[-75.066,40.8476],[-75.0958,40.8471],[-75.097,40.8393],[-75.0839,40.8245],[-75.1002,40.8077],[-75.1085,40.7911],[-75.1231,40.7867],[-75.1344,40.7738],[-75.1716,40.7777],[-75.179,40.7619],[-75.1965,40.7516],[-75.1821,40.7315],[-75.2039,40.6915]]]},"properties":{"geoid":"34023","state":"34","district":"23","name":"State Senate District 23","chamber":"Senate"}},{"type":"Feature","geometry":{"type":"Polygon","coordinates":[[[-74.992,41.0904],[-74.9848,41.0885],[-74.9675,41.0953],[-74.8227,40.9601],[-74.8808,40.9379],[-74.9283,40.9065],[-74.9142,40.8581],[-74.8555,40.8361],[-74.8392,40.8592],[-74.8283,40.8688],[-74.8187,40.8645],[-74.8144,40.8795],[-74.8068,40.8821],[-74.8083,40.8695],[-74.8019,40.8639],[-74.8216,40.8492],[-74.8238,40.8438],[-74.8186,40.8365],[-74.8313,40.8288],[-74.8302,40.8248],[-74.8505,40.804],[-74.8644,40.8032],[-74.8693,40.7951],[-74.8898,40.7877],[-74.8236,40.7422],[-74.771,40.736],[-74.7257,40.7195],[-74.6573,40.7352],[-74.6587,40.7538],[-74.6368,40.7739],[-74.648,40.7832],[-74.6477,40.7944],[-74.6304,40.8016],[-74.6237,40.8182],[-74.6307,40.8248],[-74.628,40.8303],[-74.646,40.8374],[-74.5949,40.9024],[-74.6223,40.9395],[-74.6199,40.9313],[-74.6338,40.925],[-74.6371,40.9164],[-74.6359,40.9038],[-74.6299,40.8974],[-74.6567,40.8917],[-74.655,40.9017],[-74.6479,40.8991],[-74.6404,40.9111],[-74.6515,40.9121],[-74.6379,40.9172],[-74.6541,40.9273],[-74.6416,40.9336],[-74.6359,40.944],[-74.641,40.9632],[-74.6063,40.9984],[-74.3675,41.2032],[-74.6956,41.3576],[-74.726,41.3462],[-74.7543,41.3462],[-74.7673,41.3277],[-74.7956,41.3203],[-74.7922,41.3108],[-74.83,41.2874],[-74.8461,41.2634],[-74.8471,41.2528],[-74.8611,41.2436],[-74.8676,41.2286],[-74.8595,41.2188],[-74.8826,41.1804],[-74.9238,41.138],[-74.9445,41.13],[-74.9632,41.1147],[-74.98,41.1105],[-74.992,41.0904]]]},"properties":{"geoid":"34024","state":"34","district":"24","name":"State Senate District 24","chamber":"Senate"}},{"type":"Feature","geometry":{"type":"Polygon","coordinates":[[[-74.6599,40.7514],[-74.6573,40.7352],[-74.556,40.7583],[-74.5487,40.7461],[-74.5494,40.7339],[-74.5309,40.7299],[-74.5312,40.7197],[-74.5241,40.7156],[-74.5262,40.7094],[-74.5137,40.6978],[-74.4494,40.7174],[-74.4552,40.745],[-74.4435,40.7716],[-74.4364,40.766],[-74.44,40.7547],[-74.4288,40.7496],[-74.43,40.746],[-74.4055,40.7399],[-74.3927,40.7506],[-74.3971,40.7547],[-74.3945,40.7594],[-74.4013,40.7649],[-74.3979,40.7719],[-74.4054,40.7707],[-74.4101,40.7775],[-74.4124,40.7716],[-74.4295,40.7713],[-74.4407,40.7774],[-74.4342,40.7911],[-74.4355,40.8052],[-74.4604,40.8064],[-74.4754,40.8208],[-74.5088,40.8319],[-74.534,40.8331],[-74.5254,40.8788],[-74.4974,40.8953],[-74.5034,40.9078],[-74.494,40.9123],[-74.4918,40.9205],[-74.4796,40.9315],[-74.4716,40.927],[-74.4626,40.9339],[-74.4522,40.9348],[-74.4658,40.9234],[-74.4282,40.901],[-74.4223,40.9109],[-74.4059,40.9183],[-74.4024,40.9103],[-74.391,40.9194],[-74.4028,40.9361],[-74.4008,40.9596],[-74.3641,40.9579],[-74.3412,40.9464],[-74.3299,40.9525],[-74.3334,40.9547],[-74.3298,40.9573],[-74.3322,40.9902],[-74.328,40.9925],[-74.3285,41.0013],[-74.3366,41.0076],[-74.3502,41.004],[-74.3541,41.0131],[-74.363,41.0133],[-74.3464,41.061],[-74.2994,41.1439],[-74.2858,41.152],[-74.2797,41.1631],[-74.3675,41.2032],[-74.6324,40.9737],[-74.6416,40.9622],[-74.6353,40.9516],[-74.6364,40.9426],[-74.6416,40.9336],[-74.6541,40.9273],[-74.6379,40.9172],[-74.6515,40.9121],[-74.6404,40.9111],[-74.6479,40.8991],[-74.655,40.9017],[-74.6567,40.8917],[-74.6299,40.8974],[-74.6359,40.9038],[-74.6371,40.9164],[-74.6338,40.925],[-74.6199,40.9313],[-74.6223,40.9395],[-74.5949,40.9024],[-74.6454,40.8392],[-74.628,40.8303],[-74.6307,40.8248],[-74.6238,40.8167],[-74.6304,40.8016],[-74.6477,40.7944],[-74.648,40.7832],[-74.6368,40.7739],[-74.6599,40.7514]]]},"properties":{"geoid":"34025","state":"34","district":"25","name":"State Senate District 25","chamber":"Senate"}},{"type":"Feature","geometry":{"type":"Polygon","coordinates":[[[-74.534,40.8332],[-74.5092,40.832],[-74.4756,40.8209],[-74.4595,40.8061],[-74.441,40.8083],[-74.4327,40.8016],[-74.4407,40.7774],[-74.4295,40.7713],[-74.4124,40.7716],[-74.4101,40.7775],[-74.4054,40.7707],[-74.3979,40.7719],[-74.4013,40.7649],[-74.3921,40.7514],[-74.3806,40.7551],[-74.3596,40.7511],[-74.358,40.7561],[-74.3774,40.7614],[-74.3706,40.7643],[-74.373,40.7756],[-74.3668,40.7805],[-74.3671,40.7933],[-74.3491,40.8126],[-74.335,40.8171],[-74.3349,40.8278],[-74.3291,40.8312],[-74.3295,40.8416],[-74.3255,40.8434],[-74.3304,40.8487],[-74.3173,40.864],[-74.3372,40.8669],[-74.3344,40.8732],[-74.3404,40.8797],[-74.3399,40.8895],[-74.334,40.8967],[-74.3374,40.8996],[-74.3307,40.9086],[-74.3275,40.9053],[-74.3233,40.909],[-74.3185,40.9032],[-74.2924,40.9058],[-74.291,40.8996],[-74.2818,40.9008],[-74.2873,40.8985],[-74.2843,40.8948],[-74.272,40.8973],[-74.2735,40.9065],[-74.2669,40.9102],[-74.2716,40.9154],[-74.2842,40.9171],[-74.2893,40.9284],[-74.2811,40.9385],[-74.2772,40.9547],[-74.2824,40.9699],[-74.2775,40.9735],[-74.2819,40.9768],[-74.281,40.9914],[-74.2766,40.9941],[-74.2775,41.0029],[-74.2669,41.0139],[-74.2722,41.0179],[-74.2112,41.1337],[-74.2819,41.1622],[-74.2858,41.152],[-74.2994,41.1439],[-74.3464,41.061],[-74.363,41.0133],[-74.3541,41.0131],[-74.3502,41.004],[-74.3366,41.0076],[-74.3285,41.0013],[-74.328,40.9925],[-74.3322,40.9902],[-74.3298,40.9573],[-74.3334,40.9547],[-74.3299,40.9525],[-74.3412,40.9464],[-74.3641,40.9579],[-74.4008,40.9596],[-74.4028,40.9361],[-74.391,40.9194],[-74.4024,40.9103],[-74.4059,40.9183],[-74.4223,40.9109],[-74.4282,40.901],[-74.4658,40.9234],[-74.4522,40.9348],[-74.4626,40.9339],[-74.4716,40.927],[-74.4796,40.9315],[-74.4918,40.9205],[-74.494,40.9123],[-74.5034,40.9078],[-74.4974,40.8953],[-74.5254,40.8788],[-74.534,40.8332]]]},"properties":{"geoid":"34026","state":"34","district":"26","name":"State Senate District 26","chamber":"Senate"}},{"type":"Feature","geometry":{"type":"Polygon","coordinates":[[[-74.3774,40.7614],[-74.3575,40.7548],[-74.3676,40.7491],[-74.3648,40.746],[-74.372,40.7437],[-74.3717,40.7396],[-74.3256,40.7171],[-74.2972,40.7152],[-74.2852,40.7222],[-74.2921,40.7563],[-74.2678,40.7623],[-74.2553,40.7581],[-74.2369,40.7785],[-74.2185,40.7882],[-74.1827,40.8488],[-74.13,40.8199],[-74.1239,40.8226],[-74.1217,40.8341],[-74.1467,40.849],[-74.1402,40.8695],[-74.1181,40.8768],[-74.1302,40.8853],[-74.1285,40.8941],[-74.1597,40.8887],[-74.1745,40.8995],[-74.197,40.8595],[-74.2072,40.8588],[-74.2323,40.8143],[-74.251,40.8244],[-74.269,40.8268],[-74.2775,40.8148],[-74.2987,40.8314],[-74.3016,40.8268],[-74.329,40.8385],[-74.3379,40.8134],[-74.3489,40.8128],[-74.3642,40.7991],[-74.3668,40.7805],[-74.373,40.7756],[-74.3706,40.7642],[-74.3774,40.7614]]]},"properties":{"geoid":"34027","state":"34","district":"27","name":"State Senate District 27","chamber":"Senate"}},{"type":"Feature","geometry":{"type":"Polygon","coordinates":[[[-74.2931,40.7522],[-74.2852,40.7222],[-74.2444,40.7113],[-74.2491,40.7002],[-74.24,40.6958],[-74.2373,40.6865],[-74.2293,40.6847],[-74.2249,40.6757],[-74.2123,40.6907],[-74.1974,40.6879],[-74.2002,40.6889],[-74.1858,40.7127],[-74.1935,40.7131],[-74.1871,40.7233],[-74.2054,40.7275],[-74.2011,40.7391],[-74.2071,40.7387],[-74.2062,40.7495],[-74.2289,40.7464],[-74.2264,40.7512],[-74.2678,40.7623],[-74.2909,40.7573],[-74.2931,40.7522]]]},"properties":{"geoid":"34028","state":"34","district":"28","name":"State Senate District 28","chamber":"Senate"}},{"type":"Feature","geometry":{"type":"Polygon","coordinates":[[[-74.2087,40.7445],[-74.2071,40.7387],[-74.2011,40.7391],[-74.2054,40.7275],[-74.1871,40.7233],[-74.1935,40.7131],[-74.1858,40.7127],[-74.1981,40.6869],[-74.1644,40.69],[-74.1366,40.6744],[-74.1128,40.7031],[-74.1214,40.721],[-74.1176,40.7396],[-74.1368,40.7415],[-74.1455,40.7519],[-74.1648,40.7547],[-74.1483,40.7799],[-74.174,40.787],[-74.1778,40.7774],[-74.1868,40.7746],[-74.2087,40.7445]]]},"properties":{"geoid":"34029","state":"34","district":"29","name":"State Senate District 29","chamber":"Senate"}},{"type":"Feature","geometry":{"type":"Polygon","coordinates":[[[-74.2702,40.2038],[-74.2664,40.169],[-74.2582,40.1601],[-74.2598,40.1491],[-74.2511,40.1465],[-74.2416,40.13],[-74.2448,40.1133],[-74.2586,40.1203],[-74.2541,40.0596],[-74.1591,40.0239],[-74.1604,40.0596],[-74.1565,40.0788],[-74.151,40.0797],[-74.155,40.0989],[-74.1075,40.137],[-74.0957,40.1285],[-74.0942,40.1075],[-74.0861,40.0982],[-74.0793,40.1014],[-74.0422,40.1392],[-74.0539,40.1445],[-74.0518,40.1604],[-74.0148,40.1675],[-74.005,40.195],[-74.0213,40.1975],[-74.0256,40.1853],[-74.0298,40.1828],[-74.0282,40.1884],[-74.0317,40.1887],[-74.0417,40.1815],[-74.0567,40.188],[-74.0628,40.1967],[-74.1208,40.2184],[-74.1262,40.2279],[-74.125,40.2496],[-74.2239,40.2612],[-74.2702,40.2038]]]},"properties":{"geoid":"34030","state":"34","district":"30","name":"State Senate District 30","chamber":"Senate"}},{"type":"Feature","geometry":{"type":"Polygon","coordinates":[[[-74.1648,40.7547],[-74.1455,40.7519],[-74.1368,40.7415],[-74.1176,40.7396],[-74.1214,40.721],[-74.1128,40.7031],[-74.1614,40.6441],[-74.126,40.6422],[-74.087,40.6515],[-74.0557,40.6515],[-74.0264,40.7001],[-74.025,40.7095],[-74.0415,40.7111],[-74.048,40.7149],[-74.0462,40.7181],[-74.0627,40.7233],[-74.065,40.7194],[-74.0947,40.7345],[-74.0752,40.7474],[-74.0936,40.7509],[-74.0908,40.762],[-74.0959,40.7629],[-74.101,40.776],[-74.1097,40.7778],[-74.1272,40.7713],[-74.1305,40.7776],[-74.1475,40.7865],[-74.1648,40.7547]],[[-74.0472,40.6908],[-74.0439,40.6902],[-74.0436,40.6888],[-74.0472,40.6908]],[[-74.0407,40.7001],[-74.0384,40.6987],[-74.0399,40.6986],[-74.0407,40.7001]]]},"properties":{"geoid":"34031","state":"34","district":"31","name":"State Senate District 31","chamber":"Senate"}},{"type":"Feature","geometry":{"type":"Polygon","coordinates":[[[-74.094,40.7351],[-74.065,40.7194],[-74.0627,40.7233],[-74.0462,40.7181],[-74.048,40.7149],[-74.0415,40.7111],[-74.025,40.7095],[-74.0142,40.7567],[-74.0318,40.759],[-74.0378,40.7503],[-74.057,40.769],[-74.06,40.7625],[-74.0748,40.7581],[-74.077,40.7432],[-74.094,40.7351]]]},"properties":{"geoid":"34032","state":"34","district":"32","name":"State Senate District 32","chamber":"Senate"}},{"type":"Feature","geometry":{"type":"Polygon","coordinates":[[[-74.0953,40.7541],[-74.0906,40.7488],[-74.0787,40.7506],[-74.0747,40.7582],[-74.06,40.7625],[-74.057,40.769],[-74.0378,40.7503],[-74.0318,40.759],[-74.0142,40.7567],[-73.9847,40.7977],[-74.0176,40.8234],[-74.0358,40.8081],[-74.06,40.806],[-74.0768,40.7956],[-74.0899,40.7784],[-74.0878,40.7649],[-74.0953,40.7541]]]},"properties":{"geoid":"34033","state":"34","district":"33","name":"State Senate District 33","chamber":"Senate"}},{"type":"Feature","geometry":{"type":"Polygon","coordinates":[[[-74.2551,40.7584],[-74.2264,40.7512],[-74.2289,40.7464],[-74.2232,40.7453],[-74.2039,40.7488],[-74.174,40.787],[-74.1483,40.7799],[-74.1381,40.7988],[-74.1373,40.8166],[-74.13,40.8199],[-74.1827,40.8488],[-74.2185,40.7882],[-74.2369,40.7785],[-74.2551,40.7584]]]},"properties":{"geoid":"34034","state":"34","district":"34","name":"State Senate District 34","chamber":"Senate"}},{"type":"Feature","geometry":{"type":"Polygon","coordinates":[[[-74.2119,40.9802],[-74.198,40.9699],[-74.1972,40.9622],[-74.1958,40.9355],[-74.2061,40.917],[-74.1958,40.9077],[-74.1741,40.9013],[-74.1597,40.8887],[-74.1285,40.8941],[-74.1302,40.8853],[-74.1157,40.875],[-74.1108,40.8651],[-74.1028,40.8615],[-74.0978,40.8652],[-74.0919,40.8866],[-74.1026,40.8869],[-74.1031,40.8977],[-74.115,40.9219],[-74.1397,40.9236],[-74.1397,40.9344],[-74.1454,40.9415],[-74.1669,40.934],[-74.1715,40.9419],[-74.1678,40.9565],[-74.1711,40.9771],[-74.2119,40.9802]]]},"properties":{"geoid":"34035","state":"34","district":"35","name":"State Senate District 35","chamber":"Senate"}},{"type":"Feature","geometry":{"type":"Polygon","coordinates":[[[-74.1475,40.7865],[-74.1305,40.7776],[-74.1272,40.7713],[-74.1097,40.7778],[-74.1009,40.776],[-74.0959,40.7629],[-74.0903,40.7616],[-74.09,40.7782],[-74.0768,40.7956],[-74.06,40.806],[-74.0358,40.8081],[-74.0175,40.8235],[-73.9847,40.7977],[-73.9636,40.8266],[-73.9542,40.848],[-73.9681,40.8474],[-73.9768,40.8278],[-74.0109,40.8468],[-74.014,40.8388],[-74.0305,40.8465],[-74.0297,40.8333],[-74.0355,40.8248],[-74.0531,40.8337],[-74.0763,40.8371],[-74.0788,40.8424],[-74.0749,40.8486],[-74.0895,40.857],[-74.0862,40.8606],[-74.0939,40.8651],[-74.0978,40.8615],[-74.1075,40.8632],[-74.1181,40.8768],[-74.1402,40.8695],[-74.1467,40.849],[-74.121,40.831],[-74.1241,40.8225],[-74.137,40.8173],[-74.1382,40.7985],[-74.1475,40.7865]]]},"properties":{"geoid":"34036","state":"34","district":"36","name":"State Senate District 36","chamber":"Senate"}},{"type":"Feature","geometry":{"type":"Polygon","coordinates":[[[-74.0681,40.8766],[-74.0596,40.869],[-74.0556,40.874],[-74.0486,40.8732],[-74.0383,40.8589],[-74.0299,40.8563],[-74.0305,40.8465],[-74.0217,40.8399],[-74.0127,40.8391],[-74.0109,40.8468],[-73.9768,40.8278],[-73.9681,40.8474],[-73.9542,40.848],[-73.9199,40.9136],[-73.9624,40.9378],[-73.9811,40.9341],[-73.9844,40.9121],[-74.0018,40.9125],[-74.0051,40.9085],[-74.0215,40.9171],[-74.0365,40.9089],[-74.0495,40.9129],[-74.0681,40.8766]]]},"properties":{"geoid":"34037","state":"34","district":"37","name":"State Senate District 37","chamber":"Senate"}},{"type":"Feature","geometry":{"type":"MultiPolygon","coordinates":[[[[-74.1482,40.9422],[-74.14,40.935],[-74.1397,40.9236],[-74.115,40.9219],[-74.1031,40.8977],[-74.1026,40.8869],[-74.0919,40.8866],[-74.0986,40.873],[-74.0938,40.8698],[-74.1016,40.8638],[-74.0862,40.8606],[-74.0895,40.857],[-74.0749,40.8486],[-74.0788,40.8424],[-74.0763,40.8371],[-74.0531,40.8337],[-74.0355,40.8248],[-74.0297,40.8333],[-74.0287,40.8546],[-74.0383,40.8589],[-74.0486,40.8732],[-74.0556,40.874],[-74.0596,40.869],[-74.0683,40.876],[-74.0568,40.9032],[-74.0495,40.9129],[-74.0365,40.9089],[-74.0215,40.9171],[-74.0051,40.9085],[-74.0018,40.9125],[-73.9844,40.9121],[-73.9796,40.937],[-74.0109,40.9364],[-74.0101,40.9462],[-74.0028,40.9461],[-74.0024,40.9552],[-74.0266,40.9593],[-74.0164,40.9676],[-74.0369,40.9718],[-74.038,40.9622],[-74.049,40.9653],[-74.0461,40.9733],[-74.0558,40.9672],[-74.0679,40.9763],[-74.0909,40.9806],[-74.0971,40.9683],[-74.0949,40.9594],[-74.1001,40.9551],[-74.1174,40.9717],[-74.1359,40.9727],[-74.1482,40.9422]]],[[[-74.0054,40.9378],[-74.0035,40.9372],[-74.0034,40.9384],[-74.0054,40.9378]]]]},"properties":{"geoid":"34038","state":"34","district":"38","name":"State Senate District 38","chamber":"Senate"}},{"type":"Feature","geometry":{"type":"Polygon","coordinates":[[[-74.2721,41.0182],[-74.2485,40.9921],[-74.2,41.0451],[-74.1711,41.0293],[-74.1696,41.024],[-74.1554,41.0259],[-74.1547,41.0217],[-74.1478,41.0218],[-74.1514,41.0106],[-74.1375,41.0075],[-74.1574,40.9991],[-74.1513,40.993],[-74.1541,40.99],[-74.1439,40.9873],[-74.1412,40.9821],[-74.1352,40.9832],[-74.1279,40.9945],[-74.1329,40.9955],[-74.1309,41.0064],[-74.1184,41.006],[-74.113,40.9954],[-74.0795,40.9899],[-74.079,40.9791],[-74.0558,40.9672],[-74.0499,40.9742],[-74.0461,40.9733],[-74.049,40.9653],[-74.038,40.9622],[-74.0369,40.9718],[-74.0164,40.9676],[-74.0266,40.9593],[-74.0024,40.9552],[-74.0028,40.9461],[-74.0101,40.9462],[-74.0109,40.9364],[-73.98,40.9342],[-73.9624,40.9378],[-73.9199,40.9136],[-73.8936,40.9972],[-73.9027,40.9973],[-74.2112,41.1337],[-74.2721,41.0182]],[[-74.0054,40.9375],[-74.0034,40.9384],[-74.0035,40.9372],[-74.0054,40.9375]]]},"properties":{"geoid":"34039","state":"34","district":"39","name":"State Senate District 39","chamber":"Senate"}},{"type":"Feature","geometry":{"type":"Polygon","coordinates":[[[-74.3405,40.8808],[-74.3352,40.8774],[-74.337,40.8667],[-74.3173,40.8648],[-74.3303,40.8489],[-74.3255,40.8435],[-74.329,40.8385],[-74.3016,40.8268],[-74.2987,40.8314],[-74.2775,40.8148],[-74.269,40.8268],[-74.251,40.8244],[-74.232,40.8144],[-74.2072,40.8588],[-74.197,40.8595],[-74.1741,40.9013],[-74.1958,40.9077],[-74.2061,40.917],[-74.1958,40.9355],[-74.1972,40.9622],[-74.198,40.9699],[-74.2119,40.9802],[-74.1711,40.9771],[-74.1678,40.9565],[-74.1715,40.9419],[-74.1669,40.934],[-74.1481,40.9416],[-74.1359,40.9727],[-74.1174,40.9717],[-74.1001,40.9551],[-74.0939,40.9624],[-74.0971,40.9683],[-74.0928,40.9795],[-74.0783,40.9785],[-74.0788,40.9889],[-74.113,40.9954],[-74.1182,41.0059],[-74.1282,41.0077],[-74.1329,40.9955],[-74.1279,40.9945],[-74.1352,40.9832],[-74.1412,40.9821],[-74.1439,40.9873],[-74.1541,40.99],[-74.1513,40.993],[-74.1574,40.9991],[-74.1375,41.0075],[-74.1514,41.0106],[-74.1478,41.0218],[-74.1547,41.0217],[-74.1554,41.0259],[-74.1696,41.024],[-74.1711,41.0293],[-74.2005,41.0452],[-74.2485,40.9921],[-74.2669,41.0139],[-74.2775,41.0029],[-74.2819,40.9778],[-74.2775,40.9735],[-74.2824,40.9699],[-74.2777,40.9512],[-74.2893,40.9285],[-74.2842,40.9171],[-74.2716,40.9154],[-74.2669,40.9102],[-74.2735,40.9065],[-74.272,40.8973],[-74.2843,40.8948],[-74.2873,40.8985],[-74.2818,40.9008],[-74.291,40.8996],[-74.2924,40.9058],[-74.3185,40.9032],[-74.3191,40.9081],[-74.3276,40.9053],[-74.3305,40.9087],[-74.3374,40.8994],[-74.334,40.8967],[-74.339,40.8948],[-74.3357,40.8931],[-74.3405,40.8808]]]},"properties":{"geoid":"34040","state":"34","district":"40","name":"State Senate District 40","chamber":"Senate"}}]}