{"type":"FeatureCollection","features":[{"type":"Feature","geometry":{"type":"Polygon","coordinates":[[[-115.2295,36.3347],[-115.2246,36.3326],[-115.224,36.3049],[-115.189,36.3057],[-115.1891,36.2986],[-115.1983,36.2986],[-115.198,36.2871],[-115.1906,36.2814],[-115.1977,36.2765],[-115.198,36.2653],[-115.18,36.2616],[-115.1801,36.2468],[-115.1548,36.2469],[-115.162,36.2395],[-115.1438,36.2395],[-115.1438,36.247],[-115.1343,36.2395],[-115.0621,36.2405],[-115.0622,36.2257],[-115.0517,36.2183],[-115.0395,36.2206],[-115.0206,36.2406],[-115.0065,36.2438],[-115.0069,36.2646],[-115.0159,36.2692],[-115.0157,36.2772],[-115.0372,36.2912],[-115.1215,36.2896],[-115.1666,36.2935],[-115.1712,36.2951],[-115.1703,36.334],[-115.2295,36.3347]]]},"properties":{"geoid":"32001","state":"32","district":"1","name":"State Senate District 1","chamber":"Senate"}},{"type":"Feature","geometry":{"type":"Polygon","coordinates":[[[-115.1655,36.1589],[-115.082,36.159],[-115.0804,36.1735],[-115.0439,36.1744],[-115.0429,36.2035],[-115.036,36.2025],[-115.0351,36.2106],[-115.0262,36.2104],[-115.0208,36.2382],[-115.0396,36.2206],[-115.0437,36.2228],[-115.0506,36.2183],[-115.0622,36.2257],[-115.0622,36.2359],[-115.0894,36.22],[-115.0893,36.214],[-115.0985,36.2147],[-115.1247,36.1993],[-115.144,36.1754],[-115.1608,36.1753],[-115.1655,36.1589]]]},"properties":{"geoid":"32002","state":"32","district":"2","name":"State Senate District 2","chamber":"Senate"}},{"type":"Feature","geometry":{"type":"Polygon","coordinates":[[[-115.2791,36.241],[-115.2791,36.2337],[-115.2607,36.2331],[-115.2606,36.2257],[-115.2514,36.2257],[-115.2513,36.2182],[-115.2423,36.2182],[-115.242,36.196],[-115.2331,36.1959],[-115.2332,36.1885],[-115.224,36.1885],[-115.2239,36.1593],[-115.2711,36.159],[-115.2699,36.1439],[-115.2632,36.1437],[-115.261,36.1328],[-115.225,36.1329],[-115.2252,36.1405],[-115.2081,36.1409],[-115.2081,36.13],[-115.1803,36.1335],[-115.1606,36.1563],[-115.1655,36.1589],[-115.1608,36.1751],[-115.1925,36.1761],[-115.188,36.1812],[-115.2061,36.1809],[-115.206,36.1941],[-115.1926,36.1956],[-115.2265,36.233],[-115.2256,36.2464],[-115.2401,36.2476],[-115.2539,36.263],[-115.2697,36.263],[-115.2751,36.2556],[-115.2697,36.2556],[-115.2698,36.2481],[-115.2791,36.241]]]},"properties":{"geoid":"32003","state":"32","district":"3","name":"State Senate District 3","chamber":"Senate"}},{"type":"Feature","geometry":{"type":"Polygon","coordinates":[[[-115.2263,36.2332],[-115.1926,36.1956],[-115.206,36.1941],[-115.2061,36.1809],[-115.188,36.1812],[-115.1925,36.1761],[-115.1528,36.1741],[-115.144,36.1754],[-115.1228,36.2005],[-115.0985,36.2147],[-115.0893,36.214],[-115.0894,36.22],[-115.0622,36.2359],[-115.062,36.2404],[-115.1343,36.2395],[-115.1438,36.247],[-115.1438,36.2395],[-115.162,36.2395],[-115.1548,36.2469],[-115.2256,36.2464],[-115.2263,36.2332]]]},"properties":{"geoid":"32004","state":"32","district":"4","name":"State Senate District 4","chamber":"Senate"}},{"type":"Feature","geometry":{"type":"Polygon","coordinates":[[[-115.1188,36.0125],[-115.1014,35.9963],[-115.1003,35.9841],[-115.0478,35.9839],[-115.0478,35.9983],[-114.9767,35.9981],[-114.9766,36.0126],[-114.959,36.0127],[-114.9632,36.0194],[-114.9592,36.0194],[-114.956,36.0721],[-114.9579,36.0756],[-114.9629,36.0712],[-114.9938,36.071],[-114.9938,36.0675],[-115.0114,36.0659],[-115.0172,36.0711],[-115.0367,36.0715],[-115.0585,36.0873],[-115.0913,36.0856],[-115.0871,36.071],[-115.0824,36.0709],[-115.0825,36.0525],[-115.0697,36.0492],[-115.0624,36.0261],[-115.0635,36.0127],[-115.1182,36.0205],[-115.1188,36.0125]]]},"properties":{"geoid":"32005","state":"32","district":"5","name":"State Senate District 5","chamber":"Senate"}},{"type":"Feature","geometry":{"type":"Polygon","coordinates":[[[-115.3477,36.22],[-115.3476,36.2073],[-115.3408,36.2056],[-115.3427,36.1917],[-115.3219,36.1933],[-115.3067,36.1868],[-115.3177,36.1785],[-115.3152,36.168],[-115.2491,36.1665],[-115.2509,36.1592],[-115.2239,36.1593],[-115.224,36.1885],[-115.2332,36.1885],[-115.2331,36.1959],[-115.242,36.196],[-115.2423,36.2182],[-115.2513,36.2182],[-115.2514,36.2257],[-115.2606,36.2257],[-115.2607,36.2331],[-115.2791,36.2337],[-115.2744,36.2482],[-115.2883,36.2482],[-115.2884,36.2409],[-115.2975,36.2409],[-115.2976,36.2337],[-115.3253,36.2326],[-115.3178,36.2479],[-115.3332,36.2478],[-115.3342,36.2201],[-115.3477,36.22]]]},"properties":{"geoid":"32006","state":"32","district":"6","name":"State Senate District 6","chamber":"Senate"}},{"type":"Feature","geometry":{"type":"Polygon","coordinates":[[[-115.1379,36.1146],[-115.1369,36.101],[-115.1234,36.1004],[-115.1189,36.093],[-115.1099,36.0933],[-115.1099,36.0864],[-115.0602,36.0876],[-115.0429,36.0794],[-115.0367,36.0715],[-115.0172,36.0711],[-115.0114,36.0659],[-114.9938,36.0675],[-114.9926,36.0878],[-115.0115,36.0878],[-115.0116,36.0951],[-115.0288,36.1152],[-115.0293,36.1297],[-115.0384,36.1372],[-115.0902,36.1388],[-115.089,36.1296],[-115.1369,36.1298],[-115.1379,36.1146]]]},"properties":{"geoid":"32007","state":"32","district":"7","name":"State Senate District 7","chamber":"Senate"}},{"type":"Feature","geometry":{"type":"Polygon","coordinates":[[[-115.3658,36.1617],[-115.3631,36.1554],[-115.3517,36.1548],[-115.3488,36.134],[-115.3525,36.1087],[-115.3199,36.1111],[-115.3152,36.1002],[-115.3018,36.1001],[-115.3019,36.0926],[-115.2895,36.0926],[-115.2902,36.0852],[-115.2792,36.0852],[-115.279,36.1149],[-115.27,36.1147],[-115.27,36.1221],[-115.261,36.1219],[-115.261,36.1365],[-115.2632,36.1437],[-115.2699,36.1439],[-115.2711,36.159],[-115.2509,36.1592],[-115.2491,36.1665],[-115.3152,36.168],[-115.3177,36.1785],[-115.3067,36.1868],[-115.3273,36.1937],[-115.3424,36.1916],[-115.3412,36.1815],[-115.3532,36.1815],[-115.3542,36.1678],[-115.3658,36.1617]]]},"properties":{"geoid":"32008","state":"32","district":"8","name":"State Senate District 8","chamber":"Senate"}},{"type":"Feature","geometry":{"type":"Polygon","coordinates":[[[-115.352,36.1087],[-115.3519,36.0352],[-115.3134,36.0229],[-115.2792,36.0203],[-115.2794,36.0663],[-115.2425,36.0667],[-115.2429,36.0924],[-115.234,36.0925],[-115.234,36.1071],[-115.2165,36.1077],[-115.2164,36.115],[-115.208,36.1154],[-115.2081,36.1409],[-115.2252,36.1405],[-115.225,36.1329],[-115.261,36.1328],[-115.261,36.1219],[-115.27,36.1221],[-115.27,36.1147],[-115.279,36.1149],[-115.2792,36.0852],[-115.2902,36.0852],[-115.2895,36.0926],[-115.3019,36.0926],[-115.3018,36.1001],[-115.3152,36.1002],[-115.3199,36.1111],[-115.352,36.1087]]]},"properties":{"geoid":"32009","state":"32","district":"9","name":"State Senate District 9","chamber":"Senate"}},{"type":"Feature","geometry":{"type":"Polygon","coordinates":[[[-115.2429,36.0924],[-115.2425,36.0664],[-115.2245,36.0669],[-115.2249,36.0564],[-115.2094,36.057],[-115.2134,36.0497],[-115.2079,36.0497],[-115.2078,36.0326],[-115.1826,36.0433],[-115.1498,36.0424],[-115.1499,36.0534],[-115.1408,36.0536],[-115.141,36.0573],[-115.0825,36.0525],[-115.0824,36.0709],[-115.0871,36.071],[-115.0913,36.0856],[-115.1099,36.0864],[-115.1099,36.0933],[-115.1189,36.093],[-115.1234,36.1004],[-115.1369,36.101],[-115.1369,36.1298],[-115.1185,36.1298],[-115.1189,36.1588],[-115.1602,36.1588],[-115.1803,36.1335],[-115.2081,36.13],[-115.208,36.1154],[-115.2164,36.115],[-115.2165,36.1077],[-115.234,36.1071],[-115.234,36.0925],[-115.2429,36.0924]]]},"properties":{"geoid":"32010","state":"32","district":"10","name":"State Senate District 10","chamber":"Senate"}},{"type":"Feature","geometry":{"type":"Polygon","coordinates":[[[-115.316,36.017],[-115.3132,35.9534],[-115.1818,35.955],[-115.1804,36.0172],[-115.1723,36.0174],[-115.1724,36.0424],[-115.183,36.0432],[-115.2078,36.0326],[-115.2079,36.0497],[-115.2134,36.0497],[-115.2094,36.057],[-115.2249,36.0564],[-115.2245,36.0669],[-115.2794,36.0663],[-115.2792,36.0203],[-115.3159,36.0235],[-115.316,36.017]]]},"properties":{"geoid":"32011","state":"32","district":"11","name":"State Senate District 11","chamber":"Senate"}},{"type":"Feature","geometry":{"type":"Polygon","coordinates":[[[-115.1816,35.9628],[-115.1729,35.9658],[-115.1728,35.9624],[-115.1234,35.96],[-115.128,35.9803],[-115.1208,35.9917],[-115.1009,35.9925],[-115.1183,36.0108],[-115.1186,36.0205],[-115.0635,36.0127],[-115.0624,36.0261],[-115.0697,36.0492],[-115.0951,36.0551],[-115.1182,36.0532],[-115.1183,36.0569],[-115.141,36.0573],[-115.1408,36.0536],[-115.1499,36.0534],[-115.1498,36.0424],[-115.1724,36.0424],[-115.1723,36.0174],[-115.1804,36.0172],[-115.1816,35.9628]]]},"properties":{"geoid":"32012","state":"32","district":"12","name":"State Senate District 12","chamber":"Senate"}},{"type":"Feature","geometry":{"type":"Polygon","coordinates":[[[-119.8305,39.5292],[-119.8244,39.5204],[-119.8282,39.4919],[-119.7842,39.4949],[-119.7761,39.4902],[-119.7741,39.477],[-119.7559,39.4767],[-119.7296,39.466],[-119.7379,39.478],[-119.7296,39.4981],[-119.7134,39.5128],[-119.701,39.5128],[-119.6956,39.52],[-119.6859,39.5187],[-119.6908,39.5239],[-119.6775,39.5201],[-119.6775,39.5483],[-119.7084,39.5656],[-119.7247,39.5635],[-119.7244,39.5564],[-119.7335,39.5562],[-119.7338,39.5635],[-119.7517,39.5613],[-119.747,39.5667],[-119.7835,39.5674],[-119.7911,39.5595],[-119.7986,39.5627],[-119.7986,39.5565],[-119.8062,39.5527],[-119.8253,39.5507],[-119.8171,39.5344],[-119.8305,39.5292]]]},"properties":{"geoid":"32013","state":"32","district":"13","name":"State Senate District 13","chamber":"Senate"}},{"type":"Feature","geometry":{"type":"Polygon","coordinates":[[[-120.0019,39.5487],[-120.0017,39.5344],[-119.9769,39.5333],[-119.9768,39.5271],[-119.9647,39.527],[-119.9513,39.5119],[-119.9407,39.5097],[-119.9409,39.5231],[-119.9314,39.521],[-119.9299,39.5287],[-119.914,39.5381],[-119.9081,39.5499],[-119.9006,39.5479],[-119.9001,39.6069],[-119.9189,39.607],[-119.9189,39.6256],[-119.8822,39.6192],[-119.8817,39.6424],[-119.8678,39.6426],[-119.876,39.6329],[-119.8757,39.6257],[-119.8538,39.6319],[-119.8483,39.6225],[-119.851,39.6109],[-119.8375,39.5999],[-119.8329,39.6074],[-119.8106,39.6087],[-119.8077,39.6219],[-119.8002,39.6231],[-119.8055,39.6309],[-119.7893,39.631],[-119.7759,39.6195],[-119.7569,39.6206],[-119.7522,39.6144],[-119.7356,39.6152],[-119.7322,39.6085],[-119.7517,39.5613],[-119.7338,39.5635],[-119.7335,39.5562],[-119.7244,39.5564],[-119.7247,39.5635],[-119.7067,39.5652],[-119.6775,39.5483],[-119.6775,39.5201],[-119.6916,39.5227],[-119.6824,39.5158],[-119.664,39.5084],[-119.6425,39.5128],[-119.6244,39.5109],[-119.5943,39.544],[-119.5475,39.562],[-119.5367,39.561],[-119.5283,39.5667],[-119.5117,39.5623],[-119.4727,39.566],[-119.4678,39.584],[-119.4559,39.5893],[-119.4435,39.585],[-119.4133,39.5908],[-119.3949,39.5857],[-119.3706,39.5869],[-119.3584,39.5977],[-119.3402,39.5965],[-119.3262,39.6015],[-119.2848,39.6228],[-119.2824,39.6289],[-119.2831,39.6223],[-119.2769,39.6223],[-119.2573,39.6513],[-119.1893,39.6514],[-119.1893,39.6805],[-119.1706,39.6805],[-119.1709,39.7883],[-119.1897,39.7882],[-119.1898,39.81],[-119.2085,39.81],[-119.2086,39.8995],[-119.2261,39.8994],[-119.2252,39.9994],[-117.5417,40.001],[-117.5214,39.9808],[-117.5196,39.9725],[-117.5071,39.9688],[-117.5088,39.9628],[-117.5025,39.9515],[-117.4813,39.943],[-117.4679,39.9221],[-117.4705,39.9178],[-117.4659,39.9107],[-117.4613,39.8678],[-117.4669,39.8647],[-117.4646,39.8582],[-117.4705,39.8545],[-117.4723,39.8392],[-117.4882,39.8266],[-117.4834,39.8117],[-117.4894,39.807],[-117.4857,39.7865],[-117.4949,39.7742],[-117.4966,39.7605],[-117.4953,39.7484],[-117.4774,39.7424],[-117.4752,39.7359],[-117.4876,39.7141],[-117.484,39.7075],[-117.4878,39.7039],[-117.4644,39.679],[-117.4739,39.6693],[-117.4721,39.6615],[-117.4777,39.6595],[-117.478,39.6517],[-117.4861,39.6448],[-117.4733,39.6347],[-117.4634,39.6331],[-117.4616,39.6226],[-117.4822,39.5982],[-117.4766,39.5967],[-117.4761,39.5836],[-117.4824,39.5736],[-117.4805,39.5625],[-117.4853,39.5453],[-117.4928,39.5428],[-117.4951,39.5333],[-117.5086,39.5307],[-117.5185,39.5382],[-117.532,39.5269],[-117.5608,39.5259],[-117.5657,39.5192],[-117.5901,39.518],[-117.5865,39.5035],[-117.6011,39.4958],[-117.6018,39.4908],[-117.6155,39.4898],[-117.6232,39.4762],[-117.6566,39.4679],[-117.6538,39.4578],[-117.645,39.4584],[-117.6372,39.4518],[-117.646,39.4266],[-117.6756,39.4225],[-117.6764,39.4136],[-117.6817,39.4126],[-117.6808,39.4059],[-117.6963,39.3859],[-117.7281,39.3802],[-117.7469,39.3857],[-117.7558,39.3762],[-117.7626,39.3584],[-117.7575,39.3448],[-117.7599,39.3341],[-117.7516,39.3231],[-117.7527,39.3118],[-117.7397,39.2968],[-117.7436,39.2878],[-117.733,39.2813],[-117.7228,39.2508],[-117.7141,39.2456],[-117.7201,39.2363],[-117.7197,39.213],[-117.7346,39.2101],[-117.7442,39.1985],[-117.7442,39.1914],[-117.7532,39.1848],[-117.7618,39.1854],[-117.771,39.1742],[-117.7824,39.1758],[-117.7916,39.1696],[-117.7888,39.1644],[-117.7926,39.1589],[-117.7846,39.151],[-117.7935,39.1448],[-117.8068,39.1454],[-117.8015,39.1388],[-117.7949,39.1388],[-117.7915,39.1314],[-117.7964,39.122],[-117.7931,39.1176],[-117.8008,39.1175],[-117.7997,39.112],[-117.7815,39.1049],[-117.7755,39.0934],[-117.3319,39.1634],[-116.6009,39.1615],[-116.601,39.1761],[-116.5971,39.1762],[-116.5968,39.3728],[-116.5924,39.3728],[-116.5901,39.7247],[-116.5904,40.0723],[-116.6001,40.074],[-116.5942,40.3203],[-116.5958,40.6876],[-116.5406,40.7017],[-116.5205,40.7004],[-116.4978,40.6935],[-116.4439,40.6637],[-116.4164,40.6624],[-116.3416,40.6379],[-116.3019,40.6511],[-116.2374,40.6629],[-116.2173,40.6771],[-116.1833,40.6867],[-116.1577,40.7094],[-116.158,40.994],[-116.1533,41.0028],[-116.1468,41.0047],[-116.1449,40.9973],[-116.1342,40.9895],[-116.0994,40.9794],[-116.0952,40.962],[-116.0724,40.9448],[-116.0561,40.9642],[-116.022,40.9626],[-116.0066,40.9719],[-115.9897,40.969],[-115.9819,40.9737],[-115.9657,40.9677],[-115.9639,40.9578],[-115.9703,40.9422],[-115.9528,40.9424],[-115.9451,40.9472],[-115.9321,40.939],[-115.8845,40.9374],[-115.8774,40.9403],[-115.8704,40.9723],[-115.862,41.0608],[-115.8664,41.0989],[-115.8415,41.1569],[-115.8558,41.1669],[-115.8879,41.1726],[-115.9039,41.1806],[-115.9281,41.2097],[-115.9513,41.2216],[-115.9664,41.2253],[-116.014,41.224],[-116.1141,41.2735],[-116.1172,41.2904],[-116.1024,41.4032],[-116.0979,41.4118],[-116.1026,41.4221],[-116.1026,41.4927],[-116.0938,41.5052],[-116.1013,41.4993],[-116.1095,41.5044],[-116.1176,41.5279],[-116.1249,41.5277],[-116.14,41.5512],[-116.1465,41.5542],[-116.1468,41.5653],[-116.1612,41.567],[-116.1886,41.5535],[-116.2076,41.5532],[-116.2223,41.6095],[-116.216,41.6496],[-116.2064,41.664],[-116.1856,41.6753],[-116.1849,41.7505],[-116.215,41.8147],[-116.2332,41.8358],[-115.9864,41.8358],[-115.9862,41.9965],[-117.1337,42.0004],[-118.7079,41.9921],[-119.9992,41.9949],[-119.9956,40.4384],[-120.0019,39.5487]]]},"properties":{"geoid":"32014","state":"32","district":"14","name":"State Senate District 14","chamber":"Senate"}},{"type":"Feature","geometry":{"type":"Polygon","coordinates":[[[-119.9736,39.5058],[-119.9731,39.4975],[-119.8999,39.4972],[-119.8997,39.4906],[-119.8819,39.4891],[-119.8625,39.4799],[-119.8606,39.4739],[-119.8529,39.4747],[-119.8236,39.4476],[-119.794,39.4461],[-119.7905,39.455],[-119.7761,39.4574],[-119.7687,39.4682],[-119.774,39.4712],[-119.7764,39.4906],[-119.7842,39.4949],[-119.8282,39.4919],[-119.8244,39.5204],[-119.8306,39.5292],[-119.8171,39.5344],[-119.8253,39.5507],[-119.8062,39.5527],[-119.7986,39.5565],[-119.7986,39.5627],[-119.7911,39.5595],[-119.7835,39.5674],[-119.747,39.5667],[-119.7336,39.6124],[-119.7522,39.6144],[-119.7569,39.6206],[-119.7759,39.6195],[-119.7893,39.631],[-119.8055,39.6309],[-119.8002,39.6231],[-119.8077,39.6219],[-119.8106,39.6087],[-119.8329,39.6074],[-119.8375,39.5999],[-119.851,39.6109],[-119.8483,39.6225],[-119.8538,39.6319],[-119.8757,39.6257],[-119.876,39.6329],[-119.8678,39.6426],[-119.8817,39.6424],[-119.8822,39.6192],[-119.9189,39.6256],[-119.9189,39.607],[-119.9001,39.6069],[-119.9006,39.5479],[-119.9081,39.5499],[-119.914,39.5381],[-119.9299,39.5287],[-119.9314,39.521],[-119.9409,39.5231],[-119.9407,39.5097],[-119.9644,39.5109],[-119.9736,39.5058]]]},"properties":{"geoid":"32015","state":"32","district":"15","name":"State Senate District 15","chamber":"Senate"}},{"type":"Feature","geometry":{"type":"Polygon","coordinates":[[[-120.0065,39.2777],[-120.0034,39.1127],[-119.7612,39.114],[-119.7612,39.0995],[-119.7522,39.0995],[-119.7521,39.0849],[-119.5507,39.0859],[-119.5483,39.0908],[-119.5573,39.1038],[-119.5613,39.1369],[-119.5714,39.1444],[-119.5747,39.1548],[-119.5607,39.1785],[-119.5616,39.1946],[-119.6479,39.1951],[-119.6825,39.2093],[-119.7123,39.2513],[-119.6473,39.2668],[-119.4788,39.3379],[-119.2798,39.6271],[-119.3276,39.6009],[-119.364,39.5956],[-119.3706,39.5869],[-119.3949,39.5857],[-119.4133,39.5908],[-119.4435,39.585],[-119.4559,39.5893],[-119.4678,39.584],[-119.4727,39.566],[-119.5117,39.5623],[-119.5283,39.5667],[-119.5367,39.561],[-119.5484,39.5617],[-119.5943,39.544],[-119.6232,39.511],[-119.6648,39.5084],[-119.6956,39.52],[-119.701,39.5128],[-119.7134,39.5128],[-119.7296,39.4981],[-119.7379,39.478],[-119.7296,39.466],[-119.7559,39.4767],[-119.7741,39.477],[-119.7687,39.4682],[-119.7741,39.4591],[-119.7905,39.455],[-119.7994,39.4438],[-119.8236,39.4476],[-119.8529,39.4747],[-119.8606,39.4739],[-119.8625,39.4799],[-119.8819,39.4891],[-119.8997,39.4906],[-119.8999,39.4972],[-119.9731,39.4975],[-119.9736,39.5058],[-119.9498,39.5133],[-119.9647,39.527],[-119.9768,39.5271],[-119.9769,39.5333],[-120.0017,39.5344],[-120.0065,39.2777]]]},"properties":{"geoid":"32016","state":"32","district":"16","name":"State Senate District 16","chamber":"Senate"}},{"type":"Feature","geometry":{"type":"Polygon","coordinates":[[[-120.0034,39.1127],[-120.001,38.9996],[-119.4538,38.6224],[-118.7142,38.1021],[-117.8759,37.4973],[-117.166,36.9711],[-117.1652,37.9999],[-117.2164,38.0479],[-117.2169,38.0572],[-117.2234,38.0631],[-117.2084,38.0697],[-117.1666,38.0684],[-116.9396,38.0842],[-116.8969,38.1189],[-116.8462,38.1267],[-116.789,38.1194],[-116.7617,38.1226],[-116.7379,38.1344],[-116.7256,38.1332],[-116.7029,38.1468],[-116.6656,38.2943],[-116.6612,38.3491],[-116.6519,38.3586],[-116.665,38.4566],[-116.6757,38.466],[-116.7351,38.4866],[-116.7467,38.4976],[-116.7531,38.4983],[-116.7607,38.4853],[-116.7658,38.4949],[-116.7428,38.5145],[-116.7164,38.52],[-116.7024,38.5414],[-116.6811,38.5466],[-116.6737,38.5628],[-116.677,38.5795],[-116.6666,38.5946],[-116.6651,38.6102],[-116.6441,38.6151],[-116.6188,38.6347],[-116.5944,38.6819],[-116.5906,38.6955],[-116.594,38.7035],[-116.5785,38.7304],[-116.5842,38.7528],[-116.5827,38.767],[-116.5888,38.7817],[-116.5851,38.8087],[-116.5926,38.8142],[-116.5969,38.8317],[-116.5858,38.8427],[-116.5688,38.8459],[-116.5666,38.8545],[-116.5537,38.8642],[-116.5472,38.8942],[-116.5194,38.9177],[-116.5209,38.937],[-116.5079,38.944],[-116.5082,38.956],[-116.4897,38.9642],[-116.4931,38.9761],[-116.4715,38.9835],[-116.4491,39.0006],[-116.4475,39.0105],[-116.4554,39.032],[-116.4464,39.0669],[-116.4327,39.0891],[-116.4322,39.0982],[-116.4366,39.1251],[-116.4612,39.1544],[-116.4623,39.1617],[-117.3319,39.1634],[-117.7768,39.0939],[-117.781,39.1046],[-117.8001,39.1125],[-117.8008,39.1175],[-117.7931,39.1176],[-117.7964,39.122],[-117.7915,39.1314],[-117.7949,39.1388],[-117.8015,39.1388],[-117.8068,39.1454],[-117.7935,39.1448],[-117.7846,39.151],[-117.7926,39.1589],[-117.7888,39.1644],[-117.7916,39.1696],[-117.7824,39.1758],[-117.771,39.1742],[-117.7618,39.1854],[-117.7532,39.1848],[-117.7442,39.1914],[-117.7442,39.1985],[-117.7346,39.2101],[-117.7197,39.213],[-117.7201,39.2363],[-117.7141,39.2456],[-117.7228,39.2508],[-117.733,39.2813],[-117.7436,39.2878],[-117.7397,39.2968],[-117.7527,39.3118],[-117.7516,39.3231],[-117.7599,39.3341],[-117.7575,39.3448],[-117.7626,39.3584],[-117.7558,39.3762],[-117.7469,39.3857],[-117.7281,39.3802],[-117.6963,39.3859],[-117.6808,39.4059],[-117.6817,39.4126],[-117.6764,39.4136],[-117.6756,39.4225],[-117.646,39.4266],[-117.6372,39.4518],[-117.645,39.4584],[-117.6538,39.4578],[-117.6566,39.4679],[-117.6232,39.4762],[-117.6155,39.4898],[-117.6018,39.4908],[-117.6011,39.4958],[-117.5865,39.5035],[-117.5901,39.518],[-117.5657,39.5192],[-117.5608,39.5259],[-117.532,39.5269],[-117.5185,39.5382],[-117.5086,39.5307],[-117.4951,39.5333],[-117.4928,39.5428],[-117.4853,39.5453],[-117.4805,39.5625],[-117.4824,39.5736],[-117.4761,39.5836],[-117.4766,39.5967],[-117.4822,39.5982],[-117.4616,39.6226],[-117.4634,39.6331],[-117.4733,39.6347],[-117.4861,39.6448],[-117.478,39.6517],[-117.4777,39.6595],[-117.4721,39.6615],[-117.4739,39.6693],[-117.4644,39.679],[-117.4878,39.7039],[-117.484,39.7075],[-117.4876,39.7141],[-117.4752,39.7359],[-117.4774,39.7424],[-117.4953,39.7484],[-117.4966,39.7605],[-117.4949,39.7742],[-117.4857,39.7865],[-117.4894,39.807],[-117.4834,39.8117],[-117.4882,39.8266],[-117.4723,39.8392],[-117.4705,39.8545],[-117.4646,39.8582],[-117.4669,39.8647],[-117.4613,39.8678],[-117.4659,39.9107],[-117.4705,39.9178],[-117.4679,39.9221],[-117.4777,39.9393],[-117.5025,39.9515],[-117.5088,39.9628],[-117.5071,39.9688],[-117.5196,39.9725],[-117.5214,39.9808],[-117.5417,40.001],[-117.7327,40.0025],[-119.2252,39.9994],[-119.2261,39.8994],[-119.2086,39.8995],[-119.2085,39.81],[-119.1898,39.81],[-119.1897,39.7882],[-119.1709,39.7883],[-119.1706,39.6805],[-119.1893,39.6805],[-119.1893,39.6514],[-119.2573,39.6513],[-119.2769,39.6223],[-119.2831,39.6223],[-119.4788,39.3379],[-119.6473,39.2668],[-119.7123,39.2513],[-119.6825,39.2093],[-119.6479,39.1951],[-119.5616,39.1946],[-119.5607,39.1785],[-119.5747,39.1548],[-119.5714,39.1444],[-119.5613,39.1369],[-119.5573,39.1038],[-119.5483,39.0908],[-119.5506,39.086],[-119.7521,39.0849],[-119.7522,39.0995],[-119.7612,39.0995],[-119.7612,39.114],[-120.0034,39.1127]]]},"properties":{"geoid":"32017","state":"32","district":"17","name":"State Senate District 17","chamber":"Senate"}},{"type":"Feature","geometry":{"type":"Polygon","coordinates":[[[-115.3335,36.2655],[-115.3332,36.2478],[-115.3178,36.2479],[-115.3253,36.2326],[-115.2976,36.2337],[-115.2975,36.2409],[-115.2884,36.2409],[-115.2883,36.2482],[-115.2698,36.2481],[-115.2697,36.2556],[-115.2751,36.2556],[-115.2697,36.263],[-115.2539,36.263],[-115.2401,36.2476],[-115.1801,36.2468],[-115.18,36.2616],[-115.198,36.2653],[-115.1977,36.2765],[-115.1906,36.2814],[-115.198,36.2871],[-115.1983,36.2986],[-115.1891,36.2986],[-115.189,36.3057],[-115.224,36.3049],[-115.2247,36.3203],[-115.2602,36.3212],[-115.2726,36.317],[-115.2786,36.3176],[-115.2785,36.3213],[-115.3066,36.3214],[-115.3148,36.3266],[-115.3149,36.2884],[-115.3334,36.2883],[-115.3335,36.2655]]]},"properties":{"geoid":"32018","state":"32","district":"18","name":"State Senate District 18","chamber":"Senate"}},{"type":"Feature","geometry":{"type":"Polygon","coordinates":[[[-117.2234,38.0632],[-117.2169,38.0572],[-117.2164,38.0479],[-117.1652,37.9999],[-117.166,36.9711],[-116.2151,36.2495],[-115.3693,35.5898],[-115.2073,35.5903],[-115.2114,35.7291],[-115.2058,35.8085],[-115.207,35.8973],[-115.2164,35.8973],[-115.1724,35.9559],[-115.1729,35.9658],[-115.1816,35.9619],[-115.1818,35.955],[-115.3132,35.9534],[-115.3159,36.0235],[-115.3519,36.0352],[-115.353,36.1147],[-115.349,36.1427],[-115.3519,36.1553],[-115.3631,36.1554],[-115.3658,36.1617],[-115.3542,36.1678],[-115.3532,36.1815],[-115.3412,36.1815],[-115.3408,36.2056],[-115.3476,36.2073],[-115.3477,36.22],[-115.3342,36.2201],[-115.3334,36.2883],[-115.3149,36.2884],[-115.3124,36.3277],[-115.3066,36.3214],[-115.2648,36.3172],[-115.2602,36.3212],[-115.2247,36.3203],[-115.2246,36.3326],[-115.2295,36.3347],[-115.0806,36.3358],[-115.0887,36.3683],[-115.1164,36.3883],[-115.1534,36.431],[-115.1366,36.4544],[-115.1232,36.4611],[-115.1164,36.4794],[-115.1075,36.4795],[-115.1001,36.4916],[-114.9768,36.4917],[-114.9689,36.4847],[-114.9525,36.4826],[-114.9505,36.4917],[-114.8687,36.4918],[-114.8744,36.8534],[-114.7625,36.8535],[-114.7623,36.8439],[-114.0504,36.8431],[-114.0529,37.5883],[-114.0483,37.8094],[-114.0505,38.4961],[-114.0415,41.9939],[-114.5983,41.9946],[-114.8235,42.0018],[-115.033,41.9962],[-115.9862,41.9965],[-115.9864,41.8358],[-116.2332,41.8358],[-116.215,41.8147],[-116.1849,41.7505],[-116.1856,41.6753],[-116.2056,41.6646],[-116.2135,41.6539],[-116.2215,41.6177],[-116.2077,41.5534],[-116.1886,41.5535],[-116.1612,41.567],[-116.1468,41.5653],[-116.1465,41.5542],[-116.14,41.5512],[-116.1249,41.5277],[-116.1176,41.5279],[-116.1095,41.5044],[-116.1013,41.4993],[-116.0938,41.5052],[-116.1026,41.4927],[-116.1026,41.4221],[-116.0979,41.4118],[-116.1024,41.4032],[-116.1172,41.2904],[-116.1143,41.274],[-116.0878,41.2573],[-116.0659,41.2528],[-116.014,41.224],[-115.9664,41.2253],[-115.9513,41.2216],[-115.9281,41.2097],[-115.9039,41.1806],[-115.8879,41.1726],[-115.8558,41.1669],[-115.8415,41.1569],[-115.8664,41.0989],[-115.8621,41.0595],[-115.8774,40.9403],[-115.92,40.9374],[-115.9451,40.9472],[-115.9528,40.9424],[-115.9703,40.9422],[-115.9639,40.9578],[-115.9657,40.9677],[-115.9819,40.9737],[-115.9897,40.969],[-116.0066,40.9719],[-116.022,40.9626],[-116.0561,40.9642],[-116.0724,40.9448],[-116.0952,40.962],[-116.0994,40.9794],[-116.1342,40.9895],[-116.1486,41.0047],[-116.158,40.994],[-116.1577,40.7094],[-116.1715,40.7012],[-116.1812,40.6881],[-116.2173,40.6771],[-116.2388,40.6624],[-116.3019,40.6511],[-116.3401,40.6378],[-116.4164,40.6624],[-116.4439,40.6637],[-116.4978,40.6935],[-116.5205,40.7004],[-116.5406,40.7017],[-116.5958,40.6876],[-116.5942,40.3203],[-116.6001,40.074],[-116.5904,40.0723],[-116.5901,39.7247],[-116.5924,39.3728],[-116.5968,39.3728],[-116.5971,39.1762],[-116.601,39.1761],[-116.6009,39.1615],[-116.4623,39.1617],[-116.4612,39.1544],[-116.4327,39.1158],[-116.4327,39.0891],[-116.4464,39.0669],[-116.4554,39.032],[-116.4471,39.0058],[-116.4715,38.9835],[-116.4931,38.9761],[-116.4897,38.9642],[-116.5082,38.956],[-116.5079,38.944],[-116.5209,38.937],[-116.5194,38.9177],[-116.5472,38.8942],[-116.5537,38.8642],[-116.5666,38.8545],[-116.5688,38.8459],[-116.5858,38.8427],[-116.5969,38.8317],[-116.5926,38.8142],[-116.5851,38.8087],[-116.5888,38.7817],[-116.5827,38.767],[-116.5842,38.7528],[-116.5785,38.7304],[-116.594,38.7035],[-116.5906,38.6955],[-116.5944,38.6819],[-116.6213,38.6306],[-116.6313,38.6275],[-116.6441,38.6151],[-116.6651,38.6102],[-116.6666,38.5946],[-116.677,38.5795],[-116.6737,38.5628],[-116.6811,38.5466],[-116.7024,38.5414],[-116.7164,38.52],[-116.7428,38.5145],[-116.7658,38.4949],[-116.7607,38.4853],[-116.7531,38.4983],[-116.7467,38.4976],[-116.7351,38.4866],[-116.6757,38.466],[-116.665,38.4566],[-116.6519,38.3586],[-116.6612,38.3491],[-116.6656,38.2943],[-116.7029,38.1468],[-116.7256,38.1332],[-116.7379,38.1344],[-116.7617,38.1226],[-116.789,38.1194],[-116.8462,38.1267],[-116.8969,38.1189],[-116.9396,38.0842],[-117.1666,38.0684],[-117.2084,38.0697],[-117.2234,38.0632]]]},"properties":{"geoid":"32019","state":"32","district":"19","name":"State Senate District 19","chamber":"Senate"}},{"type":"Feature","geometry":{"type":"Polygon","coordinates":[[[-115.3693,35.5898],[-114.6335,35.0019],[-114.6382,35.0221],[-114.6347,35.0337],[-114.6271,35.0447],[-114.6067,35.0589],[-114.6029,35.0686],[-114.6131,35.0831],[-114.6468,35.1019],[-114.6284,35.1189],[-114.5978,35.1217],[-114.5783,35.1288],[-114.5726,35.1396],[-114.5693,35.1834],[-114.5721,35.2008],[-114.5795,35.2089],[-114.5866,35.2624],[-114.5967,35.2946],[-114.5956,35.3265],[-114.6046,35.3552],[-114.6268,35.4096],[-114.6521,35.4301],[-114.6629,35.4464],[-114.6657,35.4669],[-114.6732,35.4748],[-114.6786,35.4976],[-114.6757,35.5156],[-114.6646,35.5215],[-114.6568,35.535],[-114.6644,35.5684],[-114.6757,35.58],[-114.6592,35.5875],[-114.6535,35.6097],[-114.6895,35.6514],[-114.6902,35.6652],[-114.6806,35.684],[-114.7056,35.7083],[-114.6943,35.7566],[-114.701,35.7697],[-114.6993,35.7905],[-114.712,35.8055],[-114.6953,35.8311],[-114.7059,35.8505],[-114.6616,35.8712],[-114.7081,35.9099],[-114.7076,35.928],[-114.7405,35.9755],[-114.743,36.0084],[-114.7221,36.029],[-114.7334,36.0379],[-114.7413,36.038],[-114.7425,36.0457],[-114.7353,36.0566],[-114.7545,36.0862],[-114.7349,36.1044],[-114.6937,36.1125],[-114.6818,36.1092],[-114.6643,36.1163],[-114.6305,36.1422],[-114.6155,36.1297],[-114.5711,36.1511],[-114.5392,36.1518],[-114.5311,36.1476],[-114.5112,36.1506],[-114.5002,36.1432],[-114.5092,36.1332],[-114.5047,36.1272],[-114.4838,36.1297],[-114.4626,36.1396],[-114.445,36.1253],[-114.4153,36.1451],[-114.4056,36.147],[-114.3702,36.1426],[-114.359,36.1278],[-114.3258,36.1039],[-114.3069,36.0825],[-114.3044,36.074],[-114.3136,36.059],[-114.2709,36.0455],[-114.2644,36.0279],[-114.2439,36.0153],[-114.2135,36.0146],[-114.1747,36.0267],[-114.1534,36.0232],[-114.147,36.0261],[-114.1457,36.033],[-114.1357,36.0412],[-114.1334,36.0617],[-114.112,36.0949],[-114.121,36.1039],[-114.1209,36.1108],[-114.097,36.1208],[-114.0668,36.1791],[-114.0587,36.1878],[-114.0439,36.1934],[-114.0428,36.4482],[-114.0504,36.8431],[-114.7623,36.8439],[-114.7625,36.8535],[-114.8744,36.8534],[-114.8687,36.4918],[-114.9505,36.4917],[-114.9525,36.4826],[-114.9689,36.4847],[-114.9768,36.4917],[-115.1001,36.4916],[-115.1075,36.4795],[-115.1164,36.4794],[-115.1232,36.4611],[-115.1366,36.4544],[-115.1534,36.431],[-115.1164,36.3883],[-115.0887,36.3683],[-115.0806,36.3358],[-115.1702,36.3352],[-115.1712,36.2951],[-115.1215,36.2896],[-115.0391,36.2915],[-115.0157,36.2772],[-115.0159,36.2692],[-115.0069,36.2646],[-115.0065,36.2438],[-115.0208,36.2405],[-115.0269,36.2025],[-115.009,36.2025],[-115.0087,36.1988],[-114.9491,36.2065],[-114.9229,36.1936],[-114.9086,36.164],[-114.8872,36.151],[-114.8898,36.142],[-114.9083,36.1342],[-114.9035,36.1252],[-114.905,36.116],[-114.8994,36.1099],[-114.9113,36.0886],[-114.9394,36.0773],[-114.941,36.0714],[-114.9575,36.0705],[-114.9592,36.0194],[-114.9632,36.0194],[-114.959,36.0127],[-114.9766,36.0126],[-114.9767,35.9981],[-115.0478,35.9983],[-115.0478,35.9839],[-115.1003,35.9841],[-115.1009,35.9925],[-115.1208,35.9917],[-115.128,35.9803],[-115.1234,35.96],[-115.1728,35.9624],[-115.1724,35.9559],[-115.2164,35.8973],[-115.207,35.8973],[-115.2058,35.8085],[-115.2114,35.7291],[-115.2073,35.5903],[-115.3693,35.5898]]]},"properties":{"geoid":"32020","state":"32","district":"20","name":"State Senate District 20","chamber":"Senate"}},{"type":"Feature","geometry":{"type":"Polygon","coordinates":[[[-115.1189,36.157],[-115.1185,36.1298],[-115.089,36.1296],[-115.0902,36.1388],[-115.0384,36.1372],[-115.0293,36.1297],[-115.0288,36.1152],[-115.0116,36.0951],[-115.0115,36.0878],[-114.9926,36.0878],[-114.9938,36.071],[-114.9632,36.0712],[-114.9574,36.0756],[-114.9542,36.0712],[-114.941,36.0714],[-114.9394,36.0773],[-114.911,36.0888],[-114.8994,36.1099],[-114.905,36.116],[-114.9035,36.1252],[-114.9083,36.1342],[-114.8898,36.142],[-114.8872,36.1505],[-114.9086,36.164],[-114.9211,36.1919],[-114.9462,36.2057],[-115.0087,36.1988],[-115.009,36.2025],[-115.0269,36.2025],[-115.0262,36.2104],[-115.0349,36.2106],[-115.036,36.2025],[-115.0429,36.2035],[-115.0439,36.1744],[-115.0804,36.1735],[-115.082,36.159],[-115.1189,36.157]]]},"properties":{"geoid":"32021","state":"32","district":"21","name":"State Senate District 21","chamber":"Senate"}}]}