{"type":"FeatureCollection","features":[{"type":"Feature","geometry":{"type":"Polygon","coordinates":[[[-73.177,41.0436],[-73.1629,40.9756],[-73.1481,40.9293],[-73.1521,40.9179],[-73.1432,40.911],[-73.1329,40.8779],[-73.1181,40.8765],[-73.1066,40.8832],[-73.0997,40.8796],[-73.086,40.8836],[-73.0178,40.8815],[-73.0068,40.8911],[-72.9739,40.897],[-72.9744,40.9041],[-72.9657,40.9058],[-72.9452,40.8963],[-72.9434,40.8829],[-72.8685,40.9],[-72.8425,40.9109],[-72.8376,40.8785],[-72.8173,40.8767],[-72.8049,40.8858],[-72.787,40.8857],[-72.7819,40.8958],[-72.7685,40.9032],[-72.7551,40.9011],[-72.74,40.9077],[-72.734,40.9057],[-72.7237,40.9139],[-72.7012,40.914],[-72.7295,40.8159],[-72.7284,40.7188],[-72.3745,40.8186],[-71.9317,40.9825],[-71.8701,40.997],[-71.8371,41.0109],[-71.7941,41.037],[-71.7775,41.0673],[-71.7775,41.0772],[-71.7819,41.0962],[-71.7906,41.1018],[-71.791,41.1841],[-71.9073,41.3045],[-71.9295,41.3104],[-72.0192,41.2906],[-72.0818,41.2622],[-72.9995,41.0871],[-73.177,41.0436]]]},"properties":{"geoid":"36001","state":"36","district":"1","name":"State Senate District 1","chamber":"Senate"}},{"type":"Feature","geometry":{"type":"Polygon","coordinates":[[[-73.4974,40.9238],[-73.4773,40.8993],[-73.4761,40.8771],[-73.4623,40.8667],[-73.4641,40.8596],[-73.4554,40.8426],[-73.4386,40.7513],[-73.295,40.7843],[-73.2947,40.804],[-73.231,40.8088],[-73.2297,40.8237],[-73.1214,40.8325],[-73.1425,40.9094],[-73.1521,40.9179],[-73.1481,40.9293],[-73.1775,41.0435],[-73.4319,40.989],[-73.4296,40.9282],[-73.4376,40.935],[-73.4644,40.9376],[-73.4846,40.9469],[-73.4937,40.9407],[-73.4974,40.9238]]]},"properties":{"geoid":"36002","state":"36","district":"2","name":"State Senate District 2","chamber":"Senate"}},{"type":"Feature","geometry":{"type":"Polygon","coordinates":[[[-73.1481,40.6583],[-73.1474,40.6491],[-73.1202,40.5994],[-73.0321,40.6195],[-72.8745,40.675],[-72.7284,40.7188],[-72.7295,40.8159],[-72.7012,40.914],[-72.7237,40.9139],[-72.734,40.9057],[-72.74,40.9077],[-72.7551,40.9011],[-72.7685,40.9032],[-72.7819,40.8958],[-72.787,40.8857],[-72.8049,40.8858],[-72.8173,40.8767],[-72.8376,40.8785],[-72.8425,40.9109],[-72.8685,40.9],[-72.9434,40.8829],[-72.9452,40.8963],[-72.9657,40.9058],[-72.9744,40.9041],[-72.9739,40.897],[-73.0068,40.8911],[-73.0178,40.8815],[-73.086,40.8836],[-73.0997,40.8796],[-73.1066,40.8832],[-73.1181,40.8765],[-73.1344,40.8785],[-73.1214,40.8325],[-73.1168,40.8298],[-73.12,40.8069],[-73.0782,40.8105],[-73.0754,40.8033],[-73.053,40.8125],[-73.0493,40.7911],[-73.0432,40.7977],[-73.0419,40.7359],[-73.0379,40.73],[-73.0935,40.7218],[-73.1045,40.7165],[-73.1243,40.7265],[-73.146,40.7072],[-73.1481,40.6583]]]},"properties":{"geoid":"36003","state":"36","district":"3","name":"State Senate District 3","chamber":"Senate"}},{"type":"Feature","geometry":{"type":"Polygon","coordinates":[[[-73.4385,40.7513],[-73.4252,40.6799],[-73.3905,40.6819],[-73.3792,40.6853],[-73.3843,40.6925],[-73.3759,40.6945],[-73.3824,40.6985],[-73.3673,40.7108],[-73.3143,40.7118],[-73.3135,40.7181],[-73.2781,40.7297],[-73.2671,40.7308],[-73.2701,40.7219],[-73.2665,40.72],[-73.2016,40.7369],[-73.2002,40.7557],[-73.1871,40.7574],[-73.1877,40.7666],[-73.1651,40.7756],[-73.1697,40.7789],[-73.1656,40.7926],[-73.1714,40.7967],[-73.1479,40.8262],[-73.2297,40.8237],[-73.231,40.8088],[-73.2947,40.804],[-73.295,40.7843],[-73.4385,40.7513]]]},"properties":{"geoid":"36004","state":"36","district":"4","name":"State Senate District 4","chamber":"Senate"}},{"type":"Feature","geometry":{"type":"Polygon","coordinates":[[[-73.6376,40.5958],[-73.5741,40.5959],[-73.5749,40.5306],[-73.4849,40.5209],[-73.487,40.6574],[-73.4811,40.6676],[-73.4887,40.7224],[-73.462,40.73],[-73.4622,40.7228],[-73.4334,40.7234],[-73.4441,40.7816],[-73.4669,40.7764],[-73.4756,40.7813],[-73.4822,40.7989],[-73.4888,40.7994],[-73.4899,40.7952],[-73.516,40.7913],[-73.5175,40.7846],[-73.5178,40.7885],[-73.5321,40.7822],[-73.5337,40.7851],[-73.5427,40.7758],[-73.5601,40.7715],[-73.5505,40.765],[-73.5496,40.7567],[-73.5876,40.7476],[-73.5769,40.7231],[-73.5803,40.7222],[-73.58,40.7123],[-73.5598,40.6302],[-73.5731,40.624],[-73.5857,40.6259],[-73.5939,40.6198],[-73.6137,40.6247],[-73.6319,40.6095],[-73.6376,40.5958]]]},"properties":{"geoid":"36005","state":"36","district":"5","name":"State Senate District 5","chamber":"Senate"}},{"type":"Feature","geometry":{"type":"Polygon","coordinates":[[[-73.668,40.6826],[-73.6638,40.6806],[-73.6569,40.6499],[-73.6502,40.6476],[-73.6531,40.6448],[-73.6477,40.6403],[-73.6496,40.6365],[-73.6234,40.6277],[-73.6222,40.6158],[-73.6137,40.6247],[-73.5939,40.6198],[-73.5857,40.6259],[-73.5731,40.624],[-73.5598,40.6302],[-73.58,40.7123],[-73.5803,40.7222],[-73.5769,40.7231],[-73.5876,40.7476],[-73.5496,40.7567],[-73.5505,40.765],[-73.5675,40.7763],[-73.6171,40.7587],[-73.6247,40.7505],[-73.6374,40.7481],[-73.6398,40.7406],[-73.6639,40.7349],[-73.6643,40.7233],[-73.6608,40.7228],[-73.6657,40.7067],[-73.661,40.7027],[-73.6665,40.6974],[-73.668,40.6826]]]},"properties":{"geoid":"36006","state":"36","district":"6","name":"State Senate District 6","chamber":"Senate"}},{"type":"Feature","geometry":{"type":"Polygon","coordinates":[[[-73.7802,40.8264],[-73.779,40.8117],[-73.7637,40.7938],[-73.7016,40.7525],[-73.7002,40.7395],[-73.7079,40.7278],[-73.6398,40.7406],[-73.6374,40.7481],[-73.6247,40.7505],[-73.6241,40.7552],[-73.6133,40.7605],[-73.5675,40.7763],[-73.5601,40.7715],[-73.546,40.7744],[-73.5337,40.7851],[-73.5321,40.7822],[-73.5178,40.7885],[-73.5175,40.7846],[-73.516,40.7913],[-73.4899,40.7952],[-73.4888,40.7994],[-73.4822,40.7989],[-73.4756,40.7813],[-73.4669,40.7764],[-73.4448,40.7812],[-73.4554,40.8426],[-73.4641,40.8596],[-73.4623,40.8667],[-73.4761,40.8771],[-73.4773,40.8993],[-73.4974,40.9238],[-73.4937,40.9407],[-73.4846,40.9469],[-73.4644,40.9376],[-73.4376,40.935],[-73.4296,40.9282],[-73.4319,40.989],[-73.6129,40.9509],[-73.748,40.8719],[-73.7578,40.8457],[-73.7802,40.8264]]]},"properties":{"geoid":"36007","state":"36","district":"7","name":"State Senate District 7","chamber":"Senate"}},{"type":"Feature","geometry":{"type":"Polygon","coordinates":[[[-73.4887,40.7224],[-73.4811,40.6676],[-73.487,40.6574],[-73.4849,40.5209],[-73.3263,40.5569],[-73.274,40.5513],[-73.2496,40.5626],[-73.1202,40.5994],[-73.1477,40.65],[-73.1452,40.7095],[-73.1237,40.7267],[-73.1045,40.7165],[-73.0935,40.7218],[-73.0381,40.7296],[-73.0419,40.7359],[-73.0432,40.7977],[-73.0493,40.7911],[-73.053,40.8125],[-73.0754,40.8033],[-73.0782,40.8105],[-73.12,40.8069],[-73.1179,40.8308],[-73.1485,40.8288],[-73.1714,40.7967],[-73.1656,40.7926],[-73.1697,40.7789],[-73.1651,40.7756],[-73.1877,40.7666],[-73.1871,40.7574],[-73.2002,40.7557],[-73.2016,40.7369],[-73.2665,40.72],[-73.2701,40.7219],[-73.2671,40.7308],[-73.2781,40.7297],[-73.3135,40.7181],[-73.3143,40.7118],[-73.3673,40.7108],[-73.3824,40.6985],[-73.3759,40.6945],[-73.3843,40.6925],[-73.3792,40.6853],[-73.3933,40.6813],[-73.4252,40.6799],[-73.4334,40.7234],[-73.4622,40.7228],[-73.462,40.73],[-73.4887,40.7224]]]},"properties":{"geoid":"36008","state":"36","district":"8","name":"State Senate District 8","chamber":"Senate"}},{"type":"Feature","geometry":{"type":"Polygon","coordinates":[[[-73.7688,40.624],[-73.7667,40.615],[-73.76,40.6113],[-73.7455,40.6119],[-73.7372,40.593],[-73.7555,40.5854],[-73.7583,40.5554],[-73.7688,40.5337],[-73.6246,40.5345],[-73.5749,40.5306],[-73.5741,40.5959],[-73.6376,40.5957],[-73.6208,40.6239],[-73.6356,40.63],[-73.6364,40.6349],[-73.6496,40.6365],[-73.6477,40.6403],[-73.6531,40.6448],[-73.6502,40.6476],[-73.6569,40.6499],[-73.6638,40.6806],[-73.6682,40.6825],[-73.6665,40.6974],[-73.661,40.7027],[-73.6657,40.7067],[-73.6608,40.7228],[-73.6643,40.7233],[-73.6633,40.7352],[-73.7303,40.7222],[-73.7251,40.6523],[-73.7414,40.6469],[-73.74,40.6351],[-73.7433,40.638],[-73.7688,40.624]]]},"properties":{"geoid":"36009","state":"36","district":"9","name":"State Senate District 9","chamber":"Senate"}},{"type":"Feature","geometry":{"type":"Polygon","coordinates":[[[-74.0381,40.5383],[-74.0423,40.5081],[-73.9779,40.5191],[-73.8896,40.4865],[-73.8768,40.5011],[-73.8548,40.512],[-73.8262,40.5229],[-73.7688,40.5337],[-73.7583,40.5554],[-73.7555,40.5854],[-73.7372,40.593],[-73.7455,40.6119],[-73.76,40.6113],[-73.7667,40.615],[-73.7688,40.6243],[-73.7433,40.638],[-73.74,40.6351],[-73.7414,40.6469],[-73.7251,40.6523],[-73.7283,40.6666],[-73.7576,40.6665],[-73.7637,40.6747],[-73.7616,40.6797],[-73.7789,40.6896],[-73.7923,40.6874],[-73.7991,40.6953],[-73.8109,40.6942],[-73.8179,40.6775],[-73.8398,40.68],[-73.8364,40.6731],[-73.8503,40.6663],[-73.8473,40.6581],[-73.8397,40.661],[-73.8357,40.6441],[-73.8483,40.6435],[-73.833,40.6283],[-73.8345,40.6072],[-73.8499,40.5887],[-73.8792,40.5747],[-74.0363,40.551],[-74.0381,40.5383]]]},"properties":{"geoid":"36010","state":"36","district":"10","name":"State Senate District 10","chamber":"Senate"}},{"type":"Feature","geometry":{"type":"Polygon","coordinates":[[[-73.92,40.7826],[-73.9045,40.7785],[-73.9032,40.7708],[-73.8974,40.7701],[-73.9005,40.7676],[-73.8716,40.7715],[-73.8533,40.7577],[-73.8459,40.7605],[-73.8432,40.7553],[-73.8385,40.7559],[-73.8393,40.7661],[-73.8262,40.7799],[-73.8009,40.7692],[-73.7972,40.7739],[-73.7758,40.7786],[-73.767,40.7757],[-73.7576,40.7613],[-73.7444,40.7536],[-73.7616,40.7478],[-73.7581,40.7448],[-73.7643,40.7407],[-73.7637,40.7329],[-73.7812,40.7292],[-73.7791,40.7211],[-73.8129,40.715],[-73.8017,40.7058],[-73.7758,40.7054],[-73.7773,40.7089],[-73.7674,40.7131],[-73.7361,40.7182],[-73.7079,40.7278],[-73.7002,40.7395],[-73.7016,40.7525],[-73.7503,40.7825],[-73.779,40.8117],[-73.7879,40.8004],[-73.8174,40.8058],[-73.863,40.7977],[-73.8702,40.7909],[-73.8925,40.8012],[-73.8999,40.7924],[-73.9125,40.7961],[-73.9103,40.7907],[-73.92,40.7826]]]},"properties":{"geoid":"36011","state":"36","district":"11","name":"State Senate District 11","chamber":"Senate"}},{"type":"Feature","geometry":{"type":"Polygon","coordinates":[[[-73.9524,40.7395],[-73.9289,40.7275],[-73.924,40.714],[-73.9056,40.7048],[-73.9025,40.7005],[-73.9065,40.6946],[-73.9012,40.6914],[-73.8933,40.6922],[-73.8828,40.7018],[-73.8902,40.7082],[-73.8888,40.7123],[-73.9009,40.7138],[-73.8921,40.719],[-73.8947,40.725],[-73.8626,40.7304],[-73.8744,40.7349],[-73.8701,40.7365],[-73.8745,40.7433],[-73.8855,40.7402],[-73.8907,40.7431],[-73.8934,40.7529],[-73.8958,40.7506],[-73.9,40.7573],[-73.8943,40.7661],[-73.8884,40.7671],[-73.9005,40.7676],[-73.8974,40.7701],[-73.9032,40.7708],[-73.908,40.7809],[-73.918,40.778],[-73.9119,40.769],[-73.9256,40.7521],[-73.9338,40.7516],[-73.9344,40.746],[-73.9453,40.7396],[-73.9524,40.7395]]]},"properties":{"geoid":"36012","state":"36","district":"12","name":"State Senate District 12","chamber":"Senate"}},{"type":"Feature","geometry":{"type":"Polygon","coordinates":[[[-73.9,40.7573],[-73.8855,40.7402],[-73.8735,40.7425],[-73.8701,40.7365],[-73.8744,40.7349],[-73.8444,40.7342],[-73.8522,40.7527],[-73.8432,40.7553],[-73.8459,40.7605],[-73.8533,40.7577],[-73.8699,40.771],[-73.8941,40.7663],[-73.9,40.7573]]]},"properties":{"geoid":"36013","state":"36","district":"13","name":"State Senate District 13","chamber":"Senate"}},{"type":"Feature","geometry":{"type":"Polygon","coordinates":[[[-73.852,40.7269],[-73.8448,40.7202],[-73.8509,40.7105],[-73.8422,40.7116],[-73.8366,40.7034],[-73.8165,40.7025],[-73.811,40.6919],[-73.7991,40.6953],[-73.7923,40.6874],[-73.7789,40.6896],[-73.7616,40.6797],[-73.7637,40.6747],[-73.7576,40.6665],[-73.7283,40.6666],[-73.7258,40.6844],[-73.7303,40.7222],[-73.7883,40.7043],[-73.7834,40.7068],[-73.8017,40.7058],[-73.8125,40.7121],[-73.8076,40.715],[-73.8115,40.7213],[-73.808,40.7233],[-73.815,40.7305],[-73.8293,40.7316],[-73.8382,40.7264],[-73.8454,40.7401],[-73.8444,40.7342],[-73.852,40.7269]]]},"properties":{"geoid":"36014","state":"36","district":"14","name":"State Senate District 14","chamber":"Senate"}},{"type":"Feature","geometry":{"type":"Polygon","coordinates":[[[-73.9012,40.7146],[-73.8888,40.7123],[-73.8902,40.7082],[-73.8828,40.7018],[-73.8868,40.6998],[-73.8692,40.7029],[-73.866,40.6819],[-73.8524,40.6626],[-73.8364,40.6731],[-73.8398,40.68],[-73.8179,40.6775],[-73.811,40.6919],[-73.8165,40.7025],[-73.8315,40.7014],[-73.8422,40.7116],[-73.8509,40.7105],[-73.8448,40.7202],[-73.8524,40.7267],[-73.8461,40.7371],[-73.8643,40.7337],[-73.8666,40.7276],[-73.8752,40.7307],[-73.8947,40.725],[-73.8921,40.719],[-73.9012,40.7146]]]},"properties":{"geoid":"36015","state":"36","district":"15","name":"State Senate District 15","chamber":"Senate"}},{"type":"Feature","geometry":{"type":"Polygon","coordinates":[[[-73.8522,40.7527],[-73.8382,40.7264],[-73.8293,40.7316],[-73.815,40.7305],[-73.8082,40.724],[-73.8115,40.7213],[-73.8078,40.716],[-73.7791,40.7211],[-73.7812,40.7292],[-73.7637,40.7329],[-73.7643,40.7407],[-73.7581,40.7448],[-73.7616,40.7478],[-73.7444,40.7536],[-73.7576,40.7613],[-73.7711,40.7783],[-73.7972,40.7739],[-73.8009,40.7692],[-73.8262,40.7799],[-73.8393,40.7661],[-73.8385,40.7559],[-73.8522,40.7527]]]},"properties":{"geoid":"36016","state":"36","district":"16","name":"State Senate District 16","chamber":"Senate"}},{"type":"Feature","geometry":{"type":"Polygon","coordinates":[[[-74.0235,40.6346],[-74.0201,40.6243],[-74.0121,40.6287],[-74.01,40.6247],[-74.0134,40.6249],[-74.0023,40.6218],[-74.018,40.6038],[-73.9995,40.5965],[-73.9874,40.5851],[-73.9835,40.5873],[-73.9846,40.5936],[-73.9766,40.592],[-73.9775,40.5965],[-73.9715,40.5972],[-73.9768,40.6148],[-74.007,40.6321],[-73.9974,40.6437],[-73.9883,40.6446],[-73.976,40.6358],[-73.9818,40.6552],[-73.9952,40.6597],[-74.0068,40.6485],[-74.0059,40.6424],[-74.0184,40.6408],[-74.0235,40.6346]]]},"properties":{"geoid":"36017","state":"36","district":"17","name":"State Senate District 17","chamber":"Senate"}},{"type":"Feature","geometry":{"type":"Polygon","coordinates":[[[-73.9699,40.7093],[-73.9628,40.698],[-73.9419,40.7007],[-73.904,40.6792],[-73.8886,40.677],[-73.8663,40.6832],[-73.8692,40.7029],[-73.8877,40.6997],[-73.8933,40.6922],[-73.9012,40.6914],[-73.9065,40.6946],[-73.9025,40.7005],[-73.9056,40.7048],[-73.924,40.714],[-73.9278,40.7265],[-73.9404,40.7333],[-73.9429,40.7277],[-73.9368,40.7248],[-73.9591,40.7122],[-73.9684,40.7141],[-73.9699,40.7093]]]},"properties":{"geoid":"36018","state":"36","district":"18","name":"State Senate District 18","chamber":"Senate"}},{"type":"Feature","geometry":{"type":"Polygon","coordinates":[[[-73.9299,40.664],[-73.9209,40.6536],[-73.9186,40.6321],[-73.8983,40.623],[-73.9027,40.6201],[-73.8986,40.6152],[-73.9049,40.6132],[-73.9014,40.6044],[-73.913,40.6029],[-73.9193,40.6069],[-73.8851,40.5737],[-73.8499,40.5887],[-73.8345,40.6072],[-73.833,40.6283],[-73.8483,40.6435],[-73.8357,40.6441],[-73.8397,40.661],[-73.8473,40.6581],[-73.8484,40.6626],[-73.8557,40.6639],[-73.8641,40.6824],[-73.9035,40.6755],[-73.9004,40.6638],[-73.9095,40.6609],[-73.916,40.6599],[-73.9244,40.6664],[-73.9299,40.664]]]},"properties":{"geoid":"36019","state":"36","district":"19","name":"State Senate District 19","chamber":"Senate"}},{"type":"Feature","geometry":{"type":"Polygon","coordinates":[[[-73.9946,40.6602],[-73.9818,40.6552],[-73.9794,40.6428],[-73.9619,40.6549],[-73.961,40.6501],[-73.9208,40.6526],[-73.9307,40.6636],[-73.9228,40.6671],[-73.9217,40.6781],[-73.9496,40.6804],[-73.9564,40.6751],[-73.9805,40.6812],[-73.9762,40.6781],[-73.9796,40.6777],[-73.9801,40.6687],[-73.9934,40.665],[-73.9946,40.6602]]]},"properties":{"geoid":"36020","state":"36","district":"20","name":"State Senate District 20","chamber":"Senate"}},{"type":"Feature","geometry":{"type":"Polygon","coordinates":[[[-73.9769,40.6357],[-73.9709,40.6266],[-73.9616,40.6291],[-73.9493,40.6241],[-73.9393,40.6102],[-73.923,40.6124],[-73.913,40.6029],[-73.9014,40.6044],[-73.9049,40.6132],[-73.8986,40.6152],[-73.9027,40.6201],[-73.8983,40.623],[-73.9186,40.6321],[-73.9208,40.6526],[-73.961,40.6501],[-73.9619,40.6549],[-73.9735,40.6476],[-73.9769,40.6357]]]},"properties":{"geoid":"36021","state":"36","district":"21","name":"State Senate District 21","chamber":"Senate"}},{"type":"Feature","geometry":{"type":"Polygon","coordinates":[[[-74.0067,40.6323],[-73.9748,40.6126],[-73.9708,40.6035],[-73.9715,40.5972],[-73.9775,40.5965],[-73.9742,40.5901],[-73.9628,40.5914],[-73.9593,40.5866],[-73.9398,40.5896],[-73.9415,40.5983],[-73.9358,40.5989],[-73.9281,40.5678],[-73.8851,40.5737],[-73.923,40.6124],[-73.9393,40.6102],[-73.9493,40.6241],[-73.9616,40.6291],[-73.9709,40.6266],[-73.9724,40.633],[-73.976,40.6313],[-73.9883,40.6446],[-73.9974,40.6437],[-74.0067,40.6323]]]},"properties":{"geoid":"36022","state":"36","district":"22","name":"State Senate District 22","chamber":"Senate"}},{"type":"Feature","geometry":{"type":"Polygon","coordinates":[[[-74.1974,40.6359],[-74.1537,40.6123],[-74.1461,40.6249],[-74.1372,40.6243],[-74.1311,40.6311],[-74.1313,40.6263],[-74.0867,40.6345],[-74.083,40.6287],[-74.0906,40.609],[-74.0835,40.6057],[-74.0924,40.6071],[-74.0918,40.5987],[-74.1053,40.5859],[-74.0984,40.5812],[-74.0926,40.5859],[-74.076,40.5783],[-74.065,40.589],[-74.0596,40.5849],[-74.0549,40.5888],[-74.035,40.5728],[-74.0363,40.551],[-73.9281,40.5678],[-73.9358,40.5989],[-73.9415,40.5983],[-73.9398,40.5896],[-73.9593,40.5866],[-73.9628,40.5914],[-73.9807,40.594],[-73.9874,40.5851],[-74.0293,40.6137],[-74.0437,40.6067],[-74.0566,40.6273],[-74.0557,40.6515],[-74.087,40.6515],[-74.126,40.6422],[-74.1816,40.6465],[-74.1974,40.6359]]]},"properties":{"geoid":"36023","state":"36","district":"23","name":"State Senate District 23","chamber":"Senate"}},{"type":"Feature","geometry":{"type":"Polygon","coordinates":[[[-74.2588,40.5001],[-74.253,40.4867],[-74.2253,40.4766],[-74.0423,40.5081],[-74.035,40.5728],[-74.0549,40.5888],[-74.0596,40.5849],[-74.065,40.589],[-74.076,40.5783],[-74.0926,40.5859],[-74.0984,40.5812],[-74.1053,40.5859],[-74.0918,40.5987],[-74.0924,40.6071],[-74.0835,40.6057],[-74.0906,40.609],[-74.083,40.6287],[-74.0867,40.6345],[-74.1313,40.6263],[-74.1311,40.6311],[-74.1372,40.6243],[-74.1461,40.6249],[-74.1537,40.6123],[-74.1974,40.6359],[-74.2039,40.6244],[-74.2048,40.6061],[-74.1996,40.5978],[-74.2072,40.5879],[-74.2146,40.5605],[-74.218,40.5571],[-74.2314,40.5592],[-74.2475,40.5494],[-74.2503,40.5423],[-74.246,40.521],[-74.2541,40.5157],[-74.2588,40.5001]]]},"properties":{"geoid":"36024","state":"36","district":"24","name":"State Senate District 24","chamber":"Senate"}},{"type":"Feature","geometry":{"type":"Polygon","coordinates":[[[-73.9854,40.7006],[-73.9786,40.6898],[-73.9731,40.6896],[-73.9723,40.6828],[-73.98,40.6819],[-73.9753,40.6793],[-73.9564,40.6751],[-73.9496,40.6804],[-73.9246,40.679],[-73.9244,40.6664],[-73.916,40.6599],[-73.9004,40.6638],[-73.9035,40.6755],[-73.8976,40.6781],[-73.9419,40.7007],[-73.9628,40.698],[-73.9728,40.7094],[-73.9854,40.7006]]]},"properties":{"geoid":"36025","state":"36","district":"25","name":"State Senate District 25","chamber":"Senate"}},{"type":"Feature","geometry":{"type":"MultiPolygon","coordinates":[[[[-74.0565,40.6317],[-74.0437,40.6067],[-74.0302,40.6139],[-74.0192,40.607],[-74.0089,40.612],[-74.0023,40.6218],[-74.0134,40.6249],[-74.01,40.6247],[-74.0121,40.6287],[-74.0201,40.6243],[-74.0235,40.6346],[-74.0184,40.6408],[-74.0036,40.6447],[-74.0068,40.6485],[-73.9934,40.665],[-73.9801,40.6687],[-73.9796,40.6777],[-73.9762,40.6781],[-73.9809,40.6806],[-73.9753,40.6793],[-73.98,40.6819],[-73.9721,40.6843],[-73.9854,40.7006],[-73.9792,40.7058],[-73.9895,40.7051],[-73.992,40.7095],[-74.0134,40.6991],[-74.0262,40.7016],[-74.0557,40.6515],[-74.0565,40.6317]]],[[[-74.0407,40.7002],[-74.0399,40.6986],[-74.0384,40.6987],[-74.0407,40.7002]]],[[[-74.0472,40.6909],[-74.0436,40.6888],[-74.0439,40.6902],[-74.0472,40.6909]]]]},"properties":{"geoid":"36026","state":"36","district":"26","name":"State Senate District 26","chamber":"Senate"}},{"type":"Feature","geometry":{"type":"Polygon","coordinates":[[[-74.0257,40.7048],[-74.0262,40.7016],[-74.0134,40.6991],[-73.9976,40.7086],[-73.9866,40.705],[-73.9703,40.7073],[-73.9665,40.7179],[-73.9729,40.7207],[-73.9714,40.7267],[-73.9968,40.7374],[-74.0028,40.7336],[-74.0039,40.7375],[-74.0192,40.7364],[-74.0257,40.7048]]]},"properties":{"geoid":"36027","state":"36","district":"27","name":"State Senate District 27","chamber":"Senate"}},{"type":"Feature","geometry":{"type":"Polygon","coordinates":[[[-74.0011,40.7417],[-73.9908,40.7348],[-73.9735,40.7521],[-73.9665,40.7534],[-73.9577,40.7478],[-73.9353,40.7705],[-73.9344,40.7781],[-73.9436,40.7826],[-73.9422,40.7776],[-73.9466,40.7766],[-73.953,40.7801],[-73.9514,40.7852],[-73.9471,40.7842],[-73.9558,40.7879],[-73.9637,40.777],[-73.9717,40.782],[-73.9939,40.7515],[-73.9911,40.7503],[-73.9971,40.7472],[-73.9928,40.7429],[-74.0011,40.7417]]]},"properties":{"geoid":"36028","state":"36","district":"28","name":"State Senate District 28","chamber":"Senate"}},{"type":"Feature","geometry":{"type":"Polygon","coordinates":[[[-73.9555,40.7882],[-73.9471,40.7842],[-73.9514,40.7852],[-73.953,40.7801],[-73.9466,40.7766],[-73.9422,40.7776],[-73.9436,40.7826],[-73.9299,40.7762],[-73.9103,40.7907],[-73.9125,40.7961],[-73.8999,40.7924],[-73.8925,40.8012],[-73.8702,40.7909],[-73.863,40.7977],[-73.8467,40.801],[-73.8451,40.8063],[-73.8695,40.8161],[-73.8714,40.8243],[-73.888,40.8216],[-73.898,40.813],[-73.9145,40.8185],[-73.9161,40.8248],[-73.924,40.8274],[-73.9168,40.8323],[-73.9148,40.836],[-73.919,40.8384],[-73.9131,40.8451],[-73.9282,40.8455],[-73.9335,40.8332],[-73.93,40.803],[-73.9353,40.8044],[-73.9419,40.7954],[-73.9515,40.7995],[-73.9488,40.7975],[-73.9555,40.7882]]]},"properties":{"geoid":"36029","state":"36","district":"29","name":"State Senate District 29","chamber":"Senate"}},{"type":"Feature","geometry":{"type":"Polygon","coordinates":[[[-73.9791,40.8054],[-73.9558,40.7879],[-73.9488,40.7975],[-73.9515,40.7995],[-73.9419,40.7954],[-73.9353,40.8044],[-73.9307,40.8024],[-73.933,40.8357],[-73.9402,40.8304],[-73.9503,40.8343],[-73.9551,40.8275],[-73.9626,40.8289],[-73.9791,40.8054]]]},"properties":{"geoid":"36030","state":"36","district":"30","name":"State Senate District 30","chamber":"Senate"}},{"type":"Feature","geometry":{"type":"Polygon","coordinates":[[[-73.9625,40.8292],[-73.9551,40.8275],[-73.9503,40.8343],[-73.9402,40.8304],[-73.9282,40.8455],[-73.9141,40.8453],[-73.9098,40.8573],[-73.8969,40.8663],[-73.887,40.8844],[-73.903,40.8888],[-73.9152,40.8756],[-73.9338,40.8822],[-73.9625,40.8292]]]},"properties":{"geoid":"36031","state":"36","district":"31","name":"State Senate District 31","chamber":"Senate"}},{"type":"Feature","geometry":{"type":"Polygon","coordinates":[[[-73.924,40.8274],[-73.9161,40.8248],[-73.9145,40.8185],[-73.898,40.813],[-73.888,40.8216],[-73.8734,40.824],[-73.8774,40.8338],[-73.8727,40.8398],[-73.8991,40.8571],[-73.9176,40.8413],[-73.915,40.8353],[-73.924,40.8274]]]},"properties":{"geoid":"36032","state":"36","district":"32","name":"State Senate District 32","chamber":"Senate"}},{"type":"Feature","geometry":{"type":"Polygon","coordinates":[[[-73.9338,40.8822],[-73.9152,40.8756],[-73.903,40.8888],[-73.887,40.8844],[-73.8969,40.8663],[-73.9098,40.8573],[-73.9141,40.8453],[-73.8991,40.8571],[-73.8904,40.8547],[-73.8726,40.8379],[-73.8533,40.8425],[-73.8587,40.8655],[-73.872,40.8661],[-73.8636,40.8954],[-73.8771,40.8955],[-73.8679,40.903],[-73.9183,40.9177],[-73.9338,40.8822]]]},"properties":{"geoid":"36033","state":"36","district":"33","name":"State Senate District 33","chamber":"Senate"}},{"type":"Feature","geometry":{"type":"Polygon","coordinates":[[[-73.8774,40.8338],[-73.8695,40.8161],[-73.85,40.81],[-73.8451,40.8063],[-73.8467,40.801],[-73.8174,40.8058],[-73.7879,40.8004],[-73.779,40.8117],[-73.7802,40.8264],[-73.7578,40.8457],[-73.748,40.8719],[-73.7406,40.8762],[-73.7616,40.906],[-73.7646,40.9027],[-73.7692,40.9044],[-73.7684,40.909],[-73.7739,40.906],[-73.778,40.9159],[-73.7851,40.916],[-73.7927,40.9271],[-73.8051,40.9267],[-73.824,40.8899],[-73.8198,40.8856],[-73.8233,40.8731],[-73.8168,40.8645],[-73.8368,40.8573],[-73.8566,40.8581],[-73.8533,40.8425],[-73.8774,40.8338]]]},"properties":{"geoid":"36034","state":"36","district":"34","name":"State Senate District 34","chamber":"Senate"}},{"type":"Feature","geometry":{"type":"Polygon","coordinates":[[[-73.9182,40.9179],[-73.8594,40.9004],[-73.8474,40.9153],[-73.8447,40.9237],[-73.8483,40.9297],[-73.8625,40.9355],[-73.8564,40.9364],[-73.8517,40.9495],[-73.8422,40.9546],[-73.8305,40.9791],[-73.8334,40.9852],[-73.8104,40.9883],[-73.7849,41.0218],[-73.7899,41.0291],[-73.7769,41.0377],[-73.7716,41.0564],[-73.7745,41.0663],[-73.7682,41.0697],[-73.7642,41.0852],[-73.7542,41.0941],[-73.7482,41.1122],[-73.7397,41.1173],[-73.7456,41.1278],[-73.7456,41.1403],[-73.8133,41.1717],[-73.8268,41.1511],[-73.8178,41.1355],[-73.827,41.1218],[-73.8876,41.1288],[-73.8949,41.0824],[-73.8894,41.0376],[-73.8936,40.9972],[-73.9182,40.9179]]]},"properties":{"geoid":"36035","state":"36","district":"35","name":"State Senate District 35","chamber":"Senate"}},{"type":"Feature","geometry":{"type":"Polygon","coordinates":[[[-73.8764,40.8969],[-73.8636,40.8954],[-73.8709,40.8803],[-73.8705,40.8633],[-73.8587,40.8655],[-73.8566,40.8581],[-73.8368,40.8573],[-73.8205,40.8614],[-73.8163,40.8661],[-73.8233,40.8731],[-73.8198,40.8856],[-73.824,40.8899],[-73.8051,40.9266],[-73.8346,40.9354],[-73.8594,40.9004],[-73.8679,40.903],[-73.8764,40.8969]]]},"properties":{"geoid":"36036","state":"36","district":"36","name":"State Senate District 36","chamber":"Senate"}},{"type":"Feature","geometry":{"type":"Polygon","coordinates":[[[-73.8625,40.9355],[-73.8436,40.9235],[-73.8346,40.9354],[-73.8047,40.9252],[-73.7927,40.9271],[-73.7851,40.916],[-73.778,40.9159],[-73.7739,40.906],[-73.7684,40.909],[-73.7692,40.9044],[-73.7646,40.9027],[-73.7616,40.906],[-73.7406,40.8762],[-73.6129,40.9509],[-73.6597,40.9879],[-73.6553,41.0122],[-73.7278,41.1007],[-73.5126,41.1994],[-73.5637,41.2601],[-73.6195,41.255],[-73.5916,41.1948],[-73.7035,41.1657],[-73.7456,41.1403],[-73.7456,41.1278],[-73.7397,41.1173],[-73.7482,41.1122],[-73.7542,41.0941],[-73.7642,41.0852],[-73.7682,41.0697],[-73.7745,41.0663],[-73.7716,41.0564],[-73.7769,41.0377],[-73.7899,41.0291],[-73.7849,41.0218],[-73.8104,40.9883],[-73.8334,40.9852],[-73.8305,40.9791],[-73.8422,40.9546],[-73.8517,40.9495],[-73.8564,40.9364],[-73.8625,40.9355]]]},"properties":{"geoid":"36037","state":"36","district":"37","name":"State Senate District 37","chamber":"Senate"}},{"type":"Feature","geometry":{"type":"Polygon","coordinates":[[[-74.2344,41.1431],[-73.9027,40.9973],[-73.894,40.9972],[-73.8894,41.0376],[-73.8949,41.0824],[-73.8875,41.1383],[-73.8925,41.1506],[-73.9093,41.1644],[-73.9315,41.205],[-73.948,41.2231],[-73.9859,41.214],[-74.0176,41.2204],[-74.0395,41.2196],[-74.0624,41.2305],[-74.0789,41.2296],[-74.0994,41.2411],[-74.2344,41.1431]]]},"properties":{"geoid":"36038","state":"36","district":"38","name":"State Senate District 38","chamber":"Senate"}},{"type":"Feature","geometry":{"type":"Polygon","coordinates":[[[-74.3041,41.5021],[-74.277,41.4869],[-74.261,41.4898],[-74.255,41.4957],[-74.2033,41.4745],[-74.1644,41.5152],[-74.0416,41.4899],[-74.0336,41.4937],[-73.9976,41.4872],[-73.9996,41.455],[-73.9815,41.4389],[-73.9608,41.4017],[-73.9473,41.3948],[-73.9613,41.3485],[-73.9825,41.3218],[-73.7974,41.3409],[-73.7925,41.4032],[-73.763,41.4303],[-73.7919,41.4285],[-73.7883,41.4765],[-73.8085,41.4751],[-73.8385,41.4524],[-73.8384,41.4984],[-73.5798,41.5265],[-73.5301,41.5272],[-73.521,41.6198],[-73.6282,41.6083],[-73.636,41.7046],[-73.6263,41.7446],[-73.84,41.7217],[-73.8523,41.7358],[-73.9411,41.736],[-73.9533,41.59],[-74.0537,41.5806],[-74.0681,41.606],[-74.0899,41.5986],[-74.0987,41.6073],[-74.1345,41.6157],[-74.1264,41.5825],[-74.2449,41.6038],[-74.2441,41.5905],[-74.2717,41.55],[-74.2767,41.5303],[-74.2808,41.5309],[-74.3041,41.5021]]]},"properties":{"geoid":"36039","state":"36","district":"39","name":"State Senate District 39","chamber":"Senate"}},{"type":"Feature","geometry":{"type":"Polygon","coordinates":[[[-74.0994,41.2411],[-74.0789,41.2296],[-74.0624,41.2305],[-74.0395,41.2196],[-74.0176,41.2204],[-73.9859,41.214],[-73.948,41.2231],[-73.9315,41.205],[-73.9093,41.1644],[-73.8925,41.1506],[-73.8876,41.1288],[-73.8339,41.1207],[-73.8322,41.1242],[-73.8269,41.1219],[-73.818,41.1335],[-73.8268,41.1511],[-73.8133,41.1717],[-73.7456,41.1403],[-73.7035,41.1657],[-73.5916,41.1948],[-73.6195,41.255],[-73.5637,41.2601],[-73.5126,41.1994],[-73.4827,41.2128],[-73.551,41.2954],[-73.5301,41.5272],[-73.5798,41.5265],[-73.8384,41.4984],[-73.8385,41.4524],[-73.8085,41.4751],[-73.7883,41.4765],[-73.7919,41.4285],[-73.763,41.4303],[-73.7925,41.4032],[-73.7974,41.3409],[-73.9825,41.3218],[-73.9808,41.3254],[-74.0994,41.2411]]]},"properties":{"geoid":"36040","state":"36","district":"40","name":"State Senate District 40","chamber":"Senate"}},{"type":"Feature","geometry":{"type":"Polygon","coordinates":[[[-74.5481,42.1275],[-74.4594,42.0878],[-74.5078,42.0408],[-74.3378,41.9511],[-74.3162,42.0036],[-74.2558,42.0207],[-74.2496,42.0195],[-74.2491,42.0124],[-74.243,42.0139],[-74.2421,42.0093],[-74.1896,42.0031],[-74.1704,41.9714],[-74.1882,41.9622],[-74.0841,41.9037],[-74.0898,41.8933],[-74.0855,41.8907],[-74.1252,41.829],[-74.1163,41.7981],[-74.169,41.7491],[-74.1092,41.7137],[-74.0837,41.6911],[-74.095,41.6843],[-74.1131,41.6914],[-74.1228,41.6719],[-74.127,41.6731],[-74.1442,41.6379],[-74.1247,41.6331],[-74.1345,41.6157],[-74.0987,41.6073],[-74.0899,41.5986],[-74.0681,41.606],[-74.0537,41.5806],[-73.9533,41.59],[-73.9411,41.736],[-73.8523,41.7358],[-73.84,41.7217],[-73.6263,41.7446],[-73.636,41.7046],[-73.6282,41.6083],[-73.521,41.6198],[-73.4873,42.0495],[-73.497,42.0496],[-73.5082,42.0861],[-73.3524,42.51],[-73.8368,42.4586],[-74.2543,42.4082],[-74.2447,42.3772],[-74.2592,42.3791],[-74.2766,42.3633],[-74.3461,42.3557],[-74.3791,42.3739],[-74.4435,42.355],[-74.4282,42.3491],[-74.5373,42.2014],[-74.4517,42.1692],[-74.504,42.1449],[-74.531,42.1465],[-74.5481,42.1275]]]},"properties":{"geoid":"36041","state":"36","district":"41","name":"State Senate District 41","chamber":"Senate"}},{"type":"Feature","geometry":{"type":"Polygon","coordinates":[[[-74.7626,41.4477],[-74.7519,41.4325],[-74.7546,41.4249],[-74.737,41.4295],[-74.7347,41.4225],[-74.7414,41.4057],[-74.7346,41.3974],[-74.7164,41.393],[-74.708,41.3787],[-74.6914,41.3674],[-74.6898,41.3617],[-74.6956,41.3576],[-74.2344,41.1431],[-73.9808,41.3254],[-73.9613,41.3485],[-73.9473,41.3948],[-73.9608,41.4017],[-73.9815,41.4389],[-73.9996,41.455],[-73.9976,41.4872],[-74.0336,41.4937],[-74.0416,41.4899],[-74.1644,41.5152],[-74.2033,41.4745],[-74.255,41.4957],[-74.261,41.4898],[-74.277,41.4869],[-74.3041,41.5021],[-74.2808,41.5309],[-74.2767,41.5303],[-74.2717,41.55],[-74.2437,41.5917],[-74.2449,41.6038],[-74.2516,41.6054],[-74.2502,41.6293],[-74.2641,41.6327],[-74.3043,41.6157],[-74.306,41.609],[-74.312,41.6113],[-74.332,41.5967],[-74.3409,41.5944],[-74.3504,41.5986],[-74.3535,41.5917],[-74.3861,41.5831],[-74.3904,41.5864],[-74.3976,41.5751],[-74.4086,41.5749],[-74.4083,41.5683],[-74.4181,41.5698],[-74.4197,41.5624],[-74.4362,41.5511],[-74.4348,41.5464],[-74.4454,41.544],[-74.4446,41.5372],[-74.4657,41.523],[-74.4656,41.5169],[-74.4761,41.5104],[-74.4756,41.504],[-74.7524,41.4937],[-74.762,41.4889],[-74.7504,41.4643],[-74.7598,41.4608],[-74.7626,41.4477]]]},"properties":{"geoid":"36042","state":"36","district":"42","name":"State Senate District 42","chamber":"Senate"}},{"type":"Feature","geometry":{"type":"Polygon","coordinates":[[[-73.9338,42.7607],[-73.8127,42.6905],[-73.7871,42.6871],[-73.7799,42.6818],[-73.778,42.6856],[-73.7653,42.6764],[-73.7602,42.6849],[-73.7233,42.6729],[-73.7418,42.6544],[-73.7613,42.6104],[-73.7522,42.5666],[-73.7613,42.5258],[-73.7855,42.4872],[-73.7837,42.4642],[-73.3524,42.51],[-73.2648,42.7459],[-73.2764,42.746],[-73.2909,42.8019],[-73.2837,42.8139],[-73.2854,42.8341],[-73.2787,42.8334],[-73.2783,42.8376],[-73.2477,43.5232],[-73.2414,43.5323],[-73.2501,43.5434],[-73.2486,43.5539],[-73.2545,43.5556],[-73.2586,43.565],[-73.2679,43.5722],[-73.2809,43.5736],[-73.2849,43.5793],[-73.2973,43.5794],[-73.2921,43.5845],[-73.2969,43.5873],[-73.291,43.5992],[-73.298,43.61],[-73.3028,43.6098],[-73.3003,43.6173],[-73.3041,43.6271],[-73.3281,43.6259],[-73.3019,43.4871],[-73.375,43.4799],[-73.3638,43.4183],[-73.4845,43.4058],[-73.488,43.4011],[-73.484,43.3977],[-73.4866,43.3948],[-73.4699,43.304],[-73.5951,43.2909],[-73.6,43.2798],[-73.6007,43.2685],[-73.5924,43.2671],[-73.5869,43.2575],[-73.5975,43.241],[-73.586,43.2274],[-73.5792,43.2097],[-73.5858,43.1924],[-73.581,43.1825],[-73.5898,43.1705],[-73.5833,43.1656],[-73.5802,43.1529],[-73.5911,43.1375],[-73.5856,43.1237],[-73.5757,43.116],[-73.5753,43.0825],[-73.5818,43.0702],[-73.5778,43.0573],[-73.5864,43.0485],[-73.5931,43.0154],[-73.6067,42.9992],[-73.6089,42.9828],[-73.6311,42.9706],[-73.6323,42.9444],[-73.6597,42.9334],[-73.6831,42.9038],[-73.6844,42.8916],[-73.6732,42.8753],[-73.6759,42.8586],[-73.6714,42.842],[-73.6597,42.819],[-73.6614,42.803],[-73.6722,42.7962],[-73.6768,42.7833],[-73.6914,42.7758],[-73.7199,42.8013],[-73.7167,42.8082],[-73.7267,42.8226],[-73.7377,42.8189],[-73.7667,42.7861],[-73.78,42.7922],[-73.798,42.7795],[-73.8094,42.7789],[-73.8096,42.775],[-73.9338,42.7607]]]},"properties":{"geoid":"36043","state":"36","district":"43","name":"State Senate District 43","chamber":"Senate"}},{"type":"Feature","geometry":{"type":"Polygon","coordinates":[[[-74.1601,43.3715],[-74.093,42.9559],[-74.0555,42.9533],[-74.0065,42.9341],[-73.9555,42.8973],[-73.9044,42.9112],[-73.8959,42.8511],[-73.9172,42.8437],[-73.9314,42.8286],[-73.9511,42.8184],[-73.952,42.8105],[-73.972,42.8102],[-73.9832,42.8017],[-73.9679,42.79],[-73.9239,42.7906],[-73.9173,42.7758],[-73.9203,42.7752],[-73.9068,42.7634],[-73.8096,42.775],[-73.8094,42.7789],[-73.798,42.7795],[-73.7825,42.7918],[-73.7667,42.7861],[-73.7377,42.8189],[-73.7267,42.8226],[-73.7167,42.8082],[-73.7199,42.8013],[-73.7032,42.7825],[-73.6892,42.7754],[-73.6768,42.7833],[-73.6722,42.7962],[-73.6585,42.8091],[-73.6759,42.8586],[-73.6732,42.8753],[-73.6844,42.8916],[-73.6831,42.9038],[-73.6597,42.9334],[-73.6323,42.9444],[-73.6311,42.9706],[-73.6089,42.9828],[-73.6067,42.9992],[-73.5931,43.0154],[-73.5864,43.0485],[-73.5778,43.0573],[-73.5818,43.0702],[-73.5753,43.0825],[-73.5757,43.116],[-73.5856,43.1237],[-73.5911,43.1375],[-73.5802,43.1529],[-73.5833,43.1656],[-73.5898,43.1705],[-73.581,43.1825],[-73.5858,43.1924],[-73.5792,43.2097],[-73.586,43.2274],[-73.5975,43.241],[-73.5872,43.2597],[-73.5924,43.2671],[-73.601,43.2694],[-73.5888,43.3005],[-73.5977,43.3065],[-73.6411,43.3058],[-73.6419,43.2933],[-73.6712,43.2902],[-73.6732,43.2821],[-73.6618,43.2726],[-73.6721,43.2632],[-73.6809,43.2673],[-73.6886,43.2843],[-73.696,43.2785],[-73.7328,43.2699],[-73.7398,43.2656],[-73.7377,43.2553],[-73.744,43.2427],[-73.7675,43.2221],[-73.7929,43.2462],[-73.8154,43.251],[-73.8259,43.2456],[-73.8349,43.251],[-73.8356,43.2658],[-73.8252,43.2775],[-73.8246,43.3043],[-73.8369,43.3066],[-73.8432,43.3189],[-73.8586,43.3281],[-73.8533,43.3378],[-73.8751,43.3619],[-73.871,43.3725],[-73.8833,43.398],[-74.1601,43.3715]]]},"properties":{"geoid":"36044","state":"36","district":"44","name":"State Senate District 44","chamber":"Senate"}},{"type":"Feature","geometry":{"type":"Polygon","coordinates":[[[-75.4487,44.7106],[-75.2266,44.4769],[-75.095,44.5402],[-75.0838,44.4605],[-74.9422,44.4653],[-74.9156,44.2635],[-75.0487,44.2547],[-75.0481,44.2497],[-75.0301,44.1544],[-74.8983,44.16],[-74.8893,44.0668],[-74.2819,44.1206],[-74.256,43.9698],[-74.3368,43.9252],[-74.2137,43.8109],[-74.2012,43.8212],[-74.1491,43.8296],[-74.1395,43.8264],[-74.1387,43.8177],[-74.1185,43.8095],[-74.0917,43.8043],[-74.0857,43.8089],[-74.0469,43.7953],[-74.0512,43.7882],[-74.0461,43.7812],[-74.0547,43.7682],[-74.057,43.7445],[-74.2146,43.7287],[-74.1601,43.3715],[-73.8833,43.398],[-73.871,43.3725],[-73.8751,43.3619],[-73.8533,43.3378],[-73.8586,43.3281],[-73.8432,43.3189],[-73.8369,43.3066],[-73.8246,43.3043],[-73.8252,43.2775],[-73.8356,43.2658],[-73.8349,43.251],[-73.8259,43.2456],[-73.8154,43.251],[-73.7929,43.2462],[-73.7664,43.2222],[-73.7428,43.2444],[-73.7381,43.2671],[-73.696,43.2785],[-73.6886,43.2843],[-73.6793,43.2656],[-73.6697,43.2639],[-73.6618,43.2726],[-73.6732,43.2821],[-73.6712,43.2902],[-73.6419,43.2933],[-73.6428,43.3042],[-73.6377,43.3067],[-73.5947,43.3059],[-73.5885,43.2994],[-73.5951,43.2909],[-73.4699,43.304],[-73.4866,43.3948],[-73.484,43.3977],[-73.488,43.4011],[-73.4845,43.4058],[-73.3638,43.4183],[-73.375,43.4799],[-73.3019,43.4871],[-73.3281,43.6259],[-73.3441,43.6264],[-73.3488,43.6215],[-73.3543,43.6262],[-73.3719,43.6245],[-73.3698,43.6194],[-73.3764,43.6088],[-73.3725,43.6048],[-73.3869,43.5908],[-73.3825,43.5866],[-73.3833,43.5772],[-73.3958,43.5681],[-73.4312,43.5883],[-73.4216,43.603],[-73.4237,43.6124],[-73.4177,43.6217],[-73.4284,43.6355],[-73.4265,43.6426],[-73.4155,43.6525],[-73.4041,43.6813],[-73.4047,43.6902],[-73.3706,43.7253],[-73.3699,43.7439],[-73.3508,43.7714],[-73.3582,43.7865],[-73.3768,43.7992],[-73.3807,43.8108],[-73.3925,43.8213],[-73.3882,43.8327],[-73.3726,43.8454],[-73.3823,43.8561],[-73.3742,43.8762],[-73.3962,43.9033],[-73.4086,43.9319],[-73.4057,43.9559],[-73.4125,43.9822],[-73.4076,44.0211],[-73.4379,44.0451],[-73.4297,44.0786],[-73.4115,44.112],[-73.4161,44.1324],[-73.403,44.145],[-73.3972,44.1738],[-73.3898,44.1818],[-73.3906,44.1911],[-73.3623,44.2085],[-73.3434,44.2382],[-73.3237,44.2442],[-73.3127,44.2654],[-73.3122,44.2801],[-73.3242,44.31],[-73.324,44.3338],[-73.335,44.3644],[-73.3336,44.3723],[-73.315,44.3885],[-73.2936,44.4389],[-73.3001,44.4547],[-73.2992,44.4729],[-73.3067,44.5003],[-73.3208,44.5136],[-73.322,44.5253],[-73.3297,44.5296],[-73.3388,44.548],[-73.3568,44.5579],[-73.375,44.5758],[-73.3818,44.5893],[-73.3768,44.5996],[-73.3902,44.6184],[-73.3868,44.6364],[-73.3786,44.6415],[-73.3845,44.6467],[-73.3697,44.6635],[-73.3701,44.6849],[-73.3613,44.6945],[-73.366,44.6976],[-73.3656,44.7418],[-73.3332,44.7888],[-73.335,44.8041],[-73.3795,44.838],[-73.3816,44.8494],[-73.3798,44.857],[-73.3691,44.8667],[-73.3562,44.9045],[-73.339,44.9177],[-73.3382,44.9648],[-73.3546,44.9874],[-73.3432,45.0107],[-73.8414,45.0021],[-74.1501,44.9914],[-74.6631,44.9989],[-74.6705,45.0063],[-74.6733,45.0008],[-74.702,45.0033],[-74.7226,44.9981],[-74.7313,44.9904],[-74.7602,44.9949],[-74.7634,45.0056],[-74.7931,45.0046],[-74.8016,45.0146],[-74.8172,45.0117],[-74.8266,45.0159],[-74.8666,45.0005],[-74.8878,45],[-74.9079,44.9834],[-74.9724,44.9834],[-74.9927,44.9775],[-75.0052,44.9584],[-75.0648,44.9294],[-75.0967,44.9271],[-75.1051,44.9195],[-75.1176,44.9213],[-75.1337,44.9154],[-75.14,44.8969],[-75.165,44.8935],[-75.2029,44.8778],[-75.2184,44.8778],[-75.2282,44.8683],[-75.241,44.8672],[-75.2904,44.8456],[-75.3076,44.8368],[-75.3019,44.8265],[-75.3337,44.8064],[-75.3445,44.8091],[-75.3698,44.7881],[-75.37,44.7829],[-75.4137,44.7722],[-75.4237,44.7561],[-75.4441,44.7427],[-75.4342,44.7309],[-75.4293,44.7136],[-75.4487,44.7106]]]},"properties":{"geoid":"36045","state":"36","district":"45","name":"State Senate District 45","chamber":"Senate"}},{"type":"Feature","geometry":{"type":"Polygon","coordinates":[[[-74.7621,42.8697],[-74.7633,42.8632],[-74.6507,42.8301],[-74.5625,42.8129],[-74.4549,42.773],[-74.2894,42.7838],[-74.2633,42.7965],[-74.2554,42.7957],[-74.2477,42.7855],[-74.2547,42.7747],[-74.2515,42.7656],[-74.2588,42.7571],[-74.2898,42.7563],[-74.3065,42.7506],[-74.2778,42.7195],[-74.2708,42.7195],[-74.2723,42.7143],[-74.2398,42.7189],[-74.2027,42.7108],[-74.1842,42.7125],[-74.1803,42.73],[-74.1647,42.7172],[-74.1735,42.6571],[-74.1935,42.619],[-74.2152,42.5974],[-74.2203,42.5854],[-74.234,42.5757],[-74.2416,42.5508],[-74.2256,42.5264],[-74.2264,42.4992],[-74.2445,42.4703],[-74.2649,42.4199],[-74.2635,42.4071],[-73.7837,42.4642],[-73.7855,42.4872],[-73.7613,42.5258],[-73.7522,42.5666],[-73.7613,42.6104],[-73.7418,42.6544],[-73.7233,42.6729],[-73.7602,42.6849],[-73.7653,42.6764],[-73.778,42.6856],[-73.7799,42.6818],[-73.7871,42.6871],[-73.8127,42.6905],[-73.9338,42.7607],[-73.9068,42.7634],[-73.9203,42.7752],[-73.9173,42.7758],[-73.9239,42.7906],[-73.9679,42.79],[-73.9832,42.8017],[-73.972,42.8102],[-73.952,42.8105],[-73.9511,42.8184],[-73.9314,42.8286],[-73.9172,42.8437],[-73.8959,42.8511],[-73.9044,42.9112],[-73.9555,42.8973],[-74.0065,42.9341],[-74.0555,42.9533],[-74.093,42.9559],[-74.0975,42.9829],[-74.5424,42.9855],[-74.7599,43.0474],[-74.7438,43.0307],[-74.7402,43.0145],[-74.7437,42.9994],[-74.7401,42.9983],[-74.7621,42.8697]]]},"properties":{"geoid":"36046","state":"36","district":"46","name":"State Senate District 46","chamber":"Senate"}},{"type":"Feature","geometry":{"type":"Polygon","coordinates":[[[-74.0184,40.7396],[-74.0192,40.7364],[-73.9987,40.7348],[-74.0016,40.7411],[-73.9928,40.7429],[-73.9971,40.7472],[-73.9911,40.7503],[-73.9939,40.7515],[-73.9717,40.782],[-73.9637,40.777],[-73.9567,40.7892],[-73.9806,40.8033],[-74.014,40.7576],[-74.0184,40.7396]]]},"properties":{"geoid":"36047","state":"36","district":"47","name":"State Senate District 47","chamber":"Senate"}},{"type":"Feature","geometry":{"type":"Polygon","coordinates":[[[-76.7535,43.6843],[-76.7147,43.2658],[-76.7023,43.0804],[-76.7059,43.0708],[-76.7178,43.0626],[-76.7186,43.0331],[-76.7112,43.018],[-76.7217,43.0079],[-76.7207,42.9954],[-76.7288,42.9878],[-76.7276,42.9781],[-76.7367,42.9703],[-76.7394,42.9545],[-76.7343,42.9448],[-76.7375,42.9021],[-76.7212,42.8696],[-76.7172,42.8388],[-76.7195,42.8254],[-76.7383,42.7947],[-76.74,42.7764],[-76.729,42.7129],[-76.6879,42.6748],[-76.6665,42.6235],[-76.4587,42.6274],[-76.4585,42.6186],[-76.2656,42.6236],[-76.2747,42.7713],[-75.8961,42.791],[-75.9106,42.9894],[-76.1075,42.9812],[-76.1116,43.0293],[-76.093,43.0335],[-76.0933,43.0371],[-76.0743,43.0365],[-76.0746,43.0415],[-76.0796,43.04],[-76.0928,43.0481],[-76.0897,43.0546],[-76.0825,43.0546],[-76.0837,43.0583],[-76.1026,43.0764],[-76.1245,43.0729],[-76.1263,43.0795],[-76.1474,43.0848],[-76.1561,43.0817],[-76.1625,43.0861],[-76.1713,43.0769],[-76.1762,43.079],[-76.2004,43.0637],[-76.1923,43.0425],[-76.1997,43.0419],[-76.2041,43.047],[-76.204,43.0415],[-76.1897,43.0425],[-76.1876,43.0324],[-76.2917,43.0284],[-76.2906,43.0143],[-76.371,43.0105],[-76.3772,43.082],[-76.2971,43.088],[-76.2976,43.0943],[-76.2592,43.1009],[-76.2794,43.1245],[-76.2542,43.1207],[-76.2507,43.1239],[-76.2538,43.1297],[-76.2377,43.1385],[-76.237,43.1496],[-76.2458,43.1598],[-76.2777,43.1766],[-76.2764,43.1899],[-76.2827,43.1959],[-76.2799,43.2009],[-76.289,43.2185],[-76.3064,43.2305],[-76.3242,43.2323],[-76.4792,43.2275],[-76.4811,43.2566],[-76.605,43.2536],[-76.6447,43.7035],[-76.7347,43.7081],[-76.7535,43.6843]]]},"properties":{"geoid":"36048","state":"36","district":"48","name":"State Senate District 48","chamber":"Senate"}},{"type":"Feature","geometry":{"type":"Polygon","coordinates":[[[-76.7013,43.7501],[-76.7347,43.7081],[-76.6447,43.7035],[-76.6176,43.4239],[-76.5693,43.4536],[-76.5382,43.464],[-76.5394,43.4731],[-76.4931,43.4927],[-76.4866,43.4868],[-76.4745,43.5],[-76.4362,43.5151],[-76.4213,43.5265],[-76.3715,43.5336],[-76.3651,43.4389],[-75.8868,43.325],[-75.8146,43.4836],[-75.5334,43.4198],[-75.1102,43.6152],[-75.0766,43.3307],[-75.0918,43.3286],[-75.0929,43.3231],[-75.0998,43.3252],[-75.1076,43.3117],[-75.1192,43.3105],[-75.1203,43.3042],[-75.148,43.3052],[-75.1479,43.29],[-75.1626,43.2601],[-75.1603,43.2558],[-75.1528,43.2583],[-75.151,43.2469],[-75.1432,43.2552],[-75.1364,43.2487],[-75.1239,43.2465],[-75.1227,43.241],[-75.0922,43.2306],[-75.0715,43.2345],[-75.0738,43.2295],[-75.0692,43.2273],[-75.1855,43.0884],[-75.1817,43.0877],[-75.1841,43.0833],[-75.1779,43.0825],[-75.1823,43.0753],[-75.1957,43.0777],[-75.2191,43.0525],[-75.216,43.0228],[-75.0951,42.9943],[-74.9925,42.9517],[-74.9678,42.9506],[-75.0004,42.8663],[-74.9067,42.8249],[-74.8947,42.8321],[-74.8909,42.8414],[-74.8788,42.8983],[-74.7633,42.8632],[-74.7401,42.9983],[-74.7437,42.9994],[-74.7402,43.0145],[-74.7438,43.0307],[-74.7599,43.0474],[-74.5424,42.9855],[-74.0975,42.9829],[-74.2146,43.7287],[-74.057,43.7445],[-74.0547,43.7682],[-74.0461,43.7812],[-74.0512,43.7882],[-74.0469,43.7953],[-74.0857,43.8089],[-74.0917,43.8043],[-74.1185,43.8095],[-74.1387,43.8177],[-74.1395,43.8264],[-74.1491,43.8296],[-74.2012,43.8212],[-74.2137,43.8109],[-74.3368,43.9252],[-74.256,43.9698],[-74.2819,44.1206],[-74.8893,44.0668],[-74.8983,44.16],[-75.0301,44.1544],[-75.0481,44.2497],[-75.0487,44.2547],[-74.9156,44.2635],[-74.9422,44.4653],[-75.0838,44.4605],[-75.095,44.5402],[-75.2266,44.4769],[-75.3845,44.6461],[-75.4487,44.7066],[-75.4494,44.7105],[-75.4293,44.7136],[-75.4342,44.7309],[-75.4441,44.7427],[-75.5049,44.7054],[-75.7669,44.5153],[-75.8076,44.4717],[-75.8214,44.432],[-75.9128,44.3678],[-75.9217,44.3688],[-75.9295,44.3593],[-75.9702,44.3425],[-76.0011,44.3479],[-76.0455,44.3318],[-76.097,44.2997],[-76.1312,44.2964],[-76.1618,44.2808],[-76.1643,44.2396],[-76.2068,44.2145],[-76.2455,44.2037],[-76.3126,44.199],[-76.3527,44.1347],[-76.4383,44.0942],[-76.4989,44.0001],[-76.7013,43.7501]]]},"properties":{"geoid":"36049","state":"36","district":"49","name":"State Senate District 49","chamber":"Senate"}},{"type":"Feature","geometry":{"type":"Polygon","coordinates":[[[-76.6176,43.4239],[-76.605,43.2536],[-76.4811,43.2566],[-76.4792,43.2275],[-76.3075,43.2308],[-76.2878,43.2168],[-76.2799,43.2009],[-76.2827,43.1959],[-76.2764,43.1899],[-76.2777,43.1766],[-76.2469,43.1606],[-76.2375,43.1506],[-76.238,43.1378],[-76.2538,43.1297],[-76.2519,43.1218],[-76.2794,43.1245],[-76.2592,43.1009],[-76.2976,43.0943],[-76.2971,43.088],[-76.3772,43.082],[-76.371,43.0105],[-76.2906,43.0143],[-76.2917,43.0284],[-76.1876,43.0324],[-76.1897,43.0425],[-76.204,43.0415],[-76.2041,43.047],[-76.1997,43.0419],[-76.1923,43.0425],[-76.2004,43.0637],[-76.1762,43.079],[-76.1713,43.0769],[-76.1625,43.0861],[-76.1561,43.0817],[-76.1474,43.0848],[-76.1263,43.0795],[-76.1245,43.0729],[-76.1026,43.0764],[-76.0837,43.0583],[-76.0825,43.0546],[-76.0897,43.0546],[-76.0928,43.0481],[-76.0796,43.04],[-76.0746,43.0415],[-76.0743,43.0365],[-76.0933,43.0371],[-76.093,43.0335],[-76.1116,43.0293],[-76.1075,42.9812],[-75.9106,42.9894],[-75.9172,43.0859],[-75.9268,43.0906],[-75.9287,43.0872],[-75.9504,43.0896],[-75.9618,43.0855],[-75.9608,43.089],[-75.9754,43.0909],[-75.9764,43.103],[-75.9715,43.1049],[-75.9655,43.1197],[-75.9544,43.1169],[-75.9606,43.1233],[-75.9501,43.1349],[-75.9638,43.1336],[-75.9722,43.1405],[-75.9773,43.1362],[-75.9712,43.1546],[-75.9771,43.1576],[-75.9744,43.1632],[-75.9815,43.1728],[-75.9926,43.1738],[-75.9896,43.1792],[-75.9935,43.1839],[-75.9797,43.1774],[-75.9594,43.1804],[-75.9527,43.1711],[-75.9329,43.1767],[-75.9254,43.1617],[-75.8843,43.1556],[-75.8629,43.3193],[-76.3651,43.4389],[-76.3715,43.5336],[-76.4213,43.5265],[-76.4362,43.5151],[-76.4745,43.5],[-76.4866,43.4868],[-76.4931,43.4927],[-76.5394,43.4731],[-76.5382,43.464],[-76.5693,43.4536],[-76.6176,43.4239]]]},"properties":{"geoid":"36050","state":"36","district":"50","name":"State Senate District 50","chamber":"Senate"}},{"type":"Feature","geometry":{"type":"Polygon","coordinates":[[[-75.982,42.322],[-75.9776,42.234],[-75.8534,42.2395],[-75.8431,42.2363],[-75.8489,42.2168],[-75.8301,42.1915],[-75.8309,42.1739],[-75.847,42.161],[-75.8835,42.1647],[-75.898,42.1431],[-75.8776,42.1442],[-75.8759,42.1157],[-75.8587,42.1168],[-75.857,42.1035],[-75.8666,42.101],[-75.8584,42.0623],[-75.8795,42.0616],[-75.8765,42.0176],[-75.8716,42.0175],[-75.8707,41.9984],[-75.3596,41.9996],[-75.3416,41.9932],[-75.3375,41.9846],[-75.3416,41.9722],[-75.328,41.9679],[-75.3109,41.9491],[-75.3013,41.9481],[-75.3011,41.9534],[-75.2933,41.9543],[-75.2895,41.9432],[-75.2788,41.9387],[-75.2766,41.9222],[-75.2673,41.9061],[-75.273,41.8966],[-75.2717,41.8884],[-75.2596,41.8823],[-75.2575,41.8761],[-75.2643,41.8695],[-75.2583,41.8623],[-75.2411,41.8673],[-75.2245,41.8576],[-75.215,41.8673],[-75.2046,41.8699],[-75.1854,41.8601],[-75.1725,41.8723],[-75.1629,41.8506],[-75.1406,41.8522],[-75.131,41.8453],[-75.1166,41.8454],[-75.113,41.8226],[-75.0899,41.8117],[-75.0722,41.8141],[-75.0757,41.7996],[-75.0929,41.7965],[-75.1017,41.7875],[-75.1047,41.7744],[-75.0946,41.7684],[-75.0746,41.7713],[-75.0612,41.7648],[-75.053,41.7518],[-75.0548,41.7349],[-75.0497,41.7134],[-75.069,41.7093],[-75.0526,41.6881],[-75.0513,41.68],[-75.0595,41.6723],[-75.0495,41.6603],[-75.0442,41.6181],[-75.0597,41.6176],[-75.0597,41.6104],[-75.0746,41.6063],[-75.0188,41.5524],[-75.016,41.5442],[-75.0247,41.5401],[-75.0245,41.5346],[-75.0032,41.5235],[-75.0036,41.5083],[-74.9842,41.5065],[-74.9828,41.4805],[-74.9582,41.4766],[-74.9429,41.4836],[-74.913,41.476],[-74.9066,41.4609],[-74.8902,41.4556],[-74.8943,41.439],[-74.8577,41.4442],[-74.832,41.4304],[-74.8094,41.4431],[-74.8014,41.4387],[-74.7931,41.4224],[-74.7727,41.4263],[-74.7586,41.4233],[-74.7519,41.4325],[-74.7625,41.4495],[-74.7598,41.4608],[-74.7504,41.4643],[-74.7621,41.4885],[-74.7524,41.4937],[-74.4756,41.504],[-74.4761,41.5104],[-74.4656,41.5169],[-74.4657,41.523],[-74.4446,41.5372],[-74.4454,41.544],[-74.4348,41.5464],[-74.4362,41.5511],[-74.4197,41.5624],[-74.4181,41.5698],[-74.4083,41.5683],[-74.4086,41.5749],[-74.3976,41.5751],[-74.3904,41.5864],[-74.3861,41.5831],[-74.3535,41.5917],[-74.3504,41.5986],[-74.3409,41.5944],[-74.332,41.5967],[-74.312,41.6113],[-74.306,41.609],[-74.3043,41.6157],[-74.2641,41.6327],[-74.2502,41.6293],[-74.2516,41.6054],[-74.1264,41.5825],[-74.1345,41.6157],[-74.1247,41.6331],[-74.1442,41.6379],[-74.1131,41.6914],[-74.095,41.6843],[-74.0837,41.6911],[-74.1092,41.7137],[-74.169,41.7491],[-74.1163,41.7981],[-74.1252,41.829],[-74.0855,41.8907],[-74.0898,41.8933],[-74.0841,41.9037],[-74.1882,41.9622],[-74.1704,41.9714],[-74.1896,42.0031],[-74.2421,42.0093],[-74.243,42.0139],[-74.2491,42.0124],[-74.2496,42.0195],[-74.2622,42.0209],[-74.3162,42.0036],[-74.3378,41.9511],[-74.5078,42.0408],[-74.4594,42.0878],[-74.5483,42.1274],[-74.531,42.1465],[-74.504,42.1449],[-74.4517,42.1692],[-74.5373,42.2014],[-74.4282,42.3491],[-74.4435,42.355],[-74.3791,42.3739],[-74.3461,42.3557],[-74.321,42.3607],[-74.3126,42.3571],[-74.2995,42.3626],[-74.2766,42.3633],[-74.2592,42.3791],[-74.2447,42.3772],[-74.2543,42.4082],[-74.2635,42.4071],[-74.2649,42.4199],[-74.2445,42.4703],[-74.2264,42.4992],[-74.2256,42.5264],[-74.2416,42.5508],[-74.234,42.5757],[-74.2203,42.5854],[-74.2152,42.5974],[-74.1935,42.619],[-74.1735,42.6571],[-74.1647,42.7172],[-74.1803,42.73],[-74.1842,42.7125],[-74.2027,42.7108],[-74.2398,42.7189],[-74.2723,42.7143],[-74.2708,42.7195],[-74.2778,42.7195],[-74.3065,42.7506],[-74.2898,42.7563],[-74.2588,42.7571],[-74.2515,42.7656],[-74.2547,42.7747],[-74.2477,42.7855],[-74.2549,42.7955],[-74.2633,42.7965],[-74.2894,42.7838],[-74.4549,42.773],[-74.5625,42.8129],[-74.6507,42.8301],[-74.8788,42.8983],[-74.8909,42.8414],[-74.8947,42.8321],[-74.9067,42.8249],[-75.101,42.9084],[-75.1399,42.8598],[-75.2106,42.8565],[-75.2122,42.88],[-75.2427,42.8779],[-75.2483,42.8722],[-75.2439,42.8616],[-75.2478,42.8451],[-75.242,42.8432],[-75.2395,42.8343],[-75.2503,42.8244],[-75.242,42.8176],[-75.2491,42.8117],[-75.251,42.7849],[-75.2576,42.7827],[-75.2587,42.7771],[-75.273,42.7727],[-75.2826,42.7521],[-75.2909,42.7515],[-75.2962,42.7433],[-75.2928,42.7378],[-75.3003,42.7292],[-75.2959,42.7282],[-75.2965,42.7187],[-75.3134,42.6895],[-75.3304,42.6745],[-75.3277,42.6636],[-75.3312,42.6612],[-75.323,42.6438],[-75.3236,42.6341],[-75.3301,42.631],[-75.323,42.623],[-75.339,42.6085],[-75.3363,42.5943],[-75.3252,42.5886],[-75.3303,42.581],[-75.3268,42.5773],[-75.3324,42.573],[-75.33,42.5676],[-75.3543,42.5541],[-75.368,42.552],[-75.3726,42.5369],[-75.3869,42.5235],[-75.384,42.5202],[-75.3894,42.5108],[-75.4073,42.5084],[-75.4082,42.5168],[-75.4484,42.5155],[-75.4516,42.562],[-75.5641,42.5566],[-75.5559,42.4627],[-75.6619,42.4576],[-75.6559,42.3838],[-75.7665,42.3791],[-75.767,42.385],[-75.8593,42.3809],[-75.8504,42.3277],[-75.982,42.322]]]},"properties":{"geoid":"36051","state":"36","district":"51","name":"State Senate District 51","chamber":"Senate"}},{"type":"Feature","geometry":{"type":"Polygon","coordinates":[[[-76.6967,42.5468],[-76.6857,42.3751],[-76.6906,42.3732],[-76.6914,42.2843],[-76.474,42.2811],[-76.4745,42.2638],[-76.4162,42.263],[-76.4153,42.3184],[-76.3509,42.3183],[-76.3506,42.3084],[-76.2882,42.3082],[-76.2882,42.2968],[-76.2501,42.2967],[-76.2514,42.325],[-76.2386,42.3567],[-76.2422,42.3637],[-76.2653,42.3753],[-76.2986,42.3817],[-76.2932,42.4066],[-76.1302,42.4103],[-76.1202,42.3807],[-76.1224,42.3672],[-76.1146,42.3671],[-76.1099,42.3473],[-76.1093,42.3373],[-76.1167,42.3372],[-76.1164,42.3266],[-76.1124,42.3265],[-76.1124,42.3186],[-76.1064,42.3187],[-76.1063,42.3103],[-76.1016,42.3104],[-76.0991,42.3034],[-76.0988,42.2937],[-76.1066,42.2935],[-76.1066,42.2874],[-76.1012,42.2873],[-76.1006,42.2784],[-76.0877,42.2788],[-76.0807,42.258],[-76.0966,42.2574],[-76.0963,42.2495],[-76.0909,42.2496],[-76.0845,42.2305],[-76.0811,42.2305],[-76.0867,42.1869],[-76.1162,42.1856],[-76.1115,42.1123],[-76.1076,42.1124],[-76.1072,42.102],[-76.1115,42.1012],[-76.1058,41.9989],[-75.8707,41.9984],[-75.8716,42.0175],[-75.8765,42.0176],[-75.8795,42.0616],[-75.8584,42.0623],[-75.8666,42.101],[-75.857,42.1035],[-75.8587,42.1168],[-75.8759,42.1157],[-75.8776,42.1442],[-75.898,42.1431],[-75.8835,42.1647],[-75.847,42.161],[-75.8309,42.1739],[-75.8301,42.1915],[-75.8489,42.2168],[-75.8431,42.2363],[-75.8534,42.2395],[-75.9776,42.234],[-75.9813,42.2947],[-75.982,42.322],[-75.8504,42.3277],[-75.8624,42.3978],[-75.8961,42.791],[-76.2747,42.7713],[-76.2656,42.6236],[-76.4585,42.6186],[-76.4587,42.6274],[-76.6665,42.6235],[-76.6562,42.6048],[-76.6268,42.5739],[-76.586,42.5499],[-76.6967,42.5468]]]},"properties":{"geoid":"36052","state":"36","district":"52","name":"State Senate District 52","chamber":"Senate"}},{"type":"Feature","geometry":{"type":"Polygon","coordinates":[[[-75.9935,43.1837],[-75.9896,43.1792],[-75.9926,43.1738],[-75.9815,43.1728],[-75.9744,43.1632],[-75.9771,43.1576],[-75.9712,43.1546],[-75.9773,43.1362],[-75.9722,43.1405],[-75.9638,43.1336],[-75.9501,43.1349],[-75.9606,43.1233],[-75.9544,43.1169],[-75.9655,43.1197],[-75.9715,43.1049],[-75.9764,43.103],[-75.9754,43.0909],[-75.9608,43.089],[-75.9618,43.0855],[-75.9504,43.0896],[-75.9287,43.0872],[-75.9268,43.0906],[-75.9172,43.0858],[-75.897,42.8013],[-75.8593,42.3809],[-75.767,42.385],[-75.7665,42.3791],[-75.6559,42.3838],[-75.6619,42.4576],[-75.5559,42.4627],[-75.5641,42.5566],[-75.4516,42.562],[-75.4484,42.5155],[-75.4082,42.5168],[-75.4073,42.5084],[-75.3896,42.5106],[-75.384,42.5202],[-75.3869,42.5235],[-75.3726,42.5369],[-75.368,42.552],[-75.3543,42.5541],[-75.33,42.5676],[-75.3324,42.573],[-75.3268,42.5773],[-75.3303,42.581],[-75.3252,42.5886],[-75.3363,42.5943],[-75.339,42.6085],[-75.323,42.623],[-75.3301,42.631],[-75.3236,42.6341],[-75.323,42.6438],[-75.3312,42.6612],[-75.3277,42.6636],[-75.3304,42.6745],[-75.3134,42.6895],[-75.2965,42.7187],[-75.2959,42.7282],[-75.3003,42.7292],[-75.2928,42.7378],[-75.2962,42.7433],[-75.2909,42.7515],[-75.2826,42.7521],[-75.273,42.7727],[-75.2587,42.7771],[-75.2576,42.7827],[-75.251,42.7849],[-75.2491,42.8117],[-75.242,42.8176],[-75.2503,42.8244],[-75.2395,42.8343],[-75.242,42.8432],[-75.2478,42.845],[-75.2439,42.8616],[-75.2482,42.8723],[-75.2427,42.8779],[-75.2122,42.88],[-75.2106,42.8565],[-75.1399,42.8598],[-75.101,42.9084],[-75.0004,42.8663],[-74.9678,42.9506],[-74.9925,42.9517],[-75.0951,42.9943],[-75.216,43.0228],[-75.2191,43.0525],[-75.1957,43.0777],[-75.1823,43.0753],[-75.1779,43.0825],[-75.1841,43.0833],[-75.1817,43.0877],[-75.1855,43.0884],[-75.0692,43.2273],[-75.0738,43.2295],[-75.0715,43.2345],[-75.0922,43.2306],[-75.1227,43.241],[-75.1239,43.2465],[-75.1364,43.2487],[-75.1432,43.2552],[-75.151,43.2469],[-75.1528,43.2583],[-75.1603,43.2558],[-75.1626,43.2601],[-75.1479,43.29],[-75.148,43.3052],[-75.1203,43.3042],[-75.1192,43.3105],[-75.1076,43.3117],[-75.0998,43.3252],[-75.0929,43.3231],[-75.0918,43.3286],[-75.0766,43.3307],[-75.1102,43.6152],[-75.5334,43.4198],[-75.8146,43.4836],[-75.8868,43.325],[-75.8629,43.3193],[-75.8843,43.1556],[-75.9254,43.1617],[-75.9329,43.1767],[-75.9527,43.1711],[-75.9594,43.1804],[-75.9797,43.1774],[-75.9935,43.1837]]]},"properties":{"geoid":"36053","state":"36","district":"53","name":"State Senate District 53","chamber":"Senate"}},{"type":"Feature","geometry":{"type":"Polygon","coordinates":[[[-78.0608,42.5335],[-78.0495,42.539],[-78.0445,42.5361],[-78.048,42.5263],[-78.0376,42.5254],[-78.0434,42.5185],[-77.8407,42.5178],[-77.8402,42.4746],[-77.723,42.4712],[-77.7206,42.5351],[-77.6613,42.5351],[-77.6599,42.5804],[-77.3665,42.5764],[-77.3671,42.6678],[-77.3574,42.668],[-77.3544,42.6972],[-77.3466,42.7164],[-77.3129,42.7615],[-76.9714,42.7642],[-76.9781,42.7742],[-76.9741,42.8121],[-76.9783,42.829],[-76.9729,42.8371],[-76.9813,42.8613],[-76.9756,42.8706],[-76.9634,42.8729],[-76.9639,43.0132],[-76.7138,43.024],[-76.7191,43.0371],[-76.7178,43.0626],[-76.7059,43.0708],[-76.7023,43.0804],[-76.7147,43.2658],[-76.7535,43.6843],[-76.7762,43.6295],[-77.388,43.6315],[-77.3762,43.3452],[-77.3715,43.0347],[-77.5868,43.0338],[-77.5952,43.0176],[-77.7231,43.017],[-77.7299,43.023],[-77.7218,43.0332],[-77.7306,43.0338],[-77.7263,43.0432],[-77.7049,43.0497],[-77.696,43.0579],[-77.6991,43.0644],[-77.6955,43.0691],[-77.7049,43.0714],[-77.7057,43.0761],[-77.692,43.0795],[-77.6805,43.092],[-77.6751,43.107],[-77.6434,43.1222],[-77.654,43.1258],[-77.6524,43.1202],[-77.6751,43.1124],[-77.683,43.119],[-77.6777,43.1259],[-77.9081,43.1293],[-77.951,43.0395],[-77.9041,43.0371],[-77.9114,42.9451],[-77.9342,42.9456],[-77.9352,42.9053],[-77.9555,42.9059],[-77.9559,42.6679],[-77.9706,42.6604],[-77.9746,42.6539],[-77.9725,42.6463],[-77.99,42.6265],[-77.9903,42.615],[-78.0058,42.6099],[-78.0132,42.6123],[-78.0165,42.6069],[-78.029,42.6037],[-78.0219,42.5961],[-78.0062,42.5988],[-78.0083,42.5898],[-78.023,42.5848],[-78.0364,42.5877],[-78.049,42.5785],[-78.0466,42.5703],[-78.0337,42.5736],[-78.0281,42.5676],[-78.0474,42.5583],[-78.0493,42.5435],[-78.0608,42.5335]]]},"properties":{"geoid":"36054","state":"36","district":"54","name":"State Senate District 54","chamber":"Senate"}},{"type":"Feature","geometry":{"type":"Polygon","coordinates":[[[-77.6288,43.1191],[-77.6314,43.117],[-77.6125,43.1095],[-77.6007,43.1297],[-77.5894,43.1358],[-77.5491,43.1367],[-77.5328,43.1676],[-77.5261,43.1626],[-77.5228,43.1488],[-77.5169,43.1503],[-77.5172,43.124],[-77.5386,43.1242],[-77.5869,43.0338],[-77.3715,43.0347],[-77.3762,43.3452],[-77.388,43.6315],[-77.6027,43.6312],[-77.6001,43.2586],[-77.6118,43.2456],[-77.6159,43.2334],[-77.6128,43.2217],[-77.6234,43.2059],[-77.6175,43.1969],[-77.6226,43.1865],[-77.6137,43.1845],[-77.6183,43.1824],[-77.6163,43.1779],[-77.6075,43.1726],[-77.6072,43.1674],[-77.602,43.1676],[-77.6074,43.1616],[-77.5956,43.1588],[-77.6128,43.1418],[-77.6055,43.1398],[-77.6082,43.1331],[-77.6136,43.1346],[-77.6175,43.1247],[-77.6295,43.123],[-77.6288,43.1191]]]},"properties":{"geoid":"36055","state":"36","district":"55","name":"State Senate District 55","chamber":"Senate"}},{"type":"Feature","geometry":{"type":"Polygon","coordinates":[[[-77.7543,43.1329],[-77.7542,43.1255],[-77.6776,43.1258],[-77.683,43.119],[-77.6751,43.1124],[-77.6524,43.1202],[-77.654,43.1258],[-77.6434,43.1222],[-77.6751,43.107],[-77.6805,43.092],[-77.692,43.0795],[-77.7057,43.0761],[-77.7049,43.0714],[-77.6955,43.0691],[-77.6991,43.0644],[-77.696,43.0579],[-77.7049,43.0497],[-77.7263,43.0432],[-77.7306,43.0338],[-77.7218,43.0332],[-77.7299,43.023],[-77.7231,43.017],[-77.5952,43.0176],[-77.5386,43.1242],[-77.5172,43.124],[-77.5169,43.1503],[-77.5228,43.1488],[-77.5261,43.1626],[-77.5335,43.1676],[-77.5491,43.1367],[-77.5894,43.1358],[-77.6007,43.1297],[-77.6125,43.1095],[-77.6314,43.117],[-77.6295,43.123],[-77.6175,43.1247],[-77.6136,43.1346],[-77.6082,43.1331],[-77.6055,43.1398],[-77.6128,43.1418],[-77.5956,43.1588],[-77.6074,43.1616],[-77.602,43.1676],[-77.6072,43.1674],[-77.6075,43.1726],[-77.6163,43.1779],[-77.6183,43.1824],[-77.6137,43.1845],[-77.6226,43.1865],[-77.6175,43.1969],[-77.6234,43.2059],[-77.6128,43.2217],[-77.6159,43.2334],[-77.6118,43.2456],[-77.6001,43.2586],[-77.6017,43.6317],[-77.7476,43.6314],[-77.7485,43.3124],[-77.7543,43.1329]]]},"properties":{"geoid":"36056","state":"36","district":"56","name":"State Senate District 56","chamber":"Senate"}},{"type":"Feature","geometry":{"type":"Polygon","coordinates":[[[-79.7624,42.5161],[-79.762,41.9988],[-77.9571,41.9987],[-77.9555,42.0863],[-78.0741,42.0862],[-78.0741,42.2602],[-77.8391,42.2615],[-77.8391,42.348],[-77.9562,42.3476],[-77.955,42.5184],[-78.0434,42.5185],[-78.0376,42.5254],[-78.048,42.5263],[-78.0445,42.5361],[-78.0495,42.539],[-78.0608,42.5335],[-78.0493,42.5435],[-78.0474,42.5583],[-78.0281,42.5676],[-78.0337,42.5736],[-78.0466,42.5703],[-78.049,42.5785],[-78.0364,42.5877],[-78.023,42.5848],[-78.0083,42.5898],[-78.0062,42.5988],[-78.0219,42.5961],[-78.029,42.6037],[-78.0165,42.6069],[-78.0132,42.6123],[-78.0058,42.6099],[-77.9903,42.615],[-77.99,42.6265],[-77.9725,42.6463],[-77.9746,42.6539],[-77.9706,42.6604],[-77.9559,42.6679],[-77.9555,42.9059],[-77.9352,42.9053],[-77.9342,42.9456],[-77.9114,42.9451],[-77.9041,43.0371],[-77.951,43.0395],[-77.9059,43.1336],[-78.4655,43.1286],[-78.4644,42.8674],[-78.4863,42.8675],[-78.488,42.7805],[-78.4633,42.7805],[-78.4621,42.5922],[-78.4639,42.5364],[-78.4687,42.5333],[-78.4885,42.5348],[-78.4912,42.5301],[-78.5118,42.5277],[-78.5191,42.5192],[-78.5315,42.5211],[-78.5393,42.5139],[-78.5481,42.5178],[-78.564,42.5087],[-78.5689,42.5128],[-78.5837,42.5142],[-78.5878,42.509],[-78.5972,42.5126],[-78.612,42.5028],[-78.6232,42.5039],[-78.627,42.4974],[-78.6387,42.4981],[-78.6444,42.4911],[-78.6624,42.4924],[-78.6819,42.4836],[-78.6828,42.4779],[-78.6918,42.4764],[-78.6937,42.4717],[-78.7002,42.4746],[-78.701,42.4856],[-78.7124,42.4836],[-78.7151,42.4869],[-78.731,42.4787],[-78.7383,42.4805],[-78.7381,42.4733],[-78.7498,42.4737],[-78.7514,42.4683],[-78.7645,42.4704],[-78.7585,42.4636],[-78.7756,42.4644],[-78.7772,42.4611],[-78.7701,42.4581],[-78.7798,42.4552],[-78.7961,42.4628],[-78.8387,42.4427],[-78.8777,42.4417],[-78.8838,42.438],[-78.8875,42.4423],[-78.8947,42.4396],[-78.9002,42.4492],[-78.9198,42.4424],[-78.9193,42.454],[-78.9389,42.468],[-78.957,42.4724],[-78.9634,42.4866],[-78.9612,42.494],[-78.9666,42.4937],[-78.9802,42.5062],[-78.9861,42.505],[-78.9828,42.5116],[-78.9878,42.5134],[-78.9864,42.5191],[-78.9953,42.5318],[-79.0331,42.5433],[-79.0407,42.5374],[-79.0613,42.538],[-79.0901,42.5502],[-79.0809,42.5554],[-79.0917,42.5564],[-79.0951,42.5642],[-79.1052,42.5633],[-79.1078,42.57],[-79.1258,42.5651],[-79.1342,42.5682],[-79.3121,42.6868],[-79.7624,42.5161]]]},"properties":{"geoid":"36057","state":"36","district":"57","name":"State Senate District 57","chamber":"Senate"}},{"type":"Feature","geometry":{"type":"Polygon","coordinates":[[[-78.0742,42.1895],[-78.0741,42.0862],[-77.9555,42.0863],[-77.9571,41.9987],[-76.829,42.002],[-76.1058,41.9989],[-76.1115,42.1012],[-76.1072,42.102],[-76.1076,42.1124],[-76.1115,42.1123],[-76.1162,42.1856],[-76.0867,42.1869],[-76.0811,42.2305],[-76.0845,42.2305],[-76.0909,42.2496],[-76.0963,42.2495],[-76.0966,42.2574],[-76.0807,42.258],[-76.0877,42.2788],[-76.1006,42.2784],[-76.1012,42.2873],[-76.1066,42.2874],[-76.1066,42.2935],[-76.0988,42.2937],[-76.0991,42.3034],[-76.1016,42.3104],[-76.1063,42.3103],[-76.1064,42.3187],[-76.1124,42.3186],[-76.1124,42.3265],[-76.1164,42.3266],[-76.1167,42.3372],[-76.1093,42.3373],[-76.1099,42.3473],[-76.1146,42.3671],[-76.1224,42.3672],[-76.1202,42.3807],[-76.1302,42.4103],[-76.2932,42.4066],[-76.2986,42.3817],[-76.2653,42.3753],[-76.2422,42.3637],[-76.2386,42.3567],[-76.2514,42.325],[-76.2501,42.2967],[-76.2882,42.2968],[-76.2882,42.3082],[-76.3506,42.3084],[-76.3509,42.3183],[-76.4153,42.3184],[-76.4162,42.263],[-76.4745,42.2638],[-76.474,42.2811],[-76.6914,42.2843],[-76.6906,42.3732],[-76.6857,42.3751],[-76.6967,42.5468],[-76.586,42.5499],[-76.6182,42.5667],[-76.6502,42.5974],[-76.6636,42.6171],[-76.6879,42.6748],[-76.7234,42.7041],[-76.7316,42.7207],[-76.7401,42.7894],[-76.7195,42.8254],[-76.7172,42.8388],[-76.7212,42.8696],[-76.7375,42.9021],[-76.7343,42.9448],[-76.7394,42.9545],[-76.7367,42.9703],[-76.7276,42.9781],[-76.7288,42.9878],[-76.7207,42.9954],[-76.7217,43.0079],[-76.7112,43.018],[-76.7145,43.0241],[-76.9639,43.0132],[-76.9634,42.8729],[-76.9756,42.8706],[-76.9813,42.8613],[-76.9729,42.8371],[-76.9783,42.829],[-76.9741,42.8121],[-76.9781,42.7742],[-76.9714,42.7642],[-77.3129,42.7615],[-77.3466,42.7164],[-77.3544,42.6972],[-77.3574,42.668],[-77.3671,42.6678],[-77.3665,42.5764],[-77.6599,42.5804],[-77.6613,42.5351],[-77.7206,42.5351],[-77.723,42.4712],[-77.8402,42.4746],[-77.8407,42.5178],[-77.955,42.5184],[-77.9562,42.3476],[-77.8391,42.348],[-77.8391,42.2615],[-78.0741,42.2602],[-78.0742,42.1895]]]},"properties":{"geoid":"36058","state":"36","district":"58","name":"State Senate District 58","chamber":"Senate"}},{"type":"Feature","geometry":{"type":"Polygon","coordinates":[[[-73.9906,40.7349],[-73.9714,40.7267],[-73.9684,40.7141],[-73.9535,40.7141],[-73.9368,40.7248],[-73.9429,40.7277],[-73.9422,40.7357],[-73.9521,40.7409],[-73.9453,40.7396],[-73.9344,40.746],[-73.9338,40.7516],[-73.9256,40.7521],[-73.9119,40.769],[-73.9185,40.7744],[-73.9165,40.7792],[-73.92,40.7826],[-73.9286,40.7766],[-73.9351,40.7779],[-73.9353,40.7705],[-73.9577,40.7478],[-73.9665,40.7534],[-73.9735,40.7521],[-73.9906,40.7349]]]},"properties":{"geoid":"36059","state":"36","district":"59","name":"State Senate District 59","chamber":"Senate"}},{"type":"Feature","geometry":{"type":"Polygon","coordinates":[[[-79.3121,42.6868],[-79.1342,42.5682],[-79.1258,42.5651],[-79.1078,42.57],[-79.1052,42.5633],[-79.0951,42.5642],[-79.0917,42.5564],[-79.0809,42.5554],[-79.0901,42.5502],[-79.0613,42.538],[-79.0407,42.5374],[-79.0331,42.5433],[-78.9953,42.5318],[-78.9864,42.5191],[-78.9878,42.5134],[-78.9828,42.5116],[-78.9861,42.505],[-78.9802,42.5062],[-78.9666,42.4937],[-78.9612,42.494],[-78.9634,42.4866],[-78.957,42.4724],[-78.9389,42.468],[-78.9193,42.454],[-78.9198,42.4424],[-78.9002,42.4492],[-78.8947,42.4396],[-78.8875,42.4423],[-78.8838,42.438],[-78.8777,42.4417],[-78.8387,42.4427],[-78.7961,42.4628],[-78.7798,42.4552],[-78.7701,42.4581],[-78.7772,42.4611],[-78.7756,42.4644],[-78.7585,42.4636],[-78.7645,42.4704],[-78.7514,42.4683],[-78.7498,42.4737],[-78.7381,42.4733],[-78.7383,42.4805],[-78.731,42.4787],[-78.7151,42.4869],[-78.7124,42.4836],[-78.701,42.4856],[-78.7002,42.4746],[-78.6937,42.4717],[-78.6918,42.4764],[-78.6828,42.4779],[-78.6819,42.4836],[-78.6624,42.4924],[-78.6444,42.4911],[-78.6387,42.4981],[-78.627,42.4974],[-78.6232,42.5039],[-78.612,42.5028],[-78.5972,42.5126],[-78.5878,42.509],[-78.5837,42.5142],[-78.5689,42.5128],[-78.564,42.5087],[-78.5481,42.5178],[-78.5393,42.5139],[-78.5315,42.5211],[-78.5191,42.5192],[-78.5118,42.5277],[-78.4912,42.5301],[-78.4885,42.5348],[-78.4686,42.5334],[-78.4639,42.5364],[-78.4621,42.5922],[-78.4633,42.7805],[-78.488,42.7805],[-78.4863,42.8675],[-78.4644,42.8674],[-78.4644,43.0887],[-78.4721,43.0815],[-78.4758,43.0863],[-78.4973,43.0819],[-78.497,43.0866],[-78.5028,43.0866],[-78.5007,43.0891],[-78.5061,43.0897],[-78.5037,43.0931],[-78.5091,43.0933],[-78.5101,43.0981],[-78.5142,43.0902],[-78.54,43.0857],[-78.5415,43.0911],[-78.5468,43.0901],[-78.5411,43.0937],[-78.5453,43.0986],[-78.5604,43.0899],[-78.5548,43.0951],[-78.56,43.0973],[-78.565,43.0884],[-78.5764,43.0887],[-78.575,43.0799],[-78.5825,43.0887],[-78.5827,43.0751],[-78.5911,43.0761],[-78.5945,43.0694],[-78.6068,43.0728],[-78.6018,43.0766],[-78.6161,43.0742],[-78.6125,43.0836],[-78.6191,43.0875],[-78.6267,43.0851],[-78.6327,43.091],[-78.6303,43.0939],[-78.6411,43.0974],[-78.6411,43.0891],[-78.649,43.0873],[-78.6466,43.0808],[-78.6642,43.0864],[-78.6795,43.0848],[-78.6826,43.0802],[-78.69,43.0883],[-78.6969,43.0863],[-78.6969,42.8637],[-78.7595,42.8642],[-78.7589,42.8746],[-78.7999,42.8717],[-78.8006,42.8454],[-78.7952,42.8411],[-78.8008,42.8415],[-78.8017,42.832],[-78.7941,42.8281],[-78.7995,42.8252],[-78.7934,42.8043],[-78.8624,42.8054],[-78.8718,42.8224],[-78.869,42.8323],[-78.9569,42.8327],[-78.9998,42.8044],[-79.3121,42.6868]]]},"properties":{"geoid":"36060","state":"36","district":"60","name":"State Senate District 60","chamber":"Senate"}},{"type":"Feature","geometry":{"type":"Polygon","coordinates":[[[-79.0233,43.0164],[-79.02,42.9948],[-79.0116,42.9853],[-78.9751,42.9688],[-78.9618,42.9578],[-78.9324,42.9559],[-78.9189,42.9469],[-78.9077,42.9296],[-78.9058,42.9131],[-78.8826,42.9155],[-78.882,42.909],[-78.8668,42.9089],[-78.8644,42.9153],[-78.8596,42.9124],[-78.8613,42.9184],[-78.851,42.9282],[-78.8543,42.9306],[-78.8508,42.9408],[-78.8556,42.9413],[-78.8574,42.9477],[-78.844,42.9476],[-78.8438,42.956],[-78.8383,42.9584],[-78.8089,42.9614],[-78.8039,42.9546],[-78.8115,42.9495],[-78.7343,42.9492],[-78.7345,42.9536],[-78.7252,42.9458],[-78.7247,42.9509],[-78.697,42.9508],[-78.6969,43.0863],[-78.7073,43.0869],[-78.719,43.0811],[-78.7283,43.0861],[-78.7462,43.0696],[-78.8021,43.0658],[-78.8068,43.0623],[-78.8068,43.0536],[-78.8313,43.0502],[-78.8254,43.0337],[-78.8417,43.0189],[-78.8902,43.022],[-78.8963,43.0442],[-78.9115,43.0547],[-78.9453,43.067],[-79.0192,43.068],[-79.0071,43.0658],[-78.9994,43.0561],[-79.0117,43.029],[-79.0233,43.0164]]]},"properties":{"geoid":"36061","state":"36","district":"61","name":"State Senate District 61","chamber":"Senate"}},{"type":"Feature","geometry":{"type":"Polygon","coordinates":[[[-79.1738,43.4604],[-79.2009,43.4504],[-79.0705,43.2625],[-79.0559,43.2547],[-79.053,43.2235],[-79.0566,43.2103],[-79.0487,43.2002],[-79.0533,43.1739],[-79.0423,43.1437],[-79.0541,43.1294],[-79.0696,43.1203],[-79.058,43.107],[-79.0745,43.0779],[-79.0192,43.068],[-78.9453,43.067],[-78.9115,43.0547],[-78.8963,43.0442],[-78.8902,43.022],[-78.8394,43.0195],[-78.8254,43.0337],[-78.8304,43.0508],[-78.8068,43.0536],[-78.8068,43.0623],[-78.8008,43.0663],[-78.7449,43.0699],[-78.728,43.0862],[-78.719,43.0811],[-78.6912,43.0887],[-78.6828,43.0803],[-78.6795,43.0848],[-78.6642,43.0864],[-78.6475,43.0806],[-78.649,43.0873],[-78.6411,43.0891],[-78.6411,43.0974],[-78.6303,43.0939],[-78.6327,43.091],[-78.6267,43.0851],[-78.6191,43.0875],[-78.6125,43.0836],[-78.6161,43.0742],[-78.6018,43.0766],[-78.6068,43.0728],[-78.5945,43.0694],[-78.5911,43.0761],[-78.5827,43.0751],[-78.5825,43.0887],[-78.575,43.0799],[-78.5764,43.0887],[-78.565,43.0884],[-78.5606,43.0972],[-78.5548,43.0951],[-78.5604,43.0899],[-78.5453,43.0986],[-78.5411,43.0937],[-78.5468,43.0901],[-78.5417,43.0911],[-78.5361,43.0855],[-78.528,43.0906],[-78.5267,43.0875],[-78.5142,43.0902],[-78.5101,43.0981],[-78.5091,43.0933],[-78.5037,43.0931],[-78.5061,43.0897],[-78.5007,43.0891],[-78.5028,43.0866],[-78.497,43.0866],[-78.4978,43.082],[-78.4758,43.0863],[-78.472,43.0815],[-78.4644,43.0887],[-78.4655,43.1286],[-77.9059,43.1336],[-77.9081,43.1293],[-77.7542,43.1255],[-77.7485,43.3124],[-77.7476,43.6314],[-78.6883,43.6347],[-78.7498,43.6093],[-79.1738,43.4604]]]},"properties":{"geoid":"36062","state":"36","district":"62","name":"State Senate District 62","chamber":"Senate"}},{"type":"Feature","geometry":{"type":"Polygon","coordinates":[[[-78.9569,42.8327],[-78.869,42.8323],[-78.8718,42.8224],[-78.8624,42.8054],[-78.7934,42.8043],[-78.7995,42.8252],[-78.7941,42.8281],[-78.8017,42.832],[-78.8008,42.8415],[-78.7952,42.8411],[-78.8006,42.8454],[-78.7999,42.8717],[-78.7589,42.8746],[-78.7595,42.8642],[-78.6969,42.8637],[-78.697,42.9508],[-78.7247,42.9509],[-78.7252,42.9458],[-78.7345,42.9536],[-78.7343,42.9492],[-78.8115,42.9495],[-78.8039,42.9546],[-78.8089,42.9614],[-78.8438,42.956],[-78.844,42.9476],[-78.8574,42.9477],[-78.8556,42.9413],[-78.8508,42.9408],[-78.8543,42.9306],[-78.851,42.9282],[-78.8613,42.9184],[-78.8596,42.9124],[-78.8644,42.9153],[-78.8668,42.9089],[-78.882,42.909],[-78.8826,42.9155],[-78.9058,42.9131],[-78.9058,42.9],[-78.9306,42.8501],[-78.9569,42.8327]]]},"properties":{"geoid":"36063","state":"36","district":"63","name":"State Senate District 63","chamber":"Senate"}}]}