{"type":"FeatureCollection","features":[{"type":"Feature","geometry":{"type":"Polygon","coordinates":[[[-84.8062,41.6746],[-84.8023,40.7281],[-84.4562,40.7283],[-84.4562,40.6849],[-84.3968,40.6849],[-84.3974,40.8159],[-84.3401,40.8161],[-84.3405,40.8591],[-84.1096,40.861],[-84.1095,40.9047],[-83.9952,40.9051],[-83.9952,40.9198],[-83.8804,40.9204],[-83.88,40.5387],[-83.9939,40.5352],[-83.9938,40.483],[-84.0024,40.4831],[-84.0044,40.3687],[-83.9321,40.3695],[-83.9343,40.3645],[-83.8695,40.3606],[-83.8652,40.4048],[-83.7284,40.4203],[-83.73,40.4045],[-83.5591,40.3981],[-83.5414,40.3928],[-83.5328,40.3968],[-83.5202,40.5041],[-83.4187,40.5052],[-83.4156,40.5154],[-83.4198,40.6868],[-83.4403,40.6876],[-83.4402,40.7022],[-83.4958,40.7015],[-83.4963,40.8179],[-83.5159,40.8181],[-83.5147,40.9051],[-83.4767,40.905],[-83.4768,40.9484],[-83.4577,40.9485],[-83.4578,40.9917],[-83.4203,40.9919],[-83.4211,41.1668],[-83.8811,41.1678],[-83.8824,41.6175],[-83.8774,41.6175],[-83.8804,41.7202],[-84.806,41.6961],[-84.8062,41.6746]]]},"properties":{"geoid":"39001","state":"39","district":"1","name":"State Senate District 1","chamber":"Senate"}},{"type":"Feature","geometry":{"type":"Polygon","coordinates":[[[-83.8837,41.345],[-83.8811,41.1678],[-83.4211,41.1668],[-83.4146,41.5002],[-83.339,41.5012],[-83.3382,41.4575],[-82.9522,41.4582],[-82.9529,41.4302],[-82.8477,41.4305],[-82.8385,41.217],[-82.7391,41.215],[-82.7422,41.2879],[-82.5794,41.2863],[-82.4425,41.2839],[-82.4417,41.2127],[-82.3403,41.2113],[-82.3482,41.4319],[-82.3481,41.7001],[-82.3983,41.6765],[-82.6811,41.6763],[-82.9956,41.829],[-83.1645,41.6232],[-83.5699,41.6172],[-83.6127,41.5708],[-83.6256,41.5701],[-83.6361,41.5603],[-83.6449,41.5608],[-83.697,41.5378],[-83.6959,41.5437],[-83.6852,41.5498],[-83.6884,41.551],[-83.7082,41.5366],[-83.7162,41.5406],[-83.7182,41.5482],[-83.7015,41.5538],[-83.6993,41.5509],[-83.6992,41.5569],[-83.6881,41.5588],[-83.6907,41.5662],[-83.6963,41.5663],[-83.6957,41.5723],[-83.6906,41.5716],[-83.691,41.5877],[-83.7614,41.5883],[-83.7613,41.5828],[-83.7864,41.5823],[-83.7864,41.6174],[-83.7615,41.6176],[-83.7605,41.659],[-83.694,41.661],[-83.693,41.6685],[-83.6626,41.6694],[-83.6666,41.6767],[-83.6538,41.677],[-83.6517,41.6841],[-83.6543,41.6876],[-83.6654,41.686],[-83.6644,41.691],[-83.6496,41.6912],[-83.6499,41.6985],[-83.6449,41.6985],[-83.6553,41.7028],[-83.6583,41.6994],[-83.6616,41.705],[-83.6451,41.7056],[-83.6527,41.7196],[-83.656,41.7184],[-83.6495,41.7201],[-83.6496,41.7274],[-83.8804,41.7202],[-83.8774,41.6175],[-83.8824,41.6175],[-83.8837,41.345]]]},"properties":{"geoid":"39002","state":"39","district":"2","name":"State Senate District 2","chamber":"Senate"}},{"type":"Feature","geometry":{"type":"Polygon","coordinates":[[[-83.6534,39.7177],[-83.2524,39.6954],[-83.2667,39.5162],[-82.9846,39.5068],[-82.9787,39.5009],[-82.9804,39.4903],[-82.9929,39.4899],[-82.9982,39.4801],[-82.7406,39.4685],[-82.7315,39.5544],[-82.843,39.5615],[-82.8215,39.8243],[-82.8025,39.823],[-82.7944,39.9108],[-82.8131,39.9117],[-82.8108,39.9412],[-82.7825,39.9397],[-82.7795,39.9763],[-82.7738,39.9761],[-82.7727,39.9871],[-82.8048,39.9836],[-82.8029,39.9774],[-82.8315,39.9787],[-82.828,39.9637],[-82.8186,39.9632],[-82.819,39.9573],[-82.8442,39.9547],[-82.8496,39.9458],[-82.8465,39.9509],[-82.853,39.947],[-82.8532,39.9548],[-82.8547,39.9454],[-82.864,39.9388],[-82.8599,39.9346],[-82.8307,39.9329],[-82.831,39.9249],[-82.8237,39.9173],[-82.8261,39.9026],[-82.8419,39.9072],[-82.8512,39.9044],[-82.8517,39.9137],[-82.8865,39.909],[-82.8969,39.9143],[-82.8991,39.9076],[-82.9104,39.9133],[-82.9113,39.9065],[-82.895,39.9053],[-82.911,39.8889],[-82.9155,39.8891],[-82.9116,39.8952],[-82.9218,39.9068],[-82.955,39.9047],[-82.9571,39.9088],[-82.9665,39.9091],[-82.9676,39.8949],[-82.9866,39.8958],[-82.9873,39.9009],[-83.0081,39.9071],[-83.0103,39.9131],[-82.9997,39.9394],[-82.9836,39.9363],[-82.9824,39.9522],[-82.9962,39.9532],[-83.0211,39.9503],[-83.0215,39.9449],[-83.0402,39.9439],[-83.0411,39.939],[-83.0975,39.9425],[-83.1008,39.9361],[-83.0977,39.9288],[-83.1177,39.9393],[-83.1235,39.9361],[-83.123,39.9215],[-83.144,39.9156],[-83.144,39.919],[-83.1526,39.9172],[-83.153,39.9241],[-83.1699,39.9191],[-83.1784,39.9255],[-83.1624,39.9255],[-83.1698,39.9321],[-83.1529,39.9314],[-83.1729,39.9446],[-83.1719,39.9497],[-83.1626,39.9528],[-83.1719,39.9564],[-83.1736,39.9653],[-83.1665,39.9685],[-83.1724,39.9721],[-83.166,39.9722],[-83.1667,39.9756],[-83.1742,39.9752],[-83.1611,39.9782],[-83.1798,39.9797],[-83.1783,39.9652],[-83.1855,39.9635],[-83.1943,39.9635],[-83.1931,39.9736],[-83.2116,39.9698],[-83.2043,39.9636],[-83.2185,39.9645],[-83.2272,39.9746],[-83.2325,39.972],[-83.2296,39.9681],[-83.2426,39.9656],[-83.2505,39.9711],[-83.2461,39.9873],[-83.2609,40.0028],[-83.2517,40.0084],[-83.2551,40.0486],[-83.2122,40.0481],[-83.2063,40.1077],[-83.5037,40.1115],[-83.5162,40.0102],[-83.5126,40.01],[-83.5899,39.7688],[-83.6472,39.773],[-83.6534,39.7177]]]},"properties":{"geoid":"39003","state":"39","district":"3","name":"State Senate District 3","chamber":"Senate"}},{"type":"Feature","geometry":{"type":"Polygon","coordinates":[[[-84.8192,39.3168],[-84.8195,39.3052],[-84.6418,39.305],[-84.63,39.3121],[-84.3532,39.2923],[-84.3317,39.5492],[-84.3643,39.5438],[-84.3652,39.5899],[-84.4792,39.591],[-84.4776,39.4953],[-84.4726,39.5008],[-84.4613,39.5005],[-84.4609,39.4957],[-84.4516,39.4945],[-84.4523,39.4864],[-84.4454,39.4959],[-84.4337,39.4958],[-84.4482,39.4765],[-84.4517,39.4653],[-84.4489,39.4575],[-84.4619,39.4571],[-84.4618,39.462],[-84.4686,39.4621],[-84.4689,39.4571],[-84.4767,39.4569],[-84.4771,39.4658],[-84.4822,39.467],[-84.4747,39.4702],[-84.4821,39.4725],[-84.4822,39.4686],[-84.4833,39.4761],[-84.4774,39.4786],[-84.4836,39.4805],[-84.5484,39.4796],[-84.548,39.4744],[-84.5525,39.4733],[-84.5583,39.4795],[-84.7025,39.4782],[-84.703,39.5675],[-84.8149,39.5677],[-84.8192,39.3168]]]},"properties":{"geoid":"39004","state":"39","district":"4","name":"State Senate District 4","chamber":"Senate"}},{"type":"Feature","geometry":{"type":"Polygon","coordinates":[[[-84.8151,39.5692],[-84.703,39.5675],[-84.7025,39.4782],[-84.5583,39.4795],[-84.5525,39.4733],[-84.548,39.4744],[-84.5484,39.4796],[-84.4836,39.4805],[-84.4774,39.4786],[-84.4833,39.4761],[-84.4822,39.4686],[-84.4821,39.4725],[-84.4747,39.4702],[-84.4822,39.467],[-84.4771,39.4658],[-84.4767,39.4569],[-84.4689,39.4571],[-84.4686,39.4621],[-84.4618,39.462],[-84.4619,39.4571],[-84.4489,39.4575],[-84.4517,39.4653],[-84.4482,39.4765],[-84.4337,39.4958],[-84.4454,39.4959],[-84.4523,39.4864],[-84.4516,39.4945],[-84.4609,39.4957],[-84.4613,39.5005],[-84.4726,39.5008],[-84.4776,39.4953],[-84.4792,39.591],[-84.3268,39.5908],[-84.3276,39.6188],[-84.3202,39.6188],[-84.3221,39.6137],[-84.3164,39.6136],[-84.3165,39.6066],[-84.3085,39.6137],[-84.3141,39.6159],[-84.313,39.6363],[-84.3052,39.6286],[-84.3087,39.6225],[-84.3025,39.6228],[-84.3047,39.6267],[-84.2929,39.6265],[-84.2962,39.5992],[-84.2859,39.6044],[-84.2918,39.6107],[-84.2875,39.6154],[-84.2722,39.6131],[-84.2692,39.6243],[-84.2611,39.6176],[-84.2586,39.6078],[-84.2533,39.608],[-84.2573,39.6058],[-84.2543,39.6005],[-84.2376,39.5967],[-84.234,39.6085],[-84.2462,39.6103],[-84.2458,39.6159],[-84.2364,39.6179],[-84.2351,39.6318],[-84.2296,39.6296],[-84.2303,39.6342],[-84.2199,39.6378],[-84.2225,39.6455],[-84.2151,39.6447],[-84.2196,39.6457],[-84.2192,39.6505],[-84.2332,39.6496],[-84.2249,39.651],[-84.2243,39.6471],[-84.2298,39.6409],[-84.239,39.6403],[-84.2436,39.6407],[-84.2507,39.6538],[-84.2632,39.6585],[-84.2902,39.6613],[-84.2932,39.6586],[-84.2902,39.6506],[-84.2998,39.6486],[-84.309,39.6488],[-84.3091,39.6584],[-84.3144,39.6584],[-84.3195,39.6535],[-84.3124,39.6518],[-84.3086,39.6437],[-84.3145,39.6437],[-84.3187,39.6225],[-84.3276,39.6224],[-84.3282,39.6582],[-84.3664,39.658],[-84.3671,39.8321],[-84.2545,39.8336],[-84.2531,39.7897],[-84.2449,39.7882],[-84.2445,39.7927],[-84.2385,39.7937],[-84.2447,39.8028],[-84.2389,39.8053],[-84.235,39.806],[-84.2389,39.801],[-84.2295,39.7971],[-84.2351,39.7935],[-84.2319,39.791],[-84.22,39.794],[-84.219,39.8008],[-84.2056,39.8004],[-84.2061,39.8082],[-84.2215,39.8174],[-84.2232,39.8266],[-84.2111,39.8286],[-84.2081,39.8378],[-84.1987,39.8379],[-84.2059,39.8209],[-84.2016,39.8209],[-84.1943,39.8009],[-84.1947,39.7877],[-84.1767,39.797],[-84.1765,39.8002],[-84.1851,39.8001],[-84.1757,39.8063],[-84.1796,39.8269],[-84.1736,39.8455],[-84.1678,39.8443],[-84.1676,39.8504],[-84.1741,39.8483],[-84.1707,39.8575],[-84.158,39.8567],[-84.1641,39.8303],[-84.1559,39.8313],[-84.1686,39.8267],[-84.1675,39.8201],[-84.1639,39.8261],[-84.1571,39.8201],[-84.1604,39.8252],[-84.1548,39.8272],[-84.1318,39.8259],[-84.1324,39.82],[-84.1281,39.8184],[-84.1224,39.8255],[-84.1099,39.8248],[-84.1123,39.8323],[-84.1059,39.8318],[-84.1089,39.8371],[-84.1022,39.8389],[-84.0551,39.8362],[-84.0229,40.1839],[-84.2189,40.1955],[-84.2187,40.2],[-84.4326,40.197],[-84.4363,40.1808],[-84.4323,40.1808],[-84.4299,40.0944],[-84.5658,40.0922],[-84.5651,40.0634],[-84.6278,40.0628],[-84.7063,40.063],[-84.7071,40.0918],[-84.8089,40.0926],[-84.8151,39.5692]]]},"properties":{"geoid":"39005","state":"39","district":"5","name":"State Senate District 5","chamber":"Senate"}},{"type":"Feature","geometry":{"type":"Polygon","coordinates":[[[-84.3671,39.8321],[-84.3664,39.658],[-84.3282,39.6582],[-84.3276,39.6224],[-84.3187,39.6225],[-84.3145,39.6437],[-84.3086,39.6437],[-84.3124,39.6518],[-84.3195,39.6535],[-84.3144,39.6584],[-84.3091,39.6584],[-84.309,39.6488],[-84.2911,39.6499],[-84.2932,39.6586],[-84.2828,39.6616],[-84.2843,39.6586],[-84.2507,39.6538],[-84.2436,39.6407],[-84.2298,39.6409],[-84.2249,39.651],[-84.2332,39.6496],[-84.2239,39.652],[-84.2151,39.6453],[-84.2225,39.6455],[-84.2199,39.6378],[-84.2303,39.6342],[-84.2296,39.6296],[-84.2351,39.6318],[-84.2364,39.6179],[-84.2458,39.6159],[-84.2462,39.6103],[-84.234,39.6085],[-84.2376,39.5967],[-84.2543,39.6005],[-84.2573,39.6058],[-84.2533,39.608],[-84.2586,39.6078],[-84.2611,39.6176],[-84.2692,39.6243],[-84.2722,39.6131],[-84.2875,39.6154],[-84.2918,39.6107],[-84.2859,39.6044],[-84.2962,39.5992],[-84.2929,39.6265],[-84.3047,39.6267],[-84.3025,39.6228],[-84.3087,39.6225],[-84.3052,39.6286],[-84.313,39.6363],[-84.3161,39.6276],[-84.3121,39.6224],[-84.3141,39.6159],[-84.3085,39.6162],[-84.3105,39.6081],[-84.3165,39.6066],[-84.3164,39.6136],[-84.3221,39.6137],[-84.3202,39.6188],[-84.3276,39.6188],[-84.3268,39.5908],[-84.3374,39.5895],[-84.1142,39.5782],[-84.0929,39.8383],[-84.1084,39.8376],[-84.1059,39.8318],[-84.1123,39.8323],[-84.1099,39.8248],[-84.1224,39.8255],[-84.1281,39.8184],[-84.1324,39.82],[-84.1318,39.8259],[-84.1548,39.8272],[-84.1604,39.8252],[-84.1571,39.8201],[-84.1639,39.8261],[-84.1675,39.8201],[-84.1686,39.8267],[-84.1559,39.8313],[-84.1641,39.8303],[-84.158,39.8567],[-84.1707,39.8575],[-84.1741,39.8483],[-84.1676,39.8504],[-84.1678,39.8443],[-84.1736,39.8455],[-84.1796,39.8269],[-84.1757,39.8063],[-84.1851,39.8001],[-84.1765,39.8002],[-84.1767,39.797],[-84.1947,39.7877],[-84.1943,39.8009],[-84.2016,39.8209],[-84.2059,39.8209],[-84.1987,39.8379],[-84.2081,39.8378],[-84.2111,39.8286],[-84.2232,39.8266],[-84.2215,39.8174],[-84.2061,39.8082],[-84.2056,39.8004],[-84.219,39.8008],[-84.22,39.794],[-84.2319,39.791],[-84.2351,39.7935],[-84.2295,39.7971],[-84.2389,39.801],[-84.235,39.806],[-84.2389,39.8053],[-84.2447,39.8028],[-84.2385,39.7937],[-84.2445,39.7927],[-84.2449,39.7882],[-84.2531,39.7897],[-84.2545,39.8336],[-84.3671,39.8321]]]},"properties":{"geoid":"39006","state":"39","district":"6","name":"State Senate District 6","chamber":"Senate"}},{"type":"Feature","geometry":{"type":"Polygon","coordinates":[[[-84.5644,39.2803],[-84.55,39.2772],[-84.5503,39.2729],[-84.5449,39.2725],[-84.5446,39.2766],[-84.5099,39.2757],[-84.5087,39.2695],[-84.4957,39.2667],[-84.4947,39.2729],[-84.478,39.2739],[-84.4776,39.2788],[-84.446,39.2785],[-84.4496,39.2722],[-84.4402,39.2703],[-84.4408,39.2651],[-84.4425,39.2606],[-84.4507,39.2619],[-84.4517,39.2498],[-84.4465,39.2492],[-84.4508,39.2361],[-84.4458,39.2326],[-84.4409,39.2409],[-84.4298,39.2402],[-84.4333,39.2338],[-84.4096,39.2311],[-84.4077,39.226],[-84.4167,39.2205],[-84.4095,39.22],[-84.409,39.2016],[-84.4041,39.2013],[-84.4045,39.1966],[-84.37,39.1915],[-84.3701,39.2032],[-84.3543,39.2045],[-84.3556,39.2203],[-84.348,39.2275],[-84.3464,39.2423],[-84.339,39.2427],[-84.336,39.2537],[-84.3148,39.2526],[-84.3159,39.2439],[-84.3112,39.2379],[-84.3236,39.2346],[-84.3284,39.228],[-84.3248,39.2235],[-84.2999,39.2348],[-84.2936,39.2486],[-84.2616,39.2645],[-84.2594,39.2709],[-84.0075,39.2551],[-83.977,39.5694],[-84.2862,39.5896],[-84.3652,39.5895],[-84.3643,39.5438],[-84.3317,39.5492],[-84.3532,39.2923],[-84.5623,39.3081],[-84.5644,39.2803]]]},"properties":{"geoid":"39007","state":"39","district":"7","name":"State Senate District 7","chamber":"Senate"}},{"type":"Feature","geometry":{"type":"Polygon","coordinates":[[[-84.8203,39.1565],[-84.8202,39.1054],[-84.7878,39.1153],[-84.7623,39.1422],[-84.7439,39.1477],[-84.6871,39.1226],[-84.6855,39.1128],[-84.6808,39.1153],[-84.6817,39.109],[-84.6743,39.1013],[-84.6453,39.0944],[-84.6252,39.0787],[-84.6189,39.0849],[-84.6164,39.0794],[-84.6014,39.0802],[-84.5812,39.088],[-84.5797,39.1025],[-84.5896,39.1033],[-84.5944,39.0956],[-84.598,39.1003],[-84.5923,39.1035],[-84.608,39.104],[-84.6073,39.1109],[-84.616,39.1183],[-84.6068,39.1161],[-84.605,39.1259],[-84.6183,39.1296],[-84.6192,39.1399],[-84.6249,39.1452],[-84.6083,39.1494],[-84.6013,39.1637],[-84.5831,39.1646],[-84.582,39.1756],[-84.5714,39.1859],[-84.5813,39.1829],[-84.5797,39.2049],[-84.5576,39.2036],[-84.5571,39.2097],[-84.5445,39.2091],[-84.5348,39.2171],[-84.5274,39.2132],[-84.5279,39.2058],[-84.5323,39.2021],[-84.5359,39.2058],[-84.5342,39.2016],[-84.4943,39.1995],[-84.497,39.2044],[-84.4932,39.2059],[-84.4922,39.2211],[-84.4815,39.2198],[-84.4802,39.2136],[-84.4741,39.213],[-84.4736,39.2178],[-84.4478,39.2191],[-84.4554,39.2131],[-84.4559,39.2076],[-84.4507,39.2076],[-84.4537,39.2046],[-84.4491,39.2043],[-84.4533,39.1925],[-84.4283,39.1876],[-84.4233,39.1935],[-84.4111,39.1945],[-84.4104,39.1883],[-84.4011,39.1876],[-84.4084,39.1795],[-84.3991,39.1762],[-84.4025,39.1718],[-84.4225,39.1769],[-84.4306,39.1679],[-84.3876,39.1683],[-84.381,39.1628],[-84.3764,39.1694],[-84.3789,39.1582],[-84.3679,39.1472],[-84.3511,39.1462],[-84.3517,39.1408],[-84.3437,39.14],[-84.3366,39.1479],[-84.3215,39.1523],[-84.322,39.1465],[-84.335,39.1459],[-84.3393,39.1356],[-84.3631,39.1413],[-84.3856,39.134],[-84.3989,39.1358],[-84.3961,39.123],[-84.4009,39.1102],[-84.4117,39.1027],[-84.4064,39.0995],[-84.4127,39.0932],[-84.4053,39.09],[-84.3961,39.0984],[-84.4022,39.1085],[-84.3958,39.1045],[-84.3849,39.1076],[-84.3714,39.1003],[-84.3704,39.0813],[-84.3748,39.0813],[-84.3697,39.0737],[-84.3804,39.0795],[-84.3964,39.0773],[-84.3951,39.0823],[-84.402,39.0795],[-84.3987,39.0846],[-84.4048,39.0875],[-84.4095,39.0821],[-84.4135,39.0847],[-84.404,39.0678],[-84.4242,39.0521],[-84.4081,39.0459],[-84.3595,39.0412],[-84.32,39.0215],[-84.3017,39.1594],[-84.2951,39.1672],[-84.2994,39.1742],[-84.2887,39.1817],[-84.2762,39.2027],[-84.2843,39.2132],[-84.3096,39.2088],[-84.3189,39.2252],[-84.3287,39.2237],[-84.3197,39.2384],[-84.3109,39.2407],[-84.3159,39.2439],[-84.3148,39.2526],[-84.336,39.2537],[-84.339,39.2427],[-84.3464,39.2423],[-84.348,39.2275],[-84.3556,39.2203],[-84.3552,39.2034],[-84.3701,39.2032],[-84.37,39.1915],[-84.4045,39.1966],[-84.4041,39.2013],[-84.409,39.2016],[-84.4095,39.22],[-84.4167,39.2205],[-84.4077,39.226],[-84.4096,39.2311],[-84.4333,39.2338],[-84.4298,39.2402],[-84.4409,39.2409],[-84.4458,39.2326],[-84.4508,39.2361],[-84.4465,39.2492],[-84.4517,39.2498],[-84.4507,39.2619],[-84.4425,39.2606],[-84.4408,39.2651],[-84.4402,39.2703],[-84.4496,39.2722],[-84.446,39.2785],[-84.4776,39.2788],[-84.478,39.2739],[-84.4947,39.2729],[-84.4957,39.2667],[-84.5087,39.2695],[-84.5099,39.2757],[-84.5446,39.2766],[-84.5449,39.2725],[-84.5503,39.2729],[-84.55,39.2772],[-84.5644,39.2799],[-84.5623,39.3081],[-84.6304,39.3121],[-84.6418,39.305],[-84.8195,39.3052],[-84.8203,39.1565]]]},"properties":{"geoid":"39008","state":"39","district":"8","name":"State Senate District 8","chamber":"Senate"}},{"type":"Feature","geometry":{"type":"Polygon","coordinates":[[[-84.7124,39.1306],[-84.6872,39.1016],[-84.6585,39.0958],[-84.6325,39.0766],[-84.6183,39.0733],[-84.5719,39.0824],[-84.5508,39.0995],[-84.5256,39.0925],[-84.5103,39.0939],[-84.497,39.1004],[-84.4801,39.1178],[-84.4588,39.1214],[-84.4464,39.1152],[-84.4354,39.1009],[-84.4327,39.0668],[-84.4242,39.0521],[-84.404,39.0678],[-84.4135,39.0847],[-84.4095,39.0821],[-84.4048,39.0875],[-84.3987,39.0846],[-84.402,39.0795],[-84.3951,39.0823],[-84.3964,39.0773],[-84.3804,39.0795],[-84.3697,39.0737],[-84.3748,39.0813],[-84.3704,39.0813],[-84.3714,39.1003],[-84.3849,39.1076],[-84.3958,39.1045],[-84.4022,39.1085],[-84.3961,39.0984],[-84.4053,39.09],[-84.4127,39.0932],[-84.4064,39.0995],[-84.4117,39.1027],[-84.4009,39.1102],[-84.3961,39.123],[-84.3989,39.1358],[-84.3856,39.134],[-84.3631,39.1413],[-84.3393,39.1356],[-84.335,39.1459],[-84.322,39.1465],[-84.3215,39.1523],[-84.3366,39.1479],[-84.3437,39.14],[-84.3517,39.1408],[-84.3511,39.1462],[-84.3679,39.1472],[-84.3789,39.1582],[-84.3764,39.1694],[-84.381,39.1628],[-84.3876,39.1683],[-84.4306,39.1679],[-84.4225,39.1769],[-84.4025,39.1718],[-84.3991,39.1762],[-84.4084,39.1795],[-84.4011,39.1876],[-84.4104,39.1883],[-84.4111,39.1945],[-84.4233,39.1935],[-84.4283,39.1876],[-84.4533,39.1925],[-84.4491,39.2043],[-84.4537,39.2046],[-84.4507,39.2076],[-84.4559,39.2076],[-84.4554,39.2131],[-84.4478,39.2191],[-84.4736,39.2178],[-84.4741,39.213],[-84.4802,39.2136],[-84.4815,39.2198],[-84.4922,39.2211],[-84.4932,39.2059],[-84.497,39.2044],[-84.4943,39.1995],[-84.5342,39.2016],[-84.5359,39.2058],[-84.5323,39.2021],[-84.5279,39.2058],[-84.5274,39.2132],[-84.5348,39.2171],[-84.5445,39.2091],[-84.5571,39.2097],[-84.5576,39.2036],[-84.5797,39.2049],[-84.5813,39.1829],[-84.5714,39.1859],[-84.582,39.1756],[-84.5831,39.1646],[-84.597,39.1656],[-84.6083,39.1494],[-84.6227,39.1489],[-84.625,39.1446],[-84.6192,39.1399],[-84.6183,39.1296],[-84.605,39.1259],[-84.6068,39.1161],[-84.616,39.1183],[-84.6073,39.1109],[-84.608,39.104],[-84.5923,39.1035],[-84.598,39.1003],[-84.5944,39.0956],[-84.5896,39.1033],[-84.5797,39.1025],[-84.5812,39.088],[-84.5866,39.0883],[-84.587,39.084],[-84.6164,39.0794],[-84.6189,39.0849],[-84.6262,39.0791],[-84.6453,39.0944],[-84.679,39.1035],[-84.6817,39.109],[-84.6784,39.1108],[-84.6808,39.1153],[-84.6855,39.1128],[-84.6871,39.1226],[-84.6953,39.1236],[-84.7042,39.1323],[-84.7124,39.1306]]]},"properties":{"geoid":"39009","state":"39","district":"9","name":"State Senate District 9","chamber":"Senate"}},{"type":"Feature","geometry":{"type":"Polygon","coordinates":[[[-84.1142,39.5783],[-83.977,39.5694],[-84.0075,39.2551],[-83.8344,39.2457],[-83.8359,39.2233],[-83.8106,39.2238],[-83.8015,39.2311],[-83.8025,39.2375],[-83.7957,39.2409],[-83.7848,39.2629],[-83.5909,39.3787],[-83.5763,39.5445],[-83.6702,39.5503],[-83.6486,39.7685],[-83.6472,39.773],[-83.5899,39.7688],[-83.5126,40.01],[-84.0361,40.0402],[-84.0551,39.8362],[-84.0929,39.8383],[-84.1142,39.5783]]]},"properties":{"geoid":"39010","state":"39","district":"10","name":"State Senate District 10","chamber":"Senate"}},{"type":"Feature","geometry":{"type":"Polygon","coordinates":[[[-83.7865,41.6038],[-83.7864,41.5823],[-83.7613,41.5828],[-83.7614,41.5883],[-83.691,41.5877],[-83.6906,41.5716],[-83.6957,41.5723],[-83.6963,41.5663],[-83.6907,41.5662],[-83.6881,41.5588],[-83.6992,41.5569],[-83.6993,41.5509],[-83.7015,41.5538],[-83.7182,41.5482],[-83.7162,41.5406],[-83.7082,41.5366],[-83.6884,41.551],[-83.6852,41.5498],[-83.6959,41.5437],[-83.697,41.5378],[-83.6449,41.5608],[-83.6361,41.5603],[-83.6256,41.5701],[-83.6127,41.5708],[-83.5699,41.6172],[-83.1645,41.6232],[-82.9956,41.829],[-83.0693,41.8642],[-83.1125,41.9594],[-83.4159,41.7338],[-83.6496,41.7274],[-83.6495,41.7201],[-83.656,41.7184],[-83.6527,41.7196],[-83.6451,41.7056],[-83.6616,41.705],[-83.6583,41.6994],[-83.6553,41.7028],[-83.6449,41.6985],[-83.6499,41.6985],[-83.6496,41.6912],[-83.6644,41.691],[-83.6655,41.6874],[-83.6543,41.6876],[-83.6538,41.677],[-83.6666,41.6767],[-83.6626,41.6694],[-83.693,41.6685],[-83.694,41.661],[-83.7605,41.659],[-83.7615,41.6176],[-83.7864,41.6174],[-83.7865,41.6038]]]},"properties":{"geoid":"39011","state":"39","district":"11","name":"State Senate District 11","chamber":"Senate"}},{"type":"Feature","geometry":{"type":"Polygon","coordinates":[[[-84.8089,40.0971],[-84.8089,40.0926],[-84.7071,40.0918],[-84.7063,40.063],[-84.5651,40.0634],[-84.5658,40.0922],[-84.4299,40.0944],[-84.4323,40.1808],[-84.4363,40.1808],[-84.4326,40.197],[-84.2187,40.2],[-84.2189,40.1955],[-84.0229,40.1839],[-84.0361,40.0402],[-83.5161,40.0108],[-83.4945,40.2255],[-83.5513,40.2294],[-83.5328,40.3968],[-83.5469,40.3929],[-83.5532,40.3977],[-83.73,40.4045],[-83.7284,40.4203],[-83.8652,40.4048],[-83.8695,40.3606],[-83.9343,40.3645],[-83.9321,40.3695],[-84.0044,40.3687],[-84.0024,40.4831],[-83.9938,40.483],[-83.9939,40.5352],[-83.88,40.5387],[-83.8804,40.9204],[-83.9952,40.9198],[-83.9952,40.9051],[-84.1095,40.9047],[-84.1096,40.861],[-84.3405,40.8591],[-84.3401,40.8161],[-84.3974,40.8159],[-84.3968,40.6849],[-84.4562,40.6849],[-84.4562,40.7283],[-84.8023,40.7281],[-84.8089,40.0971]]]},"properties":{"geoid":"39012","state":"39","district":"12","name":"State Senate District 12","chamber":"Senate"}},{"type":"Feature","geometry":{"type":"Polygon","coordinates":[[[-82.8385,41.217],[-82.8289,40.9966],[-82.4329,40.9929],[-82.4369,41.0654],[-82.1715,41.0635],[-82.1699,41.1371],[-82.0743,41.1365],[-82.0725,41.1998],[-81.9739,41.1998],[-81.9725,41.2748],[-81.8781,41.275],[-81.877,41.3507],[-81.9713,41.3513],[-81.9677,41.5109],[-81.9706,41.8778],[-82.3481,41.7001],[-82.3482,41.4319],[-82.3403,41.2113],[-82.4417,41.2127],[-82.4425,41.2839],[-82.5794,41.2863],[-82.7422,41.2879],[-82.7391,41.215],[-82.8385,41.217]]]},"properties":{"geoid":"39013","state":"39","district":"13","name":"State Senate District 13","chamber":"Senate"}},{"type":"Feature","geometry":{"type":"Polygon","coordinates":[[[-84.32,39.2231],[-84.3103,39.2091],[-84.2855,39.2135],[-84.2762,39.2017],[-84.2887,39.1817],[-84.2994,39.1742],[-84.2951,39.1672],[-84.3017,39.1594],[-84.32,39.0215],[-84.3018,39.0001],[-84.2888,38.9556],[-84.2343,38.8933],[-84.2323,38.8354],[-84.2223,38.8139],[-84.2059,38.8027],[-84.1486,38.7932],[-84.0714,38.7705],[-84.0438,38.7707],[-83.9781,38.7874],[-83.9624,38.7875],[-83.9432,38.7832],[-83.9257,38.7712],[-83.8694,38.7613],[-83.8489,38.7475],[-83.8368,38.7177],[-83.7845,38.6967],[-83.7736,38.6611],[-83.7642,38.6525],[-83.7209,38.6467],[-83.6815,38.6303],[-83.6595,38.6274],[-83.6455,38.6356],[-83.6365,38.6673],[-83.626,38.6786],[-83.5209,38.7031],[-83.4936,38.6945],[-83.4677,38.6753],[-83.3628,38.6572],[-83.3277,38.6378],[-83.3166,38.608],[-83.2932,38.5967],[-83.2643,38.6214],[-83.2457,38.6286],[-83.2044,38.6168],[-83.1532,38.619],[-83.1348,38.632],[-83.1124,38.6716],[-83.054,38.6951],[-83.0305,38.7258],[-83.0088,38.73],[-82.9715,38.7272],[-82.9347,38.7467],[-82.8915,38.7564],[-82.8795,38.7513],[-82.871,38.7365],[-82.8776,38.6898],[-82.8601,38.6622],[-82.8519,38.6059],[-82.8419,38.5883],[-82.8159,38.5708],[-82.7404,38.5972],[-82.7662,38.6447],[-82.7639,38.68],[-82.7064,38.6775],[-82.6954,38.75],[-82.6629,38.748],[-82.65,38.8491],[-82.7607,38.8549],[-82.7534,38.9454],[-82.9704,38.9554],[-83.2121,38.9601],[-83.2148,38.9628],[-83.2107,38.9699],[-83.2172,38.9718],[-83.2148,38.9917],[-83.2342,38.9989],[-83.2378,39.0099],[-83.2688,39.0145],[-83.2855,39.024],[-83.2881,39.0298],[-83.3104,39.0424],[-83.3146,39.0522],[-83.3857,39.0552],[-83.6116,39.0189],[-83.8722,39.0213],[-83.8657,39.2473],[-84.2594,39.2709],[-84.2616,39.2645],[-84.2936,39.2486],[-84.2994,39.2352],[-84.3072,39.2344],[-84.32,39.2231]]]},"properties":{"geoid":"39014","state":"39","district":"14","name":"State Senate District 14","chamber":"Senate"}},{"type":"Feature","geometry":{"type":"Polygon","coordinates":[[[-83.0651,39.9639],[-83.0592,39.9557],[-83.0593,39.9394],[-83.0411,39.939],[-83.0402,39.9439],[-83.0215,39.9449],[-83.0211,39.9503],[-83.0083,39.9531],[-82.9824,39.9522],[-82.9836,39.9363],[-82.9997,39.9394],[-83.0103,39.9131],[-83.0081,39.9071],[-82.9873,39.9009],[-82.9866,39.8958],[-82.9676,39.8949],[-82.9665,39.9091],[-82.9571,39.9088],[-82.955,39.9047],[-82.9218,39.9068],[-82.9116,39.8952],[-82.9155,39.8891],[-82.911,39.8889],[-82.895,39.9053],[-82.9113,39.9065],[-82.9104,39.9133],[-82.8991,39.9076],[-82.8969,39.9143],[-82.8865,39.909],[-82.8517,39.9137],[-82.8503,39.9039],[-82.8419,39.9072],[-82.8249,39.9029],[-82.8237,39.9173],[-82.831,39.9249],[-82.8307,39.9329],[-82.8599,39.9346],[-82.8642,39.9385],[-82.8547,39.9454],[-82.8532,39.9548],[-82.853,39.947],[-82.8465,39.9509],[-82.8496,39.9458],[-82.8442,39.9547],[-82.819,39.9573],[-82.8186,39.9632],[-82.828,39.9637],[-82.8315,39.9787],[-82.8029,39.9774],[-82.8048,39.9836],[-82.7912,39.985],[-82.7971,39.9877],[-82.7968,39.9916],[-82.7918,39.9914],[-82.791,40.0003],[-82.7813,39.9985],[-82.781,40.0027],[-82.7875,40.0021],[-82.7807,40.0094],[-82.8001,40.0076],[-82.7908,40.0063],[-82.7911,40.0016],[-82.7989,40.002],[-82.8015,39.9899],[-82.8103,39.9894],[-82.815,39.9914],[-82.8096,39.9934],[-82.8159,39.9952],[-82.8576,39.9867],[-82.8573,39.9949],[-82.8686,39.9972],[-82.8718,40.0051],[-82.8965,40.0084],[-82.9012,40.0128],[-82.9034,40.038],[-82.8999,40.0462],[-82.8883,40.0461],[-82.8886,40.0564],[-82.9774,40.0606],[-82.9768,40.0495],[-83.0202,40.0496],[-83.0071,39.9953],[-83.012,39.9955],[-83.0121,39.9821],[-82.9931,39.9789],[-83.0022,39.9702],[-83.0012,39.9649],[-83.0651,39.9639]]]},"properties":{"geoid":"39015","state":"39","district":"15","name":"State Senate District 15","chamber":"Senate"}},{"type":"Feature","geometry":{"type":"Polygon","coordinates":[[[-83.2609,40.0028],[-83.2461,39.9873],[-83.2505,39.9711],[-83.2426,39.9656],[-83.2296,39.9681],[-83.2325,39.972],[-83.2272,39.9746],[-83.2185,39.9645],[-83.2043,39.9636],[-83.2116,39.9698],[-83.202,39.9738],[-83.1931,39.9736],[-83.1943,39.9635],[-83.1783,39.9652],[-83.1835,39.9847],[-83.1802,39.9845],[-83.1819,40.0027],[-83.1745,40.0033],[-83.1747,40.0072],[-83.183,40.0091],[-83.1836,40.0141],[-83.1753,40.011],[-83.1738,40.0178],[-83.1597,40.0189],[-83.1661,40.0155],[-83.1667,40.0061],[-83.16,40.004],[-83.1597,40.0091],[-83.1539,40.0055],[-83.1472,40.0101],[-83.1584,40.018],[-83.154,40.0206],[-83.1202,40.0113],[-83.1202,40.0199],[-83.1111,40.0123],[-83.0987,40.0164],[-83.1089,40.0226],[-83.0986,40.0222],[-83.1025,40.0254],[-83.0954,40.0284],[-83.0994,40.0365],[-83.0974,40.0514],[-83.108,40.067],[-83.1125,40.0671],[-83.1083,40.0682],[-83.0498,40.0492],[-83.0463,40.0331],[-83.039,40.0327],[-83.0409,40.0397],[-83.0285,40.0379],[-83.0327,40.047],[-83.0272,40.059],[-83.0299,40.063],[-82.9996,40.0617],[-83.0029,40.0884],[-82.9973,40.0882],[-82.9953,40.1205],[-82.9877,40.1188],[-82.98,40.1259],[-82.9486,40.1193],[-82.949,40.1106],[-82.936,40.1032],[-82.9252,40.1043],[-82.9113,40.0963],[-82.9024,40.0984],[-82.9071,40.0949],[-82.9061,40.089],[-82.8899,40.094],[-82.8726,40.0899],[-82.8749,40.0797],[-82.862,40.0789],[-82.8626,40.0711],[-82.8391,40.0629],[-82.8433,40.0618],[-82.8432,40.0545],[-82.8104,40.0531],[-82.8886,40.0564],[-82.8883,40.0461],[-82.8999,40.0462],[-82.9034,40.038],[-82.8996,40.0096],[-82.8718,40.0051],[-82.8686,39.9972],[-82.8573,39.9949],[-82.8576,39.9867],[-82.8159,39.9952],[-82.8096,39.9934],[-82.815,39.9914],[-82.8103,39.9894],[-82.8015,39.9899],[-82.7989,40.002],[-82.7911,40.0016],[-82.7908,40.0063],[-82.8001,40.0076],[-82.7807,40.0094],[-82.7875,40.0021],[-82.781,40.0027],[-82.7813,39.9985],[-82.791,40.0003],[-82.7918,39.9914],[-82.7968,39.9916],[-82.7971,39.9877],[-82.7727,39.9871],[-82.7618,40.1259],[-83.1699,40.1431],[-83.1702,40.1069],[-83.2063,40.1077],[-83.2122,40.0481],[-83.2553,40.0482],[-83.2517,40.0084],[-83.2609,40.0028]]]},"properties":{"geoid":"39016","state":"39","district":"16","name":"State Senate District 16","chamber":"Senate"}},{"type":"Feature","geometry":{"type":"Polygon","coordinates":[[[-83.8721,39.0236],[-83.6116,39.0189],[-83.3857,39.0552],[-83.3146,39.0522],[-83.3104,39.0424],[-83.2881,39.0298],[-83.2855,39.024],[-83.2688,39.0145],[-83.2378,39.0099],[-83.2342,38.9989],[-83.2148,38.9917],[-83.2172,38.9718],[-83.2107,38.9699],[-83.2148,38.9628],[-83.2121,38.9601],[-82.9704,38.9554],[-82.7534,38.9454],[-82.7607,38.8549],[-82.65,38.8491],[-82.6591,38.7627],[-82.6629,38.748],[-82.6954,38.75],[-82.7064,38.6775],[-82.7639,38.68],[-82.7662,38.6447],[-82.7404,38.5972],[-82.8159,38.5708],[-82.7882,38.5597],[-82.7264,38.5585],[-82.6983,38.5438],[-82.6536,38.4938],[-82.6108,38.472],[-82.5935,38.4183],[-82.5716,38.4051],[-82.5285,38.4058],[-82.4049,38.4393],[-82.3818,38.4348],[-82.3327,38.4435],[-82.3181,38.4579],[-82.3049,38.4939],[-82.2913,38.579],[-82.2621,38.5982],[-82.201,38.5921],[-82.1888,38.595],[-82.1753,38.6071],[-82.1725,38.6288],[-82.1909,38.6804],[-82.1825,38.7088],[-82.1931,38.7377],[-82.1869,38.7223],[-82.188,38.7331],[-82.1989,38.7577],[-82.2196,38.7723],[-82.2216,38.7872],[-82.2114,38.8012],[-82.1912,38.8151],[-82.1636,38.8234],[-82.1449,38.8405],[-82.1392,38.865],[-82.1454,38.8842],[-82.1433,38.8979],[-82.1294,38.9079],[-82.099,38.9584],[-82.0955,39.0028],[-82.3239,39.0132],[-82.3067,39.2055],[-82.2686,39.2038],[-82.2638,39.2538],[-82.2602,39.2929],[-82.2985,39.2949],[-82.2804,39.4729],[-82.1674,39.4661],[-82.1592,39.5566],[-82.0396,39.5502],[-82.0242,39.7247],[-82.2488,39.7359],[-82.2567,39.6483],[-82.4903,39.6617],[-82.4961,39.6028],[-82.6175,39.6086],[-82.6201,39.564],[-82.7303,39.5691],[-82.7406,39.4685],[-82.75,39.4681],[-82.9982,39.4801],[-82.9929,39.4899],[-82.9804,39.4903],[-82.9787,39.5009],[-82.9846,39.5068],[-83.2667,39.5162],[-83.2524,39.6954],[-83.6533,39.7169],[-83.6702,39.5503],[-83.5763,39.5445],[-83.5909,39.3787],[-83.7848,39.2629],[-83.8086,39.2245],[-83.8359,39.2233],[-83.8344,39.2457],[-83.8657,39.2473],[-83.8721,39.0236]]]},"properties":{"geoid":"39017","state":"39","district":"17","name":"State Senate District 17","chamber":"Senate"}},{"type":"Feature","geometry":{"type":"Polygon","coordinates":[[[-81.7102,41.4191],[-81.6855,41.4194],[-81.6846,41.351],[-81.641,41.3511],[-81.6412,41.3135],[-81.6699,41.3139],[-81.6702,41.2773],[-81.5626,41.2788],[-81.5757,41.3009],[-81.573,41.3029],[-81.5854,41.3085],[-81.5834,41.3154],[-81.5917,41.3287],[-81.5878,41.3422],[-81.5952,41.3439],[-81.5929,41.3494],[-81.5981,41.3512],[-81.3917,41.3483],[-81.3918,41.4243],[-81.3748,41.4244],[-81.375,41.4453],[-81.3915,41.4452],[-81.391,41.5697],[-81.2959,41.5699],[-81.2947,41.6409],[-81.1014,41.6415],[-81.1023,41.7143],[-81.0029,41.7149],[-81.0021,41.8549],[-81.0098,41.8652],[-81.0098,42.2516],[-81.2498,42.2164],[-81.4952,42.0964],[-81.4879,41.5862],[-81.5026,41.5836],[-81.5025,41.574],[-81.5142,41.571],[-81.5133,41.5601],[-81.528,41.5601],[-81.5274,41.5458],[-81.5071,41.5447],[-81.5072,41.538],[-81.488,41.5378],[-81.4879,41.5306],[-81.4747,41.5307],[-81.4698,41.506],[-81.4852,41.4955],[-81.4904,41.4639],[-81.4633,41.4595],[-81.4607,41.4309],[-81.4522,41.4305],[-81.4525,41.4245],[-81.4883,41.4243],[-81.4888,41.4021],[-81.4946,41.4021],[-81.4946,41.3726],[-81.5082,41.3727],[-81.5082,41.3801],[-81.5127,41.3801],[-81.5125,41.3727],[-81.5177,41.3717],[-81.5366,41.3728],[-81.5367,41.3845],[-81.5414,41.3874],[-81.5536,41.3838],[-81.5562,41.3785],[-81.5706,41.3794],[-81.5656,41.3875],[-81.5847,41.3846],[-81.6249,41.415],[-81.6381,41.4175],[-81.6333,41.4414],[-81.651,41.441],[-81.651,41.451],[-81.6571,41.4558],[-81.6815,41.4551],[-81.681,41.449],[-81.6877,41.4516],[-81.6913,41.427],[-81.6973,41.4318],[-81.7077,41.4304],[-81.7102,41.4191]]]},"properties":{"geoid":"39018","state":"39","district":"18","name":"State Senate District 18","chamber":"Senate"}},{"type":"Feature","geometry":{"type":"Polygon","coordinates":[[[-83.2496,40.3466],[-83.2484,40.2445],[-83.1723,40.2443],[-83.1696,40.1428],[-82.7618,40.1259],[-82.7507,40.277],[-82.4761,40.2647],[-82.4773,40.2458],[-82.1828,40.2386],[-82.1871,40.1669],[-81.6709,40.151],[-81.6676,40.2225],[-81.6224,40.2213],[-81.6163,40.3681],[-81.7124,40.3708],[-81.7091,40.4449],[-81.6698,40.4439],[-81.6628,40.6273],[-81.6682,40.6275],[-81.6679,40.6324],[-81.6491,40.6345],[-81.6489,40.6678],[-82.2211,40.6674],[-82.2203,40.5682],[-82.3749,40.5509],[-82.6428,40.55],[-82.6428,40.5221],[-82.6332,40.5231],[-82.6465,40.3451],[-82.9296,40.3581],[-82.9248,40.415],[-83.0221,40.4189],[-83.0208,40.4338],[-83.2486,40.444],[-83.2496,40.3466]]]},"properties":{"geoid":"39019","state":"39","district":"19","name":"State Senate District 19","chamber":"Senate"}},{"type":"Feature","geometry":{"type":"Polygon","coordinates":[[[-82.8429,39.5616],[-82.7315,39.5544],[-82.7303,39.5691],[-82.6201,39.564],[-82.6175,39.6086],[-82.4961,39.6028],[-82.4903,39.6617],[-82.2567,39.6483],[-82.2488,39.7359],[-82.0802,39.7277],[-82.0729,39.8162],[-82.17,39.8207],[-82.1624,39.9094],[-82.234,39.9133],[-82.2317,39.9511],[-82.1987,39.9502],[-82.1828,40.2386],[-82.4773,40.2458],[-82.4761,40.2647],[-82.7507,40.277],[-82.7738,39.9761],[-82.7795,39.9763],[-82.7825,39.9397],[-82.8108,39.9412],[-82.8131,39.9117],[-82.7944,39.9108],[-82.8025,39.823],[-82.8215,39.8243],[-82.8429,39.5616]]]},"properties":{"geoid":"39020","state":"39","district":"20","name":"State Senate District 20","chamber":"Senate"}},{"type":"Feature","geometry":{"type":"Polygon","coordinates":[[[-81.6381,41.4175],[-81.6249,41.415],[-81.5847,41.3846],[-81.5656,41.3875],[-81.5704,41.3813],[-81.5676,41.3779],[-81.5535,41.3793],[-81.5536,41.3838],[-81.5414,41.3874],[-81.5367,41.3845],[-81.5366,41.3728],[-81.5177,41.3717],[-81.5125,41.3727],[-81.5127,41.3801],[-81.5082,41.3801],[-81.5082,41.3727],[-81.4946,41.3726],[-81.4946,41.4021],[-81.4888,41.4021],[-81.4883,41.4243],[-81.4525,41.4245],[-81.4522,41.4305],[-81.4607,41.4309],[-81.4633,41.4595],[-81.4904,41.4639],[-81.4852,41.4955],[-81.4698,41.506],[-81.4747,41.5307],[-81.4879,41.5306],[-81.488,41.5378],[-81.5072,41.538],[-81.5071,41.5447],[-81.5273,41.5457],[-81.528,41.5601],[-81.5133,41.5601],[-81.5142,41.571],[-81.5025,41.574],[-81.5026,41.5836],[-81.4879,41.5862],[-81.4887,41.6351],[-81.5402,41.6122],[-81.576,41.5839],[-81.5754,41.5768],[-81.5684,41.5757],[-81.562,41.577],[-81.5565,41.5871],[-81.5401,41.5839],[-81.5415,41.5762],[-81.536,41.5729],[-81.5688,41.5522],[-81.5711,41.5451],[-81.5915,41.5448],[-81.5914,41.5304],[-81.5982,41.5306],[-81.5986,41.5179],[-81.5912,41.5161],[-81.5913,41.5087],[-81.5979,41.5012],[-81.6102,41.499],[-81.6178,41.4828],[-81.6098,41.4817],[-81.6098,41.4771],[-81.6215,41.4757],[-81.6116,41.4668],[-81.6116,41.4573],[-81.6279,41.4515],[-81.6262,41.4475],[-81.6345,41.4414],[-81.6381,41.4175]]]},"properties":{"geoid":"39021","state":"39","district":"21","name":"State Senate District 21","chamber":"Senate"}},{"type":"Feature","geometry":{"type":"Polygon","coordinates":[[[-82.7271,40.7149],[-82.7272,40.7112],[-82.6272,40.7094],[-82.6262,40.6661],[-82.645,40.6664],[-82.645,40.6602],[-82.6441,40.6372],[-82.6248,40.6373],[-82.6236,40.5499],[-82.3749,40.5509],[-82.2203,40.5682],[-82.2211,40.6674],[-82.1262,40.6684],[-82.125,40.8863],[-82.1293,40.9918],[-81.6885,40.9886],[-81.685,41.2771],[-81.9725,41.2748],[-81.9739,41.1998],[-82.0725,41.1998],[-82.0743,41.1365],[-82.1699,41.1371],[-82.1715,41.0635],[-82.4369,41.0654],[-82.4329,40.9929],[-82.7248,40.9956],[-82.7271,40.7149]]]},"properties":{"geoid":"39022","state":"39","district":"22","name":"State Senate District 22","chamber":"Senate"}},{"type":"Feature","geometry":{"type":"Polygon","coordinates":[[[-81.9706,41.8778],[-81.9703,41.411],[-81.9462,41.414],[-81.9428,41.4268],[-81.9329,41.4292],[-81.9326,41.4338],[-81.9032,41.4335],[-81.9029,41.4408],[-81.8934,41.4407],[-81.8931,41.448],[-81.8747,41.4481],[-81.8754,41.4176],[-81.8522,41.4187],[-81.8535,41.4304],[-81.8452,41.4305],[-81.8453,41.4377],[-81.8226,41.434],[-81.8197,41.4403],[-81.806,41.4413],[-81.8082,41.4381],[-81.7939,41.4387],[-81.794,41.4336],[-81.7799,41.4375],[-81.78,41.4336],[-81.7676,41.4462],[-81.7386,41.4625],[-81.7281,41.4558],[-81.7246,41.4675],[-81.72,41.4675],[-81.7188,41.4569],[-81.6929,41.4678],[-81.694,41.4602],[-81.681,41.449],[-81.6815,41.4551],[-81.6571,41.4558],[-81.651,41.451],[-81.651,41.441],[-81.6445,41.4392],[-81.6361,41.4397],[-81.6235,41.455],[-81.6116,41.4573],[-81.6116,41.4668],[-81.6215,41.4757],[-81.6098,41.4771],[-81.6098,41.4817],[-81.6178,41.4828],[-81.6102,41.499],[-81.5979,41.5012],[-81.5913,41.5087],[-81.5912,41.5161],[-81.5986,41.5179],[-81.5982,41.5306],[-81.5914,41.5304],[-81.5915,41.5448],[-81.5711,41.5451],[-81.5688,41.5522],[-81.536,41.5729],[-81.5415,41.5762],[-81.5401,41.5839],[-81.5565,41.5871],[-81.562,41.577],[-81.5684,41.5757],[-81.5754,41.5768],[-81.576,41.5839],[-81.5402,41.6122],[-81.4887,41.6351],[-81.4952,42.0964],[-81.6864,42],[-81.7092,42],[-81.9706,41.8778]]]},"properties":{"geoid":"39023","state":"39","district":"23","name":"State Senate District 23","chamber":"Senate"}},{"type":"Feature","geometry":{"type":"Polygon","coordinates":[[[-81.9712,41.3531],[-81.877,41.3507],[-81.8781,41.275],[-81.6702,41.2773],[-81.6699,41.3139],[-81.6412,41.3135],[-81.641,41.3511],[-81.6846,41.351],[-81.6855,41.4194],[-81.7102,41.4189],[-81.7077,41.4304],[-81.6973,41.4318],[-81.6912,41.4272],[-81.6924,41.4379],[-81.6868,41.444],[-81.6929,41.4678],[-81.7136,41.4572],[-81.7194,41.457],[-81.72,41.4675],[-81.7246,41.4675],[-81.7281,41.4558],[-81.7386,41.4625],[-81.7676,41.4462],[-81.78,41.4336],[-81.7799,41.4375],[-81.794,41.4336],[-81.7939,41.4387],[-81.8082,41.4381],[-81.806,41.4413],[-81.8197,41.4403],[-81.8226,41.434],[-81.8453,41.4377],[-81.8452,41.4305],[-81.8535,41.4304],[-81.8522,41.4187],[-81.8754,41.4176],[-81.8747,41.4481],[-81.8931,41.448],[-81.8934,41.4407],[-81.9029,41.4408],[-81.9032,41.4335],[-81.9326,41.4338],[-81.9329,41.4292],[-81.9428,41.4268],[-81.9462,41.414],[-81.9703,41.411],[-81.9712,41.3531]]]},"properties":{"geoid":"39024","state":"39","district":"24","name":"State Senate District 24","chamber":"Senate"}},{"type":"Feature","geometry":{"type":"Polygon","coordinates":[[[-83.1836,40.0141],[-83.1745,40.0033],[-83.1819,40.0027],[-83.1802,39.9845],[-83.1835,39.9819],[-83.1611,39.9782],[-83.1742,39.9752],[-83.1667,39.9756],[-83.166,39.9722],[-83.1724,39.9721],[-83.1665,39.9685],[-83.1736,39.9653],[-83.1719,39.9564],[-83.1626,39.9528],[-83.1719,39.9497],[-83.1729,39.9446],[-83.1575,39.9354],[-83.159,39.9319],[-83.1529,39.9316],[-83.1698,39.9321],[-83.1624,39.9255],[-83.1707,39.9283],[-83.1702,39.9229],[-83.1784,39.9255],[-83.178,39.922],[-83.1629,39.9194],[-83.1627,39.9232],[-83.153,39.9241],[-83.1526,39.9172],[-83.144,39.919],[-83.144,39.9156],[-83.1201,39.9235],[-83.1241,39.934],[-83.1177,39.9393],[-83.0977,39.9288],[-83.1008,39.9361],[-83.0975,39.9425],[-83.0719,39.9438],[-83.0593,39.9394],[-83.0592,39.9557],[-83.0647,39.9641],[-83.0012,39.9649],[-83.0022,39.9702],[-82.9931,39.9789],[-83.0121,39.9821],[-83.012,39.9955],[-83.0071,39.9953],[-83.0202,40.0496],[-82.9768,40.0495],[-82.9774,40.0606],[-82.8104,40.0531],[-82.8432,40.0545],[-82.8433,40.0618],[-82.8391,40.0629],[-82.8626,40.0711],[-82.862,40.0789],[-82.8749,40.0797],[-82.8726,40.0899],[-82.8899,40.094],[-82.9061,40.089],[-82.9071,40.0949],[-82.9024,40.0984],[-82.9113,40.0963],[-82.9252,40.1043],[-82.936,40.1032],[-82.949,40.1106],[-82.9486,40.1193],[-82.98,40.1259],[-82.9877,40.1188],[-82.9953,40.1205],[-82.9973,40.0882],[-83.0029,40.0884],[-82.9996,40.0617],[-83.0299,40.063],[-83.0272,40.059],[-83.0327,40.047],[-83.0285,40.0379],[-83.0409,40.0397],[-83.039,40.0327],[-83.0463,40.0331],[-83.0498,40.0492],[-83.1083,40.0682],[-83.1125,40.0671],[-83.108,40.067],[-83.0974,40.0514],[-83.0994,40.0365],[-83.0954,40.0284],[-83.1025,40.0254],[-83.0986,40.0222],[-83.1089,40.0226],[-83.0987,40.0164],[-83.1111,40.0123],[-83.1202,40.0199],[-83.1202,40.0113],[-83.154,40.0206],[-83.1584,40.018],[-83.1472,40.0101],[-83.1539,40.0055],[-83.1597,40.0091],[-83.16,40.004],[-83.1667,40.0061],[-83.1661,40.0155],[-83.1597,40.0189],[-83.1738,40.0178],[-83.1753,40.011],[-83.1836,40.0141]]]},"properties":{"geoid":"39025","state":"39","district":"25","name":"State Senate District 25","chamber":"Senate"}},{"type":"Feature","geometry":{"type":"Polygon","coordinates":[[[-83.5513,40.2298],[-83.4945,40.2255],[-83.5037,40.1115],[-83.1702,40.1069],[-83.1723,40.2443],[-83.2484,40.2445],[-83.2486,40.444],[-83.0208,40.4338],[-83.0221,40.4189],[-82.9248,40.415],[-82.9296,40.3581],[-82.6465,40.3451],[-82.6332,40.5231],[-82.6428,40.5221],[-82.6428,40.55],[-82.6236,40.5499],[-82.6248,40.6373],[-82.6441,40.6372],[-82.645,40.6664],[-82.6262,40.6661],[-82.6272,40.7094],[-82.7272,40.7112],[-82.7248,40.9956],[-82.8295,40.9966],[-82.8477,41.4305],[-82.9529,41.4302],[-82.9522,41.4582],[-83.3382,41.4575],[-83.339,41.5012],[-83.4146,41.5002],[-83.4203,40.9919],[-83.4578,40.9917],[-83.4577,40.9485],[-83.4768,40.9484],[-83.4767,40.905],[-83.5147,40.9051],[-83.5159,40.8181],[-83.4963,40.8179],[-83.4958,40.7015],[-83.4402,40.7022],[-83.4403,40.6876],[-83.4198,40.6868],[-83.4156,40.5154],[-83.4187,40.5052],[-83.5202,40.5041],[-83.5513,40.2298]]]},"properties":{"geoid":"39026","state":"39","district":"26","name":"State Senate District 26","chamber":"Senate"}},{"type":"Feature","geometry":{"type":"Polygon","coordinates":[[[-81.6884,40.9907],[-81.6477,40.9886],[-81.6408,40.9871],[-81.641,40.9824],[-81.633,40.9886],[-81.6323,40.9833],[-81.621,40.985],[-81.6183,40.9792],[-81.6006,40.9758],[-81.6005,40.98],[-81.5933,40.9798],[-81.6008,40.9886],[-81.5805,40.9926],[-81.5854,40.9934],[-81.581,40.9979],[-81.586,40.9995],[-81.5725,40.9996],[-81.5734,41.01],[-81.5639,41.0104],[-81.5638,41.0173],[-81.579,41.0217],[-81.5775,41.0396],[-81.5892,41.0413],[-81.5882,41.0959],[-81.5944,41.096],[-81.5954,41.1028],[-81.605,41.1028],[-81.6098,41.1139],[-81.6149,41.1101],[-81.6445,41.1102],[-81.638,41.1212],[-81.6485,41.1204],[-81.6485,41.1285],[-81.634,41.1285],[-81.6394,41.1336],[-81.6296,41.1358],[-81.6294,41.1433],[-81.6401,41.1457],[-81.6573,41.1382],[-81.6425,41.1499],[-81.6176,41.1439],[-81.6039,41.1442],[-81.604,41.1475],[-81.5935,41.1445],[-81.5936,41.1494],[-81.5693,41.1444],[-81.5764,41.166],[-81.5568,41.1706],[-81.5569,41.1632],[-81.551,41.1631],[-81.5511,41.1588],[-81.537,41.1614],[-81.5452,41.1567],[-81.5408,41.1573],[-81.5408,41.1514],[-81.5485,41.1513],[-81.552,41.1439],[-81.5569,41.1513],[-81.5662,41.1513],[-81.5484,41.136],[-81.5407,41.1408],[-81.5423,41.148],[-81.5356,41.1513],[-81.5345,41.1459],[-81.5344,41.1513],[-81.5288,41.1533],[-81.5309,41.1587],[-81.5227,41.1589],[-81.5191,41.1666],[-81.5113,41.1664],[-81.5091,41.1609],[-81.5176,41.1585],[-81.5158,41.1443],[-81.5243,41.1444],[-81.5228,41.1518],[-81.532,41.1513],[-81.5377,41.1366],[-81.5287,41.1431],[-81.5276,41.136],[-81.5218,41.136],[-81.5222,41.1393],[-81.5198,41.136],[-81.5196,41.1244],[-81.4981,41.1236],[-81.4898,41.1175],[-81.4531,41.1187],[-81.4499,41.1481],[-81.4557,41.1494],[-81.4596,41.1444],[-81.469,41.1484],[-81.4693,41.164],[-81.4896,41.1605],[-81.4891,41.2772],[-81.3923,41.2765],[-81.3932,40.9885],[-81.002,40.9878],[-81.0032,41.3479],[-81.1914,41.3476],[-81.1906,41.4256],[-81.2977,41.4251],[-81.2978,41.4397],[-81.3362,41.441],[-81.3725,41.4349],[-81.3748,41.4244],[-81.3918,41.4243],[-81.3917,41.3483],[-81.5981,41.3512],[-81.5929,41.3494],[-81.5952,41.3439],[-81.5878,41.3422],[-81.5917,41.3287],[-81.5834,41.3154],[-81.5854,41.3085],[-81.573,41.3029],[-81.5757,41.3009],[-81.5626,41.2788],[-81.685,41.2771],[-81.6884,40.9907]]]},"properties":{"geoid":"39027","state":"39","district":"27","name":"State Senate District 27","chamber":"Senate"}},{"type":"Feature","geometry":{"type":"Polygon","coordinates":[[[-81.6573,41.1382],[-81.6401,41.1457],[-81.6314,41.1447],[-81.6296,41.1358],[-81.6394,41.1336],[-81.634,41.1285],[-81.6485,41.1285],[-81.6485,41.1204],[-81.638,41.1212],[-81.6445,41.1102],[-81.6149,41.1101],[-81.6098,41.1139],[-81.605,41.1028],[-81.5954,41.1028],[-81.5944,41.096],[-81.5882,41.0959],[-81.5892,41.0413],[-81.5775,41.0396],[-81.579,41.0217],[-81.5638,41.0173],[-81.5639,41.0104],[-81.5734,41.01],[-81.5725,40.9996],[-81.586,40.9995],[-81.581,40.9979],[-81.5854,40.9934],[-81.5805,40.9926],[-81.6008,40.9886],[-81.5933,40.9798],[-81.6005,40.98],[-81.6006,40.9758],[-81.6183,40.9792],[-81.621,40.985],[-81.6323,40.9833],[-81.633,40.9886],[-81.6396,40.9871],[-81.6403,40.9824],[-81.6408,40.9871],[-81.6477,40.9873],[-81.6477,40.914],[-81.4204,40.9065],[-81.4163,40.9885],[-81.3932,40.9885],[-81.3923,41.2765],[-81.4894,41.2772],[-81.4896,41.1605],[-81.4693,41.164],[-81.469,41.1484],[-81.4596,41.1444],[-81.4557,41.1494],[-81.4499,41.1481],[-81.4531,41.1187],[-81.4898,41.1175],[-81.4981,41.1236],[-81.5196,41.1244],[-81.5198,41.136],[-81.5222,41.1393],[-81.5218,41.136],[-81.5276,41.136],[-81.5287,41.1431],[-81.5377,41.1366],[-81.532,41.1513],[-81.5228,41.1518],[-81.5243,41.1444],[-81.5158,41.1443],[-81.5176,41.1585],[-81.5091,41.1609],[-81.5113,41.1664],[-81.5191,41.1666],[-81.5227,41.1589],[-81.5309,41.1587],[-81.5288,41.1533],[-81.5344,41.1513],[-81.5345,41.1459],[-81.5356,41.1513],[-81.5423,41.148],[-81.5407,41.1408],[-81.5484,41.136],[-81.5662,41.1513],[-81.5569,41.1513],[-81.552,41.1439],[-81.5485,41.1513],[-81.5408,41.1514],[-81.5408,41.1573],[-81.5452,41.1567],[-81.537,41.1614],[-81.5511,41.1588],[-81.551,41.1631],[-81.5569,41.1632],[-81.5568,41.1706],[-81.5764,41.166],[-81.5693,41.1444],[-81.5936,41.1494],[-81.5935,41.1445],[-81.604,41.1475],[-81.6039,41.1442],[-81.6176,41.1439],[-81.6425,41.1499],[-81.6573,41.1382]]]},"properties":{"geoid":"39028","state":"39","district":"28","name":"State Senate District 28","chamber":"Senate"}},{"type":"Feature","geometry":{"type":"Polygon","coordinates":[[[-81.6481,40.8049],[-81.6314,40.7991],[-81.6462,40.8048],[-81.6278,40.8166],[-81.5915,40.8153],[-81.6019,40.8071],[-81.593,40.7937],[-81.5853,40.795],[-81.5904,40.7983],[-81.5842,40.7993],[-81.5872,40.8049],[-81.5824,40.8047],[-81.5762,40.7961],[-81.5732,40.7982],[-81.5735,40.793],[-81.5796,40.7915],[-81.5674,40.792],[-81.5724,40.7841],[-81.5801,40.7859],[-81.5804,40.7798],[-81.5562,40.7853],[-81.5599,40.7752],[-81.5461,40.7776],[-81.5464,40.7717],[-81.5421,40.7716],[-81.5464,40.7592],[-81.551,40.7583],[-81.5328,40.7557],[-81.5333,40.7449],[-81.5418,40.7389],[-81.5373,40.7387],[-81.5392,40.7283],[-81.5308,40.726],[-81.5329,40.7228],[-81.528,40.7329],[-81.5086,40.7396],[-81.4984,40.7372],[-81.4967,40.7318],[-81.3139,40.7261],[-81.3177,40.6519],[-81.2412,40.6505],[-81.2372,40.7235],[-81.1991,40.7222],[-81.1987,40.7291],[-81.0873,40.7278],[-81.0863,40.988],[-81.4163,40.9885],[-81.4204,40.9065],[-81.6477,40.914],[-81.6481,40.8049]]]},"properties":{"geoid":"39029","state":"39","district":"29","name":"State Senate District 29","chamber":"Senate"}},{"type":"Feature","geometry":{"type":"Polygon","coordinates":[[[-82.3239,39.0148],[-82.0955,39.0028],[-82.099,38.9584],[-82.0902,38.9753],[-82.0511,38.9949],[-82.0377,39.0239],[-82.006,39.0294],[-81.9914,39.0184],[-81.9794,38.9932],[-81.9514,38.996],[-81.9332,38.9877],[-81.8985,38.9296],[-81.9267,38.9013],[-81.928,38.8935],[-81.9103,38.8793],[-81.8951,38.874],[-81.856,38.8927],[-81.8453,38.9101],[-81.8445,38.9287],[-81.8274,38.9459],[-81.8112,38.9447],[-81.7856,38.9262],[-81.7627,38.9241],[-81.757,38.9372],[-81.7788,38.9559],[-81.7818,38.9649],[-81.7741,38.9937],[-81.7652,39.0026],[-81.7643,39.0153],[-81.8081,39.0538],[-81.8139,39.0797],[-81.8067,39.0841],[-81.7756,39.0784],[-81.7608,39.0841],[-81.7461,39.097],[-81.7428,39.1427],[-81.7562,39.1805],[-81.7369,39.1926],[-81.7256,39.2159],[-81.7009,39.2208],[-81.6919,39.227],[-81.6966,39.2561],[-81.6836,39.2709],[-81.6453,39.2773],[-81.6058,39.2759],[-81.5702,39.2677],[-81.5652,39.2762],[-81.5575,39.3388],[-81.4561,39.4093],[-81.4356,39.4085],[-81.4127,39.3946],[-81.3938,39.3517],[-81.376,39.3417],[-81.3449,39.3468],[-81.2703,39.386],[-81.2444,39.3904],[-81.2173,39.3876],[-81.2082,39.4071],[-81.1851,39.4315],[-81.1676,39.4401],[-81.1325,39.4463],[-81.1008,39.4872],[-81.071,39.5156],[-80.9735,39.5884],[-80.9283,39.6166],[-80.8804,39.6207],[-80.8666,39.6526],[-80.8637,39.6917],[-80.8339,39.7035],[-80.8298,39.7118],[-80.846,39.7387],[-80.8653,39.7533],[-80.8691,39.7664],[-80.863,39.7752],[-80.8261,39.7986],[-80.8222,39.8117],[-80.8261,39.8442],[-80.7908,39.8673],[-80.794,39.8828],[-80.8092,39.9039],[-80.8068,39.9163],[-80.787,39.9184],[-80.7634,39.9086],[-80.7561,39.9134],[-80.7643,39.95],[-80.7579,39.9597],[-80.7401,39.9708],[-80.7422,40.0086],[-80.731,40.0443],[-80.7382,40.0786],[-80.7095,40.1003],[-80.7102,40.1383],[-80.7056,40.1535],[-80.6681,40.1997],[-80.6615,40.2298],[-80.6521,40.245],[-80.6193,40.2652],[-80.6149,40.292],[-80.5999,40.3177],[-80.6128,40.3477],[-80.6097,40.3749],[-80.6314,40.3857],[-80.6327,40.3905],[-80.6123,40.4028],[-80.6122,40.4348],[-80.596,40.4634],[-80.5954,40.4753],[-80.618,40.502],[-80.6275,40.5358],[-80.6644,40.57],[-80.668,40.5825],[-80.7473,40.5833],[-80.7471,40.597],[-80.862,40.5994],[-80.8636,40.5554],[-80.9209,40.5563],[-80.9246,40.468],[-80.9402,40.4683],[-80.9419,40.4247],[-81.27,40.4335],[-81.2753,40.3034],[-81.3346,40.3043],[-81.3381,40.2141],[-81.5246,40.219],[-81.5359,39.9924],[-81.5123,39.9917],[-81.5126,39.9845],[-81.4981,39.9837],[-81.5009,39.9246],[-81.491,39.9244],[-81.4925,39.8953],[-81.5786,39.8977],[-81.5803,39.8391],[-81.6941,39.8426],[-81.6974,39.7556],[-82.0766,39.771],[-82.0802,39.7277],[-82.0242,39.7247],[-82.0396,39.5502],[-82.1592,39.5566],[-82.1674,39.4661],[-82.2804,39.4729],[-82.2985,39.2949],[-82.2602,39.2929],[-82.2638,39.2538],[-82.2686,39.2038],[-82.3067,39.2055],[-82.3239,39.0148]]]},"properties":{"geoid":"39030","state":"39","district":"30","name":"State Senate District 30","chamber":"Senate"}},{"type":"Feature","geometry":{"type":"Polygon","coordinates":[[[-82.2339,39.914],[-82.1624,39.9094],[-82.17,39.8207],[-82.0729,39.8162],[-82.0766,39.771],[-81.6974,39.7556],[-81.6941,39.8426],[-81.5803,39.8391],[-81.5786,39.8977],[-81.4925,39.8953],[-81.491,39.9244],[-81.5009,39.9246],[-81.4981,39.9837],[-81.5126,39.9845],[-81.5123,39.9917],[-81.5359,39.9924],[-81.5246,40.219],[-81.3381,40.2141],[-81.3346,40.3043],[-81.2753,40.3034],[-81.2647,40.565],[-81.3217,40.5666],[-81.3139,40.7261],[-81.4967,40.7318],[-81.4984,40.7372],[-81.5086,40.7396],[-81.528,40.7329],[-81.5329,40.7228],[-81.5308,40.726],[-81.5392,40.7283],[-81.5373,40.7387],[-81.5418,40.7389],[-81.5333,40.7449],[-81.5328,40.7557],[-81.551,40.7583],[-81.5464,40.7592],[-81.5421,40.7716],[-81.5464,40.7717],[-81.5461,40.7776],[-81.5599,40.7752],[-81.5562,40.7853],[-81.5804,40.7798],[-81.5801,40.7859],[-81.5724,40.7841],[-81.5674,40.792],[-81.5796,40.7915],[-81.5735,40.793],[-81.5732,40.7982],[-81.5762,40.7961],[-81.5824,40.8047],[-81.5872,40.8049],[-81.5842,40.7993],[-81.5904,40.7983],[-81.5853,40.795],[-81.593,40.7937],[-81.6019,40.8071],[-81.5915,40.8153],[-81.6278,40.8166],[-81.6462,40.8048],[-81.6314,40.7991],[-81.6481,40.8046],[-81.6477,40.9886],[-82.1293,40.9918],[-82.125,40.8863],[-82.1262,40.6684],[-81.6489,40.6678],[-81.6491,40.6345],[-81.6679,40.6324],[-81.6682,40.6275],[-81.6628,40.6273],[-81.6698,40.4439],[-81.7091,40.4449],[-81.7124,40.3708],[-81.6163,40.3681],[-81.6224,40.2213],[-81.6676,40.2225],[-81.6709,40.151],[-82.1871,40.1669],[-82.1987,39.9502],[-82.2317,39.9511],[-82.2339,39.914]]]},"properties":{"geoid":"39031","state":"39","district":"31","name":"State Senate District 31","chamber":"Senate"}},{"type":"Feature","geometry":{"type":"Polygon","coordinates":[[[-81.3915,41.4462],[-81.375,41.4453],[-81.3748,41.4324],[-81.353,41.4408],[-81.2978,41.4397],[-81.2977,41.4251],[-81.1906,41.4256],[-81.1914,41.3476],[-81.0032,41.3479],[-81.0025,41.1342],[-80.519,41.1332],[-80.5199,42.3271],[-81.0098,42.2516],[-81.0098,41.8652],[-81.0021,41.8549],[-81.0029,41.7149],[-81.1023,41.7143],[-81.1014,41.6415],[-81.2947,41.6409],[-81.2959,41.5699],[-81.391,41.5697],[-81.3915,41.4462]]]},"properties":{"geoid":"39032","state":"39","district":"32","name":"State Senate District 32","chamber":"Senate"}},{"type":"Feature","geometry":{"type":"Polygon","coordinates":[[[-81.3213,40.5728],[-81.3217,40.5666],[-81.2647,40.565],[-81.27,40.4335],[-80.9419,40.4247],[-80.9402,40.4683],[-80.9246,40.468],[-80.9209,40.5563],[-80.8636,40.5554],[-80.862,40.5994],[-80.7471,40.597],[-80.7473,40.5833],[-80.668,40.5825],[-80.6635,40.5908],[-80.6272,40.6199],[-80.5988,40.6253],[-80.5767,40.6142],[-80.5511,40.6288],[-80.519,40.6388],[-80.519,41.1332],[-81.0025,41.1342],[-81.002,40.9878],[-81.0863,40.988],[-81.0873,40.7278],[-81.1987,40.7291],[-81.1991,40.7222],[-81.2372,40.7235],[-81.2412,40.6505],[-81.3177,40.6519],[-81.3213,40.5728]]]},"properties":{"geoid":"39033","state":"39","district":"33","name":"State Senate District 33","chamber":"Senate"}}]}