{"type":"FeatureCollection","features":[{"type":"Feature","geometry":{"type":"Polygon","coordinates":[[[-95.454,36.5038],[-95.4535,36.4958],[-95.4356,36.4957],[-95.4355,36.2783],[-95.4176,36.2784],[-95.4176,36.2743],[-95.3818,36.2784],[-95.3818,36.293],[-95.3459,36.2929],[-95.3459,36.2494],[-95.2023,36.2494],[-95.2026,36.2583],[-95.1844,36.2584],[-95.183,36.2344],[-95.1873,36.2329],[-95.1822,36.2308],[-95.1531,36.2438],[-95.1498,36.2637],[-95.1247,36.2719],[-95.1011,36.2697],[-95.0929,36.282],[-95.0784,36.2773],[-95.0543,36.2789],[-95.0356,36.2745],[-95.02,36.2638],[-95.0057,36.2639],[-95.0057,36.4918],[-94.9614,36.5111],[-94.9485,36.5381],[-94.9162,36.5462],[-94.8958,36.5653],[-94.8762,36.5662],[-94.8458,36.5507],[-94.8333,36.5527],[-94.827,36.5607],[-94.8536,36.6007],[-94.8505,36.6181],[-94.826,36.6375],[-94.7955,36.638],[-94.7776,36.6446],[-94.7705,36.6601],[-94.7749,36.6678],[-94.6181,36.6679],[-94.618,36.9989],[-95.4077,36.9993],[-95.4078,36.9427],[-95.4318,36.9426],[-95.4316,36.5975],[-95.4537,36.5975],[-95.454,36.5038]]]},"properties":{"geoid":"40001","state":"40","district":"1","name":"State Senate District 1","chamber":"Senate"}},{"type":"Feature","geometry":{"type":"Polygon","coordinates":[[[-95.8667,36.3806],[-95.8662,36.3075],[-95.8122,36.3075],[-95.8154,36.1626],[-95.6192,36.1626],[-95.6203,36.1885],[-95.44,36.1914],[-95.4346,36.3804],[-95.4664,36.3493],[-95.5114,36.3363],[-95.5783,36.3072],[-95.5789,36.3472],[-95.5824,36.3509],[-95.5789,36.351],[-95.5789,36.3653],[-95.6461,36.3653],[-95.6671,36.3846],[-95.6709,36.3943],[-95.7942,36.3945],[-95.7944,36.4236],[-95.8662,36.4238],[-95.8667,36.3806]]]},"properties":{"geoid":"40002","state":"40","district":"2","name":"State Senate District 2","chamber":"Senate"}},{"type":"Feature","geometry":{"type":"Polygon","coordinates":[[[-95.8195,35.9009],[-95.8195,35.8563],[-95.6504,35.8566],[-95.6491,35.8421],[-95.6388,35.8365],[-95.6383,35.7876],[-95.6215,35.7776],[-95.6019,35.7781],[-95.5897,35.7652],[-95.5773,35.7716],[-95.5631,35.7879],[-95.5207,35.7922],[-95.4743,35.8045],[-95.4261,35.7984],[-95.3623,35.8226],[-95.338,35.8133],[-95.1272,35.8128],[-95.1271,35.8273],[-95.1011,35.8273],[-95.0729,35.8485],[-95.0408,35.8539],[-95.0312,35.8645],[-95.0204,35.8652],[-95.0205,35.8708],[-95.038,35.8709],[-95.0382,35.8744],[-95.0472,35.8745],[-95.0472,35.8799],[-95.0383,35.8854],[-95.0383,35.9007],[-95.0113,35.9008],[-95.0114,35.9443],[-94.9668,35.9444],[-94.9668,35.9406],[-94.9578,35.9407],[-94.9557,35.9317],[-94.9423,35.9264],[-94.9065,35.9214],[-94.8548,35.9299],[-94.8468,35.9232],[-94.8447,35.9291],[-94.8402,35.9279],[-94.8369,35.9206],[-94.8262,35.928],[-94.8298,35.9337],[-94.8108,35.9507],[-94.8123,35.9574],[-94.7974,35.9613],[-94.7974,36.1617],[-95.0113,36.1618],[-95.0102,36.2488],[-95.0055,36.2487],[-95.0057,36.2639],[-95.02,36.2638],[-95.0356,36.2745],[-95.0543,36.2789],[-95.0784,36.2773],[-95.0929,36.282],[-95.1011,36.2697],[-95.1247,36.2719],[-95.1498,36.2637],[-95.1531,36.2438],[-95.1822,36.2308],[-95.1873,36.2329],[-95.183,36.2344],[-95.1844,36.2584],[-95.2026,36.2583],[-95.2023,36.2494],[-95.3459,36.2494],[-95.3459,36.2929],[-95.3818,36.293],[-95.3818,36.2784],[-95.4176,36.2743],[-95.4176,36.2784],[-95.4355,36.2783],[-95.44,36.1914],[-95.6203,36.1885],[-95.6192,36.1626],[-95.6727,36.1623],[-95.6725,36.0171],[-95.726,36.0173],[-95.7267,36.0249],[-95.7489,36.0326],[-95.7616,36.0319],[-95.7617,35.9011],[-95.8195,35.9009]]]},"properties":{"geoid":"40003","state":"40","district":"3","name":"State Senate District 3","chamber":"Senate"}},{"type":"Feature","geometry":{"type":"Polygon","coordinates":[[[-95.1323,35.5457],[-95.1323,35.5261],[-95.1237,35.5103],[-95.0961,35.4857],[-95.0868,35.4625],[-95.0772,35.4588],[-95.0612,35.4651],[-95.0277,35.4548],[-95.0235,35.4508],[-95.0215,35.4268],[-95.0065,35.4146],[-94.9899,35.409],[-94.9513,35.4083],[-94.9446,35.4025],[-94.9251,35.4201],[-94.9313,35.4271],[-94.894,35.427],[-94.8936,35.4544],[-94.8673,35.4545],[-94.8673,35.4744],[-94.8407,35.4743],[-94.8408,35.4798],[-94.8247,35.4779],[-94.8207,35.4925],[-94.7517,35.4925],[-94.7523,35.4631],[-94.7257,35.4537],[-94.7257,35.4453],[-94.7411,35.445],[-94.6995,35.4199],[-94.6554,35.42],[-94.6554,35.4309],[-94.6288,35.4309],[-94.6287,35.4344],[-94.6199,35.4355],[-94.6199,35.449],[-94.5846,35.4487],[-94.5842,35.4343],[-94.5667,35.4344],[-94.5682,35.4199],[-94.5576,35.4199],[-94.5581,35.4126],[-94.5489,35.4125],[-94.5489,35.3907],[-94.5403,35.3907],[-94.54,35.3758],[-94.5311,35.3762],[-94.5311,35.3471],[-94.4864,35.3468],[-94.4805,35.3523],[-94.4863,35.362],[-94.4836,35.3694],[-94.4723,35.376],[-94.4431,35.3812],[-94.431,35.3932],[-94.6179,36.4994],[-94.6181,36.6679],[-94.7749,36.6678],[-94.7705,36.6601],[-94.7776,36.6446],[-94.7955,36.638],[-94.826,36.6375],[-94.8505,36.6181],[-94.8536,36.6007],[-94.827,36.5607],[-94.8333,36.5527],[-94.8458,36.5507],[-94.8762,36.5662],[-94.8958,36.5653],[-94.9162,36.5462],[-94.9485,36.5381],[-94.9614,36.5111],[-95.0057,36.4918],[-95.0055,36.2487],[-95.0102,36.2488],[-95.0113,36.1618],[-94.7974,36.1617],[-94.7974,35.9613],[-94.8123,35.9574],[-94.8108,35.9507],[-94.8204,35.946],[-94.8301,35.933],[-94.8259,35.9285],[-94.8369,35.9206],[-94.8402,35.9279],[-94.8447,35.9291],[-94.8468,35.9232],[-94.8548,35.9299],[-94.8921,35.9218],[-94.9295,35.926],[-94.9245,35.9209],[-94.9314,35.9101],[-94.9287,35.902],[-94.9362,35.8983],[-94.9386,35.8864],[-94.9446,35.8852],[-94.9299,35.871],[-94.9675,35.8708],[-94.9674,35.7986],[-94.9184,35.7815],[-94.9123,35.7686],[-94.9016,35.7601],[-94.9093,35.7494],[-94.9235,35.7557],[-94.9359,35.7362],[-94.9509,35.7385],[-94.945,35.7209],[-94.9509,35.714],[-94.962,35.7117],[-94.9573,35.6989],[-94.9726,35.6869],[-94.9856,35.6601],[-95.0125,35.6386],[-95.1275,35.6388],[-95.1273,35.5518],[-95.1323,35.5518],[-95.1323,35.5457]]]},"properties":{"geoid":"40004","state":"40","district":"4","name":"State Senate District 4","chamber":"Senate"}},{"type":"Feature","geometry":{"type":"Polygon","coordinates":[[[-95.6463,34.3245],[-95.6258,34.3225],[-95.6323,34.3063],[-95.6239,34.2815],[-95.6128,34.2706],[-95.613,34.2611],[-95.6159,34.2591],[-95.6253,34.2672],[-95.628,34.2551],[-95.612,34.2498],[-95.5829,34.2496],[-95.5773,34.2379],[-95.559,34.2497],[-95.5482,34.2471],[-95.5355,34.2561],[-95.5259,34.2504],[-95.5147,34.2553],[-95.5017,34.2398],[-95.489,34.2395],[-95.4944,34.2312],[-95.4921,34.217],[-95.4857,34.1986],[-95.4766,34.1895],[-95.4944,34.1672],[-95.4877,34.1568],[-95.1565,34.157],[-95.1567,33.9429],[-95.1559,33.9366],[-95.1296,33.9367],[-95.1212,33.9313],[-95.1316,33.916],[-95.1259,33.9066],[-95.112,33.9048],[-95.0808,33.9214],[-95.0783,33.9105],[-95.1004,33.8956],[-95.0901,33.8811],[-95.0824,33.8799],[-95.0787,33.905],[-95.074,33.9156],[-95.068,33.9176],[-95.0637,33.9111],[-95.0746,33.9073],[-95.0759,33.9018],[-95.0718,33.8956],[-95.0724,33.9027],[-95.0601,33.9019],[-95.0591,33.8875],[-95.0506,33.8783],[-95.0482,33.8635],[-95.0157,33.8577],[-95.0022,33.8637],[-94.9885,33.851],[-94.9702,33.8618],[-94.9644,33.837],[-94.9439,33.8302],[-94.9535,33.8165],[-94.9479,33.8084],[-94.9233,33.8087],[-94.9266,33.8276],[-94.918,33.8268],[-94.9109,33.8159],[-94.9215,33.7905],[-94.9013,33.7709],[-94.8869,33.7691],[-94.8764,33.7573],[-94.8746,33.7696],[-94.8681,33.7689],[-94.8667,33.7618],[-94.8771,33.7531],[-94.8675,33.7449],[-94.8493,33.7396],[-94.8279,33.7409],[-94.8285,33.7351],[-94.822,33.7329],[-94.823,33.7475],[-94.8309,33.76],[-94.8207,33.769],[-94.8122,33.7509],[-94.817,33.74],[-94.8028,33.7327],[-94.7801,33.7445],[-94.7729,33.7597],[-94.763,33.7598],[-94.7578,33.7559],[-94.7589,33.7485],[-94.7768,33.7464],[-94.7886,33.7357],[-94.7687,33.727],[-94.7606,33.7271],[-94.7518,33.7343],[-94.7477,33.7251],[-94.7577,33.7178],[-94.7514,33.7135],[-94.7421,33.7267],[-94.7334,33.7252],[-94.7361,33.7161],[-94.7538,33.7087],[-94.7351,33.6913],[-94.7195,33.6889],[-94.7159,33.6949],[-94.7189,33.7033],[-94.7307,33.7074],[-94.734,33.7157],[-94.7016,33.7029],[-94.7035,33.6975],[-94.7144,33.6972],[-94.7162,33.6879],[-94.6848,33.6844],[-94.6669,33.6946],[-94.6514,33.6858],[-94.6471,33.6903],[-94.6479,33.7005],[-94.6437,33.7015],[-94.6386,33.6958],[-94.6504,33.6844],[-94.6453,33.6736],[-94.6518,33.6705],[-94.6626,33.6749],[-94.6708,33.6693],[-94.6686,33.6638],[-94.6549,33.6599],[-94.6392,33.6637],[-94.6287,33.6805],[-94.622,33.6825],[-94.6058,33.6642],[-94.596,33.6639],[-94.59,33.6759],[-94.593,33.684],[-94.5879,33.6863],[-94.5796,33.6776],[-94.5808,33.6664],[-94.5603,33.6666],[-94.5768,33.6588],[-94.5905,33.6451],[-94.58,33.6445],[-94.5496,33.6607],[-94.5426,33.654],[-94.5454,33.6462],[-94.5684,33.6372],[-94.569,33.6275],[-94.5534,33.6276],[-94.5275,33.6413],[-94.5185,33.6376],[-94.5353,33.6246],[-94.5279,33.616],[-94.5198,33.6181],[-94.5175,33.6331],[-94.5067,33.6208],[-94.4884,33.6274],[-94.4917,33.6363],[-94.4859,33.6379],[-94.4576,34.6351],[-94.4315,35.3693],[-94.4344,35.3874],[-94.4498,35.3786],[-94.476,35.3746],[-94.4855,35.3672],[-94.4806,35.3518],[-94.4947,35.3428],[-94.495,35.331],[-94.4811,35.3095],[-94.4934,35.3014],[-94.517,35.3095],[-94.5335,35.3043],[-94.5476,35.3064],[-94.5691,35.3256],[-94.589,35.3285],[-94.5988,35.3264],[-94.6252,35.2975],[-94.6574,35.2916],[-94.6756,35.3005],[-94.6804,35.3227],[-94.6909,35.3299],[-94.6908,35.3148],[-94.7081,35.3111],[-94.7081,35.3004],[-94.688,35.3036],[-94.6837,35.2825],[-94.7004,35.2818],[-94.7016,35.2744],[-94.6953,35.2663],[-94.6768,35.2586],[-94.673,35.2382],[-94.7256,35.237],[-94.751,35.2498],[-94.7613,35.2493],[-94.7612,35.2458],[-94.8142,35.2457],[-94.8143,35.2023],[-94.9278,35.2026],[-94.9277,34.942],[-94.9981,34.942],[-94.9978,34.8549],[-95.0595,34.855],[-95.0596,34.6807],[-95.1321,34.6806],[-95.1301,34.6697],[-95.1177,34.6663],[-95.1135,34.6543],[-95.1617,34.6386],[-95.1563,34.6293],[-95.1599,34.6267],[-95.1799,34.6244],[-95.1896,34.6298],[-95.2213,34.6184],[-95.2368,34.6219],[-95.2413,34.6096],[-95.2474,34.6137],[-95.2682,34.6121],[-95.2695,34.6066],[-95.2775,34.6121],[-95.3004,34.6141],[-95.3243,34.6042],[-95.3308,34.595],[-95.3362,34.5976],[-95.3349,34.5925],[-95.3407,34.5873],[-95.3367,34.582],[-95.3429,34.5738],[-95.353,34.5758],[-95.371,34.5639],[-95.3933,34.5642],[-95.4185,34.5476],[-95.4452,34.5511],[-95.4554,34.5361],[-95.4688,34.5388],[-95.471,34.5157],[-95.4774,34.5157],[-95.4856,34.5041],[-95.5097,34.5066],[-95.5225,34.4929],[-95.5278,34.476],[-95.5479,34.4621],[-95.5481,34.4532],[-95.5751,34.4463],[-95.5819,34.4288],[-95.5716,34.4217],[-95.5908,34.4042],[-95.5961,34.3858],[-95.5952,34.3817],[-95.5805,34.3817],[-95.5828,34.3728],[-95.5914,34.3759],[-95.6062,34.338],[-95.6322,34.3413],[-95.6406,34.3373],[-95.6463,34.3245]]]},"properties":{"geoid":"40005","state":"40","district":"5","name":"State Senate District 5","chamber":"Senate"}},{"type":"Feature","geometry":{"type":"Polygon","coordinates":[[[-96.6419,34.1682],[-96.6364,34.1659],[-96.6412,34.1584],[-96.6286,34.1537],[-96.6208,34.162],[-96.6192,34.154],[-96.6078,34.1462],[-96.6133,34.1414],[-96.6061,34.1402],[-96.603,34.1456],[-96.6002,34.1347],[-96.5831,34.1262],[-96.5822,34.1186],[-96.5871,34.1178],[-96.5793,34.1101],[-96.5819,34.1055],[-96.5655,34.0894],[-96.5686,34.0848],[-96.5559,34.0812],[-96.5643,34.0772],[-96.5508,34.0717],[-96.5475,34.0639],[-96.5708,34.0429],[-96.5764,34.043],[-96.5722,34.0503],[-96.5782,34.048],[-96.5743,34.037],[-96.58,34.0312],[-96.5729,34.0294],[-96.5796,34.0226],[-96.5733,34.0203],[-96.5789,34.0091],[-96.5863,34.008],[-96.5934,34.0167],[-96.6032,34.0135],[-96.6043,34.0079],[-96.617,34.0102],[-96.6209,34.0055],[-96.6248,34.0097],[-96.6233,34.0024],[-96.6137,33.9962],[-96.6156,33.9907],[-96.6028,33.9879],[-96.6068,33.9819],[-96.5936,33.971],[-96.5853,33.9745],[-96.5852,33.9674],[-96.5759,33.9625],[-96.5854,33.9549],[-96.5848,33.9499],[-96.5923,33.9515],[-96.5965,33.9457],[-96.5895,33.9279],[-96.5806,33.9239],[-96.5832,33.9191],[-96.5909,33.9192],[-96.5809,33.9154],[-96.5825,33.9083],[-96.5911,33.9032],[-96.586,33.8872],[-96.6254,33.8565],[-96.6293,33.8455],[-96.5729,33.8191],[-96.5581,33.8171],[-96.532,33.824],[-96.5178,33.8069],[-96.5166,33.7883],[-96.501,33.7728],[-96.4592,33.7752],[-96.448,33.781],[-96.4235,33.7764],[-96.4082,33.7505],[-96.3696,33.7168],[-96.3626,33.6923],[-96.3541,33.687],[-96.3423,33.6868],[-96.3173,33.6986],[-96.3064,33.7231],[-96.3061,33.7443],[-96.2937,33.7694],[-96.2636,33.7675],[-96.229,33.748],[-96.1866,33.755],[-96.1691,33.7704],[-96.1598,33.8116],[-96.1555,33.814],[-96.1638,33.8131],[-96.1696,33.8009],[-96.1757,33.8023],[-96.1791,33.8102],[-96.1665,33.8179],[-96.1508,33.817],[-96.1492,33.8371],[-96.1229,33.84],[-96.0994,33.8305],[-96.1001,33.848],[-96.0488,33.8365],[-96.035,33.8426],[-96.027,33.8575],[-96.0195,33.8535],[-96.0227,33.8411],[-96.0171,33.8415],[-96.0041,33.8452],[-95.9968,33.8539],[-95.9949,33.8618],[-96.0029,33.8667],[-96.0029,33.8736],[-95.9849,33.8658],[-95.9849,33.8525],[-95.9473,33.8589],[-95.9514,33.8573],[-95.9418,33.8617],[-95.9322,33.8839],[-95.9251,33.8849],[-95.8672,33.8513],[-95.8568,33.8501],[-95.8439,33.8382],[-95.8304,33.8348],[-95.8195,33.8413],[-95.8209,33.8562],[-95.8156,33.8599],[-95.7976,33.8606],[-95.7702,33.8452],[-95.758,33.8496],[-95.7513,33.8603],[-95.7625,33.8811],[-95.7522,33.8946],[-95.7332,33.8964],[-95.7122,33.8855],[-95.7006,33.8858],[-95.6846,33.8906],[-95.6655,33.909],[-95.6328,33.9048],[-95.6164,33.9276],[-95.6031,33.9292],[-95.5941,33.9431],[-95.5819,33.9342],[-95.5638,33.9329],[-95.5542,33.927],[-95.5478,33.9019],[-95.5512,33.8897],[-95.5441,33.8806],[-95.5326,33.8815],[-95.5095,33.8976],[-95.5051,33.8934],[-95.505,33.8759],[-95.4835,33.8768],[-95.4614,33.8871],[-95.4633,33.8724],[-95.4427,33.8665],[-95.4277,33.8705],[-95.4052,33.8646],[-95.3626,33.8669],[-95.3357,33.8743],[-95.3299,33.8863],[-95.3051,33.8746],[-95.2833,33.8746],[-95.2782,33.8784],[-95.278,33.8893],[-95.2846,33.9055],[-95.2687,33.9111],[-95.2667,33.8939],[-95.2621,33.8878],[-95.2575,33.8903],[-95.2485,33.907],[-95.2502,33.9385],[-95.2329,33.9497],[-95.2261,33.9622],[-95.2145,33.9623],[-95.1715,33.9467],[-95.1559,33.9366],[-95.1565,34.157],[-95.4877,34.1568],[-95.4944,34.1672],[-95.4766,34.1895],[-95.4857,34.1986],[-95.4921,34.217],[-95.4944,34.2312],[-95.489,34.2395],[-95.5017,34.2398],[-95.5147,34.2553],[-95.5259,34.2504],[-95.5355,34.2561],[-95.5482,34.2471],[-95.559,34.2497],[-95.5773,34.2379],[-95.5829,34.2496],[-95.612,34.2498],[-95.628,34.2551],[-95.6253,34.2672],[-95.6159,34.2591],[-95.613,34.2611],[-95.6128,34.2706],[-95.6239,34.2815],[-95.6323,34.3063],[-95.6258,34.3225],[-95.6349,34.3261],[-95.6451,34.3231],[-95.6462,34.327],[-95.6406,34.3373],[-95.6315,34.3415],[-95.6054,34.3386],[-95.5917,34.3754],[-95.5835,34.3722],[-95.5803,34.3791],[-95.5962,34.3847],[-95.5908,34.4042],[-95.5716,34.4217],[-95.5819,34.4288],[-95.577,34.4436],[-95.5481,34.4532],[-95.5479,34.4621],[-95.5278,34.476],[-95.5225,34.4929],[-95.5097,34.5066],[-95.4856,34.5041],[-95.4774,34.5157],[-95.471,34.5157],[-95.4688,34.5388],[-95.4554,34.5361],[-95.4452,34.5511],[-95.4185,34.5476],[-95.3933,34.5642],[-95.371,34.5639],[-95.353,34.5758],[-95.3429,34.5738],[-95.3367,34.582],[-95.3407,34.5873],[-95.3349,34.5925],[-95.3362,34.5976],[-95.3308,34.595],[-95.3243,34.6042],[-95.3006,34.6141],[-95.2775,34.6121],[-95.2695,34.6066],[-95.2682,34.6121],[-95.2474,34.6137],[-95.2413,34.6096],[-95.2368,34.6219],[-95.2213,34.6184],[-95.1896,34.6298],[-95.1799,34.6244],[-95.1599,34.6267],[-95.1563,34.6293],[-95.1617,34.6386],[-95.1289,34.6477],[-95.114,34.6571],[-95.1177,34.6663],[-95.1301,34.6697],[-95.1321,34.6806],[-95.5145,34.6807],[-95.5145,34.5942],[-95.882,34.5935],[-95.8822,34.6805],[-96.092,34.6806],[-96.092,34.5061],[-96.1454,34.5059],[-96.1454,34.4183],[-96.4071,34.4184],[-96.4071,34.3094],[-96.4247,34.3096],[-96.4244,34.3313],[-96.4787,34.3289],[-96.4786,34.3031],[-96.4959,34.3031],[-96.4959,34.3176],[-96.5135,34.3177],[-96.5134,34.3324],[-96.5831,34.3323],[-96.5836,34.3173],[-96.5711,34.3117],[-96.5789,34.3062],[-96.572,34.2855],[-96.5838,34.2886],[-96.5838,34.2741],[-96.5927,34.2741],[-96.5923,34.2304],[-96.5837,34.2305],[-96.5833,34.2087],[-96.6041,34.2058],[-96.6124,34.1803],[-96.6419,34.1682]]]},"properties":{"geoid":"40006","state":"40","district":"6","name":"State Senate District 6","chamber":"Senate"}},{"type":"Feature","geometry":{"type":"Polygon","coordinates":[[[-96.0924,34.7106],[-96.092,34.6806],[-95.8822,34.6805],[-95.882,34.5935],[-95.5145,34.5942],[-95.5145,34.6807],[-95.0596,34.6807],[-95.0595,34.855],[-94.9978,34.8549],[-94.9981,34.942],[-94.9277,34.942],[-94.9278,35.2026],[-94.8143,35.2023],[-94.8142,35.2457],[-94.7612,35.2458],[-94.7613,35.2493],[-94.751,35.2498],[-94.7256,35.237],[-94.673,35.2382],[-94.6768,35.2586],[-94.6953,35.2663],[-94.7016,35.2744],[-94.7004,35.2818],[-94.6837,35.2825],[-94.688,35.3036],[-94.7081,35.3004],[-94.7081,35.3111],[-94.6908,35.3148],[-94.6909,35.3299],[-94.6804,35.3227],[-94.6756,35.3005],[-94.6574,35.2916],[-94.6252,35.2975],[-94.5988,35.3264],[-94.589,35.3285],[-94.5691,35.3256],[-94.5476,35.3064],[-94.5335,35.3043],[-94.517,35.3095],[-94.4946,35.3011],[-94.4811,35.3095],[-94.495,35.331],[-94.4948,35.3426],[-94.4864,35.3468],[-94.5311,35.3471],[-94.5311,35.3762],[-94.54,35.3758],[-94.5403,35.3907],[-94.5489,35.3907],[-94.5489,35.4125],[-94.5581,35.4126],[-94.5576,35.4199],[-94.5682,35.4199],[-94.5667,35.4344],[-94.5842,35.4343],[-94.5846,35.4487],[-94.6199,35.449],[-94.6199,35.4355],[-94.6287,35.4344],[-94.6288,35.4309],[-94.6554,35.4309],[-94.6554,35.42],[-94.6995,35.4199],[-94.7411,35.445],[-94.7257,35.4453],[-94.7257,35.4537],[-94.7523,35.4631],[-94.7517,35.4925],[-94.8207,35.4925],[-94.8247,35.4779],[-94.8408,35.4798],[-94.8407,35.4743],[-94.8673,35.4744],[-94.8673,35.4545],[-94.8936,35.4544],[-94.894,35.427],[-94.9313,35.4271],[-94.9251,35.4201],[-94.9446,35.4025],[-94.9513,35.4083],[-94.9868,35.4084],[-95.0065,35.4146],[-95.0237,35.4303],[-95.0235,35.4508],[-95.0277,35.4548],[-95.05,35.4589],[-95.0635,35.4526],[-95.0799,35.433],[-95.086,35.4059],[-95.1026,35.3969],[-95.1204,35.3727],[-95.137,35.3803],[-95.1608,35.3694],[-95.1417,35.3571],[-95.1461,35.3468],[-95.1677,35.3531],[-95.1795,35.3457],[-95.1829,35.3387],[-95.1712,35.3154],[-95.1732,35.3039],[-95.1992,35.3036],[-95.2094,35.2838],[-95.2407,35.2623],[-95.2622,35.269],[-95.2791,35.288],[-95.3009,35.3014],[-95.3319,35.2988],[-95.3516,35.2902],[-95.3565,35.3054],[-95.3858,35.3261],[-95.3976,35.3272],[-95.4135,35.3218],[-95.4305,35.303],[-95.4577,35.2938],[-95.5037,35.2999],[-95.5191,35.2812],[-95.515,35.2632],[-95.5704,35.2455],[-95.6023,35.2207],[-95.6225,35.2247],[-95.6218,35.2291],[-95.6035,35.2394],[-95.6061,35.2471],[-95.6157,35.2497],[-95.6769,35.2248],[-95.6828,35.2164],[-95.6742,35.2093],[-95.6791,35.2039],[-95.7072,35.2023],[-95.7172,35.189],[-95.7423,35.1925],[-95.7569,35.1769],[-95.7677,35.1784],[-95.7848,35.1953],[-95.7985,35.197],[-95.8373,35.1845],[-95.8478,35.1884],[-95.8699,35.1866],[-95.8884,35.1557],[-95.9067,35.1438],[-95.9256,35.1429],[-95.9677,35.1526],[-96.0091,35.1472],[-96.0136,35.1418],[-96.0098,35.118],[-96.03,35.1203],[-96.0419,35.1043],[-96.0609,35.0916],[-96.0701,35.0555],[-96.0888,35.0499],[-96.0924,34.7106]]]},"properties":{"geoid":"40007","state":"40","district":"7","name":"State Senate District 7","chamber":"Senate"}},{"type":"Feature","geometry":{"type":"Polygon","coordinates":[[[-96.6247,35.4629],[-96.6213,35.3981],[-96.6114,35.3942],[-96.6065,35.3994],[-96.5998,35.3969],[-96.5859,35.4115],[-96.5768,35.402],[-96.5556,35.4025],[-96.5565,35.3947],[-96.537,35.3907],[-96.5317,35.4002],[-96.5381,35.4044],[-96.5372,35.4109],[-96.5496,35.4146],[-96.5478,35.4185],[-96.5526,35.423],[-96.5565,35.4188],[-96.5599,35.4213],[-96.5557,35.4345],[-96.5696,35.4396],[-96.5599,35.449],[-96.5538,35.4481],[-96.5543,35.4539],[-96.5444,35.4528],[-96.5439,35.4578],[-96.5188,35.4313],[-96.4971,35.4288],[-96.4849,35.4356],[-96.4831,35.4425],[-96.4883,35.4482],[-96.4758,35.4634],[-96.4656,35.4581],[-96.4586,35.4615],[-96.4462,35.4584],[-96.4412,35.4677],[-96.4414,35.2901],[-95.9815,35.2898],[-95.9831,35.1517],[-95.9528,35.1514],[-95.9178,35.1425],[-95.905,35.1443],[-95.8913,35.1529],[-95.8692,35.1869],[-95.8478,35.1884],[-95.8373,35.1845],[-95.7921,35.1972],[-95.7825,35.1939],[-95.7677,35.1784],[-95.7569,35.1769],[-95.7423,35.1925],[-95.7172,35.189],[-95.7072,35.2023],[-95.6791,35.2039],[-95.6742,35.2093],[-95.6828,35.2164],[-95.6769,35.2248],[-95.6243,35.248],[-95.6092,35.2493],[-95.6034,35.2404],[-95.6225,35.2247],[-95.5994,35.2217],[-95.5704,35.2455],[-95.515,35.2632],[-95.5191,35.2812],[-95.5037,35.2999],[-95.4577,35.2938],[-95.4305,35.303],[-95.4135,35.3218],[-95.3976,35.3272],[-95.3858,35.3261],[-95.3565,35.3054],[-95.3516,35.2902],[-95.3319,35.2988],[-95.3009,35.3014],[-95.2791,35.288],[-95.2622,35.269],[-95.2407,35.2623],[-95.2094,35.2838],[-95.1992,35.3036],[-95.1732,35.3039],[-95.1706,35.3127],[-95.1825,35.3369],[-95.1806,35.344],[-95.1677,35.3531],[-95.148,35.346],[-95.1413,35.3556],[-95.1608,35.3694],[-95.137,35.3803],[-95.1207,35.3725],[-95.1026,35.3969],[-95.086,35.4059],[-95.0804,35.4319],[-95.0705,35.4471],[-95.0499,35.4589],[-95.0612,35.4651],[-95.0772,35.4588],[-95.0856,35.4614],[-95.0961,35.4857],[-95.1237,35.5103],[-95.1323,35.5261],[-95.1323,35.5518],[-95.1273,35.5518],[-95.1272,35.5958],[-95.1725,35.5955],[-95.1835,35.6014],[-95.1831,35.5973],[-95.1993,35.5971],[-95.2134,35.5888],[-95.2229,35.5792],[-95.2239,35.5663],[-95.3402,35.5663],[-95.3445,35.5517],[-95.5711,35.5517],[-95.5711,35.5662],[-95.5532,35.5662],[-95.5532,35.6969],[-95.571,35.6969],[-95.571,35.7549],[-95.58,35.7549],[-95.5799,35.7697],[-95.5897,35.7652],[-95.6019,35.7781],[-95.6215,35.7776],[-95.6383,35.7876],[-95.6388,35.8365],[-95.6491,35.8421],[-95.6504,35.8566],[-95.6596,35.8567],[-96.1924,35.857],[-96.1924,35.7915],[-96.2278,35.7915],[-96.2278,35.8134],[-96.2927,35.815],[-96.316,35.8133],[-96.3334,35.8045],[-96.3321,35.7842],[-96.3872,35.7846],[-96.3872,35.7941],[-96.4204,35.7936],[-96.4319,35.7932],[-96.4586,35.7816],[-96.4586,35.8282],[-96.5463,35.804],[-96.6197,35.7704],[-96.6247,35.4629]]]},"properties":{"geoid":"40008","state":"40","district":"8","name":"State Senate District 8","chamber":"Senate"}},{"type":"Feature","geometry":{"type":"Polygon","coordinates":[[[-95.58,35.7563],[-95.571,35.7549],[-95.571,35.6969],[-95.5532,35.6969],[-95.5532,35.5662],[-95.5711,35.5662],[-95.5711,35.5517],[-95.3445,35.5517],[-95.3402,35.5663],[-95.2239,35.5663],[-95.2229,35.5792],[-95.2134,35.5888],[-95.1993,35.5971],[-95.1831,35.5973],[-95.1835,35.6014],[-95.1725,35.5955],[-95.1272,35.5958],[-95.1275,35.6388],[-95.0125,35.6386],[-94.9856,35.6601],[-94.9726,35.6869],[-94.9573,35.6989],[-94.962,35.7117],[-94.9509,35.714],[-94.945,35.7209],[-94.9509,35.7385],[-94.9359,35.7362],[-94.9235,35.7557],[-94.9093,35.7494],[-94.9016,35.7601],[-94.9123,35.7686],[-94.9184,35.7815],[-94.9674,35.7986],[-94.9675,35.8708],[-94.9299,35.871],[-94.9446,35.8853],[-94.9385,35.8865],[-94.9341,35.9013],[-94.9289,35.9015],[-94.9314,35.9101],[-94.9245,35.9209],[-94.9295,35.926],[-94.9557,35.9317],[-94.9578,35.9407],[-94.9668,35.9406],[-94.9668,35.9444],[-95.0114,35.9443],[-95.0113,35.9008],[-95.0383,35.9007],[-95.0383,35.8854],[-95.0472,35.8799],[-95.0472,35.8745],[-95.0382,35.8744],[-95.038,35.8709],[-95.0205,35.8708],[-95.0204,35.8652],[-95.0312,35.8645],[-95.0408,35.8539],[-95.0729,35.8485],[-95.1011,35.8273],[-95.1271,35.8273],[-95.1272,35.8128],[-95.338,35.8133],[-95.3623,35.8226],[-95.4261,35.7984],[-95.4743,35.8045],[-95.5207,35.7922],[-95.5631,35.7879],[-95.5799,35.7697],[-95.58,35.7563]]]},"properties":{"geoid":"40009","state":"40","district":"9","name":"State Senate District 9","chamber":"Senate"}},{"type":"Feature","geometry":{"type":"Polygon","coordinates":[[[-97.4625,36.6081],[-97.4625,36.5936],[-97.0576,36.5939],[-97.0359,36.5862],[-97.0029,36.5826],[-96.967,36.5863],[-96.9153,36.6],[-96.888,36.5749],[-96.8904,36.5636],[-96.8991,36.5532],[-96.9247,36.5526],[-96.9554,36.5353],[-96.9882,36.5324],[-97.0015,36.5255],[-97.0092,36.5142],[-97.007,36.4892],[-97.0008,36.4812],[-96.9746,36.4626],[-96.9402,36.4555],[-96.9117,36.468],[-96.8753,36.4709],[-96.8517,36.4913],[-96.8379,36.5117],[-96.8377,36.5208],[-96.8206,36.5393],[-96.7695,36.5654],[-96.7536,36.5626],[-96.7327,36.5432],[-96.7235,36.5202],[-96.7249,36.5032],[-96.7063,36.4862],[-96.7062,36.4776],[-96.7181,36.454],[-96.7108,36.4377],[-96.6785,36.4209],[-96.6371,36.426],[-96.6274,36.4222],[-96.6201,36.4098],[-96.6061,36.4028],[-96.6014,36.3815],[-96.5896,36.3745],[-96.5721,36.376],[-96.5407,36.4004],[-96.5259,36.3935],[-96.5186,36.377],[-96.5228,36.3656],[-96.5342,36.356],[-96.559,36.3485],[-96.5729,36.3319],[-96.5735,36.3157],[-96.5668,36.3084],[-96.547,36.2981],[-96.5199,36.2971],[-96.5025,36.3061],[-96.4868,36.3299],[-96.4577,36.3327],[-96.442,36.3151],[-96.4363,36.2898],[-96.4278,36.2802],[-96.3868,36.2671],[-96.34,36.23],[-96.254,36.2238],[-96.2463,36.2147],[-96.243,36.2002],[-96.2692,36.1737],[-96.2683,36.162],[-96.0734,36.1611],[-96.0731,36.2447],[-96.0014,36.2448],[-96.0013,36.3366],[-95.9792,36.3365],[-95.9857,36.3307],[-95.9729,36.3299],[-95.9647,36.3222],[-95.8663,36.3221],[-95.8662,36.4238],[-96.0012,36.4237],[-96.0008,36.9989],[-97.0459,36.999],[-97.0417,36.9829],[-97.055,36.9406],[-97.0553,36.912],[-97.1029,36.9123],[-97.106,36.8743],[-97.0996,36.869],[-97.1032,36.8689],[-97.1032,36.8399],[-97.0675,36.8396],[-97.0675,36.8107],[-97.0852,36.8107],[-97.0852,36.782],[-97.157,36.7822],[-97.1571,36.7677],[-97.202,36.7677],[-97.2016,36.7315],[-97.2919,36.7315],[-97.292,36.7389],[-97.3279,36.7389],[-97.3278,36.7317],[-97.3368,36.7317],[-97.3368,36.7388],[-97.3636,36.7386],[-97.3635,36.7314],[-97.4574,36.7311],[-97.4623,36.7348],[-97.4625,36.6081]]]},"properties":{"geoid":"40010","state":"40","district":"10","name":"State Senate District 10","chamber":"Senate"}},{"type":"Feature","geometry":{"type":"Polygon","coordinates":[[[-96.0736,36.18],[-96.0734,36.1611],[-96.0024,36.1575],[-96.0018,36.146],[-95.983,36.1418],[-95.9404,36.1478],[-95.9403,36.1594],[-95.8956,36.1619],[-95.8978,36.1771],[-95.9225,36.1771],[-95.9225,36.2056],[-95.8958,36.2089],[-95.8867,36.2153],[-95.8865,36.2349],[-95.9225,36.2351],[-95.9226,36.2496],[-96.0731,36.2447],[-96.0736,36.18]]]},"properties":{"geoid":"40011","state":"40","district":"11","name":"State Senate District 11","chamber":"Senate"}},{"type":"Feature","geometry":{"type":"Polygon","coordinates":[[[-96.622,36.0256],[-96.6197,35.7704],[-96.5438,35.805],[-96.4586,35.8282],[-96.4586,35.7816],[-96.4319,35.7932],[-96.4204,35.7936],[-96.3872,35.7941],[-96.3872,35.7846],[-96.3321,35.7842],[-96.3334,35.8045],[-96.316,35.8133],[-96.2927,35.815],[-96.2278,35.8134],[-96.2278,35.7915],[-96.1924,35.7915],[-96.1924,35.857],[-96.0331,35.8568],[-96.0331,35.9009],[-95.9939,35.9011],[-95.9938,35.9737],[-96.0115,35.9737],[-96.0117,35.9592],[-96.0295,35.9592],[-96.0296,36.0754],[-96.0654,36.0755],[-96.0653,36.1046],[-96.117,36.1047],[-96.116,36.1232],[-96.1355,36.1271],[-96.1419,36.1363],[-96.172,36.1532],[-96.175,36.1611],[-96.2979,36.1623],[-96.2975,36.0539],[-96.3242,36.0539],[-96.3242,36.0177],[-96.3511,36.0182],[-96.3512,35.9521],[-96.4048,35.9512],[-96.4048,35.9666],[-96.4137,35.9666],[-96.4136,35.9739],[-96.5121,35.9738],[-96.5123,35.981],[-96.5227,35.9806],[-96.5216,35.9884],[-96.539,35.9921],[-96.5391,36.0318],[-96.5514,36.0294],[-96.5815,36.0396],[-96.5991,36.0319],[-96.6018,36.0248],[-96.622,36.0256]]]},"properties":{"geoid":"40012","state":"40","district":"12","name":"State Senate District 12","chamber":"Senate"}},{"type":"Feature","geometry":{"type":"Polygon","coordinates":[[[-97.6685,34.6813],[-97.563,34.6812],[-97.5632,34.507],[-97.144,34.5066],[-97.1531,34.5168],[-97.1443,34.522],[-97.1568,34.5218],[-97.1657,34.5317],[-97.1602,34.5349],[-97.1624,34.5428],[-97.1074,34.5427],[-97.1074,34.5717],[-97.0725,34.5718],[-97.0634,34.5642],[-97.0549,34.5645],[-97.0549,34.521],[-97.0459,34.5172],[-97.0461,34.5063],[-97.0321,34.5064],[-97.0304,34.4996],[-97.0216,34.496],[-97.0338,34.4825],[-97.0317,34.4751],[-97.0414,34.4527],[-97.026,34.4407],[-97.0273,34.4309],[-96.9883,34.422],[-96.9757,34.4134],[-96.9546,34.4265],[-96.9561,34.4338],[-96.9508,34.4338],[-96.9507,34.4772],[-96.9158,34.4774],[-96.9149,34.5109],[-96.8822,34.5061],[-96.5121,34.5056],[-96.5122,34.6801],[-96.4064,34.68],[-96.4065,34.7673],[-96.092,34.7675],[-96.0888,35.0499],[-96.0701,35.0555],[-96.0609,35.0916],[-96.0419,35.1043],[-96.03,35.1203],[-96.0098,35.118],[-96.0123,35.1451],[-95.9831,35.1517],[-95.9815,35.2898],[-96.4414,35.2901],[-96.4413,35.1158],[-96.4904,35.1159],[-96.4908,34.9106],[-96.5199,34.8702],[-96.5303,34.87],[-96.546,34.8823],[-96.5563,34.8992],[-96.556,34.9126],[-96.5641,34.9173],[-96.5771,34.9166],[-96.6132,34.9005],[-96.6368,34.8988],[-96.647,34.9022],[-96.6654,34.9284],[-96.692,34.9333],[-96.7046,34.9263],[-96.7121,34.9139],[-96.6935,34.9013],[-96.687,34.8913],[-96.6873,34.881],[-96.6948,34.8681],[-96.728,34.8572],[-96.7421,34.8694],[-96.7555,34.8998],[-96.7851,34.8991],[-96.7986,34.9059],[-96.7982,34.93],[-96.8135,34.9446],[-96.8215,34.9461],[-96.8524,34.9288],[-96.8854,34.9263],[-96.9108,34.959],[-96.9283,34.9652],[-96.957,34.951],[-96.9655,34.9365],[-96.9749,34.9343],[-96.9827,34.9218],[-97.0159,34.9073],[-97.0525,34.9213],[-97.0718,34.9199],[-97.0855,34.9314],[-97.1003,34.9296],[-97.114,34.9351],[-97.1329,34.9346],[-97.1358,34.9244],[-97.1546,34.9314],[-97.1962,34.9282],[-97.1984,34.9398],[-97.2179,34.9443],[-97.2294,34.9317],[-97.2327,34.9419],[-97.2399,34.9471],[-97.2616,34.9454],[-97.2739,34.963],[-97.2826,34.9612],[-97.2831,34.9133],[-97.2655,34.9133],[-97.2655,34.8552],[-97.564,34.8553],[-97.5639,34.8413],[-97.5806,34.8409],[-97.5807,34.8334],[-97.5747,34.8286],[-97.5886,34.8302],[-97.5906,34.8206],[-97.6032,34.8152],[-97.6043,34.8199],[-97.6093,34.8128],[-97.6172,34.8178],[-97.6221,34.815],[-97.6499,34.822],[-97.6564,34.8267],[-97.6551,34.8317],[-97.6681,34.8352],[-97.6685,34.6813]]]},"properties":{"geoid":"40013","state":"40","district":"13","name":"State Senate District 13","chamber":"Senate"}},{"type":"Feature","geometry":{"type":"Polygon","coordinates":[[[-97.5627,34.3319],[-97.5623,34.0712],[-96.9696,34.071],[-96.9697,34.013],[-96.9348,34.0129],[-96.9348,33.9545],[-96.9207,33.9595],[-96.9053,33.9472],[-96.8994,33.9337],[-96.8957,33.8964],[-96.8767,33.8618],[-96.8506,33.8472],[-96.8416,33.8529],[-96.8374,33.8713],[-96.8322,33.8748],[-96.8128,33.8726],[-96.7835,33.8635],[-96.7662,33.8255],[-96.7124,33.8316],[-96.7008,33.8379],[-96.6882,33.8546],[-96.6815,33.8947],[-96.6706,33.9149],[-96.6599,33.9167],[-96.6271,33.8943],[-96.5885,33.895],[-96.5911,33.9032],[-96.5817,33.9099],[-96.5814,33.9162],[-96.591,33.9186],[-96.5832,33.9191],[-96.581,33.925],[-96.5895,33.9279],[-96.5965,33.9451],[-96.5923,33.9515],[-96.5848,33.9499],[-96.5854,33.9549],[-96.5762,33.9639],[-96.5852,33.9674],[-96.5856,33.9747],[-96.5936,33.971],[-96.6068,33.9819],[-96.6028,33.9879],[-96.6156,33.9907],[-96.6137,33.9962],[-96.6233,34.0024],[-96.6248,34.0097],[-96.6209,34.0055],[-96.617,34.0102],[-96.6043,34.0079],[-96.6032,34.0135],[-96.5934,34.0167],[-96.5863,34.008],[-96.5789,34.0091],[-96.5733,34.0203],[-96.5796,34.0226],[-96.5729,34.0294],[-96.58,34.0312],[-96.5743,34.037],[-96.5782,34.048],[-96.5722,34.0503],[-96.5764,34.043],[-96.5708,34.0429],[-96.558,34.0505],[-96.5475,34.0643],[-96.5508,34.0717],[-96.5643,34.0772],[-96.5559,34.0812],[-96.5686,34.0848],[-96.5655,34.0894],[-96.5819,34.1055],[-96.5793,34.1101],[-96.5871,34.1178],[-96.5822,34.1186],[-96.5831,34.1262],[-96.6002,34.1347],[-96.603,34.1456],[-96.6061,34.1402],[-96.6133,34.1414],[-96.6078,34.1462],[-96.6192,34.154],[-96.6208,34.162],[-96.6286,34.1537],[-96.6412,34.1584],[-96.6364,34.1659],[-96.6419,34.1682],[-96.6124,34.1803],[-96.6041,34.2058],[-96.5833,34.2087],[-96.5837,34.2305],[-96.5923,34.2304],[-96.5927,34.2741],[-96.5838,34.2741],[-96.5838,34.2886],[-96.572,34.2855],[-96.5789,34.3062],[-96.5711,34.3117],[-96.5836,34.3173],[-96.5831,34.3323],[-96.5134,34.3324],[-96.5135,34.3177],[-96.4959,34.3176],[-96.4959,34.3031],[-96.4786,34.3031],[-96.4787,34.3289],[-96.4244,34.3313],[-96.4247,34.3096],[-96.4071,34.3094],[-96.4071,34.4184],[-96.1454,34.4183],[-96.1454,34.5059],[-96.092,34.5061],[-96.092,34.7675],[-96.4065,34.7673],[-96.4064,34.68],[-96.5122,34.6801],[-96.5121,34.5056],[-96.8822,34.5061],[-96.9149,34.5109],[-96.9158,34.4774],[-96.9507,34.4772],[-96.9508,34.4338],[-96.9561,34.4338],[-96.9546,34.4265],[-96.9757,34.4134],[-96.9883,34.422],[-97.0273,34.4309],[-97.026,34.4407],[-97.0414,34.4527],[-97.0317,34.4751],[-97.0338,34.4825],[-97.0216,34.496],[-97.0304,34.4996],[-97.0321,34.5064],[-97.0461,34.5063],[-97.0459,34.5172],[-97.0549,34.521],[-97.0549,34.5645],[-97.0634,34.5642],[-97.0725,34.5718],[-97.1074,34.5717],[-97.1074,34.5427],[-97.1624,34.5428],[-97.1602,34.5349],[-97.1657,34.5317],[-97.1568,34.5218],[-97.1443,34.522],[-97.1531,34.5168],[-97.144,34.5066],[-97.5623,34.507],[-97.5627,34.3319]]]},"properties":{"geoid":"40014","state":"40","district":"14","name":"State Senate District 14","chamber":"Senate"}},{"type":"Feature","geometry":{"type":"Polygon","coordinates":[[[-97.5665,35.2475],[-97.5567,35.2402],[-97.5622,35.2346],[-97.552,35.2218],[-97.5415,35.2142],[-97.5294,35.2127],[-97.4511,35.1626],[-97.4501,35.1819],[-97.4817,35.1981],[-97.48,35.2039],[-97.494,35.2082],[-97.4945,35.2328],[-97.4513,35.2329],[-97.459,35.2474],[-97.3356,35.2472],[-97.3356,35.2327],[-97.318,35.2327],[-97.3179,35.1748],[-97.3882,35.175],[-97.3884,35.1605],[-97.4438,35.1606],[-97.4383,35.147],[-97.4062,35.137],[-97.4013,35.1249],[-97.4052,35.109],[-97.4021,35.0864],[-97.3888,35.0821],[-97.3641,35.0846],[-97.3542,35.0767],[-97.3496,35.0555],[-97.3567,35.0289],[-97.2477,35.0295],[-97.2474,35.0731],[-97.1422,35.0728],[-97.142,35.3407],[-97.1952,35.3419],[-97.2219,35.3373],[-97.2226,35.3409],[-97.239,35.3409],[-97.239,35.3773],[-97.477,35.3773],[-97.4768,35.3633],[-97.4592,35.3631],[-97.4592,35.3486],[-97.4414,35.3488],[-97.4413,35.3342],[-97.4592,35.3342],[-97.4592,35.322],[-97.4413,35.3197],[-97.4413,35.2908],[-97.5593,35.2907],[-97.5547,35.2622],[-97.5641,35.2526],[-97.5589,35.2481],[-97.5665,35.2475]]]},"properties":{"geoid":"40015","state":"40","district":"15","name":"State Senate District 15","chamber":"Senate"}},{"type":"Feature","geometry":{"type":"Polygon","coordinates":[[[-97.4945,35.2328],[-97.494,35.2082],[-97.48,35.2039],[-97.4817,35.1981],[-97.4501,35.1819],[-97.4511,35.1626],[-97.4475,35.1612],[-97.3884,35.1605],[-97.3882,35.175],[-97.3179,35.1748],[-97.318,35.2327],[-97.3356,35.2327],[-97.3356,35.2472],[-97.4602,35.2474],[-97.4513,35.2329],[-97.4945,35.2328]]]},"properties":{"geoid":"40016","state":"40","district":"16","name":"State Senate District 16","chamber":"Senate"}},{"type":"Feature","geometry":{"type":"Polygon","coordinates":[[[-97.2396,35.3628],[-97.239,35.3409],[-97.2226,35.3409],[-97.2219,35.3373],[-97.1952,35.3419],[-97.142,35.3407],[-97.1423,34.9282],[-97.1337,34.9247],[-97.1329,34.9346],[-97.0855,34.9314],[-97.0718,34.9199],[-97.0525,34.9213],[-97.0159,34.9073],[-96.9827,34.9218],[-96.9749,34.9343],[-96.9655,34.9365],[-96.957,34.951],[-96.9283,34.9652],[-96.9108,34.959],[-96.8854,34.9263],[-96.8524,34.9288],[-96.8159,34.9457],[-96.7982,34.93],[-96.7986,34.9059],[-96.7877,34.8998],[-96.7757,34.9],[-96.7756,35.0822],[-96.7835,35.0839],[-96.7917,35.1014],[-96.8093,35.1014],[-96.8106,35.1433],[-96.8442,35.145],[-96.8442,35.1883],[-96.8794,35.1885],[-96.8775,35.2462],[-96.8951,35.2462],[-96.8951,35.2606],[-96.8776,35.2606],[-96.8776,35.3185],[-96.86,35.3187],[-96.8599,35.3332],[-96.8247,35.3331],[-96.8241,35.4055],[-96.9651,35.4055],[-96.9652,35.4636],[-97.1415,35.464],[-97.1411,35.6085],[-97.2299,35.6089],[-97.2305,35.3772],[-97.239,35.3773],[-97.2396,35.3628]]]},"properties":{"geoid":"40017","state":"40","district":"17","name":"State Senate District 17","chamber":"Senate"}},{"type":"Feature","geometry":{"type":"Polygon","coordinates":[[[-97.8343,35.5525],[-97.8309,35.5512],[-97.8309,35.5007],[-97.7872,35.4991],[-97.7247,35.4679],[-97.7247,35.4644],[-97.7425,35.4644],[-97.7424,35.4354],[-97.7246,35.4353],[-97.7246,35.428],[-97.7069,35.4279],[-97.7069,35.4207],[-97.6714,35.4208],[-97.6714,35.4355],[-97.6892,35.4351],[-97.689,35.4643],[-97.6366,35.4644],[-97.6366,35.5132],[-97.6715,35.5149],[-97.674,35.573],[-97.6889,35.5729],[-97.6889,35.5657],[-97.8339,35.5658],[-97.8343,35.5525]]]},"properties":{"geoid":"40018","state":"40","district":"18","name":"State Senate District 18","chamber":"Senate"}},{"type":"Feature","geometry":{"type":"Polygon","coordinates":[[[-98.545,36.953],[-98.545,36.9422],[-98.5402,36.9422],[-98.5405,36.5942],[-98.5334,36.5942],[-98.5336,36.4632],[-98.1044,36.4631],[-98.1039,36.1649],[-97.4608,36.1645],[-97.4623,36.7348],[-97.4574,36.7311],[-97.3635,36.7314],[-97.3636,36.7386],[-97.3368,36.7388],[-97.3368,36.7317],[-97.3278,36.7317],[-97.3279,36.7389],[-97.292,36.7389],[-97.2919,36.7315],[-97.2016,36.7315],[-97.202,36.7677],[-97.1571,36.7677],[-97.157,36.7822],[-97.0852,36.782],[-97.0852,36.8107],[-97.0675,36.8107],[-97.0675,36.8396],[-97.1032,36.8399],[-97.1032,36.8689],[-97.0996,36.869],[-97.106,36.8743],[-97.1029,36.9123],[-97.0553,36.912],[-97.055,36.9406],[-97.0416,36.9851],[-97.0459,36.999],[-98.5447,36.9988],[-98.545,36.953]]]},"properties":{"geoid":"40019","state":"40","district":"19","name":"State Senate District 19","chamber":"Senate"}},{"type":"Feature","geometry":{"type":"Polygon","coordinates":[[[-97.9619,36.0606],[-97.9612,35.9775],[-97.9175,35.9576],[-97.8975,35.9352],[-97.857,35.9244],[-97.8237,35.9377],[-97.8048,35.9333],[-97.7898,35.941],[-97.7685,35.9323],[-97.7718,35.9261],[-97.788,35.9244],[-97.7831,35.9157],[-97.7408,35.9198],[-97.7324,35.9077],[-97.7217,35.912],[-97.7156,35.9086],[-97.7128,35.9001],[-97.7165,35.887],[-97.7027,35.8882],[-97.6959,35.8794],[-97.7001,35.8573],[-97.6855,35.8522],[-97.6744,35.8604],[-97.674,35.726],[-97.4162,35.725],[-97.4164,35.8127],[-97.3895,35.8127],[-97.3895,35.8166],[-97.3716,35.8126],[-97.3718,35.8416],[-97.354,35.8413],[-97.3539,35.8703],[-97.1415,35.8691],[-97.1405,35.9591],[-97.1514,35.9484],[-97.1669,35.9428],[-97.1669,35.9508],[-97.1757,35.951],[-97.1762,35.9555],[-97.1581,35.9565],[-97.158,36.0289],[-97.1537,36.0289],[-97.1577,36.0433],[-97.1405,36.0434],[-97.1404,36.0724],[-97.1227,36.0724],[-97.123,36.1303],[-97.1007,36.1304],[-97.1009,36.1449],[-97.1054,36.1449],[-97.1056,36.1883],[-97.0162,36.1887],[-97.0156,36.1307],[-96.908,36.1312],[-96.908,36.1166],[-96.8373,36.1158],[-96.8368,36.159],[-96.6221,36.1598],[-96.6136,36.1636],[-96.2683,36.162],[-96.2692,36.1737],[-96.2476,36.1915],[-96.2428,36.2047],[-96.2566,36.2257],[-96.3366,36.2288],[-96.3868,36.2671],[-96.425,36.2785],[-96.4363,36.2898],[-96.4458,36.3213],[-96.4595,36.3332],[-96.4868,36.3299],[-96.5025,36.3061],[-96.5152,36.2983],[-96.5405,36.297],[-96.5639,36.3061],[-96.5735,36.3157],[-96.5729,36.3319],[-96.559,36.3485],[-96.5342,36.356],[-96.5228,36.3656],[-96.5186,36.377],[-96.5259,36.3935],[-96.5407,36.4004],[-96.5721,36.376],[-96.5896,36.3745],[-96.6014,36.3815],[-96.6061,36.4028],[-96.6201,36.4098],[-96.6274,36.4222],[-96.6371,36.426],[-96.6785,36.4209],[-96.7108,36.4377],[-96.7181,36.454],[-96.7062,36.4776],[-96.7063,36.4862],[-96.7249,36.5032],[-96.7235,36.5202],[-96.7327,36.5432],[-96.7536,36.5626],[-96.7695,36.5654],[-96.8206,36.5393],[-96.8377,36.5208],[-96.8379,36.5117],[-96.8517,36.4913],[-96.8753,36.4709],[-96.9117,36.468],[-96.9402,36.4555],[-96.9746,36.4626],[-97.0008,36.4812],[-97.007,36.4892],[-97.0092,36.5142],[-97.0015,36.5255],[-96.9882,36.5324],[-96.9554,36.5353],[-96.9247,36.5526],[-96.8991,36.5532],[-96.8904,36.5636],[-96.888,36.5749],[-96.9153,36.6],[-96.967,36.5863],[-97.0029,36.5826],[-97.0359,36.5862],[-97.0576,36.5939],[-97.4616,36.5936],[-97.4608,36.1645],[-97.9612,36.1648],[-97.9619,36.0606]]]},"properties":{"geoid":"40020","state":"40","district":"20","name":"State Senate District 20","chamber":"Senate"}},{"type":"Feature","geometry":{"type":"Polygon","coordinates":[[[-97.1762,35.9555],[-97.1757,35.951],[-97.1669,35.9508],[-97.1669,35.9428],[-97.1514,35.9484],[-97.1405,35.9591],[-97.1406,35.942],[-96.6197,35.9416],[-96.6221,36.0256],[-96.6018,36.0248],[-96.5991,36.0319],[-96.5812,36.0396],[-96.5514,36.0294],[-96.5391,36.0318],[-96.539,35.9921],[-96.5216,35.9884],[-96.5227,35.9806],[-96.5123,35.981],[-96.5121,35.9738],[-96.4136,35.9739],[-96.4137,35.9666],[-96.4048,35.9666],[-96.4048,35.9512],[-96.3512,35.9521],[-96.3511,36.0182],[-96.3242,36.0177],[-96.3242,36.0539],[-96.2975,36.0539],[-96.2979,36.1623],[-96.6136,36.1636],[-96.6221,36.1598],[-96.8368,36.159],[-96.8373,36.1158],[-96.908,36.1166],[-96.908,36.1312],[-97.0156,36.1307],[-97.0162,36.1887],[-97.1056,36.1883],[-97.1054,36.1449],[-97.1009,36.1449],[-97.1007,36.1304],[-97.123,36.1303],[-97.1227,36.0724],[-97.1404,36.0724],[-97.1405,36.0434],[-97.1577,36.0433],[-97.1537,36.0289],[-97.158,36.0289],[-97.1581,35.9565],[-97.1762,35.9555]]]},"properties":{"geoid":"40021","state":"40","district":"21","name":"State Senate District 21","chamber":"Senate"}},{"type":"Feature","geometry":{"type":"Polygon","coordinates":[[[-97.8342,35.6393],[-97.8339,35.5658],[-97.6889,35.5657],[-97.6889,35.5729],[-97.674,35.5735],[-97.6384,35.5579],[-97.6385,35.5801],[-97.6118,35.5801],[-97.6118,35.5946],[-97.674,35.5948],[-97.6739,35.653],[-97.4781,35.6528],[-97.4781,35.6659],[-97.5141,35.6675],[-97.514,35.7256],[-97.8341,35.7259],[-97.8342,35.6393]]]},"properties":{"geoid":"40022","state":"40","district":"22","name":"State Senate District 22","chamber":"Senate"}},{"type":"Feature","geometry":{"type":"Polygon","coordinates":[[[-98.1319,35.4165],[-98.1313,35.3774],[-98.096,35.3778],[-98.095,35.2037],[-98.0913,35.2022],[-98.0931,34.8839],[-97.873,34.8841],[-97.8729,34.9471],[-97.8693,34.9463],[-97.8729,34.9479],[-97.8729,34.9641],[-97.8553,34.9643],[-97.8551,34.9717],[-97.8288,34.9712],[-97.8329,34.9819],[-97.8297,34.9877],[-97.7848,34.986],[-97.7848,34.9932],[-97.7762,34.9932],[-97.7761,35.0621],[-97.7939,35.058],[-97.7948,35.1595],[-97.7362,35.2038],[-97.6709,35.2038],[-97.6714,35.3359],[-97.7062,35.325],[-97.7238,35.3265],[-97.7091,35.3772],[-97.7423,35.3772],[-97.7425,35.4644],[-97.7247,35.4644],[-97.7247,35.4679],[-97.7872,35.4991],[-97.8309,35.5007],[-97.8339,35.5802],[-97.9591,35.5804],[-97.9549,35.5513],[-97.9903,35.5513],[-97.99,35.5311],[-97.9988,35.5225],[-98.0232,35.5225],[-98.0461,35.5299],[-98.0964,35.5295],[-98.0963,35.4357],[-98.1277,35.4344],[-98.1139,35.4212],[-98.1318,35.4206],[-98.1319,35.4165]]]},"properties":{"geoid":"40023","state":"40","district":"23","name":"State Senate District 23","chamber":"Senate"}},{"type":"Feature","geometry":{"type":"Polygon","coordinates":[[[-97.5988,35.3035],[-97.579,35.3018],[-97.5593,35.2907],[-97.4413,35.2908],[-97.4413,35.3197],[-97.4592,35.322],[-97.4592,35.3342],[-97.4413,35.3342],[-97.4414,35.3488],[-97.4592,35.3486],[-97.4592,35.3631],[-97.4768,35.3633],[-97.4769,35.3707],[-97.5123,35.3706],[-97.5122,35.3634],[-97.53,35.3633],[-97.53,35.3488],[-97.5653,35.3486],[-97.5653,35.3341],[-97.5921,35.334],[-97.5988,35.3035]]]},"properties":{"geoid":"40024","state":"40","district":"24","name":"State Senate District 24","chamber":"Senate"}},{"type":"Feature","geometry":{"type":"Polygon","coordinates":[[[-96.0333,35.8726],[-96.0331,35.8568],[-95.8195,35.8563],[-95.8195,35.9012],[-95.7617,35.9011],[-95.7617,35.918],[-95.7721,35.9376],[-95.7712,35.9463],[-95.7969,35.9608],[-95.8149,35.9596],[-95.8151,35.9739],[-95.833,35.9738],[-95.8331,35.9883],[-95.8509,35.9883],[-95.851,36.0463],[-95.8685,36.0464],[-95.8686,36.0754],[-95.8593,36.0754],[-95.8586,36.09],[-95.8865,36.0899],[-95.8864,36.0609],[-95.9042,36.0609],[-95.9045,35.9654],[-95.9174,35.9739],[-95.9938,35.9737],[-95.9939,35.9011],[-96.0331,35.9009],[-96.0333,35.8726]]]},"properties":{"geoid":"40025","state":"40","district":"25","name":"State Senate District 25","chamber":"Senate"}},{"type":"Feature","geometry":{"type":"Polygon","coordinates":[[[-99.3771,35.5531],[-99.3641,35.5517],[-99.3642,35.4653],[-98.6233,35.4642],[-98.6239,35.2042],[-98.618,35.2041],[-98.6201,34.8553],[-98.0931,34.855],[-98.0913,35.2022],[-98.095,35.2037],[-98.096,35.3778],[-98.1313,35.3774],[-98.1319,35.4156],[-98.1318,35.4206],[-98.1139,35.4212],[-98.1277,35.4344],[-98.0963,35.4357],[-98.0964,35.5295],[-98.0461,35.5299],[-98.0232,35.5225],[-97.9989,35.5225],[-97.99,35.5311],[-97.9903,35.5513],[-97.9549,35.5513],[-97.9591,35.5804],[-97.8339,35.5802],[-97.8341,35.7259],[-97.674,35.726],[-97.6744,35.8604],[-97.6855,35.8522],[-97.7001,35.8573],[-97.696,35.8796],[-97.7027,35.8882],[-97.7164,35.887],[-97.7128,35.9016],[-97.7194,35.9114],[-97.7324,35.9077],[-97.7408,35.9198],[-97.7778,35.9148],[-97.7882,35.9193],[-97.7859,35.9258],[-97.7692,35.9281],[-97.7719,35.9367],[-97.7917,35.941],[-97.8066,35.9332],[-97.8221,35.938],[-97.8507,35.9251],[-97.8677,35.9244],[-97.8974,35.9351],[-97.9175,35.9576],[-97.9612,35.9775],[-97.9612,36.1648],[-98.6369,36.1649],[-98.632,35.8124],[-99.3758,35.8122],[-99.3771,35.5531]]]},"properties":{"geoid":"40026","state":"40","district":"26","name":"State Senate District 26","chamber":"Senate"}},{"type":"Feature","geometry":{"type":"Polygon","coordinates":[[[-103.0024,36.6755],[-103.0024,36.5004],[-100.0004,36.4997],[-99.9997,35.4224],[-99.5758,35.4217],[-99.5757,35.5089],[-99.3641,35.5088],[-99.3641,35.5517],[-99.3771,35.5517],[-99.3758,35.8122],[-98.632,35.8124],[-98.6369,36.1649],[-98.1039,36.1649],[-98.1044,36.4631],[-98.5336,36.4632],[-98.5334,36.5942],[-98.5405,36.5942],[-98.5402,36.9422],[-98.545,36.9422],[-98.5447,36.9988],[-100.1948,37.0022],[-102.0421,36.993],[-103.0023,37.0001],[-103.0024,36.6755]]]},"properties":{"geoid":"40027","state":"40","district":"27","name":"State Senate District 27","chamber":"Senate"}},{"type":"Feature","geometry":{"type":"Polygon","coordinates":[[[-97.4164,35.7998],[-97.4162,35.725],[-97.3716,35.7253],[-97.3716,35.6526],[-97.3538,35.6527],[-97.3538,35.6091],[-97.1411,35.6085],[-97.1415,35.464],[-96.9652,35.4636],[-96.9651,35.4055],[-96.8241,35.4055],[-96.8247,35.3331],[-96.8599,35.3332],[-96.86,35.3187],[-96.8776,35.3185],[-96.8776,35.2606],[-96.8951,35.2606],[-96.8951,35.2462],[-96.8775,35.2462],[-96.8794,35.1885],[-96.8442,35.1883],[-96.8442,35.145],[-96.8106,35.1433],[-96.8093,35.1014],[-96.7917,35.1014],[-96.7835,35.0839],[-96.7756,35.0822],[-96.7757,34.9],[-96.7555,34.8998],[-96.7421,34.8694],[-96.7325,34.8589],[-96.7124,34.8597],[-96.6942,34.8685],[-96.6863,34.888],[-96.6935,34.9013],[-96.7113,34.9119],[-96.7115,34.9163],[-96.6995,34.9303],[-96.6816,34.9329],[-96.6641,34.9274],[-96.647,34.9022],[-96.6368,34.8988],[-96.6132,34.9005],[-96.5771,34.9166],[-96.5641,34.9173],[-96.556,34.9126],[-96.5559,34.8981],[-96.5438,34.8801],[-96.5286,34.8696],[-96.5146,34.8734],[-96.4908,34.9106],[-96.4904,35.1159],[-96.4413,35.1158],[-96.4412,35.4677],[-96.4462,35.4584],[-96.4586,35.4615],[-96.4656,35.4581],[-96.4758,35.4634],[-96.4883,35.4482],[-96.4831,35.4425],[-96.4849,35.4356],[-96.4971,35.4288],[-96.5188,35.4313],[-96.5439,35.4578],[-96.5444,35.4528],[-96.5543,35.4539],[-96.5538,35.4481],[-96.5599,35.449],[-96.5696,35.4396],[-96.5557,35.4345],[-96.5599,35.4213],[-96.5565,35.4188],[-96.5526,35.423],[-96.5478,35.4185],[-96.5496,35.4146],[-96.5372,35.4109],[-96.5381,35.4044],[-96.5317,35.4002],[-96.5357,35.391],[-96.5565,35.3947],[-96.5556,35.4025],[-96.5768,35.402],[-96.5859,35.4115],[-96.5998,35.3969],[-96.6065,35.3994],[-96.6115,35.3942],[-96.6237,35.4007],[-96.6197,35.9416],[-97.1406,35.942],[-97.1415,35.8691],[-97.3539,35.8703],[-97.354,35.8413],[-97.3718,35.8416],[-97.3716,35.8126],[-97.3895,35.8166],[-97.3895,35.8127],[-97.4164,35.8127],[-97.4164,35.7998]]]},"properties":{"geoid":"40028","state":"40","district":"28","name":"State Senate District 28","chamber":"Senate"}},{"type":"Feature","geometry":{"type":"Polygon","coordinates":[[[-96.0012,36.4243],[-95.7944,36.4236],[-95.7942,36.3945],[-95.6709,36.3943],[-95.6671,36.3846],[-95.6461,36.3653],[-95.5789,36.3653],[-95.5789,36.351],[-95.5824,36.3509],[-95.5789,36.3472],[-95.579,36.3072],[-95.4575,36.3558],[-95.4346,36.3804],[-95.4356,36.4957],[-95.4535,36.4958],[-95.4537,36.5974],[-95.4316,36.5975],[-95.4318,36.9426],[-95.4078,36.9427],[-95.4077,36.9993],[-96.0008,36.9989],[-96.0012,36.4243]]]},"properties":{"geoid":"40029","state":"40","district":"29","name":"State Senate District 29","chamber":"Senate"}},{"type":"Feature","geometry":{"type":"Polygon","coordinates":[[[-97.6367,35.537],[-97.6364,35.4642],[-97.5479,35.4642],[-97.5477,35.4933],[-97.5317,35.4932],[-97.5344,35.5078],[-97.5477,35.5078],[-97.5473,35.5142],[-97.5923,35.5112],[-97.5923,35.5368],[-97.6367,35.537]]]},"properties":{"geoid":"40030","state":"40","district":"30","name":"State Senate District 30","chamber":"Senate"}},{"type":"Feature","geometry":{"type":"Polygon","coordinates":[[[-98.6856,34.5302],[-98.6855,34.5075],[-98.662,34.5075],[-98.662,34.3334],[-98.6097,34.3337],[-98.61,34.1572],[-98.5998,34.1606],[-98.5771,34.149],[-98.5602,34.1332],[-98.5509,34.1326],[-98.5518,34.1271],[-98.5586,34.1283],[-98.561,34.1239],[-98.5363,34.1073],[-98.5041,34.0723],[-98.4827,34.0623],[-98.4715,34.0657],[-98.4651,34.0737],[-98.449,34.0735],[-98.4401,34.0843],[-98.4144,34.0851],[-98.4097,34.0925],[-98.4114,34.1003],[-98.3998,34.1],[-98.3984,34.1285],[-98.3894,34.1332],[-98.3801,34.1308],[-98.3869,34.1389],[-98.3844,34.1463],[-98.3656,34.157],[-98.3254,34.151],[-98.2939,34.133],[-98.2565,34.1295],[-98.2325,34.1346],[-98.2165,34.1218],[-98.1708,34.1142],[-98.1544,34.1227],[-98.1308,34.1505],[-98.1088,34.1538],[-98.1006,34.1435],[-98.1029,34.1326],[-98.092,34.1319],[-98.0905,34.1225],[-98.1002,34.103],[-98.1194,34.0845],[-98.1202,34.0721],[-98.1019,34.051],[-98.0825,34.0394],[-98.089,34.0338],[-98.1017,34.0391],[-98.1062,34.0349],[-98.084,34.0144],[-98.0824,34.0098],[-98.0882,34.0055],[-98.0277,33.9934],[-97.9909,33.9989],[-97.9742,34.0067],[-97.9583,33.9908],[-97.9465,33.9907],[-97.9604,33.9519],[-97.9742,33.9428],[-97.9712,33.9371],[-97.9534,33.9364],[-97.9572,33.9145],[-97.9687,33.906],[-97.9788,33.9125],[-97.9844,33.898],[-97.9678,33.8822],[-97.9342,33.8781],[-97.8774,33.8502],[-97.8335,33.8581],[-97.8207,33.8689],[-97.8176,33.881],[-97.8054,33.8772],[-97.7981,33.8991],[-97.7924,33.8991],[-97.7847,33.8906],[-97.7797,33.8992],[-97.7861,33.9134],[-97.7835,33.9183],[-97.7638,33.9142],[-97.7594,33.9188],[-97.7628,33.9344],[-97.7323,33.9365],[-97.7122,33.9516],[-97.6931,33.9837],[-97.6713,33.9916],[-97.6338,33.9813],[-97.6091,33.9681],[-97.598,33.9552],[-97.5896,33.9536],[-97.5954,33.9414],[-97.5912,33.9296],[-97.597,33.9163],[-97.5811,33.8997],[-97.5515,33.8979],[-97.5003,33.9196],[-97.4614,33.9052],[-97.4508,33.8866],[-97.4515,33.8709],[-97.4632,33.842],[-97.4531,33.8285],[-97.4268,33.8186],[-97.3687,33.8214],[-97.3472,33.8451],[-97.3319,33.8845],[-97.3233,33.8792],[-97.3342,33.8629],[-97.3321,33.8551],[-97.3143,33.8651],[-97.3092,33.8887],[-97.2709,33.858],[-97.2556,33.8637],[-97.2492,33.8751],[-97.245,33.9032],[-97.2285,33.9133],[-97.2109,33.9161],[-97.1808,33.8952],[-97.1666,33.8473],[-97.1716,33.8353],[-97.1958,33.8308],[-97.205,33.8189],[-97.2054,33.8015],[-97.1904,33.7812],[-97.1877,33.7698],[-97.1926,33.7597],[-97.1801,33.7545],[-97.1722,33.7375],[-97.1574,33.7255],[-97.1207,33.7172],[-97.0973,33.7277],[-97.0865,33.7433],[-97.0848,33.7616],[-97.0951,33.7922],[-97.0929,33.8038],[-97.0791,33.8123],[-97.0481,33.8175],[-97.0519,33.833],[-97.0872,33.8414],[-97.0905,33.8452],[-97.088,33.8526],[-97.0638,33.86],[-97.041,33.8376],[-97.0214,33.8464],[-96.9838,33.8909],[-96.9954,33.9338],[-96.9943,33.9492],[-96.9794,33.9562],[-96.9798,33.9416],[-96.9729,33.9357],[-96.9348,33.9545],[-96.9348,34.0129],[-96.9697,34.013],[-96.9696,34.071],[-97.5623,34.0712],[-97.563,34.6812],[-97.7567,34.6815],[-97.7563,34.5507],[-97.7737,34.5507],[-97.7739,34.5288],[-97.809,34.529],[-97.808,34.507],[-97.8161,34.5071],[-97.8162,34.4927],[-97.8902,34.4926],[-97.8903,34.4714],[-97.8856,34.4714],[-97.8857,34.4636],[-97.9474,34.4635],[-97.9474,34.478],[-97.965,34.4781],[-97.9691,34.493],[-97.9674,34.5942],[-98.0368,34.5946],[-98.037,34.6815],[-98.0891,34.6812],[-98.0891,34.8114],[-98.1516,34.8116],[-98.1522,34.8042],[-98.1677,34.8043],[-98.1677,34.7971],[-98.1855,34.7934],[-98.181,34.7826],[-98.1854,34.7826],[-98.1855,34.7754],[-98.2479,34.7753],[-98.2479,34.7681],[-98.3522,34.7679],[-98.3522,34.7258],[-98.3704,34.7145],[-98.384,34.6957],[-98.3901,34.6957],[-98.3809,34.6663],[-98.3875,34.6415],[-98.3864,34.601],[-98.4397,34.6023],[-98.4397,34.5944],[-98.6855,34.5945],[-98.6856,34.5302]]]},"properties":{"geoid":"40031","state":"40","district":"31","name":"State Senate District 31","chamber":"Senate"}},{"type":"Feature","geometry":{"type":"Polygon","coordinates":[[[-98.8263,34.7713],[-98.8261,34.5074],[-98.6855,34.5075],[-98.6855,34.5945],[-98.4397,34.5944],[-98.4397,34.6023],[-98.3864,34.601],[-98.3875,34.6415],[-98.3809,34.6663],[-98.3901,34.6957],[-98.384,34.6957],[-98.3704,34.7145],[-98.3522,34.7258],[-98.3522,34.7679],[-98.2479,34.7681],[-98.2479,34.7753],[-98.1855,34.7754],[-98.1854,34.7826],[-98.181,34.7826],[-98.1855,34.7934],[-98.1677,34.7971],[-98.1677,34.8043],[-98.1522,34.8042],[-98.1516,34.8116],[-98.0891,34.8114],[-98.0896,34.8549],[-98.8261,34.8554],[-98.8263,34.7713]]]},"properties":{"geoid":"40032","state":"40","district":"32","name":"State Senate District 32","chamber":"Senate"}},{"type":"Feature","geometry":{"type":"Polygon","coordinates":[[[-95.8686,36.0697],[-95.8685,36.0464],[-95.851,36.0463],[-95.8509,35.9883],[-95.8331,35.9883],[-95.833,35.9738],[-95.8151,35.9739],[-95.8149,35.9596],[-95.7969,35.9608],[-95.7715,35.9465],[-95.772,35.9374],[-95.7617,35.918],[-95.7616,36.0319],[-95.7796,36.0319],[-95.7796,36.061],[-95.7974,36.061],[-95.7974,36.0709],[-95.8078,36.0754],[-95.8686,36.0754],[-95.8686,36.0697]]]},"properties":{"geoid":"40033","state":"40","district":"33","name":"State Senate District 33","chamber":"Senate"}},{"type":"Feature","geometry":{"type":"Polygon","coordinates":[[[-96.0015,36.293],[-96.0013,36.2495],[-95.9226,36.2496],[-95.9225,36.2351],[-95.8866,36.2351],[-95.8867,36.2153],[-95.8958,36.2089],[-95.9225,36.2056],[-95.9226,36.1815],[-95.9225,36.1771],[-95.8867,36.1771],[-95.8867,36.148],[-95.8777,36.148],[-95.8777,36.1407],[-95.8866,36.1407],[-95.8866,36.1189],[-95.7616,36.119],[-95.7616,36.1628],[-95.8154,36.1626],[-95.8122,36.3075],[-95.8662,36.3075],[-95.8663,36.3221],[-95.9647,36.3222],[-95.9729,36.3299],[-95.9857,36.3307],[-95.9792,36.3365],[-96.0013,36.3366],[-96.0015,36.293]]]},"properties":{"geoid":"40034","state":"40","district":"34","name":"State Senate District 34","chamber":"Senate"}},{"type":"Feature","geometry":{"type":"Polygon","coordinates":[[[-96.0057,36.143],[-95.9922,36.1318],[-95.9874,36.1212],[-95.988,36.09],[-95.9314,36.0911],[-95.9086,36.1044],[-95.8866,36.1044],[-95.8866,36.1086],[-95.8595,36.1045],[-95.8596,36.119],[-95.8866,36.1189],[-95.8866,36.1407],[-95.8777,36.1407],[-95.8777,36.148],[-95.8867,36.148],[-95.8867,36.1771],[-95.8978,36.1771],[-95.8956,36.1619],[-95.9403,36.1594],[-95.9404,36.1478],[-95.9816,36.1417],[-96.0027,36.1478],[-96.0057,36.143]]]},"properties":{"geoid":"40035","state":"40","district":"35","name":"State Senate District 35","chamber":"Senate"}},{"type":"Feature","geometry":{"type":"Polygon","coordinates":[[[-95.8596,36.1183],[-95.8593,36.0754],[-95.8078,36.0754],[-95.7974,36.0709],[-95.7974,36.061],[-95.7796,36.061],[-95.7796,36.0319],[-95.7489,36.0326],[-95.726,36.0246],[-95.726,36.0173],[-95.6725,36.0171],[-95.6727,36.1623],[-95.7616,36.1628],[-95.7618,36.1189],[-95.8596,36.1183]]]},"properties":{"geoid":"40036","state":"40","district":"36","name":"State Senate District 36","chamber":"Senate"}},{"type":"Feature","geometry":{"type":"Polygon","coordinates":[[[-96.175,36.1611],[-96.172,36.1532],[-96.1419,36.1363],[-96.1355,36.1271],[-96.116,36.1232],[-96.117,36.1047],[-96.0653,36.1046],[-96.0654,36.0755],[-96.0296,36.0754],[-96.0295,35.9592],[-96.0117,35.9592],[-96.0115,35.9737],[-95.9174,35.9739],[-95.9045,35.9654],[-95.9425,35.9978],[-95.9489,36.0097],[-95.9498,36.0173],[-95.9406,36.0174],[-95.94,36.0319],[-95.9489,36.0318],[-95.9491,36.0464],[-95.94,36.0464],[-95.9399,36.0608],[-95.979,36.0608],[-95.9861,36.0752],[-95.9874,36.1212],[-95.9922,36.1318],[-96.0059,36.1427],[-96.0021,36.1573],[-96.0244,36.1563],[-96.0292,36.1612],[-96.175,36.1611]]]},"properties":{"geoid":"40037","state":"40","district":"37","name":"State Senate District 37","chamber":"Senate"}},{"type":"Feature","geometry":{"type":"Polygon","coordinates":[[[-100.0005,34.7086],[-100.0003,34.5604],[-99.9716,34.5622],[-99.9538,34.5785],[-99.9232,34.5746],[-99.877,34.5401],[-99.8531,34.5116],[-99.8218,34.4978],[-99.8143,34.4762],[-99.7937,34.4539],[-99.7656,34.4375],[-99.7672,34.4305],[-99.7542,34.4213],[-99.7203,34.4063],[-99.7127,34.3909],[-99.695,34.3783],[-99.6783,34.3798],[-99.6627,34.3737],[-99.6465,34.3825],[-99.6242,34.3736],[-99.6,34.3747],[-99.5854,34.3889],[-99.5801,34.4167],[-99.5697,34.4184],[-99.5492,34.4127],[-99.5143,34.414],[-99.499,34.4092],[-99.4872,34.398],[-99.4664,34.3959],[-99.4611,34.3807],[-99.4551,34.3813],[-99.4538,34.3887],[-99.4383,34.3712],[-99.431,34.3711],[-99.4249,34.3858],[-99.4053,34.3729],[-99.3974,34.3779],[-99.3957,34.3977],[-99.3872,34.4108],[-99.3972,34.4186],[-99.3933,34.4276],[-99.3952,34.442],[-99.3812,34.4569],[-99.3698,34.4586],[-99.3557,34.4531],[-99.3569,34.4421],[-99.3341,34.4275],[-99.3196,34.4089],[-99.2946,34.4154],[-99.2856,34.4124],[-99.28,34.4007],[-99.2613,34.4035],[-99.2589,34.3913],[-99.2744,34.3843],[-99.2598,34.3776],[-99.2586,34.3726],[-99.2489,34.376],[-99.2429,34.3727],[-99.2479,34.3685],[-99.2464,34.3644],[-99.2365,34.3658],[-99.2341,34.3535],[-99.228,34.3495],[-99.2326,34.3389],[-99.2069,34.3383],[-99.2108,34.3368],[-99.2056,34.3192],[-99.2133,34.3107],[-99.2114,34.2922],[-99.2074,34.2835],[-99.1954,34.2808],[-99.1993,34.2608],[-99.1914,34.2578],[-99.1969,34.2444],[-99.19,34.2298],[-99.1898,34.2144],[-99.1537,34.2073],[-99.1381,34.2192],[-99.1304,34.2195],[-99.1265,34.2154],[-99.132,34.2074],[-99.1266,34.2031],[-99.1082,34.2035],[-99.0962,34.2117],[-99.0889,34.2085],[-99.0794,34.2115],[-99.0445,34.1981],[-99.0361,34.2069],[-99.013,34.2032],[-99.0022,34.2094],[-99.0047,34.2141],[-99.0006,34.2177],[-98.9882,34.2213],[-98.9726,34.2026],[-98.9629,34.2038],[-98.96,34.2133],[-98.9513,34.2122],[-98.9183,34.1818],[-98.8729,34.1666],[-98.8749,34.1557],[-98.8681,34.1496],[-98.8601,34.1499],[-98.8556,34.1616],[-98.8371,34.1565],[-98.8311,34.1622],[-98.813,34.1584],[-98.7962,34.1428],[-98.7884,34.1467],[-98.7656,34.1364],[-98.757,34.1246],[-98.742,34.1255],[-98.7343,34.1358],[-98.7175,34.1364],[-98.7125,34.1312],[-98.703,34.1359],[-98.6901,34.1332],[-98.6481,34.1644],[-98.61,34.1572],[-98.6097,34.3337],[-98.662,34.3334],[-98.662,34.5075],[-98.8261,34.5075],[-98.8261,34.8554],[-98.6198,34.855],[-98.618,35.2041],[-98.6239,35.2042],[-98.6233,35.4642],[-99.3642,35.4653],[-99.3641,35.5088],[-99.5757,35.5089],[-99.5758,35.4217],[-100.0004,35.4224],[-100.0005,34.7086]]]},"properties":{"geoid":"40038","state":"40","district":"38","name":"State Senate District 38","chamber":"Senate"}},{"type":"Feature","geometry":{"type":"Polygon","coordinates":[[[-95.988,36.09],[-95.979,36.0608],[-95.9399,36.0608],[-95.94,36.0464],[-95.9491,36.0464],[-95.9489,36.0318],[-95.94,36.0319],[-95.9406,36.0174],[-95.9498,36.0173],[-95.9489,36.0097],[-95.9425,35.9978],[-95.9044,35.9683],[-95.9042,36.0609],[-95.8864,36.0609],[-95.8865,36.0899],[-95.8586,36.09],[-95.8595,36.1045],[-95.8866,36.1086],[-95.8866,36.1044],[-95.9086,36.1044],[-95.9314,36.0911],[-95.988,36.09]]]},"properties":{"geoid":"40039","state":"40","district":"39","name":"State Senate District 39","chamber":"Senate"}},{"type":"Feature","geometry":{"type":"Polygon","coordinates":[[[-97.6741,35.5657],[-97.6715,35.5149],[-97.6366,35.5132],[-97.6367,35.537],[-97.5923,35.5368],[-97.5923,35.5112],[-97.5473,35.5142],[-97.5477,35.5078],[-97.5146,35.5078],[-97.5177,35.5224],[-97.5298,35.5223],[-97.5297,35.5511],[-97.5374,35.5511],[-97.5404,35.5801],[-97.5802,35.5802],[-97.5852,35.5946],[-97.6118,35.5946],[-97.6118,35.5801],[-97.6385,35.5801],[-97.6384,35.5579],[-97.674,35.5735],[-97.6741,35.5657]]]},"properties":{"geoid":"40040","state":"40","district":"40","name":"State Senate District 40","chamber":"Senate"}},{"type":"Feature","geometry":{"type":"Polygon","coordinates":[[[-97.5142,35.7112],[-97.5141,35.6675],[-97.4781,35.6659],[-97.4854,35.6256],[-97.496,35.6236],[-97.496,35.6147],[-97.5084,35.5997],[-97.4604,35.6011],[-97.4605,35.5801],[-97.4421,35.58],[-97.456,35.5511],[-97.3537,35.5512],[-97.3538,35.6527],[-97.3716,35.6526],[-97.3716,35.7253],[-97.514,35.7256],[-97.5142,35.7112]]]},"properties":{"geoid":"40041","state":"40","district":"41","name":"State Senate District 41","chamber":"Senate"}},{"type":"Feature","geometry":{"type":"Polygon","coordinates":[[[-97.424,35.477],[-97.4236,35.3773],[-97.2305,35.3772],[-97.2299,35.6089],[-97.3538,35.6091],[-97.3537,35.5657],[-97.3181,35.5658],[-97.3182,35.5512],[-97.2829,35.5512],[-97.2828,35.4931],[-97.3357,35.493],[-97.3356,35.4785],[-97.424,35.477]]]},"properties":{"geoid":"40042","state":"40","district":"42","name":"State Senate District 42","chamber":"Senate"}},{"type":"Feature","geometry":{"type":"Polygon","coordinates":[[[-98.0931,34.8626],[-98.089,34.8407],[-98.0891,34.6812],[-98.037,34.6815],[-98.0368,34.5946],[-97.9674,34.5942],[-97.9693,34.4943],[-97.965,34.4781],[-97.9474,34.478],[-97.9474,34.4635],[-97.8857,34.4636],[-97.8856,34.4714],[-97.8903,34.4714],[-97.8902,34.4926],[-97.8162,34.4927],[-97.8161,34.5071],[-97.808,34.507],[-97.809,34.529],[-97.7739,34.5288],[-97.7737,34.5507],[-97.7563,34.5507],[-97.7567,34.6815],[-97.6685,34.6813],[-97.6681,34.8352],[-97.6551,34.8317],[-97.6564,34.8267],[-97.6499,34.822],[-97.6221,34.815],[-97.6172,34.8178],[-97.6093,34.8128],[-97.6043,34.8199],[-97.6032,34.8152],[-97.5906,34.8206],[-97.5886,34.8302],[-97.5747,34.8286],[-97.5807,34.8334],[-97.5806,34.8409],[-97.5639,34.8413],[-97.564,34.8553],[-97.2655,34.8552],[-97.2655,34.9133],[-97.2831,34.9133],[-97.2826,34.9612],[-97.2739,34.963],[-97.2616,34.9454],[-97.2399,34.9471],[-97.2327,34.9419],[-97.2294,34.9317],[-97.2179,34.9443],[-97.1984,34.9398],[-97.1962,34.9282],[-97.1578,34.9315],[-97.1423,34.9282],[-97.1422,35.0728],[-97.2474,35.0731],[-97.2477,35.0295],[-97.3567,35.0289],[-97.3496,35.0555],[-97.3546,35.0663],[-97.3528,35.074],[-97.3641,35.0846],[-97.3888,35.0821],[-97.4021,35.0864],[-97.4052,35.109],[-97.4013,35.1249],[-97.4071,35.1381],[-97.4331,35.1438],[-97.4427,35.1604],[-97.5548,35.2243],[-97.5622,35.2346],[-97.5567,35.2402],[-97.5665,35.2474],[-97.5589,35.2481],[-97.5641,35.2526],[-97.5547,35.2622],[-97.557,35.2884],[-97.579,35.3018],[-97.6178,35.3052],[-97.6525,35.3334],[-97.6714,35.3375],[-97.6709,35.2038],[-97.7362,35.2038],[-97.7948,35.1595],[-97.7939,35.058],[-97.7761,35.0621],[-97.7762,34.9932],[-97.7848,34.9932],[-97.7848,34.986],[-97.8297,34.9877],[-97.8329,34.9819],[-97.8288,34.9712],[-97.8551,34.9717],[-97.8553,34.9643],[-97.8729,34.9641],[-97.8729,34.9479],[-97.8693,34.9463],[-97.8729,34.9471],[-97.873,34.8841],[-98.0931,34.8839],[-98.0931,34.8626]]]},"properties":{"geoid":"40043","state":"40","district":"43","name":"State Senate District 43","chamber":"Senate"}},{"type":"Feature","geometry":{"type":"Polygon","coordinates":[[[-97.6892,35.4496],[-97.6892,35.4351],[-97.6714,35.4355],[-97.6714,35.4208],[-97.5916,35.4221],[-97.5772,35.4069],[-97.5479,35.4062],[-97.5479,35.3915],[-97.4949,35.3918],[-97.4882,35.4208],[-97.5214,35.4207],[-97.5214,35.4425],[-97.548,35.4424],[-97.5479,35.4642],[-97.689,35.4643],[-97.6892,35.4496]]]},"properties":{"geoid":"40044","state":"40","district":"44","name":"State Senate District 44","chamber":"Senate"}},{"type":"Feature","geometry":{"type":"Polygon","coordinates":[[[-97.7424,35.4052],[-97.7423,35.3772],[-97.7091,35.3772],[-97.7238,35.3265],[-97.7072,35.3248],[-97.6851,35.3343],[-97.6614,35.3365],[-97.6178,35.3052],[-97.6029,35.3035],[-97.5988,35.3033],[-97.5921,35.334],[-97.5653,35.3341],[-97.5653,35.3486],[-97.53,35.3488],[-97.53,35.3633],[-97.5122,35.3634],[-97.5123,35.3706],[-97.4769,35.3707],[-97.477,35.3773],[-97.4592,35.3773],[-97.4593,35.3914],[-97.5479,35.3915],[-97.5479,35.4062],[-97.5772,35.4069],[-97.5916,35.4221],[-97.7069,35.4207],[-97.7069,35.4279],[-97.7246,35.428],[-97.7246,35.4353],[-97.7424,35.4354],[-97.7424,35.4052]]]},"properties":{"geoid":"40045","state":"40","district":"45","name":"State Senate District 45","chamber":"Senate"}},{"type":"Feature","geometry":{"type":"Polygon","coordinates":[[[-97.548,35.4447],[-97.5214,35.4425],[-97.5214,35.4207],[-97.4882,35.4208],[-97.4949,35.3918],[-97.4593,35.3914],[-97.4592,35.3773],[-97.4236,35.3773],[-97.424,35.4787],[-97.4446,35.4787],[-97.4706,35.4632],[-97.497,35.4643],[-97.493,35.4623],[-97.5127,35.4562],[-97.5146,35.5078],[-97.5344,35.5078],[-97.5317,35.4932],[-97.5477,35.4933],[-97.548,35.4447]]]},"properties":{"geoid":"40046","state":"40","district":"46","name":"State Senate District 46","chamber":"Senate"}},{"type":"Feature","geometry":{"type":"Polygon","coordinates":[[[-97.674,35.6207],[-97.674,35.5948],[-97.5852,35.5946],[-97.5802,35.5802],[-97.5672,35.5802],[-97.5672,35.6098],[-97.5006,35.6091],[-97.496,35.6236],[-97.4854,35.6256],[-97.4815,35.6532],[-97.6739,35.653],[-97.674,35.6207]]]},"properties":{"geoid":"40047","state":"40","district":"47","name":"State Senate District 47","chamber":"Senate"}},{"type":"Feature","geometry":{"type":"Polygon","coordinates":[[[-97.5672,35.5929],[-97.5672,35.5802],[-97.5404,35.5801],[-97.5374,35.5511],[-97.5297,35.5511],[-97.5298,35.5223],[-97.5177,35.5224],[-97.5153,35.5117],[-97.5127,35.4562],[-97.493,35.4623],[-97.497,35.4643],[-97.4706,35.4632],[-97.4446,35.4787],[-97.3356,35.4785],[-97.3357,35.493],[-97.2828,35.4931],[-97.2829,35.5512],[-97.3182,35.5512],[-97.3181,35.5658],[-97.3537,35.5657],[-97.3537,35.5512],[-97.456,35.5511],[-97.4421,35.58],[-97.4605,35.5801],[-97.4604,35.6011],[-97.5052,35.5993],[-97.5084,35.5997],[-97.5006,35.6091],[-97.5672,35.6098],[-97.5672,35.5929]]]},"properties":{"geoid":"40048","state":"40","district":"48","name":"State Senate District 48","chamber":"Senate"}}]}