{"type":"FeatureCollection","features":[{"type":"Feature","geometry":{"type":"Polygon","coordinates":[[[-75.2651,39.8873],[-75.2625,39.8766],[-75.2405,39.8724],[-75.2341,39.8772],[-75.2157,39.8761],[-75.212,39.8675],[-75.187,39.8806],[-75.1423,39.8852],[-75.1293,39.9074],[-75.1359,39.9324],[-75.1337,39.9546],[-75.1234,39.9638],[-75.094,39.9743],[-75.1034,39.9851],[-75.1123,39.9798],[-75.1309,39.9909],[-75.1329,39.9816],[-75.1442,39.9831],[-75.1482,39.9614],[-75.1614,39.9625],[-75.1604,39.9671],[-75.1662,39.9631],[-75.1833,39.9644],[-75.1809,39.953],[-75.1939,39.9421],[-75.1668,39.9379],[-75.1723,39.9123],[-75.1893,39.9146],[-75.1904,39.9217],[-75.2017,39.9198],[-75.2068,39.9112],[-75.2252,39.9147],[-75.2389,39.9008],[-75.2513,39.9044],[-75.2651,39.8873]]]},"properties":{"geoid":"42001","state":"42","district":"1","name":"State Senate District 1","chamber":"Senate"}},{"type":"Feature","geometry":{"type":"Polygon","coordinates":[[[-75.144,39.9837],[-75.1329,39.9816],[-75.1309,39.9909],[-75.1123,39.9798],[-75.1034,39.9851],[-75.094,39.9743],[-75.0732,39.9796],[-75.0626,39.9882],[-75.0527,40.006],[-75.0593,40.0134],[-75.0706,40.0105],[-75.0681,40.015],[-75.0407,40.0303],[-75.0447,40.0348],[-75.0409,40.0368],[-75.0573,40.0415],[-75.0543,40.0444],[-75.0874,40.0636],[-75.1024,40.0518],[-75.098,40.0471],[-75.1011,40.045],[-75.092,40.0402],[-75.1025,40.0298],[-75.1128,40.0273],[-75.1037,40.0195],[-75.1122,40.0121],[-75.1342,40.0196],[-75.144,39.9837]]]},"properties":{"geoid":"42002","state":"42","district":"2","name":"State Senate District 2","chamber":"Senate"}},{"type":"Feature","geometry":{"type":"Polygon","coordinates":[[[-75.1937,39.9753],[-75.1833,39.9644],[-75.1662,39.9631],[-75.1604,39.9671],[-75.1614,39.9625],[-75.1482,39.9614],[-75.1342,40.0196],[-75.1122,40.0121],[-75.1032,40.0211],[-75.1128,40.0273],[-75.1025,40.0298],[-75.092,40.0402],[-75.1011,40.045],[-75.098,40.0471],[-75.1024,40.0518],[-75.1094,40.0458],[-75.1394,40.0634],[-75.1467,40.0301],[-75.1607,40.0216],[-75.1692,40.0262],[-75.175,40.0199],[-75.1669,40.0099],[-75.1722,40.0079],[-75.1689,40.0037],[-75.1717,39.9899],[-75.1867,39.9902],[-75.1893,39.9758],[-75.1937,39.9753]]]},"properties":{"geoid":"42003","state":"42","district":"3","name":"State Senate District 3","chamber":"Senate"}},{"type":"Feature","geometry":{"type":"Polygon","coordinates":[[[-75.2554,40.0678],[-75.2522,40.0653],[-75.2305,40.086],[-75.2141,40.0497],[-75.1835,40.0273],[-75.1747,40.0358],[-75.1607,40.0216],[-75.1467,40.0301],[-75.1394,40.0634],[-75.1094,40.0458],[-75.0874,40.0636],[-75.0967,40.069],[-75.0583,40.1059],[-75.133,40.1509],[-75.1705,40.1118],[-75.1963,40.1278],[-75.2554,40.0678]]]},"properties":{"geoid":"42004","state":"42","district":"4","name":"State Senate District 4","chamber":"Senate"}},{"type":"Feature","geometry":{"type":"Polygon","coordinates":[[[-75.0967,40.069],[-75.0543,40.0444],[-75.0573,40.0415],[-75.0409,40.0368],[-75.0447,40.0348],[-75.0407,40.0303],[-75.0706,40.0105],[-75.0593,40.0134],[-75.0527,40.006],[-75.0149,40.0199],[-74.9762,40.0477],[-74.9852,40.0572],[-74.9713,40.0758],[-74.9591,40.0823],[-74.9558,40.0951],[-74.9618,40.0978],[-74.9647,40.1186],[-74.9825,40.12],[-74.9944,40.1262],[-74.9939,40.1319],[-74.9979,40.1278],[-75.0151,40.138],[-75.0583,40.1059],[-75.0967,40.069]]]},"properties":{"geoid":"42005","state":"42","district":"5","name":"State Senate District 5","chamber":"Senate"}},{"type":"Feature","geometry":{"type":"Polygon","coordinates":[[[-75.2141,40.2574],[-74.9979,40.1278],[-74.9939,40.1319],[-74.9944,40.1262],[-74.9825,40.12],[-74.9646,40.1185],[-74.9618,40.0978],[-74.9558,40.0951],[-74.9584,40.084],[-74.9633,40.0772],[-74.9713,40.0758],[-74.9852,40.0571],[-74.974,40.0486],[-74.9306,40.0695],[-74.9091,40.0705],[-74.9097,40.0827],[-74.915,40.0886],[-74.9127,40.097],[-74.9026,40.104],[-74.9054,40.117],[-74.8985,40.1322],[-74.8878,40.1321],[-74.8554,40.1542],[-74.8701,40.1645],[-74.8694,40.1927],[-74.8876,40.2247],[-74.9444,40.2115],[-74.9544,40.2119],[-74.9651,40.2212],[-74.9628,40.2269],[-74.9744,40.2324],[-74.9699,40.2403],[-74.9856,40.2463],[-74.955,40.2767],[-74.9992,40.3019],[-75.0397,40.2617],[-75.0442,40.2631],[-75.0536,40.2559],[-75.0573,40.2575],[-75.0535,40.2681],[-75.0658,40.2634],[-75.0891,40.2827],[-75.1258,40.2612],[-75.1435,40.2714],[-75.152,40.2629],[-75.1855,40.2831],[-75.2141,40.2574]]]},"properties":{"geoid":"42006","state":"42","district":"6","name":"State Senate District 6","chamber":"Senate"}},{"type":"Feature","geometry":{"type":"Polygon","coordinates":[[[-75.3164,40.0759],[-75.3063,40.069],[-75.2826,40.073],[-75.2452,40.0374],[-75.206,40.0117],[-75.2803,39.975],[-75.2777,39.9712],[-75.2654,39.9652],[-75.2308,39.9607],[-75.2322,39.9543],[-75.2208,39.9505],[-75.2086,39.9556],[-75.1953,39.9508],[-75.1809,39.953],[-75.1799,39.96],[-75.1937,39.9753],[-75.1893,39.9758],[-75.1867,39.9902],[-75.1717,39.9899],[-75.1689,40.0037],[-75.1722,40.0079],[-75.1669,40.0099],[-75.175,40.0199],[-75.1655,40.0302],[-75.1747,40.0358],[-75.1835,40.0273],[-75.2141,40.0497],[-75.2305,40.086],[-75.2522,40.0653],[-75.2561,40.0671],[-75.1963,40.1278],[-75.2332,40.1505],[-75.2974,40.0829],[-75.3051,40.0875],[-75.3164,40.0759]]]},"properties":{"geoid":"42007","state":"42","district":"7","name":"State Senate District 7","chamber":"Senate"}},{"type":"Feature","geometry":{"type":"Polygon","coordinates":[[[-75.3165,39.85],[-75.2722,39.8491],[-75.2328,39.8573],[-75.2115,39.867],[-75.2157,39.8761],[-75.2341,39.8772],[-75.2405,39.8724],[-75.2625,39.8766],[-75.2651,39.8875],[-75.2513,39.9044],[-75.2389,39.9008],[-75.2252,39.9147],[-75.2068,39.9112],[-75.2017,39.9198],[-75.1904,39.9217],[-75.1893,39.9146],[-75.1723,39.9123],[-75.1668,39.9379],[-75.1939,39.9421],[-75.1809,39.953],[-75.1953,39.9508],[-75.2086,39.9556],[-75.2208,39.9505],[-75.2322,39.9543],[-75.2308,39.9607],[-75.2477,39.9628],[-75.2516,39.9517],[-75.2472,39.9439],[-75.2733,39.9315],[-75.2707,39.9252],[-75.3067,39.9116],[-75.2998,39.9048],[-75.2866,39.9076],[-75.2795,39.8994],[-75.2896,39.8887],[-75.3012,39.8977],[-75.3065,39.8961],[-75.2983,39.8768],[-75.3138,39.8696],[-75.3165,39.85]]]},"properties":{"geoid":"42008","state":"42","district":"8","name":"State Senate District 8","chamber":"Senate"}},{"type":"Feature","geometry":{"type":"Polygon","coordinates":[[[-75.8692,39.7408],[-75.8656,39.7366],[-75.8629,39.741],[-75.8556,39.7387],[-75.8419,39.722],[-75.7738,39.7222],[-75.7506,39.7606],[-75.7157,39.7932],[-75.6712,39.8181],[-75.6198,39.8336],[-75.5661,39.8395],[-75.5123,39.8359],[-75.4604,39.823],[-75.4151,39.8019],[-75.3463,39.8442],[-75.3185,39.8499],[-75.3249,39.8639],[-75.3407,39.8669],[-75.3486,39.863],[-75.3567,39.8698],[-75.3504,39.8812],[-75.3578,39.8872],[-75.3553,39.8987],[-75.3619,39.9023],[-75.358,39.9135],[-75.3639,39.9195],[-75.361,39.9244],[-75.3656,39.9222],[-75.3649,39.9303],[-75.3811,39.919],[-75.3781,39.9127],[-75.3846,39.9135],[-75.392,39.901],[-75.3978,39.9064],[-75.4093,39.92],[-75.4175,39.9436],[-75.4318,39.9505],[-75.4239,39.9625],[-75.4355,39.9721],[-75.4361,39.9849],[-75.5021,39.9544],[-75.5163,39.9727],[-75.6334,39.9149],[-75.6601,39.9248],[-75.6679,39.9344],[-75.6799,39.9341],[-75.6803,39.9281],[-75.6905,39.9233],[-75.6981,39.8975],[-75.7739,39.9116],[-75.7714,39.8878],[-75.7604,39.8889],[-75.7587,39.8514],[-75.7805,39.8493],[-75.7858,39.8717],[-75.849,39.8665],[-75.848,39.8591],[-75.8535,39.8587],[-75.841,39.7852],[-75.8692,39.7408]]]},"properties":{"geoid":"42009","state":"42","district":"9","name":"State Senate District 9","chamber":"Senate"}},{"type":"Feature","geometry":{"type":"Polygon","coordinates":[[[-75.2643,40.2868],[-75.2141,40.2574],[-75.1855,40.2831],[-75.152,40.2629],[-75.1435,40.2714],[-75.1258,40.2612],[-75.0891,40.2827],[-75.0658,40.2634],[-75.0535,40.2681],[-75.0573,40.2575],[-75.0536,40.2559],[-75.0442,40.2631],[-75.0397,40.2617],[-74.9992,40.3019],[-74.955,40.2767],[-74.9856,40.2463],[-74.9699,40.2403],[-74.9742,40.232],[-74.9647,40.2287],[-74.9654,40.2216],[-74.9531,40.2115],[-74.8876,40.2247],[-74.8694,40.1927],[-74.8701,40.1645],[-74.8554,40.1542],[-74.8878,40.1321],[-74.8985,40.1322],[-74.9054,40.117],[-74.9026,40.104],[-74.9127,40.097],[-74.915,40.0886],[-74.9097,40.0827],[-74.9091,40.0705],[-74.8618,40.0835],[-74.8546,40.0933],[-74.8359,40.1035],[-74.8225,40.1268],[-74.7842,40.1205],[-74.7597,40.1338],[-74.7412,40.1352],[-74.722,40.1503],[-74.7223,40.1607],[-74.7372,40.1776],[-74.7543,40.1852],[-74.7714,40.2152],[-74.8423,40.2505],[-74.8682,40.2952],[-74.8916,40.313],[-74.9083,40.3169],[-74.9397,40.338],[-74.9666,40.3982],[-74.9959,40.4104],[-75.0318,40.4048],[-75.0672,40.4235],[-75.0835,40.4419],[-75.0911,40.4374],[-75.0988,40.4405],[-75.0956,40.4345],[-75.1166,40.4337],[-75.1888,40.3633],[-75.1814,40.3594],[-75.2643,40.2868]]]},"properties":{"geoid":"42010","state":"42","district":"10","name":"State Senate District 10","chamber":"Senate"}},{"type":"Feature","geometry":{"type":"Polygon","coordinates":[[[-76.0917,40.2777],[-76.044,40.2472],[-76.0332,40.2534],[-76.0235,40.2715],[-75.9855,40.2521],[-75.9439,40.2447],[-75.896,40.284],[-75.8911,40.297],[-75.8144,40.2681],[-75.7956,40.2709],[-75.78,40.3263],[-75.745,40.3212],[-75.7211,40.3927],[-75.7389,40.3971],[-75.7395,40.4046],[-75.7968,40.4178],[-75.7726,40.4414],[-75.7942,40.4542],[-75.7491,40.4705],[-75.6927,40.5264],[-75.6816,40.5284],[-75.6749,40.539],[-75.7394,40.5799],[-75.8113,40.5191],[-75.8256,40.536],[-75.8431,40.5392],[-75.8473,40.533],[-75.8588,40.5322],[-75.8577,40.5241],[-75.8746,40.5258],[-75.8832,40.5163],[-75.8844,40.5026],[-75.8929,40.4944],[-75.8401,40.4571],[-75.8499,40.4449],[-75.8605,40.4364],[-75.9456,40.4099],[-75.9706,40.4113],[-75.9751,40.4039],[-75.9649,40.4012],[-75.9737,40.3948],[-75.9527,40.3833],[-75.9558,40.3712],[-75.9414,40.3644],[-75.9607,40.3546],[-75.9761,40.3699],[-75.9928,40.3685],[-75.9962,40.3567],[-76.0038,40.3557],[-76.0016,40.3502],[-76.0218,40.3422],[-76.0303,40.3284],[-76.0411,40.3221],[-76.0459,40.3092],[-76.0551,40.3073],[-76.0768,40.2853],[-76.0917,40.2777]]]},"properties":{"geoid":"42011","state":"42","district":"11","name":"State Senate District 11","chamber":"Senate"}},{"type":"Feature","geometry":{"type":"Polygon","coordinates":[[[-75.443,40.3315],[-75.4295,40.3147],[-75.3557,40.2746],[-75.3504,40.2799],[-75.337,40.2736],[-75.2973,40.2497],[-75.3033,40.2434],[-75.2796,40.223],[-75.2674,40.2319],[-75.2455,40.2187],[-75.2793,40.1857],[-75.3558,40.2292],[-75.4107,40.1761],[-75.3761,40.1559],[-75.3553,40.1758],[-75.2982,40.1432],[-75.3167,40.1248],[-75.3269,40.1052],[-75.3164,40.0759],[-75.3051,40.0875],[-75.2974,40.0829],[-75.2332,40.1505],[-75.1705,40.1118],[-75.133,40.1509],[-75.0583,40.1059],[-75.0151,40.138],[-75.4023,40.3696],[-75.443,40.3315]]]},"properties":{"geoid":"42012","state":"42","district":"12","name":"State Senate District 12","chamber":"Senate"}},{"type":"Feature","geometry":{"type":"Polygon","coordinates":[[[-76.5124,40.0129],[-76.4985,39.9967],[-76.4954,39.9761],[-76.4777,39.9498],[-76.3905,39.9118],[-76.3796,39.8882],[-76.3777,39.8667],[-76.3521,39.849],[-76.3505,39.8377],[-76.3334,39.8177],[-76.3157,39.81],[-76.2774,39.7777],[-76.2675,39.7594],[-76.2422,39.7329],[-76.2398,39.7213],[-76.1355,39.7211],[-76.134,39.7272],[-76.1191,39.7235],[-76.1204,39.7358],[-76.1139,39.7372],[-76.1084,39.7346],[-76.1109,39.7279],[-76.102,39.7241],[-76.0925,39.7338],[-76.102,39.7395],[-76.1003,39.7457],[-76.094,39.7427],[-76.0868,39.7458],[-76.0819,39.7614],[-76.0667,39.76],[-76.0625,39.7648],[-76.0646,39.7712],[-76.0414,39.7966],[-76.0498,39.8027],[-76.039,39.8012],[-76.0352,39.8118],[-76.0296,39.8127],[-76.0376,39.8269],[-76.027,39.8242],[-76.0228,39.8308],[-76.0165,39.8313],[-76.0222,39.8508],[-76.0076,39.8523],[-76.0024,39.8744],[-75.9915,39.8687],[-75.9868,39.8737],[-75.9924,39.8822],[-75.9867,39.8929],[-75.995,39.8985],[-75.9974,39.9281],[-75.9817,39.9295],[-75.981,39.9335],[-75.9946,39.9524],[-75.9359,40.0375],[-75.9361,40.0786],[-75.943,40.1093],[-75.8732,40.1372],[-75.8079,40.1777],[-75.8452,40.2118],[-75.8086,40.2523],[-75.8256,40.2567],[-75.822,40.2726],[-75.8427,40.2765],[-75.8505,40.2837],[-75.8782,40.2896],[-75.8911,40.297],[-75.896,40.284],[-75.9439,40.2447],[-75.9855,40.2521],[-76.0238,40.2712],[-76.0332,40.2534],[-76.044,40.2472],[-75.9418,40.1816],[-75.9441,40.1744],[-75.9632,40.1762],[-75.9767,40.1674],[-76.0015,40.1716],[-76.0264,40.1641],[-76.0643,40.1798],[-76.0811,40.1746],[-76.0466,40.0532],[-76.1049,40.0724],[-76.1295,40.0916],[-76.1775,40.0969],[-76.2265,40.1151],[-76.2266,40.1067],[-76.2345,40.1109],[-76.2379,40.1027],[-76.2483,40.1057],[-76.2446,40.0967],[-76.2522,40.0952],[-76.2484,40.0864],[-76.2654,40.0848],[-76.2594,40.079],[-76.2632,40.0717],[-76.2566,40.0654],[-76.2728,40.0585],[-76.2726,40.0521],[-76.2782,40.0517],[-76.2808,40.0579],[-76.2893,40.0521],[-76.3018,40.0541],[-76.2982,40.0602],[-76.3053,40.0547],[-76.3173,40.0564],[-76.3216,40.0614],[-76.3126,40.0598],[-76.3184,40.0709],[-76.3262,40.0727],[-76.3318,40.0656],[-76.3261,40.06],[-76.3418,40.0727],[-76.346,40.0654],[-76.3349,40.0598],[-76.3293,40.0624],[-76.3344,40.0593],[-76.3199,40.051],[-76.3421,40.0531],[-76.3429,40.0381],[-76.3883,40.0414],[-76.4187,40.0373],[-76.4561,40.0208],[-76.489,40.0207],[-76.5124,40.0129]],[[-76.3005,40.0536],[-76.2997,40.0531],[-76.3004,40.0531],[-76.3005,40.0536]],[[-76.3266,40.0615],[-76.3257,40.0615],[-76.3257,40.0611],[-76.3266,40.0615]],[[-76.2881,40.046],[-76.2876,40.0447],[-76.2878,40.0446],[-76.2881,40.046]],[[-76.3171,40.0592],[-76.3163,40.0599],[-76.3156,40.0594],[-76.3171,40.0592]],[[-76.2877,40.0438],[-76.2854,40.0445],[-76.2867,40.0432],[-76.2877,40.0438]],[[-76.3241,40.0624],[-76.3218,40.0628],[-76.3232,40.0617],[-76.3241,40.0624]],[[-76.3266,40.0642],[-76.3258,40.0649],[-76.3236,40.0638],[-76.3266,40.0642]],[[-76.2892,40.0519],[-76.2855,40.0509],[-76.2889,40.0501],[-76.2892,40.0519]],[[-76.3138,40.0557],[-76.3024,40.0536],[-76.3135,40.0522],[-76.3138,40.0557]],[[-76.2872,40.0502],[-76.278,40.0484],[-76.2825,40.047],[-76.2872,40.0502]]]},"properties":{"geoid":"42013","state":"42","district":"13","name":"State Senate District 13","chamber":"Senate"}},{"type":"Feature","geometry":{"type":"Polygon","coordinates":[[[-75.6089,40.7874],[-75.6019,40.7501],[-75.5913,40.7351],[-75.5731,40.7344],[-75.5678,40.7259],[-75.5564,40.7208],[-75.5436,40.7257],[-75.5389,40.7371],[-75.5262,40.7327],[-75.5255,40.7201],[-75.5156,40.7022],[-75.5475,40.691],[-75.5353,40.6613],[-75.515,40.6362],[-75.5401,40.6311],[-75.5317,40.6097],[-75.5747,40.5948],[-75.541,40.5832],[-75.4817,40.5995],[-75.4826,40.5909],[-75.5113,40.5825],[-75.5303,40.5654],[-75.4974,40.5452],[-75.5201,40.5405],[-75.5155,40.5353],[-75.5071,40.536],[-75.5169,40.5297],[-75.5129,40.5274],[-75.5164,40.5194],[-75.5044,40.5167],[-75.4879,40.5294],[-75.4801,40.5289],[-75.4845,40.531],[-75.4817,40.5342],[-75.4756,40.5301],[-75.4488,40.5621],[-75.4038,40.5808],[-75.3913,40.5966],[-75.3886,40.6144],[-75.4066,40.6122],[-75.4196,40.6161],[-75.4221,40.6343],[-75.4313,40.6442],[-75.4288,40.655],[-75.4203,40.6587],[-75.3875,40.6331],[-75.3969,40.6446],[-75.3797,40.6481],[-75.3814,40.6609],[-75.3728,40.6663],[-75.3834,40.738],[-75.346,40.7422],[-75.3391,40.7529],[-75.2761,40.7585],[-75.2793,40.7752],[-75.3161,40.8566],[-75.3833,40.831],[-75.4425,40.8184],[-75.5415,40.8068],[-75.6089,40.7874]]]},"properties":{"geoid":"42014","state":"42","district":"14","name":"State Senate District 14","chamber":"Senate"}},{"type":"Feature","geometry":{"type":"Polygon","coordinates":[[[-77.027,40.3809],[-77.0208,40.3662],[-77.0082,40.3584],[-76.9327,40.3553],[-76.9121,40.3255],[-76.9245,40.2914],[-76.9104,40.267],[-76.8645,40.2297],[-76.8377,40.2204],[-76.826,40.203],[-76.8006,40.2001],[-76.7527,40.1758],[-76.7443,40.1322],[-76.7327,40.1227],[-76.7216,40.1201],[-76.7159,40.1315],[-76.7066,40.1351],[-76.7099,40.1376],[-76.6993,40.1453],[-76.6974,40.1566],[-76.691,40.1567],[-76.6901,40.1481],[-76.6832,40.1518],[-76.6772,40.1489],[-76.6662,40.1632],[-76.6384,40.1667],[-76.6081,40.1894],[-76.586,40.1895],[-76.5807,40.1947],[-76.5664,40.196],[-76.5694,40.1955],[-76.678,40.4747],[-76.7685,40.4367],[-76.7806,40.4596],[-77.027,40.3809]]]},"properties":{"geoid":"42015","state":"42","district":"15","name":"State Senate District 15","chamber":"Senate"}},{"type":"Feature","geometry":{"type":"Polygon","coordinates":[[[-75.8913,40.6773],[-75.5117,40.4356],[-75.2643,40.2868],[-75.1814,40.3594],[-75.1888,40.3633],[-75.1166,40.4337],[-75.0956,40.4345],[-75.0988,40.4405],[-75.0911,40.4374],[-75.0835,40.4419],[-75.072,40.4273],[-75.0607,40.4213],[-75.0707,40.4568],[-75.0627,40.4804],[-75.0684,40.542],[-75.0998,40.5674],[-75.1164,40.5731],[-75.1402,40.5754],[-75.1623,40.5642],[-75.1849,40.5683],[-75.1955,40.5786],[-75.1893,40.5899],[-75.1968,40.6086],[-75.2582,40.582],[-75.333,40.5368],[-75.4038,40.5808],[-75.4488,40.5621],[-75.4756,40.5301],[-75.4817,40.5342],[-75.4845,40.531],[-75.4801,40.5289],[-75.4879,40.5294],[-75.5044,40.5167],[-75.5164,40.5194],[-75.5129,40.5274],[-75.5169,40.5297],[-75.5071,40.536],[-75.5155,40.5353],[-75.5201,40.5405],[-75.4974,40.5452],[-75.5303,40.5654],[-75.5113,40.5825],[-75.4826,40.5909],[-75.4817,40.5995],[-75.541,40.5832],[-75.5747,40.5948],[-75.5317,40.6097],[-75.5401,40.6311],[-75.515,40.6362],[-75.5353,40.6613],[-75.5475,40.691],[-75.5156,40.7022],[-75.5301,40.7363],[-75.5396,40.7367],[-75.5436,40.7257],[-75.5564,40.7208],[-75.5678,40.7259],[-75.5731,40.7344],[-75.5926,40.7361],[-75.6019,40.7501],[-75.6091,40.7875],[-75.6946,40.7702],[-75.7024,40.7622],[-75.7286,40.7539],[-75.7449,40.7403],[-75.7777,40.7295],[-75.8078,40.7075],[-75.8913,40.6773]]]},"properties":{"geoid":"42016","state":"42","district":"16","name":"State Senate District 16","chamber":"Senate"}},{"type":"Feature","geometry":{"type":"Polygon","coordinates":[[[-75.4631,40.0977],[-75.4568,40.0947],[-75.4563,40.0878],[-75.4201,40.0972],[-75.3926,40.061],[-75.3667,40.0724],[-75.361,40.0655],[-75.415,40.0418],[-75.3741,39.9902],[-75.3632,39.9979],[-75.3507,39.9971],[-75.3436,39.9915],[-75.336,39.9806],[-75.3385,39.9726],[-75.3335,39.9684],[-75.3355,39.9555],[-75.3317,39.9522],[-75.206,40.0117],[-75.2452,40.0374],[-75.2826,40.073],[-75.3056,40.069],[-75.3157,40.0746],[-75.3269,40.1052],[-75.3167,40.1248],[-75.2982,40.1432],[-75.3553,40.1758],[-75.4243,40.1079],[-75.4494,40.1075],[-75.4617,40.103],[-75.4631,40.0977]]]},"properties":{"geoid":"42017","state":"42","district":"17","name":"State Senate District 17","chamber":"Senate"}},{"type":"Feature","geometry":{"type":"Polygon","coordinates":[[[-75.4313,40.6442],[-75.4221,40.6343],[-75.4196,40.6161],[-75.4066,40.6122],[-75.3886,40.6144],[-75.3913,40.5966],[-75.4044,40.5812],[-75.333,40.5368],[-75.2582,40.582],[-75.1968,40.6086],[-75.2018,40.6172],[-75.1907,40.62],[-75.1886,40.6246],[-75.2005,40.6492],[-75.1768,40.6757],[-75.1969,40.6813],[-75.2039,40.6915],[-75.1821,40.7315],[-75.1965,40.7516],[-75.179,40.7619],[-75.1716,40.7777],[-75.1344,40.7738],[-75.1231,40.7867],[-75.1085,40.7911],[-75.1002,40.8077],[-75.0839,40.8245],[-75.097,40.8393],[-75.0958,40.8471],[-75.066,40.8476],[-75.0638,40.8556],[-75.051,40.8657],[-75.0537,40.8737],[-75.0753,40.8942],[-75.0793,40.9139],[-75.0955,40.9241],[-75.1178,40.953],[-75.1202,40.9687],[-75.1451,40.9516],[-75.1695,40.948],[-75.1768,40.9455],[-75.1781,40.9403],[-75.2178,40.9281],[-75.2218,40.9196],[-75.2411,40.9094],[-75.2325,40.8998],[-75.2672,40.8825],[-75.284,40.866],[-75.3161,40.8566],[-75.2793,40.7752],[-75.2761,40.7585],[-75.3391,40.7529],[-75.346,40.7422],[-75.3834,40.738],[-75.3728,40.6663],[-75.3814,40.6609],[-75.3797,40.6481],[-75.3969,40.6446],[-75.3875,40.6331],[-75.4203,40.6587],[-75.4288,40.655],[-75.4313,40.6442]]]},"properties":{"geoid":"42018","state":"42","district":"18","name":"State Senate District 18","chamber":"Senate"}},{"type":"Feature","geometry":{"type":"Polygon","coordinates":[[[-76.1367,39.7253],[-76.1355,39.7211],[-75.8419,39.722],[-75.8556,39.7387],[-75.8629,39.741],[-75.8656,39.7366],[-75.8694,39.7405],[-75.841,39.7852],[-75.8535,39.8587],[-75.848,39.8591],[-75.849,39.8665],[-75.7858,39.8717],[-75.7805,39.8493],[-75.7587,39.8514],[-75.7604,39.8889],[-75.7714,39.8878],[-75.7739,39.9116],[-75.6981,39.8975],[-75.6905,39.9233],[-75.6803,39.9281],[-75.6796,39.9342],[-75.6679,39.9344],[-75.6601,39.9248],[-75.6334,39.9149],[-75.5163,39.9727],[-75.5021,39.9544],[-75.4358,39.9851],[-75.4377,39.9939],[-75.4538,39.9936],[-75.4043,40.0274],[-75.415,40.0418],[-75.361,40.0655],[-75.3667,40.0724],[-75.3926,40.061],[-75.4201,40.0972],[-75.4563,40.0878],[-75.4568,40.0938],[-75.5304,40.0749],[-75.507,40.0454],[-75.5752,40.0164],[-75.6013,40.0543],[-75.6737,40.0319],[-75.7078,40.0283],[-75.7043,40.0147],[-75.7185,40.0124],[-75.7166,40.0043],[-75.7271,40],[-75.7153,39.9954],[-75.7501,39.9906],[-75.7498,39.9868],[-75.7977,39.9812],[-75.7987,39.988],[-75.8064,39.9886],[-75.8145,40.0044],[-75.825,40.0052],[-75.8734,39.9942],[-75.8784,39.9864],[-75.8786,39.9615],[-75.9851,39.9379],[-75.9816,39.9295],[-75.9972,39.9287],[-75.9951,39.8989],[-75.9867,39.8929],[-75.9924,39.8823],[-75.9875,39.8723],[-75.9916,39.8687],[-76.0024,39.8744],[-76.0076,39.8523],[-76.0222,39.8508],[-76.0165,39.8313],[-76.0228,39.8308],[-76.027,39.8242],[-76.0376,39.8269],[-76.0296,39.8127],[-76.0352,39.8118],[-76.039,39.8012],[-76.0498,39.8027],[-76.0414,39.7966],[-76.0646,39.7712],[-76.0625,39.7648],[-76.0667,39.76],[-76.0819,39.7614],[-76.0868,39.7458],[-76.094,39.7427],[-76.1003,39.7457],[-76.102,39.7395],[-76.0925,39.734],[-76.0958,39.7299],[-76.1058,39.7241],[-76.1112,39.7283],[-76.1086,39.7348],[-76.1192,39.7366],[-76.1191,39.7235],[-76.1283,39.7277],[-76.1367,39.7253]]]},"properties":{"geoid":"42019","state":"42","district":"19","name":"State Senate District 19","chamber":"Senate"}},{"type":"Feature","geometry":{"type":"Polygon","coordinates":[[[-76.3202,41.2158],[-76.318,41.2055],[-76.2231,41.2363],[-76.1786,41.1607],[-76.1574,41.1551],[-76.1081,41.1776],[-76.0906,41.1485],[-76.0439,41.1597],[-76.0393,41.153],[-76.0085,41.1652],[-75.8863,41.1837],[-75.8721,41.1816],[-75.8504,41.1885],[-75.8504,41.1975],[-75.9291,41.2415],[-75.9132,41.2497],[-75.9019,41.2479],[-75.8781,41.2556],[-75.8654,41.2686],[-75.8699,41.2834],[-75.8493,41.2942],[-75.8614,41.3014],[-75.8318,41.3177],[-75.8223,41.3086],[-75.8077,41.3162],[-75.8042,41.319],[-75.8102,41.3248],[-75.8051,41.3377],[-75.7941,41.3374],[-75.8074,41.3582],[-75.7953,41.3782],[-75.8301,41.3944],[-75.8345,41.427],[-75.7716,41.5058],[-75.8032,41.5242],[-75.7693,41.5685],[-75.7743,41.574],[-75.7286,41.6356],[-75.7188,41.6361],[-75.7199,41.6423],[-75.4624,41.6416],[-75.4598,41.595],[-75.3209,41.6008],[-75.3177,41.5881],[-75.2417,41.598],[-75.2294,41.5657],[-75.1941,41.545],[-75.1868,41.5318],[-75.3002,41.4842],[-75.2983,41.3674],[-75.3091,41.3747],[-75.3237,41.366],[-75.3369,41.3763],[-75.3505,41.368],[-75.3366,41.3451],[-75.3443,41.3374],[-75.3309,41.3349],[-75.3224,41.34],[-75.3104,41.3269],[-75.316,41.319],[-75.314,41.3106],[-75.3278,41.2989],[-75.3246,41.2889],[-75.3336,41.2794],[-75.3342,41.2703],[-75.3472,41.266],[-75.3501,41.2601],[-75.3422,41.2527],[-75.3592,41.2392],[-75.1297,41.2521],[-75.1565,41.1503],[-75.0768,41.1411],[-75.0392,41.0888],[-75.028,41.0799],[-75.0126,41.0838],[-75.0032,41.0918],[-74.9917,41.0923],[-74.98,41.1105],[-74.9491,41.1226],[-74.9445,41.13],[-74.9245,41.1375],[-74.9053,41.1557],[-74.8999,41.1663],[-74.8826,41.1804],[-74.8595,41.2188],[-74.8676,41.2286],[-74.8611,41.2436],[-74.8471,41.2528],[-74.8461,41.2634],[-74.83,41.2874],[-74.7922,41.3108],[-74.7956,41.3203],[-74.7673,41.3277],[-74.7543,41.3462],[-74.7222,41.347],[-74.6896,41.3627],[-74.7085,41.3792],[-74.7164,41.393],[-74.7371,41.3997],[-74.7418,41.407],[-74.7347,41.423],[-74.7387,41.4308],[-74.7586,41.4233],[-74.7727,41.4263],[-74.7891,41.4214],[-74.8082,41.4429],[-74.832,41.4304],[-74.8577,41.4442],[-74.8926,41.4386],[-74.8964,41.4422],[-74.8902,41.4556],[-74.9066,41.4609],[-74.913,41.476],[-74.9429,41.4836],[-74.9582,41.4766],[-74.9828,41.4805],[-74.9842,41.5065],[-75.0036,41.5083],[-75.0032,41.5235],[-75.0245,41.5346],[-75.0247,41.5401],[-75.016,41.5442],[-75.0188,41.5524],[-75.0747,41.6065],[-75.0597,41.6104],[-75.0597,41.6176],[-75.0442,41.6181],[-75.0495,41.6603],[-75.0595,41.6723],[-75.0513,41.68],[-75.0526,41.6881],[-75.069,41.7093],[-75.0497,41.7134],[-75.0548,41.7349],[-75.053,41.7518],[-75.0612,41.7648],[-75.0746,41.7713],[-75.0946,41.7684],[-75.1047,41.7744],[-75.1017,41.7875],[-75.0929,41.7965],[-75.0757,41.7996],[-75.0722,41.8141],[-75.0899,41.8117],[-75.113,41.8226],[-75.1166,41.8454],[-75.131,41.8453],[-75.1406,41.8522],[-75.1629,41.8506],[-75.1725,41.8723],[-75.1854,41.8601],[-75.2046,41.8699],[-75.215,41.8673],[-75.2245,41.8576],[-75.2411,41.8673],[-75.2583,41.8623],[-75.2643,41.8695],[-75.2575,41.8761],[-75.2596,41.8823],[-75.2717,41.8884],[-75.273,41.8966],[-75.2673,41.9061],[-75.2766,41.9222],[-75.2788,41.9387],[-75.2895,41.9432],[-75.2933,41.9543],[-75.3011,41.9534],[-75.3013,41.9481],[-75.3109,41.9491],[-75.328,41.9679],[-75.3416,41.9722],[-75.3375,41.9868],[-75.3448,41.9947],[-75.3596,41.9996],[-76.1455,41.9988],[-76.1152,41.6518],[-76.198,41.6478],[-76.2281,41.5111],[-76.3108,41.3089],[-76.3202,41.2158]]]},"properties":{"geoid":"42020","state":"42","district":"20","name":"State Senate District 20","chamber":"Senate"}},{"type":"Feature","geometry":{"type":"Polygon","coordinates":[[[-80.1665,41.0009],[-80.1602,40.8869],[-80.0681,40.885],[-80.0631,40.8173],[-80.0285,40.817],[-80.025,40.8077],[-79.9995,40.8168],[-79.9701,40.8164],[-79.9677,40.7448],[-79.8762,40.7436],[-79.8771,40.6724],[-79.6929,40.6696],[-79.6893,41.1695],[-79.6796,41.1595],[-79.6867,41.1451],[-79.6788,41.1334],[-79.6794,41.0913],[-79.6555,41.0684],[-79.6666,41.0571],[-79.6662,41.0497],[-79.6194,41.0333],[-79.6012,41.0369],[-79.5995,41.0294],[-79.6095,41.0072],[-79.5902,41.004],[-79.5818,40.998],[-79.5849,40.9916],[-79.6048,40.9946],[-79.6235,40.9846],[-79.6228,40.9764],[-79.6012,40.9693],[-79.5901,40.9699],[-79.5704,40.9856],[-79.5526,40.9798],[-79.54,40.9845],[-79.5224,40.975],[-79.5152,40.9778],[-79.5178,40.984],[-79.514,40.9868],[-79.5074,40.984],[-79.5051,40.9768],[-79.4937,40.9779],[-79.4948,40.9862],[-79.4879,40.9956],[-79.4563,40.991],[-79.4608,40.9823],[-79.451,40.9817],[-79.4419,40.9874],[-79.4286,40.9855],[-79.4212,41.0027],[-79.4123,41.0085],[-79.4096,41.0061],[-79.4147,40.9994],[-79.4047,40.9978],[-79.404,40.9883],[-79.3947,40.9948],[-79.3781,40.9943],[-79.3867,40.9875],[-79.3746,40.9844],[-79.3822,40.9753],[-79.3815,40.9695],[-79.3761,40.9684],[-79.3694,40.9753],[-79.3715,40.9885],[-79.3641,41.0027],[-79.3463,40.9977],[-79.3394,41.0024],[-79.3339,40.999],[-79.317,41.0025],[-79.3026,41.0135],[-79.283,41.0096],[-79.2607,41.0293],[-79.2152,41.0505],[-79.2113,41.0807],[-79.2089,41.3319],[-79.192,41.3243],[-79.186,41.3288],[-79.1866,41.338],[-79.1802,41.3393],[-79.1753,41.3362],[-79.173,41.3253],[-79.1668,41.3307],[-79.1661,41.344],[-79.1605,41.3417],[-79.1631,41.3331],[-79.1576,41.3288],[-79.1382,41.3418],[-79.1149,41.3256],[-79.1062,41.3264],[-79.105,41.3415],[-79.0951,41.3407],[-79.0936,41.4233],[-79.0652,41.4232],[-79.0635,41.4532],[-78.9767,41.4518],[-78.9767,41.437],[-78.959,41.4371],[-78.9486,41.8305],[-78.9214,41.8309],[-78.9215,41.8409],[-78.9156,41.8409],[-78.9189,41.9981],[-79.7612,41.9988],[-79.758,41.9503],[-79.762,41.9501],[-79.7613,41.8509],[-79.6121,41.8503],[-79.6132,41.6169],[-79.8291,41.6221],[-79.8297,41.602],[-79.8496,41.5978],[-79.8501,41.5871],[-79.873,41.5813],[-79.87,41.5743],[-79.8927,41.5741],[-79.8928,41.5622],[-79.9086,41.5622],[-79.9095,41.5501],[-79.9254,41.5502],[-79.9233,41.5376],[-79.9433,41.5378],[-79.9422,41.5253],[-79.9592,41.5254],[-79.9581,41.5135],[-79.9815,41.5129],[-79.9818,41.5002],[-79.9987,41.501],[-79.9998,41.1719],[-80.1665,41.0009]]]},"properties":{"geoid":"42021","state":"42","district":"21","name":"State Senate District 21","chamber":"Senate"}},{"type":"Feature","geometry":{"type":"Polygon","coordinates":[[[-75.9289,41.2415],[-75.8504,41.1975],[-75.779,41.2535],[-75.6526,41.2583],[-75.6793,41.2649],[-75.6793,41.288],[-75.6897,41.2878],[-75.695,41.3176],[-75.6878,41.3178],[-75.6886,41.3394],[-75.6044,41.3426],[-75.652,41.3661],[-75.6249,41.3927],[-75.5822,41.3941],[-75.5503,41.4214],[-75.6142,41.4637],[-75.6045,41.4674],[-75.6321,41.4874],[-75.5853,41.5234],[-75.5704,41.5446],[-75.5313,41.6417],[-75.7199,41.6423],[-75.7188,41.6361],[-75.7286,41.6356],[-75.7743,41.574],[-75.7693,41.5685],[-75.8032,41.5242],[-75.7716,41.5058],[-75.8345,41.427],[-75.8301,41.3944],[-75.7953,41.3782],[-75.8074,41.3582],[-75.7941,41.3374],[-75.8051,41.3377],[-75.8102,41.3248],[-75.8042,41.319],[-75.8077,41.3162],[-75.8223,41.3086],[-75.8318,41.3177],[-75.8614,41.3014],[-75.8493,41.2942],[-75.8699,41.2834],[-75.8654,41.2686],[-75.8781,41.2556],[-75.9019,41.2479],[-75.9132,41.2497],[-75.9289,41.2415]]]},"properties":{"geoid":"42022","state":"42","district":"22","name":"State Senate District 22","chamber":"Senate"}},{"type":"Feature","geometry":{"type":"Polygon","coordinates":[[[-77.61,41.9994],[-77.5973,41.4411],[-77.5847,41.4413],[-77.5752,41.4205],[-77.5498,41.3949],[-77.5374,41.3648],[-77.5267,41.3586],[-77.4999,41.354],[-77.4758,41.3381],[-77.4716,41.3137],[-77.4556,41.304],[-77.4454,41.2879],[-77.4299,41.2826],[-77.4249,41.2731],[-77.3701,41.2327],[-77.3496,41.2289],[-77.3514,41.2202],[-77.3209,41.2189],[-77.2914,41.1963],[-77.2923,41.1853],[-77.2756,41.1791],[-77.1643,41.0687],[-77.1441,41.0688],[-77.1438,41.0428],[-77.204,40.9927],[-77.2792,40.9097],[-77.3642,40.8469],[-77.3571,40.8445],[-77.3566,40.8073],[-77.0741,40.8683],[-77.052,40.8694],[-77.0199,40.8579],[-77.0048,40.8721],[-76.9421,40.888],[-76.9123,40.8845],[-76.8908,40.8887],[-76.8774,40.8844],[-76.8345,40.8896],[-76.7993,40.8786],[-76.804,40.8849],[-76.8246,40.8907],[-76.8541,40.9154],[-76.8822,40.9688],[-76.8685,40.9952],[-76.8562,41.0501],[-76.8583,41.0731],[-76.8844,41.0938],[-76.8953,41.1174],[-76.8976,41.1355],[-76.8881,41.1538],[-76.7908,41.1757],[-76.73,41.1719],[-76.6788,41.1542],[-76.5926,41.1578],[-76.4079,41.3084],[-76.3103,41.3102],[-76.2281,41.5111],[-76.198,41.6478],[-76.1152,41.6518],[-76.1455,41.9988],[-77.61,41.9994]]]},"properties":{"geoid":"42023","state":"42","district":"23","name":"State Senate District 23","chamber":"Senate"}},{"type":"Feature","geometry":{"type":"Polygon","coordinates":[[[-75.7968,40.4178],[-75.7395,40.4046],[-75.7389,40.3971],[-75.7211,40.3927],[-75.745,40.3212],[-75.78,40.3263],[-75.7955,40.2717],[-75.7854,40.27],[-75.7718,40.2585],[-75.7365,40.2611],[-75.725,40.2496],[-75.6902,40.2365],[-75.6649,40.2451],[-75.6209,40.2307],[-75.6124,40.223],[-75.6032,40.227],[-75.6073,40.2358],[-75.5983,40.2374],[-75.5757,40.1971],[-75.5635,40.1968],[-75.565,40.2075],[-75.5611,40.2098],[-75.5492,40.1895],[-75.532,40.1952],[-75.5267,40.1914],[-75.5328,40.1864],[-75.53,40.1846],[-75.4901,40.2245],[-75.4703,40.2128],[-75.496,40.1975],[-75.4513,40.1733],[-75.4474,40.1819],[-75.4498,40.2001],[-75.4107,40.1761],[-75.3558,40.2292],[-75.2793,40.1857],[-75.2455,40.2187],[-75.2674,40.2319],[-75.2796,40.223],[-75.3033,40.2434],[-75.2973,40.2497],[-75.337,40.2736],[-75.3504,40.2799],[-75.3557,40.2746],[-75.4295,40.3147],[-75.4432,40.3313],[-75.4023,40.3696],[-75.6749,40.539],[-75.6816,40.5284],[-75.6927,40.5264],[-75.7491,40.4705],[-75.7942,40.4542],[-75.7726,40.4414],[-75.7968,40.4178]]]},"properties":{"geoid":"42024","state":"42","district":"24","name":"State Senate District 24","chamber":"Senate"}},{"type":"Feature","geometry":{"type":"Polygon","coordinates":[[[-79.2152,41.0505],[-79.2102,41.0491],[-79.2075,41.0388],[-79.1844,41.0328],[-79.1734,41.0369],[-79.167,41.0304],[-79.1584,41.0307],[-79.1505,41.0218],[-79.1402,41.0294],[-79.1339,41.0248],[-79.1256,41.0273],[-79.1255,41.0396],[-79.1187,41.0478],[-79.1187,41.0716],[-79.0861,41.0721],[-79.0788,41.056],[-79.0555,41.0555],[-79.0552,41.0509],[-79.0102,41.0506],[-79.0012,41.0506],[-79.0015,41.0705],[-78.9448,41.071],[-78.9439,41.0403],[-78.8042,41.0402],[-78.8045,41.1322],[-78.7946,41.1424],[-78.7972,41.1454],[-78.7664,41.2028],[-78.7102,41.2019],[-78.6479,41.2175],[-78.6467,41.2538],[-78.2239,41.2292],[-78.0934,41.2169],[-78.061,41.1745],[-78.0382,41.1536],[-78.0434,41.1465],[-78.0527,41.1453],[-78.056,41.132],[-78.0697,41.1313],[-78.0704,41.1219],[-78.083,41.1263],[-78.0892,41.116],[-78.1003,41.1218],[-78.1122,41.1136],[-78.0927,41.0796],[-78.0972,41.0723],[-78.0851,41.0681],[-78.0904,41.0582],[-78.0761,41.0599],[-78.0714,41.0499],[-78.0596,41.0518],[-78.0641,41.0459],[-78.0574,41.0372],[-78.0803,41.0307],[-78.0713,41.0266],[-78.0756,41.0222],[-78.0679,41.0195],[-78.0694,41.0135],[-78.0603,41.0124],[-78.0556,41.0055],[-78.0604,41.0042],[-77.9641,40.9236],[-77.9755,40.9158],[-77.9616,40.9001],[-77.929,40.8951],[-77.8517,40.8381],[-77.883,40.8158],[-77.8742,40.8058],[-77.8863,40.7992],[-77.8695,40.7857],[-77.8748,40.781],[-77.8701,40.7757],[-77.8629,40.7684],[-77.8552,40.7718],[-77.8314,40.7411],[-77.8249,40.7435],[-77.7685,40.7195],[-77.7187,40.7274],[-77.7105,40.7146],[-77.6526,40.7449],[-77.5934,40.7612],[-77.4296,40.8275],[-77.3642,40.8469],[-77.2792,40.9097],[-77.204,40.9927],[-77.1437,41.0451],[-77.1441,41.0688],[-77.1643,41.0687],[-77.2756,41.1791],[-77.2923,41.1853],[-77.2924,41.1971],[-77.3209,41.2189],[-77.3514,41.2202],[-77.3496,41.2289],[-77.3701,41.2327],[-77.4249,41.2731],[-77.4299,41.2826],[-77.4452,41.2878],[-77.4556,41.304],[-77.4713,41.3133],[-77.4763,41.3385],[-77.4999,41.354],[-77.5267,41.3586],[-77.5374,41.3648],[-77.5498,41.3949],[-77.5752,41.4205],[-77.5847,41.4413],[-77.5973,41.4411],[-77.61,41.9994],[-77.6205,41.9994],[-78.9189,41.9981],[-78.9156,41.8409],[-78.9215,41.8409],[-78.9214,41.8309],[-78.9486,41.8305],[-78.959,41.4371],[-78.9767,41.437],[-78.9767,41.4518],[-79.0635,41.4532],[-79.0652,41.4232],[-79.0936,41.4233],[-79.0951,41.3407],[-79.105,41.3415],[-79.1062,41.3264],[-79.1149,41.3256],[-79.1382,41.3418],[-79.1576,41.3288],[-79.1631,41.3331],[-79.1605,41.3417],[-79.1661,41.344],[-79.1668,41.3307],[-79.173,41.3253],[-79.1753,41.3362],[-79.1802,41.3393],[-79.1866,41.338],[-79.186,41.3288],[-79.192,41.3243],[-79.2089,41.3319],[-79.2113,41.0807],[-79.2152,41.0505]]]},"properties":{"geoid":"42025","state":"42","district":"25","name":"State Senate District 25","chamber":"Senate"}},{"type":"Feature","geometry":{"type":"Polygon","coordinates":[[[-75.4537,39.9936],[-75.4368,39.993],[-75.4355,39.9722],[-75.4239,39.9625],[-75.4318,39.9505],[-75.4175,39.9436],[-75.4093,39.92],[-75.392,39.901],[-75.3846,39.9135],[-75.3781,39.9127],[-75.3811,39.919],[-75.3649,39.9303],[-75.3656,39.9222],[-75.361,39.9244],[-75.3639,39.9195],[-75.358,39.9135],[-75.3619,39.9023],[-75.3553,39.8987],[-75.3578,39.8872],[-75.3504,39.8812],[-75.3567,39.8698],[-75.3486,39.863],[-75.3407,39.8669],[-75.3249,39.8639],[-75.3185,39.8499],[-75.3138,39.8696],[-75.2983,39.8768],[-75.3065,39.8961],[-75.3012,39.8977],[-75.2896,39.8887],[-75.2795,39.8994],[-75.2866,39.9076],[-75.2998,39.9048],[-75.3067,39.9116],[-75.2707,39.9252],[-75.2733,39.9315],[-75.2472,39.9439],[-75.2516,39.9517],[-75.2478,39.9639],[-75.2654,39.9652],[-75.2803,39.975],[-75.3317,39.9522],[-75.3355,39.9555],[-75.3335,39.9684],[-75.3385,39.9726],[-75.336,39.9806],[-75.3436,39.9915],[-75.3507,39.9971],[-75.3632,39.9979],[-75.3741,39.9902],[-75.4044,40.0274],[-75.4537,39.9936]]]},"properties":{"geoid":"42026","state":"42","district":"26","name":"State Senate District 26","chamber":"Senate"}},{"type":"Feature","geometry":{"type":"Polygon","coordinates":[[[-77.3566,40.8073],[-77.3541,40.7017],[-77.1508,40.6771],[-77.1096,40.6916],[-77.1002,40.688],[-77.0936,40.6761],[-77.0607,40.6799],[-77.0458,40.6756],[-77.039,40.68],[-77.031,40.6563],[-77.0104,40.6616],[-77.0061,40.6426],[-76.9973,40.6357],[-76.9866,40.644],[-76.9675,40.6413],[-76.9655,40.6472],[-76.9448,40.6502],[-76.9395,40.6391],[-76.9491,40.6282],[-76.937,40.6128],[-76.9187,40.6035],[-76.9207,40.61],[-76.8908,40.6101],[-76.8868,40.6177],[-76.8723,40.6164],[-76.8644,40.6276],[-76.8401,40.6254],[-76.8274,40.6339],[-76.8111,40.6338],[-76.8095,40.6427],[-76.8034,40.6472],[-76.7925,40.6406],[-76.7562,40.6481],[-76.7447,40.6547],[-76.722,40.6534],[-76.7136,40.6596],[-76.7029,40.6555],[-76.7002,40.6633],[-76.3072,40.8018],[-76.2846,40.8836],[-76.2078,40.9497],[-76.108,40.9232],[-76.1185,40.9599],[-76.0367,40.9731],[-76.0381,40.9781],[-76.0161,40.9818],[-76.022,40.9882],[-76.0117,40.9946],[-75.9621,41.0049],[-75.9348,40.9989],[-75.9352,41.0107],[-75.9047,41.0113],[-75.9278,41.0885],[-75.8553,41.119],[-75.8556,41.1252],[-75.8366,41.1249],[-75.8358,41.1418],[-75.8125,41.1414],[-75.8121,41.1515],[-75.8485,41.1518],[-75.8504,41.1885],[-75.8721,41.1816],[-75.8863,41.1837],[-76.0085,41.1652],[-76.0393,41.153],[-76.0439,41.1597],[-76.0906,41.1485],[-76.1081,41.1776],[-76.1574,41.1551],[-76.1786,41.1607],[-76.2231,41.2363],[-76.318,41.2055],[-76.3103,41.3102],[-76.4079,41.3084],[-76.5926,41.1578],[-76.6788,41.1542],[-76.73,41.1719],[-76.7908,41.1757],[-76.8881,41.1538],[-76.8976,41.1355],[-76.8953,41.1174],[-76.8844,41.0938],[-76.8583,41.0731],[-76.8562,41.0501],[-76.8685,40.9952],[-76.8822,40.9688],[-76.8541,40.9154],[-76.8246,40.8907],[-76.804,40.8849],[-76.7993,40.8786],[-76.8345,40.8896],[-76.8774,40.8844],[-76.8908,40.8887],[-76.9123,40.8845],[-76.9421,40.888],[-77.0048,40.8721],[-77.0199,40.8579],[-77.052,40.8694],[-77.0741,40.8683],[-77.3566,40.8073]]]},"properties":{"geoid":"42027","state":"42","district":"27","name":"State Senate District 27","chamber":"Senate"}},{"type":"Feature","geometry":{"type":"Polygon","coordinates":[[[-76.9997,39.8219],[-76.9993,39.7201],[-76.2546,39.7212],[-76.2398,39.7213],[-76.2387,39.7251],[-76.2774,39.7777],[-76.3157,39.81],[-76.3334,39.8177],[-76.3505,39.8377],[-76.3521,39.849],[-76.3777,39.8667],[-76.3796,39.8882],[-76.3905,39.9118],[-76.4777,39.9498],[-76.4954,39.9761],[-76.5006,40.0006],[-76.5298,40.0311],[-76.5345,40.0513],[-76.5712,40.0457],[-76.6436,40.0596],[-76.6466,40.0528],[-76.6587,40.0517],[-76.655,40.043],[-76.6634,40.0432],[-76.6687,40.0298],[-76.6838,40.0239],[-76.6852,40.0187],[-76.7082,40.0203],[-76.7152,40.0167],[-76.7085,40.0065],[-76.7127,39.9996],[-76.7239,39.9964],[-76.7245,39.981],[-76.7397,39.9803],[-76.735,39.9792],[-76.7308,39.9686],[-76.7275,39.9739],[-76.7241,39.9688],[-76.7034,39.9784],[-76.6994,39.9618],[-76.7073,39.9614],[-76.7018,39.9492],[-76.7124,39.9528],[-76.7087,39.9492],[-76.7168,39.9472],[-76.7168,39.9428],[-76.7219,39.9494],[-76.731,39.9479],[-76.7368,39.9534],[-76.7457,39.95],[-76.7452,39.9454],[-76.7568,39.9461],[-76.7594,39.9376],[-76.7503,39.9287],[-76.7516,39.9232],[-76.7841,39.9118],[-76.7908,39.9207],[-76.7984,39.9223],[-76.8026,39.9141],[-76.7972,39.9066],[-76.8079,39.9012],[-76.8122,39.9045],[-76.8166,39.8947],[-76.8318,39.8979],[-76.8356,39.9286],[-76.8286,39.9435],[-76.8899,39.949],[-76.9327,39.967],[-76.9369,39.9624],[-76.9611,39.9628],[-76.9441,39.9518],[-76.949,39.9489],[-76.9572,39.9531],[-76.964,39.9449],[-76.9646,39.9358],[-76.9726,39.9342],[-76.9702,39.9214],[-76.9649,39.922],[-76.9838,39.9021],[-76.984,39.8936],[-76.974,39.8744],[-76.9636,39.874],[-76.9549,39.8569],[-76.9785,39.8477],[-76.9907,39.8343],[-76.9997,39.8313],[-76.9997,39.8219]]]},"properties":{"geoid":"42028","state":"42","district":"28","name":"State Senate District 28","chamber":"Senate"}},{"type":"Feature","geometry":{"type":"Polygon","coordinates":[[[-76.7016,40.6581],[-76.4402,40.496],[-76.4159,40.496],[-76.3382,40.5155],[-76.256,40.5171],[-76.2181,40.529],[-76.1716,40.5349],[-76.132,40.5544],[-76.0794,40.5661],[-76.0653,40.5797],[-76.053,40.5742],[-76.045,40.5838],[-76.0186,40.5738],[-76.0122,40.5777],[-75.9932,40.6397],[-75.8078,40.7075],[-75.7777,40.7295],[-75.7449,40.7403],[-75.7286,40.7539],[-75.7024,40.7622],[-75.6946,40.7702],[-75.6026,40.788],[-75.5775,40.7994],[-75.5415,40.8068],[-75.4742,40.8147],[-75.4936,40.8464],[-75.5746,40.9513],[-75.496,40.9872],[-75.5619,41.0495],[-75.5698,41.0501],[-75.5689,41.0566],[-75.5769,41.068],[-75.6056,41.085],[-75.6041,41.0934],[-75.6136,41.0948],[-75.6204,41.1093],[-75.625,41.1114],[-75.6297,41.107],[-75.6362,41.113],[-75.6466,41.1135],[-75.649,41.1251],[-75.6342,41.1232],[-75.6251,41.1309],[-75.6282,41.1372],[-75.6153,41.1439],[-75.6156,41.1507],[-75.6033,41.1519],[-75.6006,41.1612],[-75.6117,41.1642],[-75.616,41.1726],[-75.6318,41.1697],[-75.644,41.177],[-75.6492,41.1872],[-75.6526,41.2583],[-75.779,41.2535],[-75.8504,41.1975],[-75.8485,41.1518],[-75.8121,41.1515],[-75.8125,41.1414],[-75.8358,41.1418],[-75.8366,41.1249],[-75.8556,41.1252],[-75.8553,41.119],[-75.9278,41.0885],[-75.9047,41.0113],[-75.9352,41.0107],[-75.9348,40.9989],[-75.9621,41.0049],[-76.0117,40.9946],[-76.022,40.9882],[-76.0161,40.9818],[-76.0381,40.9781],[-76.0367,40.9731],[-76.1185,40.9599],[-76.108,40.9232],[-76.2078,40.9497],[-76.2846,40.8836],[-76.3072,40.8018],[-76.7002,40.6633],[-76.7016,40.6581]]]},"properties":{"geoid":"42029","state":"42","district":"29","name":"State Senate District 29","chamber":"Senate"}},{"type":"Feature","geometry":{"type":"Polygon","coordinates":[[[-78.6186,40.3268],[-78.5057,40.2873],[-78.4479,40.2444],[-78.4343,40.3023],[-78.2888,40.2421],[-78.2573,40.2979],[-78.2363,40.2246],[-78.1347,40.1653],[-78.1583,40.1222],[-78.2069,40.0863],[-78.2037,40.0699],[-78.1815,40.0587],[-78.1879,40.0471],[-78.2045,40.0415],[-78.201,40.013],[-78.2198,39.9933],[-78.2675,39.9035],[-78.299,39.8255],[-78.3438,39.7616],[-78.3806,39.7226],[-78.0994,39.7221],[-78.0693,39.7483],[-78.0365,39.792],[-78.0027,39.8266],[-77.9751,39.8718],[-77.9565,39.9149],[-77.9555,39.9289],[-77.9378,39.9489],[-77.9324,39.9724],[-77.9198,39.9927],[-77.9195,40.0034],[-77.8838,40.0483],[-77.8594,40.0652],[-77.7964,40.1668],[-77.7683,40.2041],[-77.7242,40.2501],[-77.6846,40.2767],[-77.6272,40.329],[-77.5657,40.3674],[-77.5323,40.376],[-77.5401,40.3992],[-77.4784,40.432],[-77.2896,40.5185],[-77.1985,40.5523],[-77.1676,40.5595],[-77.1828,40.5822],[-77.0233,40.6043],[-76.9491,40.6282],[-76.9395,40.6411],[-76.9452,40.6503],[-76.9655,40.6472],[-76.9675,40.6413],[-76.9866,40.644],[-76.9973,40.6357],[-77.0061,40.6426],[-77.0104,40.6616],[-77.0295,40.6556],[-77.0344,40.6599],[-77.0378,40.6795],[-77.0458,40.6756],[-77.0607,40.6799],[-77.0936,40.6761],[-77.1002,40.688],[-77.1096,40.6916],[-77.1508,40.6771],[-77.3541,40.7017],[-77.3571,40.8445],[-77.3642,40.8469],[-77.4296,40.8275],[-77.5934,40.7612],[-77.6526,40.7449],[-77.7105,40.7146],[-77.7187,40.7274],[-77.7685,40.7195],[-77.8249,40.7435],[-77.9443,40.6916],[-78.1318,40.743],[-78.3606,40.7332],[-78.3484,40.7234],[-78.4085,40.6443],[-78.4325,40.6478],[-78.4421,40.6414],[-78.441,40.6316],[-78.4463,40.6242],[-78.4412,40.5972],[-78.4791,40.5473],[-78.5182,40.5288],[-78.5398,40.5063],[-78.5447,40.4867],[-78.5405,40.475],[-78.5577,40.4416],[-78.5529,40.4348],[-78.5615,40.3697],[-78.6022,40.3536],[-78.6186,40.3268]]]},"properties":{"geoid":"42030","state":"42","district":"30","name":"State Senate District 30","chamber":"Senate"}},{"type":"Feature","geometry":{"type":"Polygon","coordinates":[[[-77.1373,40.0701],[-77.0921,40.0537],[-77.0685,40.0289],[-77.0186,40.0139],[-76.9662,39.9352],[-76.9572,39.9531],[-76.9487,39.9489],[-76.944,39.9523],[-76.9611,39.9628],[-76.9369,39.9624],[-76.9327,39.967],[-76.8899,39.949],[-76.8286,39.9435],[-76.8356,39.9286],[-76.8345,39.9102],[-76.8318,39.8979],[-76.818,39.8947],[-76.8132,39.8967],[-76.8122,39.9045],[-76.8079,39.9012],[-76.7972,39.9066],[-76.8026,39.9141],[-76.7984,39.9223],[-76.7908,39.9207],[-76.7841,39.9118],[-76.7516,39.9232],[-76.7503,39.9287],[-76.7594,39.9376],[-76.7568,39.9461],[-76.7452,39.9454],[-76.7457,39.95],[-76.7368,39.9534],[-76.731,39.9479],[-76.7219,39.9494],[-76.7168,39.9428],[-76.7168,39.9472],[-76.7087,39.9492],[-76.7124,39.9528],[-76.7018,39.9492],[-76.7073,39.9614],[-76.6994,39.9618],[-76.7034,39.9784],[-76.7241,39.9688],[-76.7275,39.9739],[-76.7308,39.9686],[-76.735,39.9792],[-76.7397,39.9803],[-76.7245,39.981],[-76.7239,39.9964],[-76.7127,39.9996],[-76.7085,40.0065],[-76.7152,40.0167],[-76.7082,40.0203],[-76.6852,40.0187],[-76.6838,40.0239],[-76.6687,40.0298],[-76.6634,40.0432],[-76.655,40.043],[-76.6594,40.0511],[-76.6443,40.0566],[-76.665,40.064],[-76.6972,40.1025],[-76.7431,40.1303],[-76.7527,40.1758],[-76.8006,40.2001],[-76.8247,40.2023],[-76.8395,40.2216],[-76.8594,40.2265],[-76.879,40.2441],[-76.9029,40.2551],[-76.9167,40.2504],[-76.9071,40.2383],[-76.9357,40.2268],[-76.9971,40.2144],[-77.0009,40.2222],[-77.0077,40.2243],[-77.026,40.2137],[-77.0312,40.2165],[-77.0307,40.2087],[-77.0225,40.2091],[-77.0197,40.203],[-77.0214,40.1822],[-77.0128,40.1484],[-77.0318,40.1465],[-77.1373,40.0701]]]},"properties":{"geoid":"42031","state":"42","district":"31","name":"State Senate District 31","chamber":"Senate"}},{"type":"Feature","geometry":{"type":"Polygon","coordinates":[[[-80.0107,39.9711],[-80.0093,39.9588],[-79.9988,39.9509],[-79.9572,39.9533],[-79.9231,39.921],[-79.9294,39.9057],[-79.9154,39.8796],[-79.9303,39.8693],[-79.9246,39.8551],[-79.9386,39.8449],[-79.9244,39.8382],[-79.9206,39.8134],[-79.9086,39.7935],[-79.9344,39.7813],[-79.9308,39.7579],[-79.9131,39.7517],[-79.9034,39.743],[-79.9163,39.7208],[-78.3806,39.7226],[-78.3438,39.7616],[-78.299,39.8255],[-78.2675,39.9035],[-78.2198,39.9933],[-78.201,40.013],[-78.2045,40.0415],[-78.1879,40.0471],[-78.1815,40.0587],[-78.2037,40.0699],[-78.2069,40.0863],[-78.1583,40.1222],[-78.1347,40.1653],[-78.2363,40.2246],[-78.2573,40.2979],[-78.2888,40.2421],[-78.4343,40.3023],[-78.4479,40.2444],[-78.5057,40.2873],[-78.6189,40.3265],[-78.6364,40.3055],[-78.6427,40.2831],[-78.6517,40.2815],[-78.6438,40.2591],[-78.6583,40.2432],[-78.8512,40.246],[-78.8588,40.2425],[-78.869,40.249],[-78.8847,40.2446],[-78.8972,40.2635],[-78.8962,40.2716],[-78.9248,40.2785],[-78.9271,40.2847],[-79.0561,40.2849],[-79.0577,40.2775],[-79.0737,40.2666],[-79.0863,40.2424],[-79.0959,40.2326],[-79.1024,40.2322],[-79.0983,40.2273],[-79.1046,40.2245],[-79.1003,40.2223],[-79.1032,40.2179],[-79.1091,40.2183],[-79.107,40.2143],[-79.1141,40.2106],[-79.1146,40.205],[-79.1262,40.2004],[-79.1267,40.1833],[-79.1433,40.1799],[-79.14,40.1639],[-79.1613,40.1609],[-79.1676,40.1288],[-79.1836,40.1107],[-79.1922,40.1103],[-79.1971,40.1187],[-79.2029,40.1149],[-79.2145,40.1175],[-79.2267,40.0982],[-79.2561,40.0883],[-79.2589,40.0798],[-79.2677,40.0743],[-79.2672,40.0659],[-79.2788,40.0555],[-79.2781,40.0505],[-79.2892,40.0415],[-79.3418,40.0432],[-79.3555,40.0743],[-79.3933,40.0906],[-79.4019,40.1028],[-79.4379,40.116],[-79.4474,40.126],[-79.4475,40.1332],[-79.4615,40.1441],[-79.5044,40.1409],[-79.5274,40.123],[-79.5349,40.1283],[-79.542,40.1119],[-79.5568,40.1128],[-79.5606,40.1052],[-79.5734,40.1042],[-79.5744,40.1128],[-79.5776,40.109],[-79.6042,40.108],[-79.5974,40.0919],[-79.5926,40.092],[-79.593,40.0821],[-79.6023,40.083],[-79.6037,40.0908],[-79.622,40.0945],[-79.627,40.0884],[-79.6424,40.0836],[-79.6411,40.0883],[-79.6541,40.0893],[-79.6582,40.0971],[-79.6681,40.097],[-79.6676,40.1045],[-79.6838,40.1086],[-79.6856,40.1138],[-79.7081,40.1077],[-79.7229,40.1132],[-79.7185,40.1169],[-79.7244,40.1231],[-79.7346,40.1209],[-79.7461,40.1285],[-79.8058,40.1275],[-79.8166,40.1328],[-79.8161,40.1284],[-79.8753,40.1295],[-79.8779,40.127],[-79.8501,40.114],[-79.839,40.0906],[-79.8459,40.0812],[-79.8625,40.0757],[-79.8917,40.0804],[-79.9014,40.0767],[-79.8985,40.0713],[-79.8794,40.0644],[-79.8919,40.0482],[-79.877,40.0368],[-79.88,40.0283],[-79.89,40.0225],[-79.91,40.022],[-79.9248,40.0161],[-79.9345,39.9996],[-79.9467,39.9943],[-79.9546,39.9953],[-79.9694,40.0131],[-79.9882,40.0119],[-79.9957,40.0051],[-79.9914,39.9855],[-80.0059,39.9802],[-80.0107,39.9711]]]},"properties":{"geoid":"42032","state":"42","district":"32","name":"State Senate District 32","chamber":"Senate"}},{"type":"Feature","geometry":{"type":"Polygon","coordinates":[[[-78.099,39.7224],[-76.9993,39.7201],[-76.9997,39.8313],[-76.9907,39.8343],[-76.9785,39.8477],[-76.9549,39.8569],[-76.9636,39.874],[-76.974,39.8744],[-76.984,39.8936],[-76.9816,39.9053],[-76.967,39.9162],[-76.9649,39.922],[-76.9702,39.9214],[-76.9726,39.9341],[-76.9662,39.9352],[-77.0186,40.0139],[-77.0685,40.0289],[-77.0921,40.0537],[-77.1374,40.0699],[-77.1856,40.0295],[-77.4036,39.9945],[-77.4711,39.9441],[-77.4541,39.9724],[-77.4954,40.0051],[-77.5092,40.0249],[-77.5078,40.029],[-77.5194,40.0393],[-77.5172,40.0444],[-77.5325,40.0487],[-77.5323,40.0672],[-77.542,40.0699],[-77.5403,40.0768],[-77.5457,40.0783],[-77.541,40.0806],[-77.5469,40.0863],[-77.543,40.0897],[-77.5539,40.0959],[-77.5605,40.0943],[-77.5579,40.1031],[-77.5646,40.1217],[-77.5822,40.1343],[-77.5928,40.1352],[-77.5933,40.1423],[-77.6086,40.1531],[-77.6136,40.1702],[-77.6276,40.1887],[-77.605,40.2055],[-77.6027,40.2282],[-77.6162,40.2326],[-77.6428,40.2181],[-77.6502,40.2275],[-77.6454,40.2389],[-77.65,40.248],[-77.6451,40.2551],[-77.6528,40.2575],[-77.6677,40.252],[-77.6709,40.2586],[-77.6564,40.2704],[-77.6718,40.2899],[-77.7242,40.2501],[-77.7683,40.2041],[-77.7964,40.1668],[-77.8594,40.0652],[-77.8838,40.0483],[-77.9186,40.0046],[-77.9378,39.9489],[-77.9555,39.9289],[-77.9565,39.9149],[-77.9826,39.8579],[-78.0147,39.8117],[-78.0365,39.792],[-78.0693,39.7483],[-78.099,39.7224]]]},"properties":{"geoid":"42033","state":"42","district":"33","name":"State Senate District 33","chamber":"Senate"}},{"type":"Feature","geometry":{"type":"Polygon","coordinates":[[[-77.6711,40.2906],[-77.6564,40.2704],[-77.6709,40.2586],[-77.6677,40.252],[-77.6528,40.2575],[-77.6451,40.2551],[-77.65,40.248],[-77.6454,40.2389],[-77.65,40.2302],[-77.6476,40.2225],[-77.6399,40.2177],[-77.613,40.2332],[-77.6027,40.2282],[-77.605,40.2055],[-77.6276,40.1887],[-77.6136,40.1702],[-77.6086,40.1531],[-77.5933,40.1423],[-77.5928,40.1352],[-77.5822,40.1343],[-77.5646,40.1217],[-77.5579,40.1031],[-77.5605,40.0943],[-77.5539,40.0959],[-77.543,40.0897],[-77.5469,40.0863],[-77.541,40.0806],[-77.5457,40.0783],[-77.5403,40.0768],[-77.542,40.0699],[-77.5323,40.0672],[-77.5325,40.0487],[-77.5172,40.0444],[-77.5194,40.0393],[-77.5078,40.029],[-77.5092,40.0249],[-77.4954,40.0051],[-77.4541,39.9724],[-77.4711,39.9441],[-77.4036,39.9945],[-77.1856,40.0295],[-77.1556,40.0567],[-77.032,40.1464],[-77.0128,40.1484],[-77.0214,40.1822],[-77.0197,40.203],[-77.0225,40.2091],[-77.0307,40.2087],[-77.0312,40.2165],[-77.026,40.2137],[-77.0077,40.2243],[-77.0009,40.2222],[-76.9971,40.2144],[-76.9357,40.2268],[-76.9071,40.2383],[-76.9167,40.2504],[-76.9029,40.2551],[-76.8907,40.2501],[-76.9104,40.267],[-76.9242,40.2892],[-76.912,40.3251],[-76.9327,40.3553],[-77.0082,40.3584],[-77.0208,40.3662],[-77.027,40.3809],[-76.7806,40.4596],[-76.7682,40.4368],[-76.6831,40.4718],[-76.5354,40.5552],[-76.6982,40.6561],[-76.7136,40.6596],[-76.722,40.6534],[-76.7452,40.6546],[-76.7562,40.6481],[-76.7904,40.6408],[-76.8049,40.6468],[-76.8111,40.6338],[-76.8274,40.6339],[-76.8401,40.6254],[-76.8644,40.6276],[-76.8723,40.6164],[-76.8868,40.6177],[-76.8908,40.6101],[-76.9207,40.61],[-76.9187,40.6035],[-76.937,40.6128],[-76.9491,40.6282],[-76.9561,40.6279],[-77.0233,40.6043],[-77.1659,40.5864],[-77.1829,40.5821],[-77.1676,40.5595],[-77.1985,40.5523],[-77.2896,40.5185],[-77.4784,40.432],[-77.5401,40.3992],[-77.5323,40.376],[-77.5657,40.3674],[-77.5994,40.3482],[-77.6397,40.3198],[-77.6711,40.2906]]]},"properties":{"geoid":"42034","state":"42","district":"34","name":"State Senate District 34","chamber":"Senate"}},{"type":"Feature","geometry":{"type":"Polygon","coordinates":[[[-79.0563,40.2849],[-78.9271,40.2847],[-78.9248,40.2785],[-78.8962,40.2716],[-78.8972,40.2635],[-78.8847,40.2446],[-78.869,40.249],[-78.8588,40.2425],[-78.8512,40.246],[-78.6583,40.2432],[-78.6438,40.2591],[-78.6517,40.2815],[-78.6427,40.2831],[-78.6364,40.3055],[-78.6252,40.3143],[-78.6022,40.3536],[-78.5615,40.3697],[-78.5529,40.4348],[-78.5577,40.4416],[-78.5405,40.475],[-78.5447,40.4867],[-78.5398,40.5063],[-78.5182,40.5288],[-78.4791,40.5473],[-78.4412,40.5972],[-78.4463,40.6242],[-78.441,40.6316],[-78.4421,40.6414],[-78.4325,40.6478],[-78.4085,40.6443],[-78.3484,40.7234],[-78.3606,40.7332],[-78.1318,40.743],[-77.9443,40.6916],[-77.8314,40.7411],[-77.8552,40.7718],[-77.8629,40.7684],[-77.8701,40.7757],[-77.8748,40.781],[-77.8695,40.7857],[-77.8863,40.7992],[-77.8742,40.8058],[-77.883,40.8158],[-77.8517,40.8381],[-77.929,40.8951],[-77.9616,40.9001],[-77.9755,40.9158],[-77.9641,40.9236],[-78.0604,41.0042],[-78.0562,41.0043],[-78.0562,41.0087],[-78.0691,41.0132],[-78.0679,41.0195],[-78.0756,41.0222],[-78.0713,41.0266],[-78.0799,41.0295],[-78.0783,41.0341],[-78.0574,41.0372],[-78.0641,41.0459],[-78.0595,41.0516],[-78.0714,41.0499],[-78.0761,41.0599],[-78.0904,41.0582],[-78.0851,41.0681],[-78.0972,41.0723],[-78.0927,41.0796],[-78.112,41.1143],[-78.1003,41.1218],[-78.0892,41.116],[-78.083,41.1263],[-78.0704,41.1219],[-78.0697,41.1313],[-78.056,41.132],[-78.0527,41.1453],[-78.0434,41.1465],[-78.0382,41.1536],[-78.061,41.1745],[-78.0934,41.2169],[-78.2239,41.2292],[-78.6467,41.2538],[-78.6479,41.2175],[-78.7102,41.2019],[-78.7664,41.2028],[-78.7972,41.1454],[-78.7946,41.1424],[-78.8045,41.1322],[-78.8063,40.7297],[-78.7992,40.7171],[-78.8089,40.721],[-78.8859,40.5541],[-78.9752,40.3919],[-79.0099,40.3405],[-79.02,40.3356],[-79.0563,40.2849]]]},"properties":{"geoid":"42035","state":"42","district":"35","name":"State Senate District 35","chamber":"Senate"}},{"type":"Feature","geometry":{"type":"MultiPolygon","coordinates":[[[[-76.7216,40.1201],[-76.6932,40.0988],[-76.6638,40.0632],[-76.5731,40.0458],[-76.5344,40.0513],[-76.5298,40.0311],[-76.5122,40.0134],[-76.489,40.0207],[-76.4565,40.0207],[-76.4187,40.0373],[-76.3883,40.0414],[-76.3429,40.0381],[-76.3421,40.0531],[-76.3199,40.051],[-76.3344,40.0593],[-76.3293,40.0624],[-76.3349,40.0598],[-76.346,40.0654],[-76.3418,40.0727],[-76.3261,40.06],[-76.3318,40.0656],[-76.3262,40.0727],[-76.3184,40.0709],[-76.3126,40.0598],[-76.3216,40.0614],[-76.3173,40.0564],[-76.3053,40.0547],[-76.2982,40.0602],[-76.3018,40.0541],[-76.2893,40.0521],[-76.2808,40.0579],[-76.2782,40.0517],[-76.2726,40.0521],[-76.2728,40.0585],[-76.2566,40.0654],[-76.2632,40.0717],[-76.2594,40.079],[-76.2654,40.0848],[-76.2484,40.0864],[-76.2522,40.0952],[-76.2446,40.0967],[-76.2483,40.1057],[-76.2379,40.1027],[-76.2345,40.1109],[-76.2266,40.1067],[-76.2265,40.1151],[-76.1775,40.0969],[-76.1295,40.0916],[-76.1049,40.0724],[-76.0466,40.0532],[-76.0824,40.1759],[-76.087,40.1771],[-76.094,40.1663],[-76.1062,40.1696],[-76.1354,40.1909],[-76.1518,40.1962],[-76.1661,40.2115],[-76.2099,40.2021],[-76.2258,40.1885],[-76.2661,40.1829],[-76.2667,40.1931],[-76.2559,40.2157],[-76.2677,40.2266],[-76.2759,40.2271],[-76.2804,40.2343],[-76.2799,40.2641],[-76.3076,40.2551],[-76.4354,40.2382],[-76.5703,40.1946],[-76.5807,40.1947],[-76.586,40.1895],[-76.6065,40.19],[-76.6384,40.1667],[-76.6662,40.1632],[-76.6772,40.1489],[-76.6832,40.1518],[-76.6901,40.1481],[-76.691,40.1567],[-76.6974,40.1566],[-76.6993,40.1453],[-76.7099,40.1376],[-76.7066,40.1351],[-76.7159,40.1315],[-76.7216,40.1201]]],[[[-76.2872,40.0502],[-76.2825,40.047],[-76.278,40.0484],[-76.2872,40.0502]]],[[[-76.3138,40.0557],[-76.3135,40.0522],[-76.3024,40.0536],[-76.3138,40.0557]]],[[[-76.2892,40.0519],[-76.2889,40.0501],[-76.2855,40.0509],[-76.2892,40.0519]]],[[[-76.3266,40.0642],[-76.3236,40.0638],[-76.3258,40.0649],[-76.3266,40.0642]]],[[[-76.2877,40.0438],[-76.2867,40.0432],[-76.2854,40.0445],[-76.2877,40.0438]]],[[[-76.3238,40.0621],[-76.3232,40.0617],[-76.3218,40.0628],[-76.3238,40.0621]]],[[[-76.3171,40.0592],[-76.3156,40.0594],[-76.3163,40.0599],[-76.3171,40.0592]]],[[[-76.3244,40.0626],[-76.3239,40.0623],[-76.3233,40.0627],[-76.3244,40.0626]]],[[[-76.2881,40.046],[-76.2878,40.0446],[-76.2876,40.0447],[-76.2881,40.046]]],[[[-76.3266,40.0615],[-76.3257,40.0611],[-76.3257,40.0615],[-76.3266,40.0615]]],[[[-76.3005,40.0536],[-76.3004,40.0531],[-76.2997,40.0531],[-76.3005,40.0536]]]]},"properties":{"geoid":"42036","state":"42","district":"36","name":"State Senate District 36","chamber":"Senate"}},{"type":"Feature","geometry":{"type":"Polygon","coordinates":[[[-80.3608,40.4777],[-80.1846,40.3331],[-79.9145,40.2524],[-79.8974,40.2672],[-79.9045,40.2698],[-79.8762,40.2836],[-79.9005,40.2832],[-79.9004,40.2956],[-79.8837,40.2981],[-79.8995,40.3019],[-79.8947,40.3056],[-79.9008,40.3121],[-79.8986,40.3195],[-79.9309,40.3252],[-79.964,40.345],[-79.9853,40.3334],[-79.9854,40.3295],[-80.0056,40.343],[-80.0171,40.359],[-80.0512,40.351],[-80.0725,40.3641],[-80.0953,40.3633],[-80.0982,40.374],[-80.0921,40.3845],[-80.0999,40.3852],[-80.0861,40.392],[-80.1003,40.3944],[-80.0988,40.4182],[-80.0921,40.4202],[-80.0795,40.4148],[-80.0749,40.4206],[-80.0845,40.4205],[-80.0866,40.428],[-80.0755,40.435],[-80.0902,40.4442],[-80.0902,40.4512],[-80.1045,40.4482],[-80.1127,40.4544],[-80.1121,40.4639],[-80.1259,40.49],[-80.1159,40.504],[-80.1496,40.5149],[-80.1615,40.5238],[-80.1084,40.5105],[-80.1075,40.5168],[-80.0871,40.5171],[-80.0877,40.5107],[-80.0616,40.5058],[-80.0714,40.6749],[-80.1485,40.6738],[-80.1451,40.6134],[-80.1658,40.606],[-80.1804,40.6093],[-80.1887,40.5998],[-80.1843,40.5969],[-80.1949,40.5968],[-80.2123,40.5821],[-80.2191,40.582],[-80.3608,40.4777]]]},"properties":{"geoid":"42037","state":"42","district":"37","name":"State Senate District 37","chamber":"Senate"}},{"type":"Feature","geometry":{"type":"Polygon","coordinates":[[[-80.0714,40.6742],[-80.0616,40.5058],[-80.0583,40.5082],[-80.0479,40.5022],[-80.0513,40.4965],[-80.0455,40.4944],[-80.0464,40.4872],[-80.0407,40.4915],[-80.0278,40.4911],[-80.0278,40.4965],[-80.022,40.4938],[-80.0108,40.501],[-79.9941,40.494],[-79.9856,40.502],[-79.9853,40.4936],[-79.9711,40.4955],[-79.9722,40.4813],[-79.9365,40.4743],[-79.9459,40.4705],[-79.9464,40.4655],[-79.9325,40.4641],[-79.9124,40.454],[-79.9031,40.4545],[-79.8987,40.4646],[-79.89,40.4617],[-79.8838,40.4832],[-79.8628,40.4858],[-79.8511,40.4936],[-79.8506,40.5202],[-79.8423,40.5298],[-79.8206,40.5364],[-79.7789,40.5345],[-79.7661,40.5407],[-79.7638,40.5469],[-79.7747,40.5707],[-79.7716,40.5856],[-79.7603,40.5951],[-79.7213,40.6082],[-79.689,40.6454],[-79.6958,40.6615],[-79.6929,40.6696],[-80.0714,40.6742]]]},"properties":{"geoid":"42038","state":"42","district":"38","name":"State Senate District 38","chamber":"Senate"}},{"type":"Feature","geometry":{"type":"Polygon","coordinates":[[[-79.9049,40.1556],[-79.8877,40.1311],[-79.8791,40.1273],[-79.8161,40.1284],[-79.8166,40.1328],[-79.8058,40.1275],[-79.7444,40.1282],[-79.7346,40.1209],[-79.7244,40.1231],[-79.7185,40.1169],[-79.7229,40.1132],[-79.7081,40.1077],[-79.6856,40.1138],[-79.6838,40.1086],[-79.6676,40.1045],[-79.6681,40.097],[-79.6582,40.0971],[-79.6541,40.0893],[-79.6417,40.0886],[-79.6441,40.0847],[-79.639,40.0829],[-79.622,40.0945],[-79.6037,40.0908],[-79.6023,40.083],[-79.5927,40.0822],[-79.5926,40.092],[-79.5974,40.0919],[-79.6042,40.108],[-79.5776,40.109],[-79.5744,40.1128],[-79.5734,40.1042],[-79.5606,40.1052],[-79.5568,40.1128],[-79.542,40.1119],[-79.5349,40.1283],[-79.5274,40.123],[-79.5044,40.1409],[-79.4615,40.1441],[-79.4475,40.1332],[-79.4474,40.126],[-79.4379,40.116],[-79.4019,40.1028],[-79.3933,40.0906],[-79.3555,40.0743],[-79.3425,40.0439],[-79.3289,40.0407],[-79.3127,40.0444],[-79.2886,40.0418],[-79.2672,40.0659],[-79.2677,40.0743],[-79.2589,40.0798],[-79.256,40.0885],[-79.2267,40.0982],[-79.2209,40.1127],[-79.2138,40.118],[-79.2029,40.1149],[-79.1971,40.1187],[-79.1922,40.1103],[-79.1852,40.1098],[-79.1726,40.1255],[-79.2518,40.1871],[-79.3497,40.2408],[-79.3116,40.2665],[-79.3139,40.2778],[-79.3101,40.2842],[-79.331,40.2926],[-79.3517,40.2905],[-79.3641,40.2957],[-79.3715,40.2921],[-79.3723,40.297],[-79.3652,40.2973],[-79.3711,40.3002],[-79.3712,40.3065],[-79.3675,40.3069],[-79.3713,40.3207],[-79.3864,40.3289],[-79.394,40.3231],[-79.4044,40.3244],[-79.4047,40.3276],[-79.3965,40.3278],[-79.4004,40.3366],[-79.3816,40.3552],[-79.3941,40.3524],[-79.4045,40.3558],[-79.4153,40.3751],[-79.4253,40.3777],[-79.4267,40.3901],[-79.4211,40.3939],[-79.4338,40.3948],[-79.4398,40.4041],[-79.4292,40.408],[-79.4355,40.4147],[-79.4439,40.4148],[-79.5295,40.4731],[-79.5428,40.4717],[-79.5486,40.4659],[-79.5605,40.4686],[-79.5743,40.4574],[-79.581,40.4431],[-79.5996,40.4419],[-79.601,40.4506],[-79.6156,40.4663],[-79.6148,40.476],[-79.6339,40.483],[-79.638,40.4888],[-79.6713,40.498],[-79.6994,40.5256],[-79.7048,40.4263],[-79.7172,40.4138],[-79.727,40.4144],[-79.7222,40.4088],[-79.7314,40.4076],[-79.7343,40.3981],[-79.7446,40.3962],[-79.7513,40.3884],[-79.7621,40.3928],[-79.7711,40.3754],[-79.7886,40.2977],[-79.7752,40.2864],[-79.7958,40.2811],[-79.7875,40.2625],[-79.8074,40.2369],[-79.8043,40.2319],[-79.7826,40.2276],[-79.8714,40.1974],[-79.8545,40.1913],[-79.8504,40.1773],[-79.853,40.1691],[-79.8642,40.1618],[-79.8953,40.1646],[-79.9049,40.1556]]]},"properties":{"geoid":"42039","state":"42","district":"39","name":"State Senate District 39","chamber":"Senate"}},{"type":"Feature","geometry":{"type":"Polygon","coordinates":[[[-75.695,41.3176],[-75.6897,41.2878],[-75.6793,41.288],[-75.6793,41.2649],[-75.6523,41.2574],[-75.6492,41.1872],[-75.644,41.177],[-75.6318,41.1697],[-75.616,41.1726],[-75.6117,41.1642],[-75.6006,41.1612],[-75.6033,41.1519],[-75.6156,41.1507],[-75.6153,41.1439],[-75.6282,41.1372],[-75.6251,41.1309],[-75.6342,41.1232],[-75.649,41.1251],[-75.6466,41.1135],[-75.6362,41.113],[-75.6297,41.107],[-75.625,41.1114],[-75.6204,41.1093],[-75.6136,41.0948],[-75.6041,41.0934],[-75.6056,41.085],[-75.5769,41.068],[-75.5689,41.0566],[-75.5698,41.0501],[-75.5619,41.0495],[-75.496,40.9872],[-75.5746,40.9513],[-75.4936,40.8464],[-75.4742,40.8147],[-75.3833,40.831],[-75.284,40.866],[-75.2672,40.8825],[-75.2325,40.8998],[-75.2411,40.9094],[-75.2218,40.9196],[-75.2182,40.9279],[-75.1283,40.9596],[-75.1202,40.9687],[-75.1314,40.9693],[-75.1356,40.976],[-75.1272,40.994],[-75.0271,41.0395],[-75.0124,41.0673],[-74.9674,41.0901],[-74.9694,41.0961],[-74.9883,41.0882],[-74.9941,41.0939],[-75.028,41.0799],[-75.0392,41.0888],[-75.0768,41.1411],[-75.1565,41.1503],[-75.1297,41.2521],[-75.3592,41.2392],[-75.3422,41.2527],[-75.3501,41.2601],[-75.3472,41.266],[-75.3342,41.2703],[-75.3336,41.2794],[-75.3246,41.2889],[-75.3278,41.2989],[-75.314,41.3106],[-75.316,41.319],[-75.3104,41.3269],[-75.3224,41.34],[-75.3309,41.3349],[-75.3443,41.3374],[-75.3366,41.3451],[-75.3505,41.368],[-75.3369,41.3763],[-75.3237,41.366],[-75.3091,41.3747],[-75.2983,41.3674],[-75.3002,41.4842],[-75.1868,41.5318],[-75.1941,41.545],[-75.2294,41.5657],[-75.2417,41.598],[-75.3177,41.5881],[-75.3209,41.6008],[-75.4598,41.595],[-75.4624,41.6416],[-75.5313,41.6417],[-75.5704,41.5446],[-75.5853,41.5234],[-75.6321,41.4874],[-75.6045,41.4674],[-75.6142,41.4637],[-75.5503,41.4214],[-75.5822,41.3941],[-75.6249,41.3927],[-75.652,41.3661],[-75.6044,41.3426],[-75.6886,41.3394],[-75.6878,41.3178],[-75.695,41.3176]]]},"properties":{"geoid":"42040","state":"42","district":"40","name":"State Senate District 40","chamber":"Senate"}},{"type":"Feature","geometry":{"type":"Polygon","coordinates":[[[-79.7747,40.575],[-79.7651,40.5492],[-79.7356,40.549],[-79.6988,40.5253],[-79.6713,40.498],[-79.638,40.4888],[-79.6339,40.483],[-79.6148,40.476],[-79.6156,40.4663],[-79.601,40.4506],[-79.5996,40.4419],[-79.581,40.4431],[-79.5743,40.4574],[-79.5605,40.4686],[-79.5486,40.4659],[-79.5428,40.4717],[-79.5295,40.4731],[-79.4439,40.4148],[-79.4355,40.4147],[-79.4292,40.408],[-79.4398,40.4041],[-79.4338,40.3948],[-79.4211,40.3939],[-79.4267,40.3901],[-79.4253,40.3777],[-79.4153,40.3751],[-79.4045,40.3558],[-79.3941,40.3524],[-79.3816,40.3552],[-79.4004,40.3366],[-79.3965,40.3278],[-79.4047,40.3276],[-79.4044,40.3244],[-79.394,40.3231],[-79.3864,40.3289],[-79.3713,40.3207],[-79.3675,40.3069],[-79.3712,40.3065],[-79.3711,40.3002],[-79.3652,40.2973],[-79.3723,40.297],[-79.3715,40.2921],[-79.3641,40.2957],[-79.3517,40.2905],[-79.331,40.2926],[-79.3101,40.2842],[-79.3139,40.2778],[-79.3116,40.2665],[-79.3497,40.2408],[-79.2518,40.1871],[-79.1726,40.1255],[-79.1622,40.1428],[-79.1613,40.1609],[-79.14,40.1639],[-79.1433,40.1799],[-79.1267,40.1833],[-79.1262,40.2004],[-79.1146,40.205],[-79.1141,40.2106],[-79.107,40.2143],[-79.1091,40.2183],[-79.1032,40.2179],[-79.1003,40.2223],[-79.1046,40.2245],[-79.0983,40.2273],[-79.1024,40.2322],[-79.0954,40.233],[-79.0782,40.2524],[-79.0796,40.2579],[-79.0737,40.2666],[-79.0566,40.2786],[-79.0551,40.2892],[-79.0373,40.3073],[-79.0369,40.3141],[-79.02,40.3356],[-79.0099,40.3405],[-78.9752,40.3919],[-78.8859,40.5541],[-78.8089,40.721],[-78.7992,40.7171],[-78.8063,40.7297],[-78.8042,41.0402],[-78.9439,41.0403],[-78.9448,41.071],[-79.0015,41.0705],[-79.0012,41.0506],[-79.0102,41.0506],[-79.0552,41.0509],[-79.0555,41.0555],[-79.0788,41.056],[-79.0861,41.0721],[-79.1187,41.0716],[-79.1187,41.0478],[-79.1255,41.0396],[-79.1256,41.0273],[-79.1339,41.0248],[-79.1402,41.0294],[-79.1524,41.0219],[-79.1584,41.0307],[-79.167,41.0304],[-79.1734,41.0369],[-79.1844,41.0328],[-79.2075,41.0388],[-79.2102,41.0491],[-79.2152,41.0505],[-79.2607,41.0293],[-79.283,41.0096],[-79.3026,41.0135],[-79.317,41.0025],[-79.3339,40.999],[-79.3394,41.0024],[-79.3463,40.9977],[-79.3641,41.0027],[-79.3715,40.9885],[-79.3694,40.9753],[-79.3761,40.9684],[-79.3815,40.9695],[-79.3822,40.9753],[-79.3746,40.9844],[-79.3867,40.9875],[-79.3781,40.9943],[-79.3947,40.9948],[-79.404,40.9883],[-79.4047,40.9978],[-79.4147,40.9994],[-79.4096,41.0061],[-79.4123,41.0085],[-79.4212,41.0027],[-79.4286,40.9855],[-79.4419,40.9874],[-79.451,40.9817],[-79.4608,40.9823],[-79.4563,40.991],[-79.4879,40.9956],[-79.4948,40.9862],[-79.4937,40.9779],[-79.5051,40.9768],[-79.5074,40.984],[-79.514,40.9868],[-79.5178,40.984],[-79.5152,40.9778],[-79.5224,40.975],[-79.54,40.9845],[-79.5526,40.9798],[-79.5704,40.9856],[-79.5901,40.9699],[-79.5999,40.969],[-79.6225,40.9762],[-79.6235,40.9846],[-79.6048,40.9946],[-79.5849,40.9916],[-79.5818,40.998],[-79.5902,41.004],[-79.6095,41.0072],[-79.5995,41.0294],[-79.6012,41.0369],[-79.6194,41.0333],[-79.6662,41.0497],[-79.6666,41.0571],[-79.6555,41.0684],[-79.6794,41.0913],[-79.6788,41.1334],[-79.6867,41.1451],[-79.6796,41.1595],[-79.6893,41.1695],[-79.6924,40.6729],[-79.6959,40.664],[-79.689,40.6454],[-79.7213,40.6082],[-79.7632,40.5936],[-79.7747,40.575]]]},"properties":{"geoid":"42041","state":"42","district":"41","name":"State Senate District 41","chamber":"Senate"}},{"type":"Feature","geometry":{"type":"Polygon","coordinates":[[[-80.1615,40.5238],[-80.1496,40.5149],[-80.1159,40.504],[-80.1259,40.49],[-80.1121,40.4639],[-80.1127,40.4544],[-80.1045,40.4482],[-80.0902,40.4512],[-80.0902,40.4442],[-80.0755,40.435],[-80.0866,40.428],[-80.0845,40.4205],[-80.0749,40.4206],[-80.0795,40.4148],[-80.0921,40.4202],[-80.0988,40.4182],[-80.1003,40.3944],[-80.0861,40.392],[-80.0999,40.3852],[-80.0921,40.3845],[-80.0982,40.374],[-80.0951,40.3631],[-80.0725,40.3641],[-80.0512,40.351],[-80.0338,40.3544],[-80.0357,40.3608],[-80.0304,40.3622],[-80.0384,40.3688],[-80.0184,40.3717],[-80.0235,40.3775],[-80.0223,40.3881],[-80.0138,40.3866],[-80.0126,40.3809],[-80.0051,40.3839],[-80.0041,40.374],[-79.986,40.3778],[-79.9833,40.3815],[-79.9903,40.3843],[-80.0114,40.4151],[-80.0049,40.4208],[-80.0052,40.4302],[-80.002,40.4351],[-79.9758,40.4343],[-79.9837,40.4476],[-79.9499,40.4621],[-79.9445,40.4716],[-79.9349,40.4725],[-79.9607,40.4821],[-79.9648,40.4779],[-79.9722,40.4813],[-79.9711,40.4955],[-79.9853,40.4936],[-79.9856,40.502],[-79.9941,40.494],[-80.0108,40.501],[-80.022,40.4938],[-80.0278,40.4965],[-80.0278,40.4911],[-80.0407,40.4915],[-80.0464,40.4872],[-80.0455,40.4944],[-80.0513,40.4965],[-80.0479,40.5022],[-80.0583,40.5082],[-80.0877,40.5107],[-80.0871,40.5171],[-80.1075,40.5168],[-80.1084,40.5105],[-80.1615,40.5238]]]},"properties":{"geoid":"42042","state":"42","district":"42","name":"State Senate District 42","chamber":"Senate"}},{"type":"Feature","geometry":{"type":"Polygon","coordinates":[[[-80.0113,40.4152],[-79.9903,40.3843],[-79.9819,40.3806],[-79.9761,40.3813],[-79.9731,40.3887],[-79.9793,40.4019],[-79.953,40.4107],[-79.9382,40.393],[-79.9515,40.4],[-79.9561,40.4103],[-79.9709,40.4028],[-79.9595,40.3976],[-79.9577,40.3899],[-79.9361,40.3888],[-79.9355,40.381],[-79.9455,40.3761],[-79.925,40.3751],[-79.9207,40.3654],[-79.9072,40.3615],[-79.9003,40.3653],[-79.9034,40.3719],[-79.9118,40.3728],[-79.9083,40.3782],[-79.9173,40.3816],[-79.9133,40.397],[-79.9182,40.3993],[-79.9296,40.3897],[-79.933,40.3976],[-79.9154,40.4132],[-79.9031,40.4159],[-79.8794,40.4042],[-79.8695,40.414],[-79.8606,40.409],[-79.8442,40.4122],[-79.8372,40.4025],[-79.8326,40.4098],[-79.8031,40.4272],[-79.8045,40.4347],[-79.7963,40.4501],[-79.7793,40.4599],[-79.7787,40.4809],[-79.794,40.5118],[-79.8066,40.5135],[-79.8072,40.5184],[-79.8161,40.5143],[-79.8209,40.5262],[-79.8279,40.5246],[-79.8353,40.5326],[-79.8497,40.523],[-79.8511,40.4936],[-79.8628,40.4858],[-79.8838,40.4832],[-79.89,40.4617],[-79.8987,40.4646],[-79.9031,40.4545],[-79.9124,40.454],[-79.9329,40.4643],[-79.9481,40.4657],[-79.9837,40.4476],[-79.9758,40.4343],[-80.002,40.4351],[-80.0049,40.4208],[-80.0113,40.4152]]]},"properties":{"geoid":"42043","state":"42","district":"43","name":"State Senate District 43","chamber":"Senate"}},{"type":"Feature","geometry":{"type":"Polygon","coordinates":[[[-75.9946,39.9524],[-75.9848,39.9379],[-75.8786,39.9615],[-75.8784,39.9864],[-75.8734,39.9942],[-75.825,40.0052],[-75.8145,40.0044],[-75.8064,39.9886],[-75.7987,39.988],[-75.7977,39.9812],[-75.7153,39.9954],[-75.7271,40],[-75.7166,40.0043],[-75.7185,40.0124],[-75.7043,40.0147],[-75.7078,40.0283],[-75.6737,40.0319],[-75.6013,40.0543],[-75.5752,40.0164],[-75.507,40.0454],[-75.5304,40.0749],[-75.4566,40.0939],[-75.4629,40.0973],[-75.4617,40.103],[-75.4494,40.1075],[-75.4243,40.1079],[-75.3761,40.1559],[-75.4498,40.2001],[-75.4474,40.1819],[-75.4513,40.1733],[-75.4942,40.1963],[-75.4908,40.2025],[-75.4703,40.2128],[-75.4901,40.2245],[-75.53,40.1846],[-75.5328,40.1864],[-75.5267,40.1914],[-75.532,40.1952],[-75.5492,40.1895],[-75.5611,40.2098],[-75.565,40.2075],[-75.5635,40.1968],[-75.5757,40.1971],[-75.5988,40.2375],[-75.6073,40.2358],[-75.6032,40.227],[-75.6124,40.223],[-75.62,40.2303],[-75.6511,40.2421],[-75.6696,40.2449],[-75.6898,40.2363],[-75.725,40.2496],[-75.7365,40.2611],[-75.7714,40.2584],[-75.7877,40.2707],[-75.811,40.2677],[-75.8196,40.271],[-75.8256,40.2567],[-75.8086,40.2523],[-75.8452,40.2118],[-75.8079,40.1777],[-75.8732,40.1372],[-75.943,40.1093],[-75.9361,40.0786],[-75.9359,40.0375],[-75.9946,39.9524]]]},"properties":{"geoid":"42044","state":"42","district":"44","name":"State Senate District 44","chamber":"Senate"}},{"type":"Feature","geometry":{"type":"Polygon","coordinates":[[[-80.0379,40.369],[-80.0304,40.3622],[-80.0357,40.3608],[-80.0367,40.3549],[-80.0171,40.359],[-80.0056,40.343],[-79.9854,40.3295],[-79.9853,40.3334],[-79.964,40.345],[-79.9309,40.3252],[-79.8986,40.3195],[-79.9008,40.3121],[-79.8947,40.3056],[-79.8995,40.3019],[-79.8837,40.2981],[-79.9004,40.2956],[-79.9005,40.2832],[-79.8762,40.2836],[-79.9045,40.2698],[-79.8974,40.2672],[-79.9175,40.2494],[-79.9342,40.2421],[-79.9626,40.2388],[-79.97,40.2333],[-79.9709,40.2269],[-79.9579,40.2143],[-79.9293,40.2071],[-79.9108,40.197],[-79.8913,40.1945],[-79.8717,40.1973],[-79.7826,40.2276],[-79.8043,40.2319],[-79.8074,40.2369],[-79.7875,40.2625],[-79.7958,40.2811],[-79.7752,40.2864],[-79.7886,40.2977],[-79.7711,40.3754],[-79.7621,40.3928],[-79.7513,40.3884],[-79.7446,40.3962],[-79.7343,40.3981],[-79.7314,40.4076],[-79.7222,40.4088],[-79.727,40.4144],[-79.7172,40.4138],[-79.7048,40.4263],[-79.7016,40.5254],[-79.7224,40.5422],[-79.7513,40.5518],[-79.7651,40.5492],[-79.7661,40.5407],[-79.7766,40.5349],[-79.805,40.5375],[-79.8353,40.5326],[-79.8279,40.5246],[-79.8209,40.5262],[-79.8161,40.5143],[-79.8072,40.5184],[-79.8066,40.5135],[-79.794,40.5118],[-79.7787,40.4809],[-79.7793,40.4599],[-79.7963,40.4501],[-79.8045,40.4347],[-79.8034,40.4269],[-79.8326,40.4098],[-79.8372,40.4025],[-79.8442,40.4122],[-79.8606,40.409],[-79.8695,40.414],[-79.8794,40.4042],[-79.8999,40.4155],[-79.9154,40.4132],[-79.933,40.3976],[-79.9324,40.3915],[-79.9182,40.3993],[-79.9133,40.397],[-79.9173,40.3816],[-79.9083,40.3782],[-79.9118,40.3728],[-79.9034,40.3719],[-79.9003,40.3653],[-79.9072,40.3615],[-79.9207,40.3654],[-79.925,40.3751],[-79.9455,40.3761],[-79.9355,40.381],[-79.9361,40.3888],[-79.9577,40.3899],[-79.9595,40.3976],[-79.9709,40.4028],[-79.9561,40.4103],[-79.9515,40.4],[-79.9382,40.393],[-79.953,40.4107],[-79.9796,40.4016],[-79.973,40.3925],[-79.9761,40.3813],[-80.0041,40.374],[-80.0051,40.3839],[-80.0126,40.3809],[-80.0138,40.3866],[-80.0223,40.3881],[-80.0235,40.3775],[-80.0184,40.3717],[-80.0379,40.369]]]},"properties":{"geoid":"42045","state":"42","district":"45","name":"State Senate District 45","chamber":"Senate"}},{"type":"Feature","geometry":{"type":"Polygon","coordinates":[[[-80.5195,39.7443],[-80.5193,39.7214],[-79.9163,39.7208],[-79.9035,39.7393],[-79.9072,39.7475],[-79.9286,39.756],[-79.9347,39.7647],[-79.9325,39.7849],[-79.914,39.788],[-79.9086,39.7935],[-79.9206,39.8134],[-79.9244,39.8382],[-79.9385,39.844],[-79.9246,39.8551],[-79.9303,39.8693],[-79.9154,39.8796],[-79.9294,39.9057],[-79.9233,39.9215],[-79.9572,39.9533],[-79.9988,39.9509],[-80.0093,39.9588],[-80.0106,39.9727],[-80.0059,39.9802],[-79.9914,39.9855],[-79.9957,40.0051],[-79.9882,40.0119],[-79.9694,40.0131],[-79.9546,39.9953],[-79.9467,39.9943],[-79.9345,39.9996],[-79.9248,40.0161],[-79.91,40.022],[-79.89,40.0225],[-79.8772,40.0317],[-79.877,40.0368],[-79.8919,40.0478],[-79.8794,40.0644],[-79.8985,40.0713],[-79.9014,40.0767],[-79.8917,40.0804],[-79.8625,40.0757],[-79.8459,40.0812],[-79.839,40.0916],[-79.8513,40.1151],[-79.8866,40.1302],[-79.9049,40.1565],[-79.8933,40.165],[-79.8595,40.1631],[-79.8506,40.1747],[-79.8533,40.1892],[-79.8658,40.197],[-79.8948,40.1943],[-79.9138,40.1979],[-79.9293,40.2071],[-79.9571,40.2138],[-79.9709,40.2269],[-79.9626,40.2388],[-79.9308,40.243],[-79.9145,40.2524],[-80.1846,40.3331],[-80.3609,40.4777],[-80.278,40.5367],[-80.3209,40.601],[-80.3733,40.5649],[-80.3726,40.5598],[-80.5189,40.5596],[-80.5195,39.7443]]]},"properties":{"geoid":"42046","state":"42","district":"46","name":"State Senate District 46","chamber":"Senate"}},{"type":"Feature","geometry":{"type":"Polygon","coordinates":[[[-80.5192,40.9024],[-80.5189,40.5596],[-80.3726,40.5598],[-80.3733,40.5649],[-80.3209,40.601],[-80.278,40.5367],[-80.2191,40.582],[-80.2123,40.5821],[-80.1949,40.5968],[-80.1843,40.5969],[-80.1887,40.5998],[-80.1804,40.6093],[-80.1658,40.606],[-80.1451,40.6134],[-80.1485,40.6738],[-79.8771,40.6724],[-79.8762,40.7436],[-79.9677,40.7448],[-79.9701,40.8164],[-79.9995,40.8168],[-80.025,40.8077],[-80.0285,40.817],[-80.0631,40.8173],[-80.0681,40.885],[-80.1602,40.8869],[-80.163,40.9379],[-80.1728,40.9344],[-80.1837,40.9373],[-80.1904,40.9306],[-80.1897,40.9247],[-80.2088,40.9204],[-80.2176,40.9098],[-80.5192,40.9024]]]},"properties":{"geoid":"42047","state":"42","district":"47","name":"State Senate District 47","chamber":"Senate"}},{"type":"Feature","geometry":{"type":"Polygon","coordinates":[[[-76.678,40.4747],[-76.5694,40.1955],[-76.4354,40.2382],[-76.3076,40.2551],[-76.284,40.2644],[-76.2787,40.2639],[-76.2826,40.2419],[-76.2776,40.2289],[-76.2664,40.2258],[-76.2559,40.2157],[-76.2667,40.1931],[-76.265,40.1825],[-76.2258,40.1885],[-76.2099,40.2021],[-76.1661,40.2115],[-76.1514,40.196],[-76.094,40.1663],[-76.087,40.1771],[-76.0797,40.1743],[-76.0678,40.1798],[-76.0264,40.1641],[-76.0015,40.1716],[-75.9767,40.1674],[-75.9632,40.1762],[-75.9441,40.1744],[-75.9418,40.1816],[-76.0918,40.2777],[-76.0768,40.2853],[-76.0551,40.3073],[-76.0459,40.3092],[-76.0411,40.3221],[-76.0303,40.3284],[-76.0218,40.3422],[-76.0016,40.3502],[-76.0038,40.3557],[-75.9962,40.3567],[-75.9928,40.3685],[-75.9761,40.3699],[-75.9607,40.3546],[-75.9414,40.3644],[-75.9558,40.3712],[-75.9527,40.3833],[-75.9737,40.3948],[-75.9649,40.4012],[-75.9751,40.4039],[-75.9706,40.4113],[-75.9456,40.4099],[-75.8605,40.4364],[-75.8499,40.4449],[-75.8401,40.4571],[-75.8929,40.4944],[-75.8844,40.5026],[-75.8832,40.5163],[-75.8746,40.5258],[-75.8577,40.5241],[-75.8588,40.5322],[-75.8473,40.533],[-75.8431,40.5392],[-75.8256,40.536],[-75.8113,40.5191],[-75.7394,40.5799],[-75.8915,40.6773],[-75.9932,40.6397],[-76.0122,40.5777],[-76.0186,40.5738],[-76.045,40.5838],[-76.053,40.5742],[-76.0653,40.5797],[-76.0794,40.5661],[-76.132,40.5544],[-76.1716,40.5349],[-76.2181,40.529],[-76.256,40.5171],[-76.3382,40.5155],[-76.4186,40.4956],[-76.4402,40.496],[-76.5354,40.5552],[-76.678,40.4747]]]},"properties":{"geoid":"42048","state":"42","district":"48","name":"State Senate District 48","chamber":"Senate"}},{"type":"Feature","geometry":{"type":"Polygon","coordinates":[[[-80.5199,42.3271],[-80.5194,41.8496],[-79.7613,41.8509],[-79.762,41.9501],[-79.758,41.9503],[-79.762,41.9988],[-79.7624,42.5161],[-80.0802,42.3942],[-80.5199,42.3271]]]},"properties":{"geoid":"42049","state":"42","district":"49","name":"State Senate District 49","chamber":"Senate"}},{"type":"Feature","geometry":{"type":"Polygon","coordinates":[[[-80.5194,41.6703],[-80.5192,40.9025],[-80.2176,40.9098],[-80.2088,40.9204],[-80.1897,40.9247],[-80.1904,40.9306],[-80.1837,40.9373],[-80.1728,40.9344],[-80.163,40.9379],[-80.1665,41.0009],[-79.9998,41.1719],[-79.9987,41.501],[-79.9818,41.5002],[-79.9815,41.5129],[-79.9581,41.5135],[-79.9592,41.5254],[-79.9422,41.5253],[-79.9433,41.5378],[-79.9233,41.5376],[-79.9254,41.5502],[-79.9095,41.5501],[-79.9086,41.5622],[-79.8928,41.5622],[-79.8927,41.5741],[-79.87,41.5743],[-79.873,41.5813],[-79.8501,41.5871],[-79.8496,41.5978],[-79.8297,41.602],[-79.8291,41.6221],[-79.6132,41.6169],[-79.6121,41.8503],[-80.5194,41.8496],[-80.5194,41.6703]]]},"properties":{"geoid":"42050","state":"42","district":"50","name":"State Senate District 50","chamber":"Senate"}}]}