{"type":"FeatureCollection","features":[{"type":"Feature","geometry":{"type":"MultiPolygon","coordinates":[[[[-66.1251,18.4716],[-66.1164,18.4588],[-66.106,18.4647],[-66.0877,18.4599],[-66.1052,18.4597],[-66.1066,18.456],[-66.0942,18.4472],[-66.0872,18.4504],[-66.082,18.4385],[-66.0638,18.4353],[-66.0586,18.4261],[-66.0488,18.427],[-66.0446,18.4228],[-66.0391,18.428],[-66.0297,18.4278],[-66.0327,18.4367],[-66.0431,18.4441],[-66.0367,18.4501],[-66.0389,18.4545],[-66.0607,18.4547],[-66.086,18.4601],[-66.0875,18.4677],[-66.1251,18.4716]]],[[[-66.0449,18.4647],[-66.0447,18.4642],[-66.0442,18.4649],[-66.0449,18.4647]]],[[[-66.0916,18.4698],[-66.0913,18.4692],[-66.0904,18.4694],[-66.0916,18.4698]]]]},"properties":{"geoid":"72001","state":"72","district":"1","name":"State House District 1","chamber":"House"}},{"type":"Feature","geometry":{"type":"Polygon","coordinates":[[[-66.1077,18.4276],[-66.098,18.4168],[-66.0998,18.412],[-66.0885,18.407],[-66.0883,18.3976],[-66.0713,18.3908],[-66.0695,18.3834],[-66.066,18.3913],[-66.0555,18.3951],[-66.0564,18.4033],[-66.0315,18.3982],[-66.025,18.424],[-66.0297,18.4278],[-66.0391,18.428],[-66.0446,18.4228],[-66.0488,18.427],[-66.0586,18.4261],[-66.0638,18.4353],[-66.0852,18.4406],[-66.1077,18.4276]]]},"properties":{"geoid":"72002","state":"72","district":"2","name":"State House District 2","chamber":"House"}},{"type":"Feature","geometry":{"type":"Polygon","coordinates":[[[-66.0564,18.4033],[-66.0522,18.3827],[-66.0423,18.3826],[-66.0489,18.3763],[-66.0489,18.3636],[-66.0344,18.3622],[-66.0348,18.359],[-66.0354,18.3696],[-66.0253,18.3798],[-65.9992,18.3801],[-66.0031,18.3947],[-65.9914,18.3986],[-65.9933,18.4076],[-66.025,18.424],[-66.0315,18.3982],[-66.0564,18.4033]]]},"properties":{"geoid":"72003","state":"72","district":"3","name":"State House District 3","chamber":"House"}},{"type":"Feature","geometry":{"type":"Polygon","coordinates":[[[-66.1086,18.3988],[-66.1066,18.3828],[-66.09,18.3751],[-66.0918,18.3612],[-66.0884,18.3571],[-66.0979,18.3559],[-66.0963,18.3379],[-66.0845,18.3357],[-66.0799,18.342],[-66.081,18.351],[-66.0743,18.352],[-66.0751,18.3465],[-66.0699,18.3482],[-66.069,18.3446],[-66.0662,18.3485],[-66.0561,18.3438],[-66.0503,18.3551],[-66.0432,18.3575],[-66.0433,18.3647],[-66.0489,18.3636],[-66.0489,18.3763],[-66.0423,18.3826],[-66.0522,18.3827],[-66.0551,18.395],[-66.0717,18.3843],[-66.0713,18.3908],[-66.0883,18.3976],[-66.0885,18.407],[-66.098,18.4124],[-66.0963,18.4008],[-66.1086,18.3988]]]},"properties":{"geoid":"72004","state":"72","district":"4","name":"State House District 4","chamber":"House"}},{"type":"Feature","geometry":{"type":"Polygon","coordinates":[[[-66.1907,18.2588],[-66.1783,18.2463],[-66.1761,18.2295],[-66.169,18.2243],[-66.1604,18.2202],[-66.1518,18.2223],[-66.1461,18.2305],[-66.1439,18.2281],[-66.1468,18.2136],[-66.1389,18.2102],[-66.1412,18.1979],[-66.1027,18.2168],[-66.0902,18.2276],[-66.0847,18.2427],[-66.0747,18.2533],[-66.0773,18.2565],[-66.0661,18.3042],[-66.0529,18.3038],[-66.0478,18.2979],[-66.0469,18.3094],[-66.0355,18.3198],[-66.0344,18.3622],[-66.0433,18.3647],[-66.0432,18.3575],[-66.0503,18.3551],[-66.0568,18.3436],[-66.0662,18.3485],[-66.069,18.3446],[-66.0699,18.3482],[-66.0751,18.3465],[-66.0736,18.3519],[-66.081,18.351],[-66.0799,18.342],[-66.0876,18.3346],[-66.0997,18.3424],[-66.0979,18.3559],[-66.0894,18.3593],[-66.1015,18.3627],[-66.132,18.3602],[-66.1308,18.3712],[-66.1372,18.3735],[-66.1419,18.3576],[-66.1335,18.3356],[-66.1414,18.3293],[-66.1417,18.323],[-66.1323,18.3133],[-66.1415,18.3105],[-66.1403,18.2852],[-66.1439,18.2796],[-66.1587,18.2831],[-66.1739,18.2779],[-66.1907,18.2588]]]},"properties":{"geoid":"72005","state":"72","district":"5","name":"State House District 5","chamber":"House"}},{"type":"Feature","geometry":{"type":"Polygon","coordinates":[[[-66.1566,18.4344],[-66.147,18.4227],[-66.1315,18.4247],[-66.1323,18.4205],[-66.1211,18.4144],[-66.128,18.4027],[-66.124,18.3991],[-66.14,18.3964],[-66.1351,18.3829],[-66.1374,18.3774],[-66.1308,18.3712],[-66.132,18.3602],[-66.1015,18.3627],[-66.0894,18.3593],[-66.09,18.3751],[-66.1066,18.3828],[-66.1086,18.3988],[-66.0967,18.4005],[-66.095,18.4058],[-66.0993,18.4192],[-66.108,18.4277],[-66.1083,18.4389],[-66.1123,18.4426],[-66.1161,18.4396],[-66.1105,18.4444],[-66.1303,18.4448],[-66.1391,18.4569],[-66.1282,18.4521],[-66.1409,18.4623],[-66.1473,18.4539],[-66.1368,18.4467],[-66.1394,18.4434],[-66.1519,18.4471],[-66.15,18.4432],[-66.1566,18.4344]]]},"properties":{"geoid":"72006","state":"72","district":"6","name":"State House District 6","chamber":"House"}},{"type":"Feature","geometry":{"type":"Polygon","coordinates":[[[-66.1997,18.3549],[-66.1945,18.355],[-66.1906,18.3455],[-66.1896,18.3552],[-66.1756,18.3626],[-66.1879,18.3645],[-66.1842,18.3704],[-66.1624,18.3875],[-66.158,18.3962],[-66.124,18.3991],[-66.128,18.4027],[-66.1211,18.4144],[-66.1323,18.4205],[-66.1315,18.4247],[-66.1578,18.4208],[-66.1695,18.4311],[-66.1741,18.4203],[-66.1942,18.4186],[-66.1983,18.4137],[-66.1952,18.3912],[-66.1997,18.3549]],[[-66.1535,18.4213],[-66.1542,18.422],[-66.1532,18.4221],[-66.1535,18.4213]]]},"properties":{"geoid":"72007","state":"72","district":"7","name":"State House District 7","chamber":"House"}},{"type":"Feature","geometry":{"type":"Polygon","coordinates":[[[-66.1958,18.343],[-66.1801,18.3243],[-66.1809,18.3104],[-66.1716,18.3018],[-66.1472,18.3045],[-66.1407,18.2999],[-66.1412,18.311],[-66.1323,18.3133],[-66.1417,18.323],[-66.1414,18.3293],[-66.1335,18.3356],[-66.1419,18.3578],[-66.1345,18.374],[-66.1378,18.3957],[-66.158,18.3962],[-66.1624,18.3875],[-66.1842,18.3704],[-66.1879,18.3645],[-66.1756,18.3626],[-66.1896,18.3552],[-66.189,18.3475],[-66.1958,18.343]]]},"properties":{"geoid":"72008","state":"72","district":"8","name":"State House District 8","chamber":"House"}},{"type":"Feature","geometry":{"type":"Polygon","coordinates":[[[-66.3191,18.3716],[-66.3122,18.3644],[-66.3052,18.37],[-66.2899,18.3549],[-66.2777,18.3298],[-66.2585,18.3319],[-66.2488,18.3258],[-66.2404,18.3332],[-66.233,18.3236],[-66.2165,18.3337],[-66.2053,18.3174],[-66.206,18.3069],[-66.2136,18.3061],[-66.2092,18.2847],[-66.2059,18.2758],[-66.1932,18.2681],[-66.1907,18.2588],[-66.1711,18.2792],[-66.1417,18.2822],[-66.138,18.2983],[-66.1438,18.3039],[-66.1682,18.3007],[-66.1809,18.3104],[-66.1801,18.3243],[-66.1955,18.3424],[-66.1907,18.3455],[-66.1945,18.355],[-66.1997,18.3547],[-66.197,18.3893],[-66.2343,18.4015],[-66.2708,18.3838],[-66.3066,18.3843],[-66.3191,18.3716]]]},"properties":{"geoid":"72009","state":"72","district":"9","name":"State House District 9","chamber":"House"}},{"type":"Feature","geometry":{"type":"MultiPolygon","coordinates":[[[[-66.2644,18.4271],[-66.2596,18.4254],[-66.2637,18.4168],[-66.2561,18.414],[-66.2602,18.4096],[-66.2541,18.3949],[-66.2443,18.3948],[-66.2339,18.4015],[-66.197,18.3893],[-66.1983,18.4137],[-66.1942,18.4186],[-66.1741,18.4203],[-66.1695,18.4311],[-66.1578,18.4208],[-66.1478,18.4216],[-66.1566,18.4344],[-66.15,18.4432],[-66.1519,18.4471],[-66.1394,18.4434],[-66.1368,18.4467],[-66.1473,18.4539],[-66.1336,18.4718],[-66.14,18.4752],[-66.1372,18.4665],[-66.1629,18.4511],[-66.1744,18.4522],[-66.183,18.4591],[-66.1854,18.4699],[-66.1785,18.4751],[-66.1825,18.4759],[-66.1914,18.4666],[-66.2141,18.4651],[-66.2314,18.4497],[-66.2407,18.4557],[-66.2491,18.451],[-66.258,18.4551],[-66.259,18.4425],[-66.2551,18.4395],[-66.2644,18.4271]]],[[[-66.1542,18.422],[-66.153,18.4212],[-66.1532,18.4221],[-66.1542,18.422]]],[[[-66.1896,18.4759],[-66.1873,18.4765],[-66.1887,18.4769],[-66.1896,18.4759]]]]},"properties":{"geoid":"72010","state":"72","district":"10","name":"State House District 10","chamber":"House"}},{"type":"Feature","geometry":{"type":"Polygon","coordinates":[[[-66.4184,18.477],[-66.4093,18.4604],[-66.4062,18.47],[-66.3966,18.4709],[-66.4014,18.4531],[-66.3889,18.4443],[-66.3911,18.4123],[-66.3748,18.4161],[-66.3749,18.4237],[-66.3827,18.4319],[-66.3653,18.441],[-66.3604,18.4296],[-66.3475,18.4294],[-66.3588,18.4208],[-66.3629,18.3953],[-66.3419,18.4053],[-66.3379,18.4177],[-66.3264,18.4037],[-66.3195,18.403],[-66.311,18.3886],[-66.313,18.3805],[-66.2578,18.3877],[-66.2526,18.3942],[-66.2602,18.4094],[-66.2568,18.4155],[-66.2637,18.4168],[-66.2596,18.4254],[-66.2644,18.4271],[-66.2551,18.4395],[-66.259,18.4425],[-66.258,18.4551],[-66.2491,18.451],[-66.2407,18.4557],[-66.2314,18.4497],[-66.2141,18.4651],[-66.1996,18.4648],[-66.1956,18.4711],[-66.2368,18.4703],[-66.2496,18.4743],[-66.2537,18.4815],[-66.271,18.4834],[-66.281,18.4782],[-66.3146,18.4781],[-66.3364,18.4901],[-66.3436,18.4859],[-66.3988,18.499],[-66.4156,18.4986],[-66.4184,18.477]]]},"properties":{"geoid":"72011","state":"72","district":"11","name":"State House District 11","chamber":"House"}},{"type":"Feature","geometry":{"type":"Polygon","coordinates":[[[-66.4964,18.3976],[-66.4908,18.3931],[-66.4944,18.3832],[-66.4834,18.3662],[-66.4632,18.3717],[-66.465,18.3524],[-66.4546,18.3331],[-66.4532,18.3094],[-66.455,18.3001],[-66.4614,18.3009],[-66.4582,18.2918],[-66.4649,18.2832],[-66.4605,18.2785],[-66.4599,18.2645],[-66.455,18.2631],[-66.4585,18.2589],[-66.4521,18.2561],[-66.4094,18.2633],[-66.3898,18.2743],[-66.3841,18.2905],[-66.3733,18.3019],[-66.3651,18.3331],[-66.3583,18.3307],[-66.3574,18.3437],[-66.3488,18.3502],[-66.3552,18.3607],[-66.3408,18.3575],[-66.338,18.3681],[-66.3221,18.3644],[-66.3105,18.3844],[-66.3197,18.4032],[-66.3264,18.4037],[-66.3385,18.4178],[-66.3419,18.4053],[-66.3629,18.3953],[-66.3588,18.4208],[-66.3475,18.4294],[-66.3604,18.4296],[-66.3653,18.441],[-66.3827,18.4319],[-66.3749,18.4237],[-66.3748,18.4161],[-66.3911,18.4123],[-66.3889,18.4443],[-66.4014,18.4531],[-66.3966,18.4709],[-66.4062,18.47],[-66.4093,18.4604],[-66.4163,18.471],[-66.4156,18.4986],[-66.4387,18.4899],[-66.4402,18.4356],[-66.4749,18.4294],[-66.476,18.4217],[-66.4918,18.4135],[-66.4964,18.3976]]]},"properties":{"geoid":"72012","state":"72","district":"12","name":"State House District 12","chamber":"House"}},{"type":"Feature","geometry":{"type":"MultiPolygon","coordinates":[[[[-66.7034,18.4806],[-66.6856,18.4769],[-66.6586,18.4616],[-66.6462,18.4646],[-66.6476,18.4366],[-66.617,18.4343],[-66.6175,18.4219],[-66.6293,18.4193],[-66.6281,18.4141],[-66.6209,18.4171],[-66.6175,18.4132],[-66.6135,18.4161],[-66.6081,18.4116],[-66.5909,18.4105],[-66.5891,18.3757],[-66.5823,18.3737],[-66.5917,18.3407],[-66.5862,18.3372],[-66.5732,18.3426],[-66.5512,18.3405],[-66.5337,18.3514],[-66.5189,18.3545],[-66.5116,18.3621],[-66.4834,18.3662],[-66.4947,18.3843],[-66.4908,18.3931],[-66.4964,18.3975],[-66.4943,18.4096],[-66.476,18.4217],[-66.4749,18.4294],[-66.4418,18.4344],[-66.439,18.4416],[-66.4388,18.486],[-66.4425,18.4771],[-66.4562,18.469],[-66.5119,18.4769],[-66.5267,18.4852],[-66.5333,18.4816],[-66.5333,18.4856],[-66.5489,18.4936],[-66.5767,18.4934],[-66.5862,18.4882],[-66.6246,18.498],[-66.6493,18.4928],[-66.6753,18.4947],[-66.6755,18.4875],[-66.6835,18.4815],[-66.7034,18.4806]]],[[[-66.4791,18.4727],[-66.4787,18.4724],[-66.4783,18.4725],[-66.4791,18.4727]]],[[[-66.5029,18.4763],[-66.5029,18.4761],[-66.5028,18.4763],[-66.5029,18.4763]]],[[[-66.5044,18.4765],[-66.5043,18.4764],[-66.5042,18.4766],[-66.5044,18.4765]]],[[[-66.5071,18.4775],[-66.507,18.4774],[-66.507,18.4775],[-66.5071,18.4775]]],[[[-66.5101,18.4783],[-66.5099,18.478],[-66.5099,18.4783],[-66.5101,18.4783]]],[[[-66.5109,18.4774],[-66.5104,18.4774],[-66.5104,18.4779],[-66.5109,18.4774]]],[[[-66.5131,18.4802],[-66.513,18.4801],[-66.5128,18.4801],[-66.5131,18.4802]]],[[[-66.5136,18.4802],[-66.5134,18.4801],[-66.5134,18.4803],[-66.5136,18.4802]]],[[[-66.5143,18.4806],[-66.514,18.4802],[-66.5136,18.4803],[-66.5143,18.4806]]],[[[-66.5153,18.481],[-66.5146,18.4807],[-66.5147,18.4809],[-66.5153,18.481]]],[[[-66.5156,18.4813],[-66.5155,18.4811],[-66.5153,18.4811],[-66.5156,18.4813]]],[[[-66.5164,18.4815],[-66.5163,18.4814],[-66.5164,18.4816],[-66.5164,18.4815]]],[[[-66.5199,18.4827],[-66.5199,18.4825],[-66.5197,18.4826],[-66.5199,18.4827]]],[[[-66.5204,18.4824],[-66.5203,18.4822],[-66.52,18.4824],[-66.5204,18.4824]]],[[[-66.5225,18.4833],[-66.5222,18.4828],[-66.5215,18.4828],[-66.5225,18.4833]]],[[[-66.5228,18.4835],[-66.5227,18.4834],[-66.5227,18.4835],[-66.5228,18.4835]]],[[[-66.5233,18.4833],[-66.5233,18.4833],[-66.5232,18.4833],[-66.5233,18.4833]]],[[[-66.5277,18.4852],[-66.5275,18.4851],[-66.5275,18.4852],[-66.5277,18.4852]]],[[[-66.529,18.4855],[-66.5282,18.4851],[-66.5278,18.4853],[-66.529,18.4855]]],[[[-66.6944,18.4831],[-66.6944,18.483],[-66.6942,18.483],[-66.6944,18.4831]]],[[[-66.6958,18.4833],[-66.6958,18.4832],[-66.6957,18.4832],[-66.6958,18.4833]]],[[[-66.6966,18.4824],[-66.6962,18.4825],[-66.6962,18.4827],[-66.6966,18.4824]]],[[[-66.7022,18.4818],[-66.7021,18.4817],[-66.7021,18.4818],[-66.7022,18.4818]]],[[[-66.7031,18.4815],[-66.703,18.4814],[-66.703,18.4817],[-66.7031,18.4815]]],[[[-66.7034,18.4813],[-66.7032,18.4812],[-66.7033,18.4814],[-66.7034,18.4813]]],[[[-66.7039,18.4802],[-66.7038,18.4801],[-66.7035,18.4801],[-66.7039,18.4802]]]]},"properties":{"geoid":"72013","state":"72","district":"13","name":"State House District 13","chamber":"House"}},{"type":"Feature","geometry":{"type":"Polygon","coordinates":[[[-66.826,18.3237],[-66.7703,18.3207],[-66.7654,18.332],[-66.7356,18.3497],[-66.7199,18.3368],[-66.7215,18.3237],[-66.7157,18.3152],[-66.6723,18.3245],[-66.6628,18.3198],[-66.6528,18.3282],[-66.6396,18.3245],[-66.6153,18.3329],[-66.6069,18.3281],[-66.6004,18.3393],[-66.5907,18.3382],[-66.5831,18.3629],[-66.5823,18.374],[-66.589,18.3752],[-66.5882,18.3894],[-66.5933,18.3988],[-66.5909,18.4105],[-66.6081,18.4116],[-66.6135,18.4161],[-66.6175,18.4132],[-66.6209,18.4171],[-66.6281,18.4141],[-66.6293,18.4193],[-66.6175,18.4219],[-66.617,18.4343],[-66.6476,18.4366],[-66.6462,18.4646],[-66.6586,18.4616],[-66.6883,18.4776],[-66.7003,18.4778],[-66.7077,18.4723],[-66.7393,18.474],[-66.7438,18.4752],[-66.7424,18.481],[-66.7646,18.4895],[-66.7691,18.4691],[-66.7931,18.4649],[-66.7881,18.4399],[-66.7689,18.4422],[-66.77,18.4339],[-66.7876,18.4285],[-66.7915,18.4059],[-66.8045,18.3995],[-66.8054,18.3884],[-66.814,18.3902],[-66.8106,18.3867],[-66.8212,18.3571],[-66.826,18.3237]]]},"properties":{"geoid":"72014","state":"72","district":"14","name":"State House District 14","chamber":"House"}},{"type":"Feature","geometry":{"type":"MultiPolygon","coordinates":[[[[-66.9686,18.4546],[-66.9583,18.4404],[-66.9473,18.4373],[-66.9418,18.4217],[-66.9336,18.4189],[-66.9459,18.4085],[-66.9475,18.4018],[-66.923,18.3983],[-66.9209,18.3802],[-66.905,18.3666],[-66.8856,18.3672],[-66.8769,18.3568],[-66.8532,18.355],[-66.8241,18.3433],[-66.8106,18.3867],[-66.814,18.3902],[-66.8054,18.3884],[-66.8045,18.3995],[-66.7915,18.4059],[-66.7876,18.4285],[-66.77,18.4339],[-66.7689,18.4422],[-66.7881,18.4399],[-66.7931,18.4649],[-66.7693,18.469],[-66.7651,18.4836],[-66.7938,18.4933],[-66.829,18.4869],[-66.854,18.4904],[-66.8571,18.4951],[-66.8582,18.4902],[-66.8673,18.4922],[-66.9014,18.4834],[-66.9477,18.4915],[-66.9575,18.4892],[-66.9506,18.4831],[-66.9529,18.4766],[-66.9634,18.4733],[-66.9591,18.4655],[-66.9634,18.4555],[-66.9686,18.4546]]],[[[-66.7965,18.4941],[-66.7959,18.4937],[-66.7963,18.4943],[-66.7965,18.4941]]],[[[-66.7983,18.4936],[-66.7982,18.4934],[-66.7979,18.4936],[-66.7983,18.4936]]],[[[-66.8534,18.4925],[-66.8534,18.4923],[-66.8532,18.4923],[-66.8534,18.4925]]],[[[-66.8589,18.4923],[-66.8588,18.4923],[-66.8588,18.4924],[-66.8589,18.4923]]],[[[-66.8701,18.4927],[-66.8687,18.4923],[-66.869,18.4929],[-66.8701,18.4927]]]]},"properties":{"geoid":"72015","state":"72","district":"15","name":"State House District 15","chamber":"House"}},{"type":"Feature","geometry":{"type":"Polygon","coordinates":[[[-67.1032,18.5132],[-67.0828,18.4966],[-67.0887,18.4853],[-67.0829,18.4771],[-67.0834,18.4633],[-67.0564,18.4688],[-67.0524,18.4473],[-67.0272,18.3934],[-67.0372,18.3811],[-67.0419,18.3562],[-67.0503,18.3488],[-67.0436,18.3496],[-67.0362,18.3314],[-67.0525,18.3067],[-67.0407,18.3004],[-67.0363,18.288],[-67.0312,18.2895],[-67.0381,18.2805],[-66.9789,18.276],[-66.973,18.2739],[-66.9687,18.2634],[-66.965,18.2713],[-66.954,18.2715],[-66.9489,18.2666],[-66.946,18.2732],[-66.941,18.2658],[-66.9432,18.2607],[-66.9391,18.2623],[-66.9322,18.2533],[-66.9243,18.2605],[-66.9079,18.2524],[-66.9099,18.3028],[-66.8919,18.3653],[-66.9048,18.3665],[-66.9198,18.3788],[-66.923,18.3983],[-66.9481,18.403],[-66.9336,18.4189],[-66.9418,18.4217],[-66.9473,18.4373],[-66.9583,18.4404],[-66.9686,18.4542],[-66.9634,18.4555],[-66.9591,18.4655],[-66.9634,18.4733],[-66.9529,18.4766],[-66.9506,18.4834],[-66.9599,18.4906],[-66.9781,18.4919],[-67.0212,18.5114],[-67.0276,18.5087],[-67.0536,18.5171],[-67.1032,18.5132]]]},"properties":{"geoid":"72016","state":"72","district":"16","name":"State House District 16","chamber":"House"}},{"type":"Feature","geometry":{"type":"Polygon","coordinates":[[[-67.1694,18.4746],[-67.1552,18.4334],[-67.1623,18.4101],[-67.1564,18.4125],[-67.1565,18.3937],[-67.1409,18.3919],[-67.1356,18.3859],[-67.1323,18.3894],[-67.1306,18.373],[-67.1266,18.3714],[-67.1281,18.3539],[-67.1345,18.3465],[-67.1302,18.3179],[-67.1212,18.324],[-67.1082,18.32],[-67.1087,18.3319],[-67.1054,18.3381],[-67.0896,18.3459],[-67.0858,18.3646],[-67.0781,18.3585],[-67.0669,18.3606],[-67.0667,18.3529],[-67.0553,18.3531],[-67.0546,18.3582],[-67.0475,18.3511],[-67.0422,18.3557],[-67.0372,18.3811],[-67.0272,18.3934],[-67.0524,18.4473],[-67.0564,18.4688],[-67.0834,18.4633],[-67.0829,18.4771],[-67.0887,18.4853],[-67.0827,18.4963],[-67.0975,18.5122],[-67.1375,18.5085],[-67.1641,18.4875],[-67.1694,18.4746]]]},"properties":{"geoid":"72017","state":"72","district":"17","name":"State House District 17","chamber":"House"}},{"type":"Feature","geometry":{"type":"MultiPolygon","coordinates":[[[[-67.2713,18.3629],[-67.2348,18.2995],[-67.1961,18.2905],[-67.1879,18.2666],[-67.1593,18.2738],[-67.1533,18.2691],[-67.1417,18.2702],[-67.1346,18.2645],[-67.1391,18.2593],[-67.1355,18.2457],[-67.1231,18.2428],[-67.1062,18.2528],[-67.0868,18.2492],[-67.0788,18.2589],[-67.0721,18.2548],[-67.0618,18.2701],[-67.0521,18.2661],[-67.0403,18.2718],[-67.0405,18.3001],[-67.0525,18.3067],[-67.0358,18.3294],[-67.0436,18.3496],[-67.0498,18.3476],[-67.0489,18.3544],[-67.0546,18.3582],[-67.0553,18.3531],[-67.0667,18.3529],[-67.0669,18.3606],[-67.0781,18.3585],[-67.0855,18.3648],[-67.0896,18.3459],[-67.1054,18.3381],[-67.1087,18.3319],[-67.1082,18.32],[-67.1212,18.324],[-67.1302,18.3179],[-67.1345,18.3465],[-67.1281,18.3539],[-67.1266,18.3714],[-67.1306,18.373],[-67.1323,18.3894],[-67.1356,18.3859],[-67.1409,18.3919],[-67.1565,18.3937],[-67.1535,18.3993],[-67.1593,18.4081],[-67.1564,18.4125],[-67.1622,18.4099],[-67.1603,18.4156],[-67.1883,18.4005],[-67.1946,18.3925],[-67.2241,18.3795],[-67.2249,18.3837],[-67.2404,18.38],[-67.2392,18.3754],[-67.2604,18.3705],[-67.2713,18.3629]]],[[[-67.543,18.3861],[-67.5405,18.3688],[-67.5283,18.3491],[-67.5135,18.3371],[-67.4886,18.3267],[-67.4603,18.3287],[-67.4452,18.3364],[-67.4256,18.3545],[-67.418,18.373],[-67.425,18.4068],[-67.4516,18.4306],[-67.473,18.4381],[-67.4996,18.4353],[-67.5239,18.4218],[-67.5375,18.4063],[-67.543,18.3861]]]]},"properties":{"geoid":"72018","state":"72","district":"18","name":"State House District 18","chamber":"House"}},{"type":"Feature","geometry":{"type":"MultiPolygon","coordinates":[[[[-67.9987,18.1708],[-67.9967,18.1351],[-67.9861,18.1192],[-67.9978,18.0893],[-67.9934,18.0624],[-67.9828,18.0458],[-67.9458,18.0175],[-67.9009,17.9995],[-67.8714,18.0003],[-67.8301,18.0196],[-67.7973,18.0586],[-67.7898,18.0904],[-67.7946,18.1159],[-67.8053,18.1369],[-67.8344,18.1637],[-67.8608,18.1708],[-67.8856,18.1638],[-67.8949,18.1667],[-67.9015,18.1841],[-67.9162,18.2001],[-67.9448,18.21],[-67.9642,18.2079],[-67.9825,18.1975],[-67.9945,18.185],[-67.9987,18.1708]]],[[[-67.1879,18.2668],[-67.1754,18.248],[-67.1737,18.2266],[-67.1582,18.2169],[-67.1532,18.2059],[-67.1565,18.1935],[-67.1809,18.1683],[-67.1669,18.1556],[-67.137,18.152],[-67.1292,18.1581],[-67.098,18.1587],[-67.084,18.1482],[-67.0862,18.1443],[-67.0873,18.1486],[-67.092,18.1472],[-67.0942,18.1348],[-67.0918,18.125],[-67.0778,18.116],[-67.0811,18.1067],[-67.0737,18.1091],[-67.0477,18.0958],[-67.041,18.0977],[-67.0388,18.0937],[-67.0437,18.0872],[-67.0388,18.0839],[-67.025,18.0831],[-67.0273,18.0939],[-67.0168,18.1047],[-67.0086,18.1051],[-67.0085,18.1162],[-66.9933,18.1179],[-66.9883,18.1226],[-66.9982,18.1291],[-67.0152,18.1241],[-67.0202,18.1285],[-66.9986,18.1448],[-66.9935,18.1504],[-66.9951,18.1555],[-67.0095,18.1587],[-67.0139,18.1659],[-67.0439,18.1692],[-67.0513,18.1741],[-67.0511,18.1775],[-67.0339,18.1809],[-67.0347,18.1855],[-67.0238,18.1847],[-67.0174,18.1899],[-67.0188,18.2045],[-67.0332,18.2083],[-67.033,18.2181],[-67.0504,18.2275],[-67.0559,18.2454],[-67.0739,18.2476],[-67.0819,18.255],[-67.0868,18.2492],[-67.1065,18.2528],[-67.1231,18.2428],[-67.1358,18.2458],[-67.1391,18.2593],[-67.1346,18.2645],[-67.1419,18.2703],[-67.1533,18.2691],[-67.1593,18.2738],[-67.1879,18.2668]]]]},"properties":{"geoid":"72019","state":"72","district":"19","name":"State House District 19","chamber":"House"}},{"type":"Feature","geometry":{"type":"MultiPolygon","coordinates":[[[[-67.2153,17.9831],[-67.2132,17.9527],[-67.1947,17.9498],[-67.1946,17.9328],[-67.1888,17.9359],[-67.1833,17.9312],[-67.1924,17.9518],[-67.1761,17.9654],[-67.162,17.9623],[-67.159,17.9539],[-67.1098,17.9459],[-67.1023,17.975],[-67.1099,17.9793],[-67.1101,18.0159],[-67.1159,18.0316],[-67.1091,18.0562],[-67.0849,18.0591],[-67.0682,18.0664],[-67.0362,18.0578],[-67.0079,18.0605],[-66.9953,18.0526],[-66.9835,18.0526],[-66.9806,18.0788],[-66.9851,18.1034],[-66.9792,18.1217],[-66.9707,18.128],[-66.9724,18.1397],[-66.9936,18.1528],[-67.0193,18.13],[-67.0152,18.1241],[-66.9982,18.1291],[-66.9881,18.1229],[-66.9933,18.1179],[-67.0085,18.1162],[-67.008,18.1059],[-67.0237,18.0984],[-67.0284,18.0901],[-67.0241,18.0839],[-67.0318,18.0828],[-67.0435,18.0869],[-67.0388,18.0937],[-67.041,18.0977],[-67.0477,18.0958],[-67.0737,18.1091],[-67.0811,18.1067],[-67.0778,18.116],[-67.0918,18.125],[-67.0942,18.1348],[-67.092,18.1472],[-67.0873,18.1486],[-67.0862,18.1443],[-67.084,18.1482],[-67.098,18.1587],[-67.1292,18.1581],[-67.137,18.152],[-67.1577,18.1562],[-67.1619,18.1524],[-67.1825,18.1683],[-67.1849,18.1638],[-67.1767,18.151],[-67.1867,18.1349],[-67.183,18.1043],[-67.1994,18.091],[-67.1952,18.0889],[-67.1993,18.08],[-67.196,18.0723],[-67.1937,18.08],[-67.1843,18.0685],[-67.1907,18.0643],[-67.1968,18.0665],[-67.2019,18.0567],[-67.1988,18.0474],[-67.21,18.0355],[-67.184,18.0275],[-67.1813,18.0308],[-67.1724,18.0221],[-67.1774,18.0074],[-67.1667,18.0176],[-67.1652,18.0079],[-67.1786,18.004],[-67.1834,18.0054],[-67.1805,18.0087],[-67.2066,17.9987],[-67.2153,17.9831]]],[[[-67.1332,17.9501],[-67.1286,17.9491],[-67.1297,17.9505],[-67.1332,17.9501]]],[[[-67.1789,18.007],[-67.1786,18.0066],[-67.1782,18.0077],[-67.1789,18.007]]],[[[-67.1888,18.1168],[-67.1877,18.1164],[-67.1882,18.117],[-67.1888,18.1168]]],[[[-67.1998,18.0854],[-67.1993,18.0857],[-67.1991,18.0864],[-67.1998,18.0854]]],[[[-67.1999,18.0851],[-67.1996,18.0848],[-67.1997,18.0852],[-67.1999,18.0851]]],[[[-67.2014,18.0821],[-67.2005,18.0814],[-67.2006,18.0821],[-67.2014,18.0821]]],[[[-67.2019,18.0809],[-67.2,18.0795],[-67.2,18.0806],[-67.2019,18.0809]]],[[[-67.2146,17.9519],[-67.2141,17.9519],[-67.2135,17.9526],[-67.2146,17.9519]]]]},"properties":{"geoid":"72020","state":"72","district":"20","name":"State House District 20","chamber":"House"}},{"type":"Feature","geometry":{"type":"MultiPolygon","coordinates":[[[[-67.1159,18.0318],[-67.1101,18.0159],[-67.1099,17.9793],[-67.1023,17.975],[-67.1098,17.9459],[-67.0933,17.9513],[-67.0927,17.9567],[-67.0968,17.9569],[-67.0836,17.9671],[-67.0835,17.9607],[-67.0774,17.9584],[-67.0786,17.9663],[-67.0637,17.9736],[-67.025,17.9724],[-67.019,17.9677],[-67.0158,17.9761],[-67.0097,17.9732],[-67.0139,17.9673],[-67.003,17.9606],[-67.0059,17.9723],[-66.9869,17.9709],[-66.9815,17.9607],[-66.9832,17.9483],[-66.9628,17.9368],[-66.9591,17.9274],[-66.9358,17.932],[-66.9242,17.9269],[-66.9193,17.9311],[-66.9327,17.9388],[-66.9301,17.9435],[-66.9092,17.95],[-66.9104,17.9619],[-66.9311,17.9615],[-66.921,17.9705],[-66.912,17.9632],[-66.9057,17.9647],[-66.9023,17.949],[-66.8825,17.9526],[-66.8782,17.9477],[-66.8717,17.9527],[-66.8627,17.9454],[-66.8595,17.9548],[-66.8632,17.998],[-66.876,18.0149],[-66.866,18.0223],[-66.8712,18.0218],[-66.8686,18.034],[-66.8844,18.053],[-66.8719,18.0577],[-66.8755,18.0712],[-66.8674,18.0692],[-66.869,18.0643],[-66.8576,18.0567],[-66.8511,18.0623],[-66.8499,18.0709],[-66.8272,18.083],[-66.8245,18.0888],[-66.8286,18.0988],[-66.81,18.1078],[-66.8104,18.1137],[-66.7961,18.1216],[-66.7977,18.1346],[-66.8041,18.1481],[-66.8211,18.1529],[-66.8272,18.1713],[-66.8627,18.1734],[-66.864,18.1867],[-66.898,18.1879],[-66.9129,18.2327],[-66.9064,18.2528],[-66.9243,18.2605],[-66.9322,18.2533],[-66.9391,18.2623],[-66.9432,18.2607],[-66.941,18.2658],[-66.946,18.2732],[-66.9489,18.2666],[-66.954,18.2715],[-66.965,18.2713],[-66.9687,18.2634],[-66.973,18.2739],[-66.9789,18.276],[-67.0378,18.2803],[-67.031,18.289],[-67.0379,18.2898],[-67.0403,18.2718],[-67.0521,18.2661],[-67.0618,18.2701],[-67.0721,18.2548],[-67.0782,18.2589],[-67.0819,18.255],[-67.0739,18.2476],[-67.0559,18.2454],[-67.0504,18.2275],[-67.033,18.2181],[-67.0332,18.2083],[-67.0188,18.2045],[-67.0182,18.1879],[-67.0345,18.1855],[-67.0339,18.1809],[-67.0511,18.1775],[-67.0513,18.1741],[-67.0439,18.1692],[-67.0139,18.1659],[-67.0095,18.1587],[-66.9963,18.1563],[-66.9718,18.1386],[-66.9707,18.128],[-66.9792,18.1217],[-66.9851,18.1034],[-66.9819,18.0564],[-66.9835,18.0526],[-66.9953,18.0526],[-67.0079,18.0605],[-67.0362,18.0578],[-67.0683,18.0664],[-67.0849,18.0591],[-67.1091,18.0562],[-67.1159,18.0318]]],[[[-66.8696,17.9445],[-66.8654,17.9456],[-66.8668,17.9471],[-66.8696,17.9445]]],[[[-66.8721,17.9439],[-66.8694,17.9432],[-66.8704,17.9442],[-66.8721,17.9439]]],[[[-66.875,17.9415],[-66.8721,17.9408],[-66.8701,17.9427],[-66.875,17.9415]]],[[[-66.9118,17.9466],[-66.9114,17.9464],[-66.9111,17.9469],[-66.9118,17.9466]]],[[[-66.9123,17.9463],[-66.912,17.9459],[-66.9117,17.9462],[-66.9123,17.9463]]],[[[-66.9126,17.9461],[-66.9123,17.9459],[-66.9124,17.9461],[-66.9126,17.9461]]],[[[-66.974,17.9304],[-66.9733,17.9299],[-66.9737,17.9306],[-66.974,17.9304]]],[[[-66.9844,17.9625],[-66.9841,17.9623],[-66.9841,17.9626],[-66.9844,17.9625]]],[[[-66.9844,17.9492],[-66.9832,17.9486],[-66.984,17.9492],[-66.9844,17.9492]]],[[[-66.9848,17.9493],[-66.9847,17.9493],[-66.9847,17.9494],[-66.9848,17.9493]]],[[[-66.9855,17.9499],[-66.985,17.9493],[-66.9849,17.9498],[-66.9855,17.9499]]],[[[-66.9857,17.9608],[-66.9849,17.9608],[-66.9841,17.9615],[-66.9857,17.9608]]],[[[-66.986,17.9646],[-66.9855,17.9646],[-66.9857,17.9648],[-66.986,17.9646]]],[[[-66.9864,17.9642],[-66.9863,17.9641],[-66.9861,17.9642],[-66.9864,17.9642]]],[[[-66.987,17.95],[-66.9858,17.9497],[-66.9864,17.9503],[-66.987,17.95]]],[[[-66.988,17.9632],[-66.9867,17.9628],[-66.9856,17.9637],[-66.988,17.9632]]],[[[-66.9886,17.9499],[-66.9883,17.9496],[-66.988,17.9499],[-66.9886,17.9499]]],[[[-66.9909,17.9623],[-66.99,17.9626],[-66.9906,17.9627],[-66.9909,17.9623]]],[[[-66.9909,17.9668],[-66.9902,17.967],[-66.9905,17.9673],[-66.9909,17.9668]]],[[[-66.9931,17.97],[-66.9921,17.9698],[-66.9918,17.9716],[-66.9931,17.97]]],[[[-66.9933,17.9643],[-66.9932,17.9641],[-66.9929,17.9642],[-66.9933,17.9643]]],[[[-66.995,17.9708],[-66.9948,17.9699],[-66.9942,17.9698],[-66.995,17.9708]]],[[[-66.996,17.9706],[-66.9959,17.97],[-66.9954,17.9701],[-66.996,17.9706]]],[[[-67.0001,17.9696],[-66.9993,17.9694],[-66.9987,17.9704],[-67.0001,17.9696]]],[[[-67.0027,17.9673],[-67.0008,17.968],[-67.0026,17.9694],[-67.0027,17.9673]]],[[[-67.0099,17.962],[-67.0087,17.9605],[-67.0093,17.9619],[-67.0099,17.962]]],[[[-67.023,17.9685],[-67.0213,17.9683],[-67.0228,17.9691],[-67.023,17.9685]]],[[[-67.0336,17.9638],[-67.0328,17.9635],[-67.0333,17.9639],[-67.0336,17.9638]]],[[[-67.0356,17.9624],[-67.0353,17.9622],[-67.035,17.9627],[-67.0356,17.9624]]],[[[-67.0365,17.9616],[-67.0358,17.9613],[-67.0361,17.9617],[-67.0365,17.9616]]],[[[-67.0367,17.9709],[-67.0359,17.9709],[-67.0361,17.9712],[-67.0367,17.9709]]],[[[-67.0393,17.9601],[-67.0375,17.96],[-67.0378,17.9603],[-67.0393,17.9601]]],[[[-67.0402,17.9709],[-67.0399,17.9706],[-67.0393,17.9711],[-67.0402,17.9709]]],[[[-67.0402,17.9598],[-67.0401,17.9597],[-67.0396,17.96],[-67.0402,17.9598]]],[[[-67.0455,17.9535],[-67.0452,17.9532],[-67.0453,17.9535],[-67.0455,17.9535]]],[[[-67.0465,17.9703],[-67.0436,17.9678],[-67.0413,17.9705],[-67.0465,17.9703]]],[[[-67.0472,17.9533],[-67.0462,17.9534],[-67.0466,17.9537],[-67.0472,17.9533]]],[[[-67.0487,17.9708],[-67.0476,17.9704],[-67.0481,17.9709],[-67.0487,17.9708]]],[[[-67.0494,17.9662],[-67.0487,17.9655],[-67.049,17.9663],[-67.0494,17.9662]]],[[[-67.0619,17.9719],[-67.0608,17.9712],[-67.0611,17.9721],[-67.0619,17.9719]]],[[[-67.0646,17.9653],[-67.0643,17.9651],[-67.0641,17.9654],[-67.0646,17.9653]]],[[[-67.0654,17.9658],[-67.0651,17.9656],[-67.065,17.9659],[-67.0654,17.9658]]],[[[-67.0668,17.9664],[-67.0664,17.9663],[-67.0666,17.9666],[-67.0668,17.9664]]],[[[-67.0709,17.9626],[-67.0705,17.962],[-67.0706,17.9626],[-67.0709,17.9626]]],[[[-67.0714,17.9641],[-67.071,17.9638],[-67.0705,17.9644],[-67.0714,17.9641]]],[[[-67.0735,17.9575],[-67.0732,17.9574],[-67.0731,17.9577],[-67.0735,17.9575]]],[[[-67.0861,17.9608],[-67.0847,17.9607],[-67.0849,17.9613],[-67.0861,17.9608]]],[[[-67.087,17.961],[-67.0863,17.9606],[-67.0867,17.9611],[-67.087,17.961]]],[[[-67.0874,17.9628],[-67.0863,17.962],[-67.0857,17.9629],[-67.0874,17.9628]]],[[[-67.0923,17.9602],[-67.092,17.9599],[-67.0917,17.9603],[-67.0923,17.9602]]],[[[-67.0924,17.9522],[-67.0882,17.9609],[-67.0915,17.9609],[-67.0924,17.9522]]],[[[-67.0929,17.9586],[-67.0923,17.9579],[-67.0925,17.9599],[-67.0929,17.9586]]]]},"properties":{"geoid":"72021","state":"72","district":"21","name":"State House District 21","chamber":"House"}},{"type":"Feature","geometry":{"type":"Polygon","coordinates":[[[-66.9129,18.233],[-66.898,18.1879],[-66.864,18.1867],[-66.8627,18.1734],[-66.8506,18.1706],[-66.8249,18.1729],[-66.8363,18.1857],[-66.8345,18.2017],[-66.824,18.1933],[-66.8119,18.1923],[-66.8132,18.177],[-66.7854,18.1882],[-66.784,18.183],[-66.7633,18.1838],[-66.7579,18.1765],[-66.7526,18.182],[-66.7549,18.1989],[-66.735,18.194],[-66.7278,18.205],[-66.7078,18.1961],[-66.6811,18.2023],[-66.6851,18.1972],[-66.6813,18.1869],[-66.6648,18.1755],[-66.6768,18.1604],[-66.6761,18.1507],[-66.6495,18.1589],[-66.6545,18.1697],[-66.6505,18.1736],[-66.6523,18.1826],[-66.6422,18.1835],[-66.6439,18.1944],[-66.6326,18.2134],[-66.6285,18.2146],[-66.6261,18.2022],[-66.6159,18.2113],[-66.6139,18.2194],[-66.5985,18.2137],[-66.5819,18.2272],[-66.5702,18.2268],[-66.5455,18.2207],[-66.538,18.2132],[-66.5327,18.2002],[-66.5367,18.1882],[-66.5311,18.1802],[-66.5386,18.1763],[-66.5432,18.1632],[-66.5312,18.1557],[-66.518,18.1669],[-66.5119,18.1668],[-66.5152,18.1851],[-66.5112,18.199],[-66.5179,18.2299],[-66.5087,18.2303],[-66.507,18.2371],[-66.5122,18.2427],[-66.5083,18.2492],[-66.5026,18.2506],[-66.5011,18.2566],[-66.4688,18.2461],[-66.4542,18.2509],[-66.4586,18.2596],[-66.455,18.2631],[-66.4599,18.2645],[-66.4605,18.2785],[-66.4649,18.2832],[-66.4582,18.2918],[-66.4614,18.3009],[-66.455,18.3001],[-66.4532,18.3094],[-66.4546,18.3331],[-66.465,18.3524],[-66.4632,18.3717],[-66.5116,18.3621],[-66.5189,18.3545],[-66.5337,18.3514],[-66.5512,18.3405],[-66.6001,18.3395],[-66.6069,18.3281],[-66.6153,18.3329],[-66.6396,18.3245],[-66.6528,18.3282],[-66.6628,18.3198],[-66.6723,18.3245],[-66.7157,18.3152],[-66.7215,18.3237],[-66.7198,18.3366],[-66.7306,18.3494],[-66.7652,18.3321],[-66.7703,18.3207],[-66.826,18.3234],[-66.8241,18.3433],[-66.8532,18.355],[-66.8769,18.3568],[-66.8855,18.3671],[-66.8931,18.3676],[-66.9099,18.3028],[-66.9056,18.2519],[-66.9129,18.233]]]},"properties":{"geoid":"72022","state":"72","district":"22","name":"State House District 22","chamber":"House"}},{"type":"Feature","geometry":{"type":"MultiPolygon","coordinates":[[[[-66.8848,18.0497],[-66.873,18.0428],[-66.8683,18.0332],[-66.8713,18.0221],[-66.8664,18.0194],[-66.876,18.0149],[-66.8632,17.998],[-66.8595,17.9545],[-66.8386,17.9499],[-66.7873,17.9727],[-66.784,17.9859],[-66.7933,17.9772],[-66.8056,17.975],[-66.8065,17.9845],[-66.7975,17.9821],[-66.798,17.995],[-66.7906,17.9929],[-66.7675,18.0069],[-66.7629,18.0001],[-66.7543,17.9994],[-66.7631,17.9945],[-66.7565,17.9915],[-66.7532,17.9979],[-66.7505,17.9956],[-66.758,17.9821],[-66.7629,17.9847],[-66.7576,17.9761],[-66.7496,17.9886],[-66.7327,17.9924],[-66.7314,17.988],[-66.727,17.9916],[-66.727,17.9877],[-66.7167,17.9834],[-66.722,17.9831],[-66.7208,17.9753],[-66.7271,17.9714],[-66.7057,17.9813],[-66.6799,17.9737],[-66.6737,17.9667],[-66.6631,17.9685],[-66.6604,17.9885],[-66.667,17.9976],[-66.6677,18.0133],[-66.6762,18.0196],[-66.6691,18.0312],[-66.6759,18.0387],[-66.6583,18.0481],[-66.6696,18.0697],[-66.6802,18.0772],[-66.678,18.1008],[-66.694,18.1305],[-66.6766,18.1302],[-66.6703,18.1512],[-66.677,18.151],[-66.6769,18.1601],[-66.6647,18.1732],[-66.6813,18.1869],[-66.6851,18.1972],[-66.6811,18.2023],[-66.7078,18.1961],[-66.7278,18.205],[-66.735,18.194],[-66.7549,18.1989],[-66.7526,18.182],[-66.7579,18.1765],[-66.7633,18.1838],[-66.784,18.183],[-66.7854,18.1882],[-66.8132,18.177],[-66.8119,18.1923],[-66.824,18.1933],[-66.8345,18.2017],[-66.8363,18.1857],[-66.8248,18.1738],[-66.8262,18.1603],[-66.8179,18.1506],[-66.8041,18.1481],[-66.7961,18.1216],[-66.8104,18.1137],[-66.81,18.1078],[-66.8271,18.1006],[-66.8255,18.0852],[-66.8499,18.0709],[-66.8541,18.0588],[-66.8629,18.0579],[-66.8694,18.0647],[-66.8674,18.0692],[-66.8755,18.0712],[-66.8719,18.0577],[-66.8769,18.0585],[-66.8848,18.0497]]],[[[-66.6813,17.9538],[-66.6802,17.9521],[-66.68,17.9528],[-66.6813,17.9538]]],[[[-66.6831,17.9531],[-66.682,17.9523],[-66.6821,17.9537],[-66.6831,17.9531]]],[[[-66.7339,17.9681],[-66.732,17.9677],[-66.7314,17.9716],[-66.7339,17.9681]]],[[[-66.7406,17.9814],[-66.7355,17.9837],[-66.7369,17.9846],[-66.7406,17.9814]]],[[[-66.7503,17.9755],[-66.7496,17.9739],[-66.7444,17.9728],[-66.7503,17.9755]]],[[[-66.7532,17.9668],[-66.752,17.965],[-66.7482,17.9665],[-66.7532,17.9668]]],[[[-66.7546,17.9667],[-66.7537,17.9659],[-66.7536,17.9664],[-66.7546,17.9667]]]]},"properties":{"geoid":"72023","state":"72","district":"23","name":"State House District 23","chamber":"House"}},{"type":"Feature","geometry":{"type":"MultiPolygon","coordinates":[[[[-66.6762,18.0196],[-66.6677,18.0133],[-66.667,17.9976],[-66.6604,17.9885],[-66.6627,17.9693],[-66.6503,17.9788],[-66.6318,17.9828],[-66.6172,17.9775],[-66.6153,17.9711],[-66.6212,17.9671],[-66.6136,17.9635],[-66.6191,17.9626],[-66.6054,17.9689],[-66.5892,17.9689],[-66.5909,17.9881],[-66.5975,17.9856],[-66.5916,18.0069],[-66.5964,18.0186],[-66.5825,18.0332],[-66.5899,18.0378],[-66.6004,18.0417],[-66.6109,18.033],[-66.6186,18.037],[-66.6329,18.0323],[-66.6459,18.0353],[-66.6625,18.0487],[-66.6759,18.0387],[-66.6691,18.0312],[-66.6762,18.0196]]],[[[-66.6362,17.9573],[-66.6352,17.9561],[-66.6338,17.9569],[-66.6362,17.9573]]]]},"properties":{"geoid":"72024","state":"72","district":"24","name":"State House District 24","chamber":"House"}},{"type":"Feature","geometry":{"type":"MultiPolygon","coordinates":[[[[-66.694,18.1305],[-66.678,18.1008],[-66.6802,18.0772],[-66.6696,18.0697],[-66.6515,18.0399],[-66.6329,18.0323],[-66.6186,18.037],[-66.6114,18.0329],[-66.5994,18.0418],[-66.5825,18.0332],[-66.5964,18.0186],[-66.5916,18.0069],[-66.5975,17.9856],[-66.5909,17.9881],[-66.5892,17.9689],[-66.5841,17.9614],[-66.4997,17.9888],[-66.4763,17.9897],[-66.4752,18.0235],[-66.4805,18.0251],[-66.4905,18.0442],[-66.5037,18.044],[-66.4933,18.0622],[-66.5082,18.0613],[-66.5068,18.0728],[-66.5211,18.0762],[-66.5183,18.085],[-66.5288,18.1008],[-66.5233,18.1223],[-66.528,18.1351],[-66.5219,18.1521],[-66.5343,18.1525],[-66.5416,18.1474],[-66.5472,18.1533],[-66.5386,18.1763],[-66.5311,18.1802],[-66.5367,18.1886],[-66.5327,18.2005],[-66.5455,18.2207],[-66.5817,18.2273],[-66.5985,18.2137],[-66.6139,18.2194],[-66.6159,18.2113],[-66.6269,18.202],[-66.6285,18.2146],[-66.6326,18.2134],[-66.6439,18.1944],[-66.6422,18.1835],[-66.6523,18.1826],[-66.6505,18.1736],[-66.6545,18.1697],[-66.6495,18.1589],[-66.6705,18.1528],[-66.6769,18.1301],[-66.694,18.1305]]],[[[-66.5298,17.884],[-66.5104,17.9012],[-66.5222,17.8978],[-66.5298,17.884]]],[[[-66.534,17.8816],[-66.5307,17.8832],[-66.5327,17.883],[-66.534,17.8816]]],[[[-66.558,17.9621],[-66.5539,17.9617],[-66.5524,17.9629],[-66.558,17.9621]]],[[[-66.5903,17.959],[-66.5892,17.9596],[-66.5901,17.9597],[-66.5903,17.959]]]]},"properties":{"geoid":"72025","state":"72","district":"25","name":"State House District 25","chamber":"House"}},{"type":"Feature","geometry":{"type":"Polygon","coordinates":[[[-66.5472,18.1533],[-66.5416,18.1474],[-66.5343,18.1525],[-66.5219,18.1521],[-66.5284,18.1316],[-66.5233,18.1223],[-66.5301,18.1067],[-66.5183,18.085],[-66.507,18.081],[-66.5018,18.0865],[-66.5055,18.0935],[-66.4924,18.0984],[-66.4821,18.0883],[-66.4548,18.0814],[-66.4389,18.085],[-66.4303,18.0822],[-66.4302,18.0765],[-66.4112,18.0791],[-66.3981,18.0725],[-66.3956,18.0772],[-66.3846,18.0735],[-66.3902,18.0829],[-66.364,18.0764],[-66.366,18.0813],[-66.3587,18.0869],[-66.3597,18.0914],[-66.3535,18.0917],[-66.3504,18.085],[-66.3217,18.0845],[-66.3213,18.1071],[-66.3109,18.1183],[-66.3206,18.1259],[-66.3126,18.1377],[-66.3168,18.1407],[-66.3125,18.1566],[-66.278,18.1742],[-66.2566,18.1711],[-66.2555,18.1662],[-66.2485,18.1655],[-66.2405,18.1854],[-66.2441,18.1935],[-66.2567,18.1828],[-66.2636,18.1852],[-66.2646,18.2056],[-66.2707,18.2192],[-66.2851,18.2134],[-66.3034,18.1899],[-66.3017,18.2207],[-66.3092,18.2352],[-66.3079,18.2439],[-66.3141,18.2487],[-66.2963,18.2575],[-66.2908,18.2669],[-66.2985,18.2762],[-66.3108,18.2813],[-66.3303,18.2747],[-66.3375,18.2828],[-66.3426,18.2809],[-66.3408,18.2774],[-66.3486,18.2811],[-66.3508,18.2841],[-66.3397,18.2997],[-66.3548,18.3041],[-66.3567,18.2993],[-66.3722,18.3099],[-66.3896,18.2745],[-66.4094,18.2633],[-66.4382,18.2559],[-66.4555,18.2578],[-66.4542,18.2509],[-66.467,18.2459],[-66.5011,18.2566],[-66.5122,18.2428],[-66.5069,18.2369],[-66.5087,18.2303],[-66.5179,18.2299],[-66.5112,18.199],[-66.5152,18.1851],[-66.5119,18.1668],[-66.518,18.1669],[-66.5312,18.1557],[-66.5432,18.1632],[-66.5472,18.1533]]]},"properties":{"geoid":"72026","state":"72","district":"26","name":"State House District 26","chamber":"House"}},{"type":"Feature","geometry":{"type":"MultiPolygon","coordinates":[[[[-66.5217,18.0793],[-66.5068,18.0728],[-66.5082,18.0613],[-66.4933,18.0622],[-66.5037,18.044],[-66.4905,18.0442],[-66.4805,18.0251],[-66.4752,18.0235],[-66.4754,17.9923],[-66.4801,17.9877],[-66.4585,17.9893],[-66.4274,17.9585],[-66.4183,17.9592],[-66.4139,17.9644],[-66.3796,17.9614],[-66.3792,17.9784],[-66.3665,17.9916],[-66.3716,17.9979],[-66.3675,18.0013],[-66.3695,18.0139],[-66.3577,18.0197],[-66.3503,18.0309],[-66.3291,18.0155],[-66.3308,18.0192],[-66.3258,18.0183],[-66.3124,18.0331],[-66.3129,18.0447],[-66.2978,18.0571],[-66.2849,18.0597],[-66.2787,18.0694],[-66.2422,18.0771],[-66.2399,18.0932],[-66.2245,18.0952],[-66.2268,18.1168],[-66.2204,18.1208],[-66.2167,18.1383],[-66.2204,18.1434],[-66.2164,18.1466],[-66.2274,18.1507],[-66.2241,18.1545],[-66.2289,18.1594],[-66.2239,18.1661],[-66.2401,18.18],[-66.2479,18.1741],[-66.2487,18.1655],[-66.2555,18.1662],[-66.2566,18.1711],[-66.278,18.1742],[-66.315,18.1535],[-66.3167,18.1398],[-66.3126,18.1377],[-66.3206,18.1259],[-66.3109,18.1183],[-66.3213,18.1071],[-66.3217,18.0845],[-66.3504,18.085],[-66.3535,18.0917],[-66.3597,18.0914],[-66.3587,18.0869],[-66.366,18.0813],[-66.364,18.0764],[-66.3902,18.0829],[-66.3846,18.0735],[-66.3956,18.0772],[-66.3978,18.0725],[-66.4108,18.079],[-66.4302,18.0765],[-66.4303,18.0822],[-66.4369,18.0846],[-66.4545,18.0813],[-66.4791,18.0874],[-66.4924,18.0984],[-66.5055,18.0935],[-66.5018,18.0874],[-66.5049,18.0824],[-66.5182,18.0851],[-66.5217,18.0793]]],[[[-66.3406,17.9661],[-66.3402,17.9656],[-66.3402,17.9659],[-66.3406,17.9661]]],[[[-66.4558,17.924],[-66.4533,17.924],[-66.4543,17.9251],[-66.4558,17.924]]],[[[-66.4559,17.9248],[-66.4554,17.9245],[-66.4554,17.925],[-66.4559,17.9248]]],[[[-66.4586,17.9326],[-66.4566,17.9235],[-66.4544,17.9298],[-66.4586,17.9326]]]]},"properties":{"geoid":"72027","state":"72","district":"27","name":"State House District 27","chamber":"House"}},{"type":"Feature","geometry":{"type":"Polygon","coordinates":[[[-66.3723,18.3104],[-66.3567,18.2993],[-66.3548,18.3041],[-66.3397,18.2997],[-66.3508,18.2841],[-66.3486,18.2811],[-66.3408,18.2774],[-66.3426,18.2809],[-66.3375,18.2828],[-66.3303,18.2747],[-66.3108,18.2813],[-66.2985,18.2762],[-66.2908,18.2669],[-66.2963,18.2575],[-66.3141,18.2487],[-66.3079,18.2439],[-66.3092,18.2352],[-66.3017,18.2207],[-66.3058,18.1967],[-66.3028,18.1896],[-66.2852,18.2133],[-66.2707,18.2192],[-66.2646,18.2056],[-66.2633,18.185],[-66.2567,18.1828],[-66.244,18.1935],[-66.2405,18.1847],[-66.2305,18.1843],[-66.224,18.1743],[-66.2122,18.173],[-66.2133,18.1856],[-66.2069,18.197],[-66.1825,18.2023],[-66.1843,18.2071],[-66.1697,18.2174],[-66.1687,18.2252],[-66.1761,18.2295],[-66.1783,18.2463],[-66.1927,18.2603],[-66.1932,18.2681],[-66.2065,18.277],[-66.2136,18.3061],[-66.206,18.3069],[-66.2053,18.3174],[-66.2168,18.3339],[-66.2326,18.3236],[-66.2404,18.3332],[-66.2488,18.3258],[-66.2585,18.3319],[-66.2777,18.3298],[-66.2884,18.3529],[-66.3052,18.37],[-66.3122,18.3644],[-66.3381,18.3681],[-66.3408,18.3575],[-66.3552,18.3607],[-66.3486,18.3505],[-66.3574,18.3437],[-66.3583,18.3307],[-66.3651,18.3331],[-66.3723,18.3104]]]},"properties":{"geoid":"72028","state":"72","district":"28","name":"State House District 28","chamber":"House"}},{"type":"Feature","geometry":{"type":"Polygon","coordinates":[[[-66.2444,18.1827],[-66.2239,18.1661],[-66.2289,18.1594],[-66.2241,18.1545],[-66.2274,18.1506],[-66.2164,18.1466],[-66.2203,18.1437],[-66.2169,18.1364],[-66.2205,18.1206],[-66.2268,18.1168],[-66.2271,18.1023],[-66.2167,18.0895],[-66.2158,18.0794],[-66.2018,18.0676],[-66.2019,18.0462],[-66.1723,18.0541],[-66.1391,18.0369],[-66.129,18.0391],[-66.1198,18.0627],[-66.129,18.0891],[-66.1264,18.0972],[-66.113,18.0902],[-66.1092,18.1001],[-66.0982,18.1069],[-66.0687,18.1018],[-66.0515,18.11],[-66.0608,18.1163],[-66.0696,18.1373],[-66.066,18.1484],[-66.0803,18.1521],[-66.0951,18.1691],[-66.1051,18.1715],[-66.1017,18.1831],[-66.1174,18.2094],[-66.1412,18.1979],[-66.1389,18.2101],[-66.1468,18.2135],[-66.1461,18.2305],[-66.1555,18.2212],[-66.1707,18.2242],[-66.1699,18.217],[-66.1843,18.2071],[-66.1825,18.2023],[-66.2069,18.197],[-66.2137,18.1836],[-66.2118,18.173],[-66.224,18.1743],[-66.2305,18.1843],[-66.2444,18.1827]]]},"properties":{"geoid":"72029","state":"72","district":"29","name":"State House District 29","chamber":"House"}},{"type":"Feature","geometry":{"type":"MultiPolygon","coordinates":[[[[-66.4182,17.9593],[-66.3907,17.9461],[-66.385,17.939],[-66.3767,17.9467],[-66.3813,17.9483],[-66.3762,17.9493],[-66.3766,17.9557],[-66.37,17.9512],[-66.3666,17.9528],[-66.3697,17.9609],[-66.36,17.9612],[-66.365,17.9645],[-66.3628,17.9681],[-66.3579,17.9649],[-66.3391,17.9763],[-66.3227,17.9785],[-66.3136,17.9693],[-66.3094,17.9725],[-66.3131,17.9683],[-66.2977,17.9592],[-66.2907,17.9614],[-66.2888,17.9419],[-66.271,17.9472],[-66.2631,17.9432],[-66.2608,17.9362],[-66.2467,17.9307],[-66.2485,17.9343],[-66.2444,17.9349],[-66.2527,17.9349],[-66.2627,17.9461],[-66.2581,17.9476],[-66.252,17.9372],[-66.2426,17.9436],[-66.2409,17.9378],[-66.2388,17.9441],[-66.2332,17.9404],[-66.2382,17.9394],[-66.2319,17.931],[-66.2314,17.9437],[-66.2372,17.9412],[-66.2362,17.9455],[-66.2241,17.9524],[-66.2219,17.9492],[-66.2179,17.9574],[-66.2137,17.9553],[-66.2157,17.9591],[-66.2068,17.9632],[-66.1769,17.9504],[-66.1723,17.9399],[-66.1759,17.9451],[-66.1808,17.9445],[-66.1832,17.9372],[-66.2133,17.9446],[-66.2065,17.9342],[-66.2106,17.9319],[-66.2,17.9294],[-66.1911,17.9385],[-66.1605,17.9317],[-66.1612,17.94],[-66.1546,17.9421],[-66.161,17.9398],[-66.1558,17.9368],[-66.1596,17.9284],[-66.1409,17.9409],[-66.1125,17.9488],[-66.0808,17.9667],[-66.0593,17.9624],[-66.0481,17.9524],[-66.0198,17.9786],[-66.0242,17.9906],[-66.047,18.0091],[-66.0417,18.0173],[-66.0481,18.0357],[-66.0574,18.0405],[-66.082,18.0329],[-66.0861,18.0373],[-66.0878,18.0612],[-66.0795,18.0662],[-66.0809,18.0743],[-66.0682,18.0788],[-66.0601,18.0904],[-66.0613,18.0999],[-66.0531,18.1076],[-66.0687,18.1018],[-66.0904,18.1076],[-66.1092,18.1002],[-66.113,18.0902],[-66.1271,18.0964],[-66.129,18.0891],[-66.1198,18.0627],[-66.1288,18.0393],[-66.1391,18.0369],[-66.1723,18.0541],[-66.2019,18.0462],[-66.2018,18.0676],[-66.2158,18.0794],[-66.2184,18.0926],[-66.2399,18.0932],[-66.2422,18.0771],[-66.2789,18.0693],[-66.2849,18.0597],[-66.2978,18.0571],[-66.3105,18.0472],[-66.3124,18.0331],[-66.3258,18.0183],[-66.3308,18.0192],[-66.3291,18.0155],[-66.3503,18.0309],[-66.3577,18.0197],[-66.3694,18.0142],[-66.3716,18.0079],[-66.367,18.0066],[-66.3675,18.0013],[-66.3716,17.9979],[-66.3665,17.9916],[-66.3792,17.9784],[-66.3796,17.9614],[-66.4139,17.9644],[-66.4182,17.9593]]],[[[-66.205,17.9309],[-66.2017,17.9278],[-66.2024,17.9297],[-66.205,17.9309]]],[[[-66.2054,17.9286],[-66.2044,17.9275],[-66.2048,17.9283],[-66.2054,17.9286]]],[[[-66.2065,17.9271],[-66.2063,17.9267],[-66.2058,17.9266],[-66.2065,17.9271]]],[[[-66.207,17.9506],[-66.2058,17.9501],[-66.2059,17.9509],[-66.207,17.9506]]],[[[-66.2073,17.9269],[-66.2073,17.9264],[-66.2069,17.9261],[-66.2073,17.9269]]],[[[-66.2076,17.926],[-66.2071,17.9257],[-66.2074,17.9265],[-66.2076,17.926]]],[[[-66.2079,17.9314],[-66.2029,17.928],[-66.2056,17.931],[-66.2079,17.9314]]],[[[-66.2096,17.9306],[-66.2046,17.9265],[-66.2067,17.9297],[-66.2096,17.9306]]],[[[-66.211,17.9273],[-66.2075,17.9249],[-66.2088,17.9284],[-66.211,17.9273]]],[[[-66.2116,17.9256],[-66.2089,17.9246],[-66.2108,17.9267],[-66.2116,17.9256]]],[[[-66.2117,17.9234],[-66.2111,17.923],[-66.2112,17.9233],[-66.2117,17.9234]]],[[[-66.2126,17.9265],[-66.2118,17.9257],[-66.2118,17.926],[-66.2126,17.9265]]],[[[-66.2131,17.925],[-66.2106,17.9231],[-66.2119,17.9249],[-66.2131,17.925]]],[[[-66.2133,17.9223],[-66.213,17.9219],[-66.213,17.9221],[-66.2133,17.9223]]],[[[-66.2136,17.9242],[-66.2117,17.9226],[-66.2126,17.9239],[-66.2136,17.9242]]],[[[-66.2137,17.9236],[-66.2123,17.9222],[-66.2127,17.923],[-66.2137,17.9236]]],[[[-66.2138,17.9218],[-66.2134,17.9215],[-66.2135,17.922],[-66.2138,17.9218]]],[[[-66.2174,17.9217],[-66.2136,17.9206],[-66.2151,17.9244],[-66.2174,17.9217]]],[[[-66.2322,17.9164],[-66.231,17.9155],[-66.2301,17.9168],[-66.2322,17.9164]]],[[[-66.2361,17.9157],[-66.2335,17.9132],[-66.2251,17.9135],[-66.2361,17.9157]]],[[[-66.2385,17.9172],[-66.2373,17.9136],[-66.237,17.9168],[-66.2385,17.9172]]],[[[-66.24,17.9341],[-66.2378,17.9265],[-66.2344,17.93],[-66.24,17.9341]]],[[[-66.2401,17.9392],[-66.2396,17.9381],[-66.2386,17.9386],[-66.2401,17.9392]]],[[[-66.2406,17.9293],[-66.2396,17.9287],[-66.2399,17.9296],[-66.2406,17.9293]]],[[[-66.2406,17.9366],[-66.2367,17.9346],[-66.237,17.9375],[-66.2406,17.9366]]],[[[-66.2411,17.9141],[-66.2389,17.9133],[-66.2391,17.9168],[-66.2411,17.9141]]],[[[-66.245,17.9172],[-66.2423,17.9141],[-66.2395,17.9176],[-66.245,17.9172]]],[[[-66.2453,17.9326],[-66.2432,17.9307],[-66.2435,17.9319],[-66.2453,17.9326]]],[[[-66.2455,17.9158],[-66.2452,17.9152],[-66.245,17.9158],[-66.2455,17.9158]]],[[[-66.2494,17.9179],[-66.248,17.9157],[-66.2454,17.9162],[-66.2494,17.9179]]],[[[-66.252,17.919],[-66.2496,17.9168],[-66.2499,17.92],[-66.252,17.919]]],[[[-66.2535,17.9196],[-66.2523,17.9199],[-66.2527,17.9203],[-66.2535,17.9196]]],[[[-66.2566,17.9355],[-66.2551,17.9351],[-66.2561,17.936],[-66.2566,17.9355]]],[[[-66.2613,17.9232],[-66.2579,17.9221],[-66.2611,17.9244],[-66.2613,17.9232]]],[[[-66.2621,17.9379],[-66.2614,17.9373],[-66.261,17.9384],[-66.2621,17.9379]]],[[[-66.2633,17.9253],[-66.2618,17.9232],[-66.2613,17.9247],[-66.2633,17.9253]]],[[[-66.264,17.9395],[-66.2626,17.9385],[-66.2617,17.9389],[-66.264,17.9395]]],[[[-66.265,17.9405],[-66.2643,17.94],[-66.2641,17.9403],[-66.265,17.9405]]],[[[-66.2665,17.9422],[-66.2663,17.9418],[-66.2652,17.9426],[-66.2665,17.9422]]],[[[-66.2674,17.9427],[-66.2668,17.9425],[-66.2664,17.9431],[-66.2674,17.9427]]],[[[-66.2677,17.9438],[-66.2675,17.9434],[-66.2671,17.9437],[-66.2677,17.9438]]],[[[-66.2683,17.9433],[-66.2677,17.9431],[-66.2678,17.9434],[-66.2683,17.9433]]],[[[-66.2728,17.9271],[-66.2725,17.9267],[-66.2723,17.9274],[-66.2728,17.9271]]],[[[-66.2883,17.9343],[-66.2873,17.9326],[-66.2827,17.9339],[-66.2883,17.9343]]],[[[-66.2893,17.9334],[-66.2884,17.9334],[-66.2888,17.9346],[-66.2893,17.9334]]],[[[-66.2896,17.9334],[-66.2895,17.933],[-66.2895,17.9336],[-66.2896,17.9334]]],[[[-66.2917,17.9348],[-66.2901,17.9332],[-66.2891,17.935],[-66.2917,17.9348]]],[[[-66.2929,17.9349],[-66.292,17.9343],[-66.2918,17.9358],[-66.2929,17.9349]]],[[[-66.2958,17.9561],[-66.2954,17.9557],[-66.2952,17.9559],[-66.2958,17.9561]]],[[[-66.297,17.9559],[-66.2927,17.9489],[-66.294,17.9569],[-66.297,17.9559]]],[[[-66.3012,17.9353],[-66.2966,17.9347],[-66.2989,17.9369],[-66.3012,17.9353]]],[[[-66.3202,17.9277],[-66.3192,17.9292],[-66.3201,17.9307],[-66.3202,17.9277]]],[[[-66.3241,17.9273],[-66.3225,17.9267],[-66.3206,17.9274],[-66.3241,17.9273]]],[[[-66.3554,17.9262],[-66.3521,17.9267],[-66.3514,17.93],[-66.3554,17.9262]]],[[[-66.3653,17.958],[-66.3626,17.9566],[-66.3617,17.9604],[-66.3653,17.958]]],[[[-66.3654,17.9297],[-66.3643,17.929],[-66.3646,17.9298],[-66.3654,17.9297]]],[[[-66.3668,17.9282],[-66.3659,17.928],[-66.3659,17.9289],[-66.3668,17.9282]]],[[[-66.3693,17.9291],[-66.3688,17.9281],[-66.3668,17.9285],[-66.3693,17.9291]]],[[[-66.3837,17.9216],[-66.3816,17.9208],[-66.3819,17.9226],[-66.3837,17.9216]]],[[[-66.3868,17.9386],[-66.3861,17.9382],[-66.3858,17.939],[-66.3868,17.9386]]],[[[-66.3873,17.9201],[-66.3857,17.9195],[-66.3851,17.9215],[-66.3873,17.9201]]],[[[-66.388,17.9401],[-66.3868,17.9389],[-66.3861,17.9409],[-66.388,17.9401]]],[[[-66.3886,17.9411],[-66.3876,17.9405],[-66.3864,17.941],[-66.3886,17.9411]]],[[[-66.3903,17.94],[-66.3892,17.9396],[-66.3887,17.9406],[-66.3903,17.94]]],[[[-66.4003,17.9483],[-66.3926,17.9424],[-66.393,17.9447],[-66.4003,17.9483]]],[[[-66.4024,17.9499],[-66.4014,17.9482],[-66.4004,17.9483],[-66.4024,17.9499]]]]},"properties":{"geoid":"72030","state":"72","district":"30","name":"State House District 30","chamber":"House"}},{"type":"Feature","geometry":{"type":"Polygon","coordinates":[[[-66.1179,18.2101],[-66.0837,18.2016],[-66.0735,18.2045],[-66.0667,18.212],[-66.0687,18.2178],[-66.0561,18.2266],[-66.0612,18.2302],[-66.0476,18.2309],[-66.0424,18.2383],[-66.0433,18.234],[-66.038,18.2345],[-66.036,18.2496],[-66.0314,18.2498],[-66.0197,18.2391],[-66.0095,18.2411],[-66.0081,18.2337],[-66.0136,18.2253],[-65.9996,18.2183],[-65.997,18.2072],[-65.9804,18.2261],[-65.9396,18.2339],[-65.9494,18.2439],[-65.9453,18.2453],[-65.9462,18.2524],[-65.9544,18.2605],[-65.9608,18.2584],[-65.9528,18.282],[-65.9253,18.2753],[-65.9424,18.2935],[-65.9629,18.2997],[-65.9681,18.3102],[-65.9861,18.3112],[-66.0079,18.3043],[-66.0423,18.3124],[-66.0473,18.3086],[-66.0485,18.2976],[-66.0529,18.3038],[-66.0661,18.3042],[-66.0773,18.2565],[-66.0748,18.2531],[-66.0847,18.2427],[-66.0902,18.2276],[-66.1179,18.2101]]]},"properties":{"geoid":"72031","state":"72","district":"31","name":"State House District 31","chamber":"House"}},{"type":"Feature","geometry":{"type":"Polygon","coordinates":[[[-66.1178,18.2099],[-66.1017,18.1831],[-66.1051,18.1715],[-66.0951,18.1691],[-66.0803,18.1521],[-66.066,18.1484],[-66.0697,18.1376],[-66.0608,18.1163],[-66.0429,18.1141],[-66.0357,18.1192],[-66.0321,18.1317],[-66.0246,18.1353],[-66.0196,18.1455],[-66.0223,18.166],[-66.0126,18.1768],[-66.0113,18.1861],[-66.0037,18.1856],[-65.9983,18.1924],[-65.9996,18.2183],[-66.0137,18.2256],[-66.0081,18.2337],[-66.0095,18.2411],[-66.0197,18.2391],[-66.0272,18.2486],[-66.036,18.2496],[-66.038,18.2345],[-66.0433,18.234],[-66.0424,18.2383],[-66.0476,18.2309],[-66.0611,18.2303],[-66.0561,18.2266],[-66.0687,18.2178],[-66.0667,18.212],[-66.0795,18.2021],[-66.1178,18.2099]]]},"properties":{"geoid":"72032","state":"72","district":"32","name":"State House District 32","chamber":"House"}},{"type":"Feature","geometry":{"type":"Polygon","coordinates":[[[-66.0005,18.202],[-65.9987,18.1916],[-65.9799,18.1924],[-65.9809,18.1884],[-65.9749,18.187],[-65.9643,18.1936],[-65.9557,18.1863],[-65.9471,18.1878],[-65.9532,18.1766],[-65.9309,18.1655],[-65.9289,18.1434],[-65.9207,18.1378],[-65.9254,18.1346],[-65.9262,18.12],[-65.9075,18.1261],[-65.8776,18.1182],[-65.8627,18.1406],[-65.8557,18.1755],[-65.8473,18.1764],[-65.8459,18.1832],[-65.8395,18.1831],[-65.8338,18.1906],[-65.8523,18.201],[-65.8625,18.2042],[-65.8667,18.2012],[-65.8757,18.211],[-65.8518,18.248],[-65.8526,18.255],[-65.874,18.2527],[-65.8858,18.2608],[-65.911,18.2651],[-65.9245,18.2754],[-65.9528,18.282],[-65.9608,18.2584],[-65.9544,18.2605],[-65.9462,18.2524],[-65.9453,18.2453],[-65.9494,18.2439],[-65.9396,18.2339],[-65.9804,18.2261],[-65.9819,18.2206],[-65.9898,18.2196],[-66.0005,18.202]]]},"properties":{"geoid":"72033","state":"72","district":"33","name":"State House District 33","chamber":"House"}},{"type":"Feature","geometry":{"type":"MultiPolygon","coordinates":[[[[-66.0894,18.0563],[-66.0823,18.033],[-66.0577,18.0405],[-66.0481,18.0357],[-66.0417,18.0173],[-66.047,18.0091],[-66.0242,17.9906],[-66.0198,17.9786],[-65.9954,17.9789],[-65.9767,17.9675],[-65.9685,17.9742],[-65.9548,17.9702],[-65.9093,17.9803],[-65.9069,17.9775],[-65.8938,17.9856],[-65.8962,17.9901],[-65.8908,17.9922],[-65.8847,17.9877],[-65.8705,18.0065],[-65.8577,18.005],[-65.8442,18.0161],[-65.834,18.0119],[-65.8311,18.0505],[-65.838,18.0537],[-65.828,18.0524],[-65.8174,18.0633],[-65.8093,18.0568],[-65.8034,18.0577],[-65.7954,18.0691],[-65.8086,18.0714],[-65.8142,18.0818],[-65.8406,18.0912],[-65.8481,18.0992],[-65.8417,18.1101],[-65.8481,18.1175],[-65.8603,18.1156],[-65.8654,18.1081],[-65.8841,18.1229],[-65.9075,18.1261],[-65.9262,18.12],[-65.9254,18.1346],[-65.9207,18.1378],[-65.9289,18.1434],[-65.9309,18.1655],[-65.9532,18.1766],[-65.9471,18.1878],[-65.9557,18.1863],[-65.9643,18.1936],[-65.9785,18.1873],[-65.9799,18.1924],[-65.9957,18.1942],[-66.0037,18.1856],[-66.0113,18.1861],[-66.0126,18.1768],[-66.0223,18.166],[-66.0196,18.1455],[-66.0246,18.1353],[-66.0321,18.1317],[-66.0357,18.1192],[-66.0527,18.1135],[-66.0531,18.1071],[-66.0613,18.0999],[-66.0601,18.0904],[-66.0682,18.0788],[-66.0811,18.0741],[-66.0795,18.0662],[-66.0894,18.0563]]],[[[-65.7954,18.0688],[-65.7951,18.0684],[-65.7946,18.0688],[-65.7954,18.0688]]],[[[-65.7957,18.0684],[-65.7954,18.0683],[-65.7955,18.0687],[-65.7957,18.0684]]]]},"properties":{"geoid":"72034","state":"72","district":"34","name":"State House District 34","chamber":"House"}},{"type":"Feature","geometry":{"type":"MultiPolygon","coordinates":[[[[-65.8776,18.1182],[-65.8654,18.1081],[-65.8603,18.1156],[-65.8474,18.1171],[-65.8417,18.1101],[-65.8481,18.0992],[-65.8406,18.0912],[-65.8142,18.0818],[-65.8086,18.0714],[-65.7969,18.0698],[-65.8003,18.0802],[-65.7949,18.0783],[-65.7963,18.085],[-65.7877,18.0905],[-65.7886,18.1012],[-65.7775,18.1146],[-65.7798,18.1234],[-65.7666,18.1444],[-65.7688,18.1469],[-65.7565,18.158],[-65.7424,18.1628],[-65.7344,18.1805],[-65.7285,18.1854],[-65.721,18.1837],[-65.7245,18.1883],[-65.7126,18.1892],[-65.7078,18.1822],[-65.6982,18.1843],[-65.6911,18.1788],[-65.6939,18.1908],[-65.6816,18.1991],[-65.676,18.1928],[-65.6779,18.1999],[-65.6616,18.2076],[-65.6645,18.2144],[-65.6584,18.2245],[-65.671,18.2231],[-65.6885,18.2317],[-65.6931,18.2388],[-65.6837,18.2474],[-65.6848,18.2539],[-65.6934,18.2508],[-65.7025,18.2595],[-65.7308,18.2531],[-65.758,18.2675],[-65.785,18.2941],[-65.7934,18.2967],[-65.7968,18.289],[-65.8118,18.29],[-65.8221,18.2739],[-65.8386,18.2737],[-65.8399,18.2657],[-65.8526,18.255],[-65.8518,18.248],[-65.8748,18.2159],[-65.8756,18.2109],[-65.8667,18.2012],[-65.8625,18.2042],[-65.8338,18.1917],[-65.8395,18.1831],[-65.8459,18.1832],[-65.8473,18.1764],[-65.8557,18.1755],[-65.8627,18.1406],[-65.8776,18.1182]]],[[[-65.735,18.1579],[-65.7335,18.1533],[-65.7298,18.1585],[-65.735,18.1579]]],[[[-65.7714,18.1157],[-65.771,18.1151],[-65.7707,18.1159],[-65.7714,18.1157]]]]},"properties":{"geoid":"72035","state":"72","district":"35","name":"State House District 35","chamber":"House"}},{"type":"Feature","geometry":{"type":"MultiPolygon","coordinates":[[[[-65.8035,18.3646],[-65.797,18.346],[-65.7779,18.3464],[-65.7846,18.3154],[-65.7956,18.307],[-65.7943,18.2968],[-65.7656,18.2792],[-65.758,18.2675],[-65.7308,18.2531],[-65.7025,18.2595],[-65.6934,18.2508],[-65.6845,18.2537],[-65.6837,18.2474],[-65.6931,18.2389],[-65.6885,18.2318],[-65.671,18.2231],[-65.6584,18.2245],[-65.6645,18.2144],[-65.6619,18.2068],[-65.6442,18.1987],[-65.6243,18.2065],[-65.634,18.2256],[-65.6297,18.2303],[-65.6238,18.2279],[-65.6128,18.2093],[-65.5969,18.2091],[-65.5945,18.2223],[-65.5874,18.2285],[-65.6003,18.2436],[-65.5789,18.2439],[-65.5737,18.248],[-65.5823,18.2586],[-65.6095,18.264],[-65.6214,18.275],[-65.6257,18.2873],[-65.5156,18.3513],[-65.5254,18.3563],[-65.5246,18.3662],[-65.5314,18.3668],[-65.5364,18.3648],[-65.5405,18.3462],[-65.5509,18.3373],[-65.5632,18.3348],[-65.5615,18.3501],[-65.5669,18.3563],[-65.5793,18.3551],[-65.5472,18.3727],[-65.5943,18.3964],[-65.5969,18.4027],[-65.6031,18.4002],[-65.6142,18.4057],[-65.6146,18.3887],[-65.6236,18.3911],[-65.6316,18.3815],[-65.6485,18.3847],[-65.6567,18.3702],[-65.6689,18.3642],[-65.6756,18.3704],[-65.7032,18.373],[-65.7211,18.393],[-65.7309,18.3927],[-65.7339,18.3857],[-65.7421,18.3832],[-65.7496,18.3854],[-65.761,18.4023],[-65.7686,18.404],[-65.7693,18.4185],[-65.7957,18.4047],[-65.7801,18.4015],[-65.7704,18.3922],[-65.7798,18.3901],[-65.7902,18.3963],[-65.7939,18.3866],[-65.7874,18.3763],[-65.8009,18.3769],[-65.7959,18.3704],[-65.8035,18.3646]]],[[[-65.3971,18.3363],[-65.3956,18.3273],[-65.3887,18.3212],[-65.36,18.316],[-65.3509,18.3077],[-65.3439,18.3075],[-65.343,18.2992],[-65.3361,18.2989],[-65.3336,18.2937],[-65.3081,18.2969],[-65.2858,18.2735],[-65.2783,18.2785],[-65.2759,18.2889],[-65.259,18.286],[-65.2406,18.3048],[-65.2211,18.3068],[-65.2174,18.3131],[-65.221,18.316],[-65.219,18.325],[-65.2412,18.3283],[-65.224,18.3354],[-65.2371,18.3507],[-65.2478,18.3404],[-65.2571,18.3465],[-65.2682,18.3447],[-65.2824,18.3348],[-65.2871,18.3412],[-65.3013,18.3349],[-65.3092,18.342],[-65.3181,18.3375],[-65.3273,18.342],[-65.3352,18.3528],[-65.3432,18.3557],[-65.3444,18.3628],[-65.3733,18.3647],[-65.3735,18.3559],[-65.3519,18.3493],[-65.3366,18.3293],[-65.3337,18.3183],[-65.3418,18.3132],[-65.3495,18.3157],[-65.3523,18.3239],[-65.3693,18.3201],[-65.3757,18.3292],[-65.3884,18.3294],[-65.3915,18.3402],[-65.3971,18.3363]]],[[[-65.5818,18.1177],[-65.5804,18.1006],[-65.5704,18.0878],[-65.5326,18.0761],[-65.4996,18.0904],[-65.4852,18.0916],[-65.4729,18.0832],[-65.4468,18.0838],[-65.4033,18.1055],[-65.3413,18.1075],[-65.322,18.1193],[-65.2701,18.1276],[-65.264,18.1369],[-65.2848,18.1517],[-65.3157,18.1507],[-65.4047,18.166],[-65.4416,18.1598],[-65.4521,18.1501],[-65.4819,18.1438],[-65.4829,18.172],[-65.4916,18.1753],[-65.5008,18.1736],[-65.5004,18.1391],[-65.5078,18.1368],[-65.5107,18.1509],[-65.5151,18.1529],[-65.5172,18.1324],[-65.5405,18.123],[-65.5792,18.1224],[-65.5818,18.1177]]]]},"properties":{"geoid":"72036","state":"72","district":"36","name":"State House District 36","chamber":"House"}},{"type":"Feature","geometry":{"type":"Polygon","coordinates":[[[-65.9929,18.458],[-65.9863,18.4544],[-65.9849,18.4432],[-65.9709,18.4404],[-65.9672,18.4324],[-65.9537,18.4375],[-65.9304,18.4284],[-65.9284,18.4129],[-65.9201,18.411],[-65.9194,18.4029],[-65.9145,18.4056],[-65.9097,18.4011],[-65.8999,18.4137],[-65.8699,18.4089],[-65.8765,18.3787],[-65.8924,18.3784],[-65.8929,18.3707],[-65.8996,18.3664],[-65.9037,18.3674],[-65.9028,18.373],[-65.9086,18.3737],[-65.9101,18.3687],[-65.9177,18.3669],[-65.9156,18.3489],[-65.9197,18.3449],[-65.908,18.3436],[-65.909,18.3236],[-65.9018,18.3162],[-65.9108,18.307],[-65.906,18.2979],[-65.9156,18.2945],[-65.9073,18.2721],[-65.9181,18.2696],[-65.8858,18.2608],[-65.874,18.2527],[-65.8526,18.255],[-65.8403,18.265],[-65.8364,18.2752],[-65.824,18.2731],[-65.8118,18.29],[-65.7957,18.2896],[-65.7956,18.307],[-65.7846,18.3154],[-65.7779,18.3464],[-65.797,18.346],[-65.8034,18.3656],[-65.7959,18.3704],[-65.8009,18.3769],[-65.7874,18.3763],[-65.7939,18.3866],[-65.7902,18.3963],[-65.7798,18.3901],[-65.7705,18.392],[-65.7801,18.4015],[-65.7957,18.4042],[-65.775,18.414],[-65.7914,18.4218],[-65.8028,18.411],[-65.8158,18.4102],[-65.8364,18.4321],[-65.8781,18.4379],[-65.9008,18.4525],[-65.9064,18.4526],[-65.9077,18.4469],[-65.9255,18.4449],[-65.9791,18.4598],[-65.9929,18.458]]]},"properties":{"geoid":"72037","state":"72","district":"37","name":"State House District 37","chamber":"House"}},{"type":"Feature","geometry":{"type":"Polygon","coordinates":[[[-66.0413,18.3123],[-66.0079,18.3043],[-65.9861,18.3112],[-65.9681,18.3102],[-65.9629,18.2997],[-65.9424,18.2935],[-65.9235,18.2722],[-65.9084,18.2713],[-65.9096,18.2855],[-65.9156,18.2945],[-65.906,18.2979],[-65.9108,18.307],[-65.9018,18.3163],[-65.909,18.3236],[-65.908,18.3436],[-65.9197,18.3449],[-65.9156,18.3489],[-65.9177,18.3669],[-65.9101,18.3687],[-65.9086,18.3737],[-65.9028,18.373],[-65.9037,18.3674],[-65.8996,18.3664],[-65.8929,18.3707],[-65.8924,18.3784],[-65.8765,18.3787],[-65.8699,18.4089],[-65.8999,18.4137],[-65.9097,18.4011],[-65.9145,18.4056],[-65.919,18.4002],[-65.9241,18.4016],[-65.9313,18.3937],[-65.9243,18.3858],[-65.948,18.3787],[-65.9353,18.3675],[-65.9382,18.3627],[-65.9586,18.3648],[-65.9546,18.3733],[-65.9621,18.375],[-65.9661,18.3605],[-65.9747,18.3632],[-65.982,18.3585],[-66.015,18.3577],[-66.0203,18.3522],[-66.0067,18.3486],[-66.017,18.3435],[-66.0209,18.3359],[-66.0355,18.3444],[-66.0355,18.3198],[-66.0413,18.3123]]]},"properties":{"geoid":"72038","state":"72","district":"38","name":"State House District 38","chamber":"House"}},{"type":"Feature","geometry":{"type":"Polygon","coordinates":[[[-66.0368,18.3458],[-66.0203,18.3361],[-66.017,18.3435],[-66.0067,18.3486],[-66.0203,18.3522],[-66.015,18.3577],[-65.982,18.3585],[-65.9747,18.3632],[-65.9661,18.3605],[-65.9621,18.375],[-65.9546,18.3733],[-65.9586,18.3648],[-65.9382,18.3627],[-65.9353,18.3675],[-65.948,18.3787],[-65.9255,18.3848],[-65.9313,18.3937],[-65.9241,18.4016],[-65.919,18.4002],[-65.9201,18.411],[-65.9284,18.4129],[-65.9304,18.4284],[-65.9537,18.4375],[-65.9615,18.4334],[-65.9522,18.4231],[-65.9568,18.4116],[-65.9652,18.4113],[-65.9657,18.4151],[-65.9673,18.4044],[-65.9591,18.3915],[-65.9772,18.3885],[-65.991,18.377],[-66.0253,18.3798],[-66.0354,18.3696],[-66.0325,18.3557],[-66.0368,18.3458]]]},"properties":{"geoid":"72039","state":"72","district":"39","name":"State House District 39","chamber":"House"}},{"type":"Feature","geometry":{"type":"MultiPolygon","coordinates":[[[[-66.0431,18.4441],[-66.0199,18.4198],[-65.9931,18.4074],[-65.9915,18.3983],[-66.0031,18.3944],[-65.9977,18.3784],[-65.9893,18.3777],[-65.9701,18.3915],[-65.9591,18.3915],[-65.9673,18.4044],[-65.9657,18.4151],[-65.9652,18.4113],[-65.9568,18.4116],[-65.9522,18.4232],[-65.9574,18.4313],[-65.9672,18.4324],[-65.9709,18.4404],[-65.9849,18.4432],[-65.9906,18.4575],[-66.0083,18.4446],[-66.0247,18.4441],[-66.0367,18.4501],[-66.0431,18.4441]]],[[[-66.0169,18.4488],[-66.0165,18.4481],[-66.0165,18.4486],[-66.0169,18.4488]]]]},"properties":{"geoid":"72040","state":"72","district":"40","name":"State House District 40","chamber":"House"}},{"type":"Feature","geometry":{"type":"Polygon","coordinates":[[[-67.3233,18.3639],[-67.316,18.3342],[-67.2818,18.2758],[-67.2613,18.256],[-67.2305,18.2466],[-67.2142,18.2113],[-67.2359,18.1757],[-67.239,18.1419],[-67.2354,18.1201],[-67.2496,18.1102],[-67.2602,18.0848],[-67.2554,18.0577],[-67.2675,17.9831],[-67.266,17.9442],[-67.2607,17.9285],[-67.2291,17.896],[-67.1945,17.8817],[-67.1669,17.8846],[-67.1428,17.9006],[-66.921,17.8752],[-66.9027,17.8819],[-66.8906,17.8937],[-66.872,17.8914],[-66.8253,17.9004],[-66.7882,17.9161],[-66.7134,17.9129],[-66.6771,17.8968],[-66.6417,17.912],[-66.6143,17.9153],[-66.5917,17.9087],[-66.5741,17.9131],[-66.5857,17.8885],[-66.5831,17.8622],[-66.5642,17.8401],[-66.5382,17.8317],[-66.5043,17.839],[-66.4763,17.854],[-66.4617,17.8697],[-66.4417,17.8715],[-66.4245,17.882],[-66.4058,17.8719],[-66.3881,17.8692],[-66.3031,17.8821],[-66.2828,17.8784],[-66.2574,17.8656],[-66.2203,17.8629],[-66.1797,17.8826],[-66.1223,17.8795],[-66.0767,17.9107],[-66.0498,17.8977],[-66.0189,17.8941],[-65.9996,17.9001],[-65.9729,17.9232],[-65.9217,17.9226],[-65.8525,17.9415],[-65.8278,17.9624],[-65.7976,17.977],[-65.7822,18.003],[-65.7824,18.019],[-65.7611,18.0275],[-65.7496,18.0388],[-65.7391,18.0708],[-65.7237,18.085],[-65.7161,18.1063],[-65.6894,18.1264],[-65.6665,18.1277],[-65.618,18.1542],[-65.631,18.123],[-65.6307,18.0987],[-65.6246,18.0775],[-65.5948,18.0451],[-65.5497,18.0284],[-65.5243,18.0297],[-65.4959,18.042],[-65.4782,18.0369],[-65.4403,18.0372],[-65.4016,18.049],[-65.391,18.0564],[-65.3339,18.0622],[-65.3122,18.0711],[-65.2496,18.0843],[-65.2232,18.1052],[-65.2162,18.123],[-65.2163,18.1436],[-65.232,18.1708],[-65.272,18.1962],[-65.3288,18.1999],[-65.3947,18.2117],[-65.4315,18.2087],[-65.4488,18.2192],[-65.4644,18.2222],[-65.5242,18.2085],[-65.5546,18.1848],[-65.5338,18.2184],[-65.4894,18.2253],[-65.4654,18.2437],[-65.457,18.2681],[-65.4615,18.2933],[-65.4238,18.2914],[-65.3604,18.2534],[-65.3412,18.2451],[-65.3259,18.2446],[-65.3067,18.2301],[-65.2867,18.226],[-65.263,18.231],[-65.2529,18.238],[-65.2276,18.2358],[-65.2006,18.248],[-65.1717,18.2942],[-65.1685,18.3133],[-65.1716,18.3334],[-65.1856,18.3644],[-65.1998,18.3826],[-65.2209,18.3953],[-65.2442,18.3975],[-65.3029,18.3875],[-65.3226,18.4033],[-65.3767,18.4215],[-65.4082,18.4113],[-65.4243,18.3909],[-65.464,18.3935],[-65.5867,18.4433],[-65.6246,18.4513],[-65.6461,18.4422],[-65.6579,18.4289],[-65.6786,18.4185],[-65.6914,18.4307],[-65.7098,18.4384],[-65.7237,18.4544],[-65.7496,18.4647],[-65.7536,18.472],[-65.8577,18.4872],[-65.877,18.4995],[-65.8994,18.5047],[-65.9481,18.5026],[-65.9934,18.5166],[-66.0215,18.5117],[-66.046,18.5177],[-66.1076,18.5192],[-66.1293,18.5245],[-66.1941,18.5265],[-66.2121,18.5218],[-66.2601,18.5294],[-66.3025,18.5283],[-66.3388,18.5404],[-66.3996,18.5438],[-66.453,18.539],[-66.4786,18.5244],[-66.5566,18.5403],[-66.6075,18.5438],[-66.688,18.5383],[-66.7346,18.526],[-66.7704,18.54],[-66.8042,18.5438],[-66.8839,18.5417],[-66.9081,18.5333],[-66.9687,18.543],[-67.0171,18.5626],[-67.0883,18.568],[-67.1605,18.5525],[-67.1952,18.5277],[-67.2224,18.4941],[-67.2198,18.4705],[-67.2079,18.4423],[-67.2496,18.4186],[-67.2805,18.4121],[-67.3027,18.4016],[-67.3187,18.381],[-67.3233,18.3639]],[[-67.2713,18.3628],[-67.2604,18.3705],[-67.2392,18.3754],[-67.2404,18.38],[-67.2249,18.3837],[-67.2241,18.3795],[-67.1946,18.3925],[-67.1883,18.4005],[-67.1576,18.4178],[-67.1554,18.4342],[-67.1688,18.4651],[-67.1691,18.4785],[-67.1426,18.5054],[-67.0975,18.5157],[-67.0797,18.5134],[-67.0769,18.5175],[-67.0529,18.5171],[-67.0237,18.5081],[-67.0181,18.5108],[-66.9781,18.4919],[-66.9561,18.4887],[-66.9447,18.4917],[-66.9014,18.4834],[-66.8673,18.4922],[-66.8582,18.4902],[-66.8571,18.4951],[-66.854,18.4904],[-66.829,18.4869],[-66.7937,18.4933],[-66.7651,18.4836],[-66.7646,18.4895],[-66.7424,18.481],[-66.7428,18.4748],[-66.7083,18.4723],[-66.7014,18.4757],[-66.7003,18.4827],[-66.6834,18.4816],[-66.6755,18.4875],[-66.6753,18.4947],[-66.6493,18.4928],[-66.6246,18.498],[-66.5862,18.4882],[-66.5767,18.4934],[-66.5489,18.4936],[-66.5333,18.4856],[-66.5333,18.4816],[-66.5267,18.4852],[-66.5119,18.4769],[-66.4674,18.4688],[-66.4493,18.471],[-66.4387,18.4899],[-66.4226,18.493],[-66.4172,18.4985],[-66.3936,18.4986],[-66.3436,18.4859],[-66.3364,18.4901],[-66.3146,18.4781],[-66.281,18.4782],[-66.2693,18.4833],[-66.2537,18.4815],[-66.2496,18.4743],[-66.2368,18.4703],[-66.1992,18.4718],[-66.1953,18.466],[-66.1873,18.469],[-66.1862,18.4758],[-66.1787,18.4755],[-66.185,18.4713],[-66.1839,18.4606],[-66.17,18.4511],[-66.1539,18.4539],[-66.1383,18.4655],[-66.1398,18.4753],[-66.1336,18.4718],[-66.1386,18.4601],[-66.1282,18.4519],[-66.1383,18.4575],[-66.1387,18.4533],[-66.1236,18.4419],[-66.1105,18.4444],[-66.1162,18.4397],[-66.1123,18.4426],[-66.1083,18.4389],[-66.1078,18.4276],[-66.0816,18.441],[-66.0872,18.4504],[-66.0912,18.4466],[-66.1025,18.4515],[-66.1056,18.4594],[-66.0873,18.4596],[-66.106,18.4647],[-66.1164,18.4588],[-66.1248,18.4719],[-66.0875,18.4677],[-66.086,18.4601],[-66.0607,18.4547],[-66.0389,18.4545],[-66.0232,18.4439],[-65.9994,18.4481],[-65.9919,18.4606],[-65.9255,18.4449],[-65.9075,18.447],[-65.9036,18.453],[-65.8781,18.4379],[-65.8364,18.4321],[-65.8152,18.41],[-65.8028,18.411],[-65.7916,18.4217],[-65.7765,18.4146],[-65.7693,18.4185],[-65.7686,18.404],[-65.761,18.4023],[-65.7496,18.3854],[-65.7421,18.3832],[-65.7339,18.3857],[-65.7309,18.3927],[-65.7211,18.393],[-65.7032,18.373],[-65.6756,18.3704],[-65.6705,18.3643],[-65.6567,18.3702],[-65.6485,18.3847],[-65.6316,18.3815],[-65.6236,18.3911],[-65.6146,18.3887],[-65.6142,18.4057],[-65.6031,18.4002],[-65.5969,18.4027],[-65.5943,18.3964],[-65.5472,18.3727],[-65.5793,18.3551],[-65.5669,18.3563],[-65.5615,18.3501],[-65.5632,18.3348],[-65.5509,18.3373],[-65.5405,18.3462],[-65.5364,18.3648],[-65.5314,18.3668],[-65.5246,18.3662],[-65.5254,18.3563],[-65.5156,18.3513],[-65.6257,18.2873],[-65.6214,18.275],[-65.6095,18.264],[-65.5922,18.2629],[-65.5744,18.2509],[-65.5764,18.2444],[-65.6003,18.2436],[-65.5874,18.2285],[-65.5945,18.2223],[-65.5969,18.2091],[-65.6128,18.2093],[-65.6238,18.2279],[-65.6297,18.2303],[-65.634,18.2256],[-65.6243,18.2065],[-65.6316,18.2008],[-65.652,18.2004],[-65.6611,18.2091],[-65.6779,18.1999],[-65.6764,18.1925],[-65.6805,18.1992],[-65.6908,18.195],[-65.6951,18.1876],[-65.693,18.1779],[-65.6982,18.1843],[-65.7078,18.1822],[-65.7126,18.1892],[-65.7249,18.1881],[-65.7233,18.1815],[-65.7285,18.1854],[-65.7424,18.1628],[-65.7565,18.158],[-65.7688,18.1469],[-65.7666,18.1444],[-65.7798,18.1234],[-65.7775,18.1146],[-65.7886,18.1012],[-65.7877,18.0905],[-65.7963,18.085],[-65.7949,18.0783],[-65.8003,18.0802],[-65.795,18.0734],[-65.8014,18.059],[-65.809,18.0567],[-65.8176,18.0633],[-65.828,18.0524],[-65.8383,18.0533],[-65.8311,18.0505],[-65.834,18.0119],[-65.8442,18.0161],[-65.8577,18.005],[-65.8705,18.0065],[-65.8847,17.9877],[-65.8908,17.9922],[-65.8962,17.9901],[-65.8938,17.9856],[-65.9069,17.9775],[-65.9093,17.9803],[-65.9548,17.9702],[-65.9685,17.9742],[-65.9796,17.9675],[-65.9953,17.9789],[-66.0176,17.9797],[-66.0481,17.9524],[-66.0593,17.9624],[-66.0808,17.9667],[-66.1125,17.9488],[-66.1409,17.9409],[-66.1596,17.9284],[-66.1558,17.9368],[-66.161,17.9398],[-66.1546,17.9421],[-66.1612,17.94],[-66.1605,17.9317],[-66.1911,17.9385],[-66.2,17.9294],[-66.2106,17.9319],[-66.2065,17.9342],[-66.2133,17.9446],[-66.1832,17.9372],[-66.1808,17.9445],[-66.1759,17.9451],[-66.1723,17.9399],[-66.1769,17.9504],[-66.2079,17.9632],[-66.2157,17.9591],[-66.2137,17.9553],[-66.2179,17.9574],[-66.2219,17.9492],[-66.2241,17.9524],[-66.2362,17.9455],[-66.2372,17.9412],[-66.2314,17.9437],[-66.2319,17.931],[-66.2382,17.9394],[-66.2332,17.9404],[-66.2388,17.9441],[-66.2409,17.9378],[-66.2426,17.9436],[-66.252,17.9372],[-66.256,17.9459],[-66.2625,17.9464],[-66.2527,17.9349],[-66.2444,17.9349],[-66.2485,17.9343],[-66.2472,17.9307],[-66.2608,17.9362],[-66.2631,17.9432],[-66.271,17.9472],[-66.2889,17.9419],[-66.2907,17.9614],[-66.2977,17.9592],[-66.3131,17.9683],[-66.3094,17.9725],[-66.3136,17.9693],[-66.3218,17.9784],[-66.3391,17.9763],[-66.3579,17.9649],[-66.3628,17.9681],[-66.365,17.9645],[-66.36,17.9612],[-66.3697,17.9609],[-66.3666,17.9528],[-66.37,17.9512],[-66.3766,17.9557],[-66.3762,17.9493],[-66.3813,17.9483],[-66.3767,17.9467],[-66.3851,17.939],[-66.4121,17.9573],[-66.4278,17.9587],[-66.4435,17.9778],[-66.4617,17.9904],[-66.4997,17.9888],[-66.5798,17.9617],[-66.594,17.9707],[-66.6187,17.9625],[-66.6136,17.9635],[-66.6212,17.9671],[-66.6153,17.9711],[-66.617,17.977],[-66.6291,17.9826],[-66.6492,17.9792],[-66.6728,17.9665],[-66.6799,17.9737],[-66.7057,17.9813],[-66.7271,17.9714],[-66.7208,17.9753],[-66.722,17.9831],[-66.7167,17.9834],[-66.727,17.9877],[-66.727,17.9916],[-66.7314,17.988],[-66.7327,17.9924],[-66.7496,17.9886],[-66.7571,17.9759],[-66.7629,17.9847],[-66.758,17.9821],[-66.7505,17.9956],[-66.7532,17.9979],[-66.7565,17.9915],[-66.7631,17.9945],[-66.7543,17.9994],[-66.7629,18.0001],[-66.7675,18.0069],[-66.7906,17.9929],[-66.798,17.995],[-66.7975,17.9821],[-66.8065,17.9845],[-66.8056,17.975],[-66.7933,17.9772],[-66.784,17.9859],[-66.7873,17.9727],[-66.8386,17.9499],[-66.8563,17.9565],[-66.8631,17.9453],[-66.8717,17.9527],[-66.8782,17.9477],[-66.8825,17.9526],[-66.9021,17.9489],[-66.9057,17.9647],[-66.912,17.9632],[-66.9216,17.9703],[-66.9311,17.9615],[-66.9104,17.9619],[-66.9091,17.9504],[-66.9312,17.9426],[-66.9319,17.9374],[-66.919,17.932],[-66.9262,17.9268],[-66.9358,17.932],[-66.9591,17.9274],[-66.9628,17.9368],[-66.9832,17.9483],[-66.9815,17.9607],[-66.9869,17.9709],[-67.0059,17.9723],[-67.003,17.9606],[-67.0139,17.9673],[-67.0097,17.9732],[-67.0158,17.9761],[-67.019,17.9677],[-67.025,17.9724],[-67.0637,17.9736],[-67.0786,17.9663],[-67.0787,17.958],[-67.0845,17.9624],[-67.0836,17.9671],[-67.0968,17.9569],[-67.0928,17.9568],[-67.0933,17.9513],[-67.104,17.9459],[-67.159,17.9539],[-67.162,17.9623],[-67.1788,17.9649],[-67.1924,17.9518],[-67.1837,17.9309],[-67.188,17.9357],[-67.1954,17.9335],[-67.1925,17.9422],[-67.1966,17.9516],[-67.2125,17.9516],[-67.2128,17.9925],[-67.1824,18.0082],[-67.178,18.0089],[-67.1834,18.0054],[-67.1786,18.004],[-67.1652,18.0079],[-67.1667,18.0176],[-67.1774,18.0074],[-67.1724,18.0221],[-67.1813,18.0308],[-67.184,18.0275],[-67.21,18.0356],[-67.1988,18.0474],[-67.2019,18.0567],[-67.1968,18.0665],[-67.1907,18.0643],[-67.184,18.0697],[-67.1937,18.08],[-67.196,18.0723],[-67.1993,18.08],[-67.1952,18.0889],[-67.1994,18.091],[-67.183,18.1043],[-67.1867,18.1349],[-67.1767,18.1515],[-67.1851,18.1655],[-67.1571,18.1927],[-67.1532,18.2059],[-67.1582,18.2169],[-67.1737,18.2266],[-67.1754,18.248],[-67.1882,18.2669],[-67.1948,18.2891],[-67.2351,18.2999],[-67.2713,18.3628]],[[-67.2146,17.9518],[-67.2145,17.9522],[-67.2135,17.9526],[-67.2146,17.9518]],[[-67.2019,18.0808],[-67.2,18.0806],[-67.2,18.0795],[-67.2019,18.0808]],[[-67.2014,18.082],[-67.2007,18.0822],[-67.2005,18.0814],[-67.2014,18.082]],[[-67.1999,18.085],[-67.1997,18.0852],[-67.1995,18.0849],[-67.1999,18.085]],[[-67.1998,18.0853],[-67.1992,18.0864],[-67.1991,18.0861],[-67.1998,18.0853]],[[-67.1888,18.1167],[-67.1883,18.117],[-67.1877,18.1165],[-67.1888,18.1167]],[[-67.1789,18.0069],[-67.1782,18.0077],[-67.1786,18.0066],[-67.1789,18.0069]],[[-67.1332,17.9501],[-67.1297,17.9505],[-67.1286,17.9491],[-67.1332,17.9501]],[[-67.0929,17.9585],[-67.0925,17.9599],[-67.0923,17.9579],[-67.0929,17.9585]],[[-67.0924,17.9522],[-67.0915,17.9609],[-67.0882,17.9609],[-67.0924,17.9522]],[[-67.0923,17.9601],[-67.0917,17.9603],[-67.092,17.9599],[-67.0923,17.9601]],[[-67.0873,17.9628],[-67.0857,17.9629],[-67.0863,17.962],[-67.0873,17.9628]],[[-67.087,17.9609],[-67.0868,17.9611],[-67.0863,17.9606],[-67.087,17.9609]],[[-67.0861,17.9607],[-67.0849,17.9613],[-67.0847,17.9607],[-67.0861,17.9607]],[[-67.0735,17.9575],[-67.0731,17.9577],[-67.0732,17.9574],[-67.0735,17.9575]],[[-67.0714,17.964],[-67.0712,17.9646],[-67.0705,17.9644],[-67.0714,17.964]],[[-67.0709,17.9625],[-67.0706,17.9626],[-67.0705,17.962],[-67.0709,17.9625]],[[-67.0668,17.9664],[-67.0666,17.9666],[-67.0664,17.9663],[-67.0668,17.9664]],[[-67.0654,17.9657],[-67.065,17.9659],[-67.0651,17.9656],[-67.0654,17.9657]],[[-67.0646,17.9652],[-67.0641,17.9654],[-67.0643,17.9651],[-67.0646,17.9652]],[[-67.0619,17.9718],[-67.0611,17.9721],[-67.0608,17.9712],[-67.0619,17.9718]],[[-67.0494,17.9661],[-67.049,17.9663],[-67.0487,17.9655],[-67.0494,17.9661]],[[-67.0487,17.9708],[-67.0481,17.9709],[-67.0476,17.9704],[-67.0487,17.9708]],[[-67.0472,17.9533],[-67.0462,17.9534],[-67.0463,17.9531],[-67.0472,17.9533]],[[-67.0465,17.97],[-67.0413,17.9705],[-67.0436,17.9678],[-67.0465,17.97]],[[-67.0455,17.9534],[-67.0453,17.9536],[-67.0451,17.9533],[-67.0455,17.9534]],[[-67.0402,17.9597],[-67.0401,17.9599],[-67.0396,17.96],[-67.0402,17.9597]],[[-67.0402,17.9709],[-67.0394,17.9712],[-67.0398,17.9707],[-67.0402,17.9709]],[[-67.0393,17.9601],[-67.0378,17.9603],[-67.0375,17.96],[-67.0393,17.9601]],[[-67.0367,17.9708],[-67.0361,17.9712],[-67.0359,17.9709],[-67.0367,17.9708]],[[-67.0365,17.9616],[-67.0361,17.9617],[-67.0358,17.9613],[-67.0365,17.9616]],[[-67.0356,17.9624],[-67.035,17.9627],[-67.0353,17.9622],[-67.0356,17.9624]],[[-67.0336,17.9638],[-67.0334,17.964],[-67.0328,17.9636],[-67.0336,17.9638]],[[-67.023,17.9685],[-67.0228,17.9691],[-67.0213,17.9683],[-67.023,17.9685]],[[-67.0099,17.9619],[-67.0093,17.9619],[-67.0087,17.9605],[-67.0099,17.9619]],[[-67.0027,17.9672],[-67.0026,17.9694],[-67.0008,17.968],[-67.0027,17.9672]],[[-67.0001,17.9695],[-66.9987,17.9704],[-66.9991,17.9695],[-67.0001,17.9695]],[[-66.996,17.9705],[-66.9957,17.9708],[-66.9954,17.9701],[-66.996,17.9705]],[[-66.995,17.9707],[-66.9942,17.9698],[-66.9947,17.9698],[-66.995,17.9707]],[[-66.9933,17.9642],[-66.9929,17.9643],[-66.993,17.9641],[-66.9933,17.9642]],[[-66.9931,17.9699],[-66.9918,17.9716],[-66.9921,17.9698],[-66.9931,17.9699]],[[-66.9909,17.9667],[-66.9906,17.9673],[-66.9902,17.967],[-66.9909,17.9667]],[[-66.9909,17.9623],[-66.9906,17.9627],[-66.99,17.9626],[-66.9909,17.9623]],[[-66.9886,17.9499],[-66.988,17.9499],[-66.9882,17.9496],[-66.9886,17.9499]],[[-66.988,17.9631],[-66.9856,17.9637],[-66.9867,17.9628],[-66.988,17.9631]],[[-66.987,17.9499],[-66.9864,17.9503],[-66.9857,17.9498],[-66.987,17.9499]],[[-66.9864,17.9642],[-66.9861,17.9642],[-66.9862,17.9641],[-66.9864,17.9642]],[[-66.9859,17.9645],[-66.9857,17.9648],[-66.9855,17.9646],[-66.9859,17.9645]],[[-66.9857,17.9607],[-66.9841,17.9615],[-66.9845,17.9609],[-66.9857,17.9607]],[[-66.9855,17.9499],[-66.9849,17.9498],[-66.985,17.9493],[-66.9855,17.9499]],[[-66.9848,17.9493],[-66.9846,17.9493],[-66.9847,17.9492],[-66.9848,17.9493]],[[-66.9844,17.9491],[-66.984,17.9492],[-66.9832,17.9486],[-66.9844,17.9491]],[[-66.9844,17.9625],[-66.9841,17.9626],[-66.9841,17.9623],[-66.9844,17.9625]],[[-66.9739,17.9303],[-66.9737,17.9306],[-66.9733,17.9299],[-66.9739,17.9303]],[[-66.9126,17.9461],[-66.9124,17.9461],[-66.9123,17.9459],[-66.9126,17.9461]],[[-66.9123,17.9463],[-66.9117,17.9462],[-66.912,17.9459],[-66.9123,17.9463]],[[-66.9118,17.9466],[-66.9111,17.9469],[-66.9114,17.9464],[-66.9118,17.9466]],[[-66.875,17.9414],[-66.8701,17.9427],[-66.8721,17.9408],[-66.875,17.9414]],[[-66.8721,17.9438],[-66.8704,17.9442],[-66.8694,17.9432],[-66.8721,17.9438]],[[-66.8701,18.4927],[-66.869,18.4929],[-66.8687,18.4923],[-66.8701,18.4927]],[[-66.8696,17.9444],[-66.8668,17.9471],[-66.8654,17.9456],[-66.8696,17.9444]],[[-66.8589,18.4923],[-66.8588,18.4924],[-66.8588,18.4924],[-66.8589,18.4923]],[[-66.8534,18.4924],[-66.8532,18.4924],[-66.8533,18.4923],[-66.8534,18.4924]],[[-66.7983,18.4935],[-66.7979,18.4936],[-66.7979,18.4935],[-66.7983,18.4935]],[[-66.7965,18.494],[-66.7963,18.4943],[-66.7959,18.4937],[-66.7965,18.494]],[[-66.7546,17.9666],[-66.7536,17.9661],[-66.754,17.9659],[-66.7546,17.9666]],[[-66.7532,17.9668],[-66.7482,17.9665],[-66.751,17.9649],[-66.7532,17.9668]],[[-66.7503,17.9754],[-66.7444,17.9728],[-66.7496,17.9739],[-66.7503,17.9754]],[[-66.7406,17.9812],[-66.7369,17.9846],[-66.7355,17.9837],[-66.7406,17.9812]],[[-66.7339,17.9678],[-66.7336,17.9714],[-66.7315,17.9717],[-66.7339,17.9678]],[[-66.7038,18.4802],[-66.7036,18.4803],[-66.7035,18.4801],[-66.7038,18.4802]],[[-66.7034,18.4813],[-66.7033,18.4814],[-66.7032,18.4812],[-66.7034,18.4813]],[[-66.7031,18.4814],[-66.703,18.4817],[-66.703,18.4814],[-66.7031,18.4814]],[[-66.7023,18.4818],[-66.7021,18.4818],[-66.7021,18.4817],[-66.7023,18.4818]],[[-66.6966,18.4824],[-66.6962,18.4827],[-66.6962,18.4825],[-66.6966,18.4824]],[[-66.6958,18.4832],[-66.6957,18.4832],[-66.6958,18.4832],[-66.6958,18.4832]],[[-66.6944,18.483],[-66.6943,18.4831],[-66.6942,18.483],[-66.6944,18.483]],[[-66.6831,17.9528],[-66.682,17.9536],[-66.682,17.9523],[-66.6831,17.9528]],[[-66.6814,17.9537],[-66.68,17.9529],[-66.6802,17.9521],[-66.6814,17.9537]],[[-66.6362,17.9572],[-66.6338,17.9569],[-66.6352,17.9561],[-66.6362,17.9572]],[[-66.5903,17.9589],[-66.5901,17.9597],[-66.5892,17.9596],[-66.5903,17.9589]],[[-66.558,17.962],[-66.5524,17.9629],[-66.5539,17.9617],[-66.558,17.962]],[[-66.534,17.8815],[-66.531,17.8837],[-66.5315,17.8821],[-66.534,17.8815]],[[-66.5298,17.8839],[-66.5222,17.8978],[-66.5104,17.9012],[-66.5298,17.8839]],[[-66.5289,18.4854],[-66.5283,18.4857],[-66.5278,18.4853],[-66.5289,18.4854]],[[-66.5277,18.4851],[-66.5276,18.4852],[-66.5275,18.4851],[-66.5277,18.4851]],[[-66.5233,18.4833],[-66.5233,18.4834],[-66.5232,18.4833],[-66.5233,18.4833]],[[-66.5228,18.4835],[-66.5227,18.4835],[-66.5227,18.4834],[-66.5228,18.4835]],[[-66.5225,18.4833],[-66.5215,18.4828],[-66.5222,18.4828],[-66.5225,18.4833]],[[-66.5204,18.4824],[-66.52,18.4824],[-66.5203,18.4822],[-66.5204,18.4824]],[[-66.52,18.4826],[-66.5199,18.4827],[-66.5197,18.4826],[-66.52,18.4826]],[[-66.5164,18.4815],[-66.5164,18.4816],[-66.5163,18.4815],[-66.5164,18.4815]],[[-66.5156,18.4812],[-66.5155,18.4813],[-66.5153,18.4811],[-66.5156,18.4812]],[[-66.5153,18.481],[-66.5147,18.4809],[-66.5146,18.4807],[-66.5153,18.481]],[[-66.5143,18.4805],[-66.5136,18.4803],[-66.514,18.4802],[-66.5143,18.4805]],[[-66.5136,18.4802],[-66.5134,18.4802],[-66.5134,18.4801],[-66.5136,18.4802]],[[-66.5131,18.4802],[-66.513,18.4803],[-66.5128,18.4801],[-66.5131,18.4802]],[[-66.5109,18.4774],[-66.5104,18.4779],[-66.5104,18.4774],[-66.5109,18.4774]],[[-66.5101,18.4782],[-66.5098,18.4781],[-66.51,18.478],[-66.5101,18.4782]],[[-66.5071,18.4774],[-66.507,18.4776],[-66.507,18.4774],[-66.5071,18.4774]],[[-66.5044,18.4765],[-66.5044,18.4766],[-66.5042,18.4766],[-66.5044,18.4765]],[[-66.5029,18.4762],[-66.5028,18.4763],[-66.5028,18.4761],[-66.5029,18.4762]],[[-66.4791,18.4726],[-66.4789,18.4728],[-66.4783,18.4725],[-66.4791,18.4726]],[[-66.4587,17.9326],[-66.4544,17.9298],[-66.4566,17.9235],[-66.4587,17.9326]],[[-66.4559,17.9247],[-66.4553,17.925],[-66.4554,17.9245],[-66.4559,17.9247]],[[-66.4558,17.9239],[-66.4545,17.9251],[-66.4533,17.9241],[-66.4558,17.9239]],[[-66.4024,17.9499],[-66.4004,17.9483],[-66.4014,17.9482],[-66.4024,17.9499]],[[-66.4003,17.9482],[-66.393,17.9447],[-66.3926,17.9424],[-66.4003,17.9482]],[[-66.3903,17.9399],[-66.3887,17.9406],[-66.3892,17.9396],[-66.3903,17.9399]],[[-66.3886,17.941],[-66.3872,17.9415],[-66.3864,17.941],[-66.3886,17.941]],[[-66.388,17.9399],[-66.3861,17.9409],[-66.3863,17.9391],[-66.388,17.9399]],[[-66.3873,17.92],[-66.3851,17.9215],[-66.3857,17.9195],[-66.3873,17.92]],[[-66.3868,17.9383],[-66.3858,17.939],[-66.3859,17.9383],[-66.3868,17.9383]],[[-66.3837,17.9215],[-66.3819,17.9226],[-66.3816,17.9208],[-66.3837,17.9215]],[[-66.3693,17.9291],[-66.3668,17.9285],[-66.3688,17.9281],[-66.3693,17.9291]],[[-66.3668,17.9282],[-66.3659,17.9289],[-66.3659,17.928],[-66.3668,17.9282]],[[-66.3654,17.9297],[-66.3646,17.9298],[-66.3643,17.929],[-66.3654,17.9297]],[[-66.3653,17.9579],[-66.3617,17.9604],[-66.3626,17.9566],[-66.3653,17.9579]],[[-66.3554,17.926],[-66.3514,17.93],[-66.3521,17.9267],[-66.3554,17.926]],[[-66.3406,17.9659],[-66.3402,17.9659],[-66.3402,17.9656],[-66.3406,17.9659]],[[-66.3241,17.9272],[-66.3206,17.9274],[-66.3225,17.9267],[-66.3241,17.9272]],[[-66.3203,17.9276],[-66.3201,17.9307],[-66.3192,17.9292],[-66.3203,17.9276]],[[-66.3012,17.9352],[-66.2989,17.9369],[-66.2966,17.9348],[-66.3012,17.9352]],[[-66.297,17.9558],[-66.294,17.9569],[-66.2927,17.9489],[-66.297,17.9558]],[[-66.2958,17.956],[-66.2952,17.956],[-66.2954,17.9557],[-66.2958,17.956]],[[-66.2929,17.9349],[-66.2918,17.9358],[-66.292,17.9343],[-66.2929,17.9349]],[[-66.2917,17.9345],[-66.2891,17.935],[-66.29,17.9332],[-66.2917,17.9345]],[[-66.2896,17.9333],[-66.2895,17.9336],[-66.2895,17.933],[-66.2896,17.9333]],[[-66.2893,17.9333],[-66.2888,17.9346],[-66.2884,17.9334],[-66.2893,17.9333]],[[-66.2883,17.9341],[-66.2827,17.9339],[-66.2868,17.9326],[-66.2883,17.9341]],[[-66.2728,17.927],[-66.2723,17.9274],[-66.2725,17.9267],[-66.2728,17.927]],[[-66.2683,17.9432],[-66.2678,17.9434],[-66.2677,17.9431],[-66.2683,17.9432]],[[-66.2677,17.9438],[-66.2671,17.9437],[-66.2675,17.9434],[-66.2677,17.9438]],[[-66.2674,17.9426],[-66.2664,17.9431],[-66.2668,17.9425],[-66.2674,17.9426]],[[-66.2665,17.9422],[-66.2652,17.9426],[-66.2663,17.9418],[-66.2665,17.9422]],[[-66.265,17.9405],[-66.2641,17.9403],[-66.2643,17.94],[-66.265,17.9405]],[[-66.264,17.9394],[-66.2617,17.9389],[-66.2626,17.9385],[-66.264,17.9394]],[[-66.2633,17.9252],[-66.2613,17.9247],[-66.2618,17.9232],[-66.2633,17.9252]],[[-66.2621,17.9378],[-66.261,17.9384],[-66.2614,17.9373],[-66.2621,17.9378]],[[-66.2613,17.9232],[-66.2611,17.9244],[-66.2579,17.9221],[-66.2613,17.9232]],[[-66.2566,17.9355],[-66.2561,17.936],[-66.2551,17.9351],[-66.2566,17.9355]],[[-66.2535,17.9196],[-66.2527,17.9203],[-66.2523,17.9199],[-66.2535,17.9196]],[[-66.252,17.9188],[-66.2499,17.92],[-66.2496,17.9168],[-66.252,17.9188]],[[-66.2494,17.9177],[-66.246,17.9179],[-66.2454,17.9162],[-66.2494,17.9177]],[[-66.2455,17.9157],[-66.245,17.9158],[-66.2451,17.9153],[-66.2455,17.9157]],[[-66.2453,17.9326],[-66.2435,17.9319],[-66.2432,17.9307],[-66.2453,17.9326]],[[-66.245,17.9171],[-66.2395,17.9176],[-66.2423,17.9141],[-66.245,17.9171]],[[-66.2411,17.914],[-66.2391,17.9168],[-66.2389,17.9133],[-66.2411,17.914]],[[-66.2406,17.9366],[-66.237,17.9375],[-66.2367,17.9346],[-66.2406,17.9366]],[[-66.2406,17.9292],[-66.2399,17.9296],[-66.2396,17.9287],[-66.2406,17.9292]],[[-66.2401,17.9392],[-66.2386,17.9386],[-66.2396,17.9381],[-66.2401,17.9392]],[[-66.2401,17.9341],[-66.2344,17.93],[-66.2378,17.9265],[-66.2401,17.9341]],[[-66.2386,17.9171],[-66.237,17.9168],[-66.2373,17.9136],[-66.2386,17.9171]],[[-66.2361,17.9156],[-66.2251,17.9135],[-66.2335,17.9132],[-66.2361,17.9156]],[[-66.2322,17.9162],[-66.2301,17.9168],[-66.231,17.9155],[-66.2322,17.9162]],[[-66.2174,17.9216],[-66.2151,17.9244],[-66.2136,17.9206],[-66.2174,17.9216]],[[-66.2138,17.9217],[-66.2135,17.922],[-66.2133,17.9215],[-66.2138,17.9217]],[[-66.2137,17.9236],[-66.2127,17.923],[-66.2123,17.9222],[-66.2137,17.9236]],[[-66.2136,17.9242],[-66.2126,17.9239],[-66.2117,17.9226],[-66.2136,17.9242]],[[-66.2133,17.9222],[-66.2131,17.9222],[-66.213,17.9219],[-66.2133,17.9222]],[[-66.2131,17.9249],[-66.2119,17.9249],[-66.2106,17.9231],[-66.2131,17.9249]],[[-66.2126,17.9264],[-66.2118,17.926],[-66.2118,17.9257],[-66.2126,17.9264]],[[-66.2117,17.9234],[-66.2113,17.9233],[-66.2111,17.923],[-66.2117,17.9234]],[[-66.2116,17.9256],[-66.2108,17.9267],[-66.2089,17.9246],[-66.2116,17.9256]],[[-66.211,17.9271],[-66.2088,17.9284],[-66.2075,17.9249],[-66.211,17.9271]],[[-66.2096,17.9305],[-66.2067,17.9297],[-66.2046,17.9265],[-66.2096,17.9305]],[[-66.2079,17.9313],[-66.2056,17.931],[-66.2029,17.928],[-66.2079,17.9313]],[[-66.2076,17.926],[-66.2074,17.9265],[-66.2071,17.9257],[-66.2076,17.926]],[[-66.2073,17.9267],[-66.2072,17.927],[-66.2069,17.9261],[-66.2073,17.9267]],[[-66.207,17.9506],[-66.2059,17.9509],[-66.2058,17.9501],[-66.207,17.9506]],[[-66.2065,17.927],[-66.2065,17.9271],[-66.2058,17.9266],[-66.2065,17.927]],[[-66.2054,17.9286],[-66.2048,17.9283],[-66.2044,17.9275],[-66.2054,17.9286]],[[-66.205,17.9308],[-66.2024,17.9297],[-66.2017,17.9278],[-66.205,17.9308]],[[-66.1896,18.4758],[-66.1887,18.4769],[-66.1873,18.4765],[-66.1896,18.4758]],[[-66.0916,18.4697],[-66.0904,18.4694],[-66.0913,18.4692],[-66.0916,18.4697]],[[-66.045,18.4644],[-66.0442,18.465],[-66.0447,18.4642],[-66.045,18.4644]],[[-66.0169,18.4488],[-66.0165,18.4486],[-66.0165,18.4481],[-66.0169,18.4488]],[[-65.7957,18.0684],[-65.7955,18.0687],[-65.7954,18.0683],[-65.7957,18.0684]],[[-65.7954,18.0688],[-65.7946,18.0688],[-65.7951,18.0684],[-65.7954,18.0688]],[[-65.7714,18.1155],[-65.7707,18.1159],[-65.771,18.1151],[-65.7714,18.1155]],[[-65.735,18.1578],[-65.7298,18.1585],[-65.7335,18.1533],[-65.735,18.1578]],[[-65.5818,18.1169],[-65.5792,18.1224],[-65.5405,18.123],[-65.5172,18.1324],[-65.5151,18.1529],[-65.5107,18.1509],[-65.5078,18.1368],[-65.5004,18.1391],[-65.5008,18.1736],[-65.4916,18.1753],[-65.4829,18.172],[-65.4819,18.1438],[-65.4521,18.1501],[-65.4416,18.1598],[-65.4047,18.166],[-65.3157,18.1507],[-65.2848,18.1517],[-65.264,18.1369],[-65.2701,18.1276],[-65.322,18.1193],[-65.3413,18.1075],[-65.4033,18.1055],[-65.4468,18.0838],[-65.4729,18.0832],[-65.4852,18.0916],[-65.4996,18.0904],[-65.5326,18.0761],[-65.5683,18.086],[-65.5802,18.1],[-65.5818,18.1169]],[[-65.3974,18.3331],[-65.3915,18.3402],[-65.3884,18.3294],[-65.3757,18.3292],[-65.3693,18.3201],[-65.3523,18.3239],[-65.3495,18.3157],[-65.3418,18.3132],[-65.3346,18.3169],[-65.3366,18.3293],[-65.3519,18.3493],[-65.3735,18.3559],[-65.3698,18.3663],[-65.3444,18.3628],[-65.3432,18.3557],[-65.3352,18.3528],[-65.3273,18.342],[-65.3181,18.3375],[-65.3092,18.342],[-65.3013,18.3349],[-65.2871,18.3412],[-65.2824,18.3348],[-65.2682,18.3447],[-65.2571,18.3465],[-65.2478,18.3404],[-65.242,18.343],[-65.2409,18.3493],[-65.2344,18.3502],[-65.2332,18.3429],[-65.2248,18.3401],[-65.224,18.3354],[-65.2412,18.3283],[-65.219,18.325],[-65.221,18.316],[-65.2174,18.3131],[-65.2211,18.3068],[-65.2406,18.3048],[-65.259,18.286],[-65.2759,18.2889],[-65.2783,18.2785],[-65.2858,18.2735],[-65.3081,18.2969],[-65.3336,18.2937],[-65.3361,18.2989],[-65.343,18.2992],[-65.3439,18.3075],[-65.3509,18.3077],[-65.36,18.316],[-65.3887,18.3212],[-65.3974,18.3331]]]},"properties":{"geoid":"72ZZZ","state":"72","district":"State House Districts not defined","name":"State House Districts not defined","chamber":"House"}}]}