{"type":"FeatureCollection","features":[{"type":"Feature","geometry":{"type":"Polygon","coordinates":[[[-71.4175,41.832],[-71.4054,41.8227],[-71.397,41.8232],[-71.3955,41.8288],[-71.3774,41.8293],[-71.3731,41.8366],[-71.41,41.8368],[-71.4116,41.8314],[-71.415,41.8366],[-71.4175,41.832]]]},"properties":{"geoid":"44001","state":"44","district":"1","name":"State House District 1","chamber":"House"}},{"type":"Feature","geometry":{"type":"Polygon","coordinates":[[[-71.4284,41.8315],[-71.4259,41.8259],[-71.4188,41.826],[-71.4172,41.8182],[-71.4017,41.8155],[-71.3978,41.8099],[-71.3774,41.8293],[-71.3955,41.8288],[-71.3953,41.8234],[-71.4054,41.8227],[-71.4163,41.8318],[-71.4284,41.8315]]]},"properties":{"geoid":"44002","state":"44","district":"2","name":"State House District 2","chamber":"House"}},{"type":"Feature","geometry":{"type":"Polygon","coordinates":[[[-71.4379,41.8533],[-71.4279,41.8437],[-71.4284,41.8315],[-71.4175,41.832],[-71.4055,41.8567],[-71.411,41.8589],[-71.4126,41.8532],[-71.4234,41.8517],[-71.4379,41.8533]]]},"properties":{"geoid":"44003","state":"44","district":"3","name":"State House District 3","chamber":"House"}},{"type":"Feature","geometry":{"type":"Polygon","coordinates":[[[-71.415,41.8367],[-71.4116,41.8314],[-71.41,41.8368],[-71.3731,41.8366],[-71.3745,41.8571],[-71.4055,41.8567],[-71.415,41.8367]]]},"properties":{"geoid":"44004","state":"44","district":"4","name":"State House District 4","chamber":"House"}},{"type":"Feature","geometry":{"type":"Polygon","coordinates":[[[-71.4467,41.854],[-71.4406,41.8406],[-71.4304,41.8362],[-71.4279,41.8437],[-71.4379,41.8533],[-71.4126,41.8532],[-71.4108,41.8581],[-71.435,41.8618],[-71.4467,41.854]]]},"properties":{"geoid":"44005","state":"44","district":"5","name":"State House District 5","chamber":"House"}},{"type":"Feature","geometry":{"type":"Polygon","coordinates":[[[-71.4787,41.8424],[-71.4622,41.8244],[-71.451,41.8205],[-71.4486,41.8251],[-71.457,41.8258],[-71.4561,41.8332],[-71.4401,41.8444],[-71.4467,41.854],[-71.4619,41.854],[-71.4634,41.8447],[-71.4787,41.8424]]]},"properties":{"geoid":"44006","state":"44","district":"6","name":"State House District 6","chamber":"House"}},{"type":"Feature","geometry":{"type":"Polygon","coordinates":[[[-71.457,41.8262],[-71.4434,41.8248],[-71.4337,41.8349],[-71.4452,41.8426],[-71.4449,41.839],[-71.4552,41.835],[-71.457,41.8262]]]},"properties":{"geoid":"44007","state":"44","district":"7","name":"State House District 7","chamber":"House"}},{"type":"Feature","geometry":{"type":"Polygon","coordinates":[[[-71.4488,41.8234],[-71.4389,41.8158],[-71.4183,41.819],[-71.4188,41.826],[-71.4259,41.8259],[-71.4304,41.8362],[-71.4368,41.8391],[-71.4334,41.8339],[-71.4488,41.8234]]]},"properties":{"geoid":"44008","state":"44","district":"8","name":"State House District 8","chamber":"House"}},{"type":"Feature","geometry":{"type":"Polygon","coordinates":[[[-71.4598,41.8222],[-71.4558,41.8153],[-71.4469,41.8141],[-71.4475,41.8066],[-71.4405,41.8039],[-71.44,41.8113],[-71.4158,41.8093],[-71.4119,41.8151],[-71.4183,41.819],[-71.4389,41.8158],[-71.4465,41.8198],[-71.4432,41.8219],[-71.4598,41.8222]]]},"properties":{"geoid":"44009","state":"44","district":"9","name":"State House District 9","chamber":"House"}},{"type":"Feature","geometry":{"type":"Polygon","coordinates":[[[-71.441,41.8068],[-71.4368,41.7887],[-71.4206,41.7862],[-71.4238,41.7773],[-71.4119,41.7724],[-71.4038,41.7809],[-71.4069,41.7868],[-71.4159,41.7896],[-71.4196,41.7861],[-71.4264,41.7992],[-71.4249,41.8071],[-71.4311,41.8119],[-71.44,41.8113],[-71.441,41.8068]]]},"properties":{"geoid":"44010","state":"44","district":"10","name":"State House District 10","chamber":"House"}},{"type":"Feature","geometry":{"type":"Polygon","coordinates":[[[-71.4283,41.8097],[-71.4196,41.7861],[-71.4159,41.7896],[-71.4017,41.7859],[-71.4181,41.8011],[-71.4219,41.8128],[-71.4283,41.8097]]]},"properties":{"geoid":"44011","state":"44","district":"11","name":"State House District 11","chamber":"House"}},{"type":"Feature","geometry":{"type":"Polygon","coordinates":[[[-71.421,41.8098],[-71.418,41.801],[-71.4017,41.7859],[-71.3697,41.7831],[-71.3723,41.7901],[-71.4017,41.8155],[-71.421,41.8098]]]},"properties":{"geoid":"44012","state":"44","district":"12","name":"State House District 12","chamber":"House"}},{"type":"Feature","geometry":{"type":"Polygon","coordinates":[[[-71.482,41.8117],[-71.476,41.8002],[-71.4625,41.81],[-71.4475,41.8066],[-71.4499,41.8119],[-71.4459,41.8131],[-71.4558,41.8153],[-71.4632,41.8248],[-71.4718,41.8242],[-71.4722,41.814],[-71.482,41.8117]]]},"properties":{"geoid":"44013","state":"44","district":"13","name":"State House District 13","chamber":"House"}},{"type":"Feature","geometry":{"type":"Polygon","coordinates":[[[-71.4827,41.796],[-71.4649,41.7827],[-71.4484,41.7933],[-71.4442,41.786],[-71.4365,41.7884],[-71.4422,41.8072],[-71.4625,41.81],[-71.4676,41.7981],[-71.4827,41.796]]]},"properties":{"geoid":"44014","state":"44","district":"14","name":"State House District 14","chamber":"House"}},{"type":"Feature","geometry":{"type":"Polygon","coordinates":[[[-71.5342,41.7403],[-71.5261,41.7411],[-71.5253,41.7303],[-71.4606,41.7323],[-71.4692,41.7458],[-71.4642,41.7532],[-71.4765,41.7565],[-71.475,41.7702],[-71.4815,41.7718],[-71.482,41.7668],[-71.5018,41.7819],[-71.4967,41.7838],[-71.4974,41.7909],[-71.5162,41.7886],[-71.5111,41.7729],[-71.5176,41.7622],[-71.5067,41.7541],[-71.5261,41.7484],[-71.5342,41.7403]]]},"properties":{"geoid":"44015","state":"44","district":"15","name":"State House District 15","chamber":"House"}},{"type":"Feature","geometry":{"type":"Polygon","coordinates":[[[-71.461,41.7836],[-71.4415,41.781],[-71.4593,41.764],[-71.4602,41.7585],[-71.4465,41.7489],[-71.4404,41.7524],[-71.4406,41.7579],[-71.433,41.7593],[-71.4279,41.7727],[-71.437,41.7723],[-71.4358,41.7789],[-71.4409,41.7814],[-71.434,41.7863],[-71.4442,41.786],[-71.4484,41.7933],[-71.461,41.7836]]]},"properties":{"geoid":"44016","state":"44","district":"16","name":"State House District 16","chamber":"House"}},{"type":"Feature","geometry":{"type":"Polygon","coordinates":[[[-71.5004,41.7804],[-71.482,41.7668],[-71.4815,41.7718],[-71.475,41.7702],[-71.4765,41.7565],[-71.4642,41.7532],[-71.4692,41.7458],[-71.4631,41.7388],[-71.4514,41.7522],[-71.4602,41.7585],[-71.4589,41.7652],[-71.4415,41.781],[-71.4649,41.7827],[-71.4756,41.7882],[-71.5004,41.7804]]]},"properties":{"geoid":"44017","state":"44","district":"17","name":"State House District 17","chamber":"House"}},{"type":"Feature","geometry":{"type":"Polygon","coordinates":[[[-71.4401,41.782],[-71.4358,41.7789],[-71.437,41.7723],[-71.4279,41.7727],[-71.4327,41.7593],[-71.4052,41.7676],[-71.4004,41.778],[-71.3778,41.782],[-71.4043,41.7858],[-71.4119,41.7724],[-71.4238,41.7773],[-71.4206,41.7862],[-71.4401,41.782]]]},"properties":{"geoid":"44018","state":"44","district":"18","name":"State House District 18","chamber":"House"}},{"type":"Feature","geometry":{"type":"Polygon","coordinates":[[[-71.4212,41.7557],[-71.4165,41.7522],[-71.4044,41.7556],[-71.4077,41.7352],[-71.3937,41.7332],[-71.3846,41.7398],[-71.3812,41.7353],[-71.3809,41.7394],[-71.3685,41.7394],[-71.3783,41.7553],[-71.3778,41.782],[-71.4004,41.778],[-71.4052,41.7676],[-71.4201,41.7616],[-71.4212,41.7557]]]},"properties":{"geoid":"44019","state":"44","district":"19","name":"State House District 19","chamber":"House"}},{"type":"Feature","geometry":{"type":"Polygon","coordinates":[[[-71.5007,41.7116],[-71.4905,41.7098],[-71.4974,41.6967],[-71.4752,41.6975],[-71.4716,41.7091],[-71.4643,41.7111],[-71.4554,41.6879],[-71.4471,41.6848],[-71.4502,41.6867],[-71.4452,41.6912],[-71.4526,41.6984],[-71.4479,41.7114],[-71.4417,41.7097],[-71.4367,41.7164],[-71.4428,41.7197],[-71.4321,41.7406],[-71.4165,41.7522],[-71.4212,41.7556],[-71.4187,41.7641],[-71.4376,41.7598],[-71.4465,41.7489],[-71.4553,41.7507],[-71.4621,41.7396],[-71.4606,41.7323],[-71.4839,41.7316],[-71.4904,41.7154],[-71.5007,41.7116]]]},"properties":{"geoid":"44020","state":"44","district":"20","name":"State House District 20","chamber":"House"}},{"type":"Feature","geometry":{"type":"Polygon","coordinates":[[[-71.4425,41.7202],[-71.4367,41.7164],[-71.4417,41.7097],[-71.437,41.7076],[-71.4264,41.7182],[-71.4173,41.7114],[-71.3965,41.7206],[-71.3818,41.7142],[-71.3778,41.7202],[-71.374,41.7163],[-71.3569,41.7285],[-71.3685,41.7394],[-71.3809,41.7394],[-71.3812,41.7353],[-71.3846,41.7398],[-71.3937,41.7332],[-71.4077,41.7352],[-71.4044,41.7556],[-71.4096,41.757],[-71.4302,41.743],[-71.4425,41.7202]]]},"properties":{"geoid":"44021","state":"44","district":"21","name":"State House District 21","chamber":"House"}},{"type":"Feature","geometry":{"type":"Polygon","coordinates":[[[-71.4064,41.695],[-71.3932,41.6696],[-71.3901,41.6523],[-71.3805,41.6503],[-71.3748,41.6628],[-71.3257,41.6932],[-71.3569,41.7285],[-71.374,41.7163],[-71.3778,41.7202],[-71.3818,41.7142],[-71.4029,41.7195],[-71.3991,41.7126],[-71.4064,41.695]]]},"properties":{"geoid":"44022","state":"44","district":"22","name":"State House District 22","chamber":"House"}},{"type":"Feature","geometry":{"type":"Polygon","coordinates":[[[-71.4533,41.6966],[-71.4301,41.6757],[-71.3932,41.6696],[-71.4064,41.695],[-71.4017,41.6985],[-71.4016,41.7181],[-71.4173,41.7114],[-71.4264,41.7182],[-71.437,41.7076],[-71.4479,41.7114],[-71.4533,41.6966]]]},"properties":{"geoid":"44023","state":"44","district":"23","name":"State House District 23","chamber":"House"}},{"type":"Feature","geometry":{"type":"Polygon","coordinates":[[[-71.5017,41.6965],[-71.4992,41.6629],[-71.4423,41.664],[-71.4522,41.6485],[-71.4587,41.6493],[-71.454,41.6552],[-71.4586,41.6583],[-71.4692,41.6516],[-71.4678,41.6342],[-71.4592,41.638],[-71.4514,41.6295],[-71.4426,41.6458],[-71.4239,41.6539],[-71.3901,41.6523],[-71.3932,41.6696],[-71.4301,41.6757],[-71.4457,41.6885],[-71.4526,41.6845],[-71.4643,41.7111],[-71.4716,41.7091],[-71.4752,41.6975],[-71.5017,41.6965]]]},"properties":{"geoid":"44024","state":"44","district":"24","name":"State House District 24","chamber":"House"}},{"type":"Feature","geometry":{"type":"Polygon","coordinates":[[[-71.5482,41.7076],[-71.533,41.6802],[-71.533,41.6885],[-71.5147,41.6884],[-71.5154,41.696],[-71.5189,41.6959],[-71.5119,41.7072],[-71.5164,41.7125],[-71.5105,41.7165],[-71.515,41.7201],[-71.5196,41.7148],[-71.5288,41.7205],[-71.5421,41.7197],[-71.5482,41.7076]]]},"properties":{"geoid":"44025","state":"44","district":"25","name":"State House District 25","chamber":"House"}},{"type":"Feature","geometry":{"type":"Polygon","coordinates":[[[-71.5765,41.7293],[-71.5717,41.7218],[-71.5735,41.7104],[-71.5469,41.7092],[-71.5426,41.7195],[-71.5288,41.7205],[-71.5196,41.7148],[-71.5137,41.7198],[-71.5105,41.7165],[-71.5164,41.7125],[-71.5119,41.7072],[-71.5189,41.6959],[-71.4974,41.6967],[-71.4905,41.7098],[-71.5008,41.7116],[-71.4904,41.7154],[-71.4839,41.7316],[-71.5765,41.7293]]]},"properties":{"geoid":"44026","state":"44","district":"26","name":"State House District 26","chamber":"House"}},{"type":"Feature","geometry":{"type":"Polygon","coordinates":[[[-71.5597,41.6832],[-71.5511,41.668],[-71.5415,41.662],[-71.4992,41.6629],[-71.5017,41.6965],[-71.5154,41.696],[-71.5147,41.6884],[-71.533,41.6885],[-71.533,41.6802],[-71.5427,41.6955],[-71.5485,41.6929],[-71.5468,41.6846],[-71.5597,41.6832]]]},"properties":{"geoid":"44027","state":"44","district":"27","name":"State House District 27","chamber":"House"}},{"type":"Feature","geometry":{"type":"Polygon","coordinates":[[[-71.7006,41.7168],[-71.6939,41.6989],[-71.6949,41.6584],[-71.6224,41.6597],[-71.595,41.6889],[-71.588,41.6876],[-71.5872,41.6785],[-71.5808,41.679],[-71.5733,41.6897],[-71.5635,41.6902],[-71.5608,41.6859],[-71.56,41.6905],[-71.5415,41.6954],[-71.5469,41.7092],[-71.5735,41.7104],[-71.5717,41.7218],[-71.5765,41.7293],[-71.7006,41.7267],[-71.7006,41.7168]]]},"properties":{"geoid":"44028","state":"44","district":"28","name":"State House District 28","chamber":"House"}},{"type":"Feature","geometry":{"type":"Polygon","coordinates":[[[-71.7892,41.5982],[-71.6594,41.5987],[-71.6517,41.6145],[-71.6124,41.6497],[-71.584,41.65],[-71.5415,41.662],[-71.5511,41.668],[-71.5597,41.6832],[-71.5468,41.6846],[-71.5467,41.695],[-71.56,41.6905],[-71.5608,41.6859],[-71.5635,41.6902],[-71.575,41.689],[-71.5808,41.679],[-71.5872,41.6785],[-71.588,41.6876],[-71.595,41.6889],[-71.6224,41.6597],[-71.7872,41.6561],[-71.7892,41.5982]]]},"properties":{"geoid":"44029","state":"44","district":"29","name":"State House District 29","chamber":"House"}},{"type":"Feature","geometry":{"type":"Polygon","coordinates":[[[-71.6594,41.5987],[-71.4844,41.6026],[-71.4881,41.6163],[-71.4678,41.6342],[-71.4692,41.6516],[-71.4586,41.6583],[-71.454,41.6552],[-71.4587,41.6493],[-71.4522,41.6485],[-71.4423,41.664],[-71.5471,41.6619],[-71.584,41.65],[-71.6103,41.6507],[-71.6517,41.6145],[-71.6594,41.5987]]]},"properties":{"geoid":"44030","state":"44","district":"30","name":"State House District 30","chamber":"House"}},{"type":"Feature","geometry":{"type":"Polygon","coordinates":[[[-71.5571,41.5107],[-71.5079,41.5001],[-71.5183,41.5273],[-71.4897,41.584],[-71.4592,41.5836],[-71.4547,41.6026],[-71.4078,41.586],[-71.4296,41.584],[-71.4293,41.5701],[-71.3987,41.5568],[-71.3876,41.5918],[-71.3867,41.6316],[-71.3805,41.6503],[-71.4176,41.655],[-71.4328,41.6513],[-71.4426,41.6457],[-71.4514,41.6295],[-71.4624,41.6384],[-71.4825,41.6236],[-71.4881,41.6163],[-71.4844,41.6026],[-71.5224,41.6026],[-71.5181,41.5922],[-71.5192,41.5579],[-71.5354,41.5621],[-71.5328,41.548],[-71.5528,41.5246],[-71.5571,41.5107]]]},"properties":{"geoid":"44031","state":"44","district":"31","name":"State House District 31","chamber":"House"}},{"type":"Feature","geometry":{"type":"Polygon","coordinates":[[[-71.5183,41.5273],[-71.5079,41.5001],[-71.483,41.4976],[-71.4116,41.5045],[-71.4015,41.5161],[-71.3987,41.5568],[-71.4293,41.5701],[-71.4296,41.584],[-71.4078,41.586],[-71.4547,41.6026],[-71.4592,41.5836],[-71.4897,41.584],[-71.5183,41.5273]]]},"properties":{"geoid":"44032","state":"44","district":"32","name":"State House District 32","chamber":"House"}},{"type":"Feature","geometry":{"type":"Polygon","coordinates":[[[-71.5272,41.4602],[-71.4952,41.4643],[-71.4967,41.4519],[-71.4833,41.4354],[-71.4751,41.4389],[-71.466,41.4335],[-71.4566,41.4364],[-71.432,41.4322],[-71.409,41.4683],[-71.4116,41.5045],[-71.4919,41.4972],[-71.5149,41.5013],[-71.5272,41.4602]]]},"properties":{"geoid":"44033","state":"44","district":"33","name":"State House District 33","chamber":"House"}},{"type":"Feature","geometry":{"type":"Polygon","coordinates":[[[-71.5752,41.3209],[-71.5094,41.3077],[-71.46,41.3751],[-71.432,41.4322],[-71.4566,41.4364],[-71.466,41.4335],[-71.4751,41.4389],[-71.4833,41.4354],[-71.4967,41.4519],[-71.4952,41.4643],[-71.522,41.4575],[-71.5145,41.449],[-71.5057,41.4528],[-71.5071,41.4458],[-71.5241,41.4466],[-71.5159,41.4329],[-71.5206,41.427],[-71.5187,41.4196],[-71.5061,41.4098],[-71.5125,41.4067],[-71.5173,41.3821],[-71.5752,41.3209]]]},"properties":{"geoid":"44034","state":"44","district":"34","name":"State House District 34","chamber":"House"}},{"type":"Feature","geometry":{"type":"Polygon","coordinates":[[[-71.613,41.5251],[-71.6074,41.5021],[-71.6089,41.4877],[-71.6008,41.4805],[-71.6056,41.4742],[-71.5968,41.4618],[-71.6089,41.4522],[-71.5951,41.4462],[-71.6062,41.4154],[-71.5958,41.4216],[-71.5697,41.4153],[-71.5618,41.4241],[-71.548,41.4257],[-71.5464,41.4183],[-71.5308,41.4121],[-71.5347,41.4022],[-71.5496,41.3971],[-71.5497,41.3885],[-71.5314,41.3843],[-71.5345,41.3932],[-71.541,41.3957],[-71.5339,41.3937],[-71.526,41.3823],[-71.5358,41.3774],[-71.5227,41.3768],[-71.5173,41.3821],[-71.5125,41.4068],[-71.506,41.4106],[-71.5187,41.4196],[-71.5206,41.427],[-71.5159,41.4329],[-71.5241,41.4466],[-71.5071,41.4458],[-71.5057,41.4528],[-71.5145,41.449],[-71.52,41.4586],[-71.5273,41.4602],[-71.5149,41.5013],[-71.613,41.5251]]]},"properties":{"geoid":"44035","state":"44","district":"35","name":"State House District 35","chamber":"House"}},{"type":"Feature","geometry":{"type":"MultiPolygon","coordinates":[[[[-71.6788,41.1589],[-71.6761,41.1415],[-71.6683,41.1283],[-71.6189,41.0991],[-71.5693,41.0972],[-71.5175,41.1071],[-71.4914,41.1251],[-71.477,41.1557],[-71.4786,41.1758],[-71.4898,41.1947],[-71.4846,41.2175],[-71.4893,41.2352],[-71.5164,41.2715],[-71.536,41.2862],[-71.5576,41.294],[-71.5916,41.2893],[-71.6245,41.2741],[-71.635,41.2637],[-71.643,41.2313],[-71.6705,41.1945],[-71.6788,41.1589]]],[[[-71.7919,41.3768],[-71.7865,41.3664],[-71.7732,41.3644],[-71.7734,41.3531],[-71.7695,41.3557],[-71.7684,41.3515],[-71.7434,41.3478],[-71.7301,41.3517],[-71.7292,41.2779],[-71.695,41.2826],[-71.5752,41.3209],[-71.5227,41.3768],[-71.5358,41.3774],[-71.526,41.3823],[-71.5339,41.3937],[-71.541,41.3957],[-71.5345,41.3932],[-71.5314,41.3843],[-71.5497,41.3885],[-71.5496,41.3971],[-71.5347,41.4022],[-71.5308,41.4121],[-71.5464,41.4183],[-71.548,41.4257],[-71.5618,41.4241],[-71.5697,41.4153],[-71.5958,41.4216],[-71.6062,41.4154],[-71.5951,41.4462],[-71.5982,41.4496],[-71.61,41.4526],[-71.6211,41.4459],[-71.6328,41.449],[-71.6401,41.446],[-71.6494,41.4489],[-71.6552,41.4591],[-71.6708,41.4612],[-71.6853,41.4347],[-71.6998,41.4303],[-71.7075,41.4354],[-71.7166,41.4342],[-71.7192,41.428],[-71.7262,41.4274],[-71.73,41.4145],[-71.7235,41.4044],[-71.728,41.3966],[-71.7313,41.3985],[-71.7308,41.3865],[-71.7483,41.3832],[-71.748,41.4008],[-71.7719,41.3863],[-71.7907,41.385],[-71.7919,41.3768]]]]},"properties":{"geoid":"44036","state":"44","district":"36","name":"State House District 36","chamber":"House"}},{"type":"Feature","geometry":{"type":"Polygon","coordinates":[[[-71.9072,41.3045],[-71.791,41.1841],[-71.7915,41.2722],[-71.7292,41.2779],[-71.7301,41.3517],[-71.7434,41.3478],[-71.7684,41.3515],[-71.7695,41.3557],[-71.7734,41.3531],[-71.7732,41.3644],[-71.7865,41.3664],[-71.791,41.373],[-71.7907,41.385],[-71.8203,41.3848],[-71.8318,41.3799],[-71.8318,41.3703],[-71.8376,41.3655],[-71.8294,41.3424],[-71.8373,41.3351],[-71.8665,41.3192],[-71.8921,41.3301],[-71.9072,41.3045]]]},"properties":{"geoid":"44037","state":"44","district":"37","name":"State House District 37","chamber":"House"}},{"type":"Feature","geometry":{"type":"Polygon","coordinates":[[[-71.8436,41.4053],[-71.8318,41.3799],[-71.8185,41.3852],[-71.7733,41.3859],[-71.748,41.4008],[-71.7483,41.3832],[-71.7308,41.3865],[-71.7313,41.3985],[-71.7275,41.397],[-71.7233,41.4076],[-71.7294,41.4172],[-71.7262,41.4274],[-71.719,41.4282],[-71.7225,41.4379],[-71.711,41.4563],[-71.7217,41.4608],[-71.7122,41.4843],[-71.7179,41.4865],[-71.716,41.5078],[-71.7108,41.5117],[-71.7261,41.5308],[-71.7364,41.5302],[-71.7361,41.5239],[-71.7749,41.52],[-71.7789,41.5257],[-71.7922,41.5268],[-71.7977,41.4167],[-71.8203,41.4194],[-71.8397,41.4122],[-71.8436,41.4053]]]},"properties":{"geoid":"44038","state":"44","district":"38","name":"State House District 38","chamber":"House"}},{"type":"Feature","geometry":{"type":"Polygon","coordinates":[[[-71.7922,41.5268],[-71.7789,41.5257],[-71.7749,41.52],[-71.7361,41.5239],[-71.7364,41.5302],[-71.7261,41.5308],[-71.7125,41.5144],[-71.7179,41.4864],[-71.7122,41.4843],[-71.7217,41.4608],[-71.711,41.4563],[-71.7225,41.4379],[-71.719,41.4283],[-71.7166,41.4342],[-71.7075,41.4354],[-71.6998,41.4303],[-71.6853,41.4347],[-71.6714,41.4612],[-71.6552,41.4591],[-71.6494,41.4489],[-71.6402,41.446],[-71.6328,41.449],[-71.621,41.4459],[-71.5968,41.4617],[-71.6056,41.4742],[-71.6008,41.4805],[-71.6089,41.4877],[-71.6074,41.5021],[-71.613,41.5251],[-71.5571,41.5106],[-71.5528,41.5246],[-71.5328,41.548],[-71.5354,41.5621],[-71.5192,41.5579],[-71.5184,41.594],[-71.5224,41.6026],[-71.7892,41.5968],[-71.7922,41.5268]]]},"properties":{"geoid":"44039","state":"44","district":"39","name":"State House District 39","chamber":"House"}},{"type":"Feature","geometry":{"type":"Polygon","coordinates":[[[-71.7973,41.9162],[-71.7872,41.6561],[-71.6949,41.6584],[-71.6939,41.6989],[-71.7006,41.7267],[-71.6684,41.7275],[-71.691,41.8565],[-71.605,41.858],[-71.6068,41.8692],[-71.6011,41.8758],[-71.6019,41.8835],[-71.5969,41.888],[-71.5794,41.8818],[-71.5903,41.9337],[-71.7005,41.9309],[-71.6966,41.9197],[-71.7032,41.9181],[-71.7427,41.9217],[-71.7973,41.9162]]]},"properties":{"geoid":"44040","state":"44","district":"40","name":"State House District 40","chamber":"House"}},{"type":"Feature","geometry":{"type":"Polygon","coordinates":[[[-71.691,41.8565],[-71.6684,41.7275],[-71.5253,41.7303],[-71.5261,41.7411],[-71.5341,41.7403],[-71.5261,41.7484],[-71.5067,41.7541],[-71.5176,41.7622],[-71.5111,41.7729],[-71.5162,41.7886],[-71.535,41.7933],[-71.5599,41.7894],[-71.5746,41.8587],[-71.691,41.8565]]]},"properties":{"geoid":"44041","state":"44","district":"41","name":"State House District 41","chamber":"House"}},{"type":"Feature","geometry":{"type":"Polygon","coordinates":[[[-71.5696,41.8351],[-71.5599,41.7894],[-71.5353,41.7933],[-71.5141,41.7884],[-71.4974,41.7909],[-71.4967,41.7838],[-71.5018,41.7819],[-71.4963,41.7811],[-71.4769,41.7881],[-71.4827,41.796],[-71.4677,41.798],[-71.4637,41.805],[-71.4786,41.8013],[-71.482,41.8117],[-71.4722,41.814],[-71.47,41.8198],[-71.5696,41.8351]]]},"properties":{"geoid":"44042","state":"44","district":"42","name":"State House District 42","chamber":"House"}},{"type":"Feature","geometry":{"type":"Polygon","coordinates":[[[-71.5486,41.833],[-71.4745,41.8192],[-71.47,41.8198],[-71.4718,41.8242],[-71.4619,41.8251],[-71.4732,41.8389],[-71.4775,41.8382],[-71.4811,41.8511],[-71.4955,41.869],[-71.5315,41.8643],[-71.532,41.8564],[-71.5472,41.841],[-71.5486,41.833]]]},"properties":{"geoid":"44043","state":"44","district":"43","name":"State House District 43","chamber":"House"}},{"type":"Feature","geometry":{"type":"Polygon","coordinates":[[[-71.5757,41.8636],[-71.5696,41.8351],[-71.5486,41.8326],[-71.5472,41.841],[-71.532,41.8564],[-71.5315,41.8643],[-71.4337,41.8772],[-71.4589,41.9258],[-71.5045,41.9019],[-71.5118,41.9085],[-71.5214,41.901],[-71.5234,41.8936],[-71.5153,41.8695],[-71.5523,41.8713],[-71.5757,41.8636]]]},"properties":{"geoid":"44044","state":"44","district":"44","name":"State House District 44","chamber":"House"}},{"type":"Feature","geometry":{"type":"Polygon","coordinates":[[[-71.4891,41.9755],[-71.4876,41.9631],[-71.4749,41.9681],[-71.4571,41.9409],[-71.4397,41.9438],[-71.4296,41.9376],[-71.4195,41.9434],[-71.4246,41.9493],[-71.4204,41.9502],[-71.4378,41.9628],[-71.4423,41.9716],[-71.4185,41.971],[-71.4161,41.9825],[-71.4576,41.976],[-71.4609,41.9882],[-71.4727,41.9943],[-71.4891,41.9755]]]},"properties":{"geoid":"44045","state":"44","district":"45","name":"State House District 45","chamber":"House"}},{"type":"Feature","geometry":{"type":"Polygon","coordinates":[[[-71.4908,41.9432],[-71.4811,41.9148],[-71.4589,41.9258],[-71.4337,41.8772],[-71.4156,41.8795],[-71.4101,41.8722],[-71.4061,41.8754],[-71.4073,41.8916],[-71.3943,41.8977],[-71.4007,41.9017],[-71.3974,41.9113],[-71.4059,41.9112],[-71.4287,41.9238],[-71.431,41.9346],[-71.4397,41.9438],[-71.4571,41.9409],[-71.4752,41.9682],[-71.4876,41.9631],[-71.484,41.9443],[-71.4908,41.9432]]]},"properties":{"geoid":"44046","state":"44","district":"46","name":"State House District 46","chamber":"House"}},{"type":"Feature","geometry":{"type":"Polygon","coordinates":[[[-71.7992,42.0042],[-71.7973,41.9162],[-71.7427,41.9217],[-71.7041,41.918],[-71.6966,41.9197],[-71.7005,41.9309],[-71.6294,41.9324],[-71.6374,41.9433],[-71.6359,41.9502],[-71.645,41.9485],[-71.6472,41.9535],[-71.6303,41.9709],[-71.6322,41.9764],[-71.6514,41.9841],[-71.6666,42.0059],[-71.6782,42.0063],[-71.678,42.0116],[-71.7992,42.0081],[-71.7992,42.0042]]]},"properties":{"geoid":"44047","state":"44","district":"47","name":"State House District 47","chamber":"House"}},{"type":"Feature","geometry":{"type":"Polygon","coordinates":[[[-71.678,42.0064],[-71.6666,42.0059],[-71.6543,41.9865],[-71.6322,41.9764],[-71.6303,41.9709],[-71.6472,41.9535],[-71.645,41.9485],[-71.6359,41.9502],[-71.6374,41.9433],[-71.6294,41.9324],[-71.484,41.9442],[-71.4874,41.9471],[-71.4874,41.9791],[-71.5178,41.9836],[-71.552,41.9998],[-71.5485,42.008],[-71.5379,42.0149],[-71.678,42.0116],[-71.678,42.0064]]]},"properties":{"geoid":"44048","state":"44","district":"48","name":"State House District 48","chamber":"House"}},{"type":"Feature","geometry":{"type":"Polygon","coordinates":[[[-71.552,41.9998],[-71.5318,41.9896],[-71.5333,41.9934],[-71.523,41.9995],[-71.4971,42.0032],[-71.4949,42.0076],[-71.5035,42.0105],[-71.5021,42.017],[-71.5379,42.0149],[-71.5485,42.008],[-71.552,41.9998]]]},"properties":{"geoid":"44049","state":"44","district":"49","name":"State House District 49","chamber":"House"}},{"type":"Feature","geometry":{"type":"Polygon","coordinates":[[[-71.5333,41.9934],[-71.5178,41.9836],[-71.4937,41.9799],[-71.4874,41.9791],[-71.4803,41.9864],[-71.4973,42.0032],[-71.523,41.9995],[-71.5333,41.9934]]]},"properties":{"geoid":"44050","state":"44","district":"50","name":"State House District 50","chamber":"House"}},{"type":"Feature","geometry":{"type":"Polygon","coordinates":[[[-71.5034,42.0112],[-71.4949,42.0076],[-71.4987,42.0047],[-71.4803,41.9864],[-71.4727,41.9943],[-71.4609,41.9882],[-71.4464,42.011],[-71.4183,42.0083],[-71.4244,42.0183],[-71.5021,42.017],[-71.5034,42.0112]]]},"properties":{"geoid":"44051","state":"44","district":"51","name":"State House District 51","chamber":"House"}},{"type":"Feature","geometry":{"type":"Polygon","coordinates":[[[-71.461,41.9876],[-71.4576,41.976],[-71.4161,41.9825],[-71.4185,41.971],[-71.4423,41.9716],[-71.4391,41.9641],[-71.4248,41.9512],[-71.4027,41.9504],[-71.3993,41.9368],[-71.4024,41.9311],[-71.393,41.9126],[-71.3814,41.9147],[-71.3814,42.0188],[-71.4244,42.0183],[-71.4201,42.0063],[-71.4464,42.011],[-71.461,41.9876]]]},"properties":{"geoid":"44052","state":"44","district":"52","name":"State House District 52","chamber":"House"}},{"type":"Feature","geometry":{"type":"Polygon","coordinates":[[[-71.6069,41.8682],[-71.605,41.858],[-71.5746,41.8587],[-71.5757,41.8636],[-71.5523,41.8713],[-71.5153,41.8695],[-71.522,41.9002],[-71.5118,41.9085],[-71.5045,41.9019],[-71.4811,41.9148],[-71.4908,41.9432],[-71.5903,41.9337],[-71.5794,41.8818],[-71.5969,41.888],[-71.6069,41.8682]]]},"properties":{"geoid":"44053","state":"44","district":"53","name":"State House District 53","chamber":"House"}},{"type":"Feature","geometry":{"type":"Polygon","coordinates":[[[-71.4955,41.869],[-71.4787,41.8424],[-71.4634,41.8447],[-71.4623,41.8539],[-71.4467,41.854],[-71.4613,41.8581],[-71.4679,41.8652],[-71.464,41.8708],[-71.4668,41.8728],[-71.4955,41.869]]]},"properties":{"geoid":"44054","state":"44","district":"54","name":"State House District 54","chamber":"House"}},{"type":"Feature","geometry":{"type":"Polygon","coordinates":[[[-71.4679,41.8654],[-71.4613,41.8581],[-71.4467,41.854],[-71.435,41.8618],[-71.4174,41.8597],[-71.4219,41.8787],[-71.4668,41.8728],[-71.464,41.8708],[-71.4679,41.8654]]]},"properties":{"geoid":"44055","state":"44","district":"55","name":"State House District 55","chamber":"House"}},{"type":"Feature","geometry":{"type":"Polygon","coordinates":[[[-71.4062,41.8885],[-71.4037,41.8811],[-71.3809,41.8841],[-71.3802,41.8879],[-71.3946,41.894],[-71.4062,41.8885]]]},"properties":{"geoid":"44056","state":"44","district":"56","name":"State House District 56","chamber":"House"}},{"type":"Feature","geometry":{"type":"Polygon","coordinates":[[[-71.434,41.9382],[-71.4287,41.9238],[-71.4059,41.9112],[-71.3971,41.911],[-71.4007,41.9017],[-71.3943,41.8977],[-71.4047,41.8948],[-71.4062,41.8885],[-71.3943,41.8942],[-71.3816,41.8927],[-71.3814,41.9147],[-71.393,41.9126],[-71.4024,41.9311],[-71.3993,41.9368],[-71.4027,41.9504],[-71.4227,41.9508],[-71.4195,41.9434],[-71.434,41.9382]]]},"properties":{"geoid":"44057","state":"44","district":"57","name":"State House District 57","chamber":"House"}},{"type":"Feature","geometry":{"type":"Polygon","coordinates":[[[-71.4219,41.8787],[-71.4174,41.8597],[-71.4055,41.8567],[-71.3989,41.8743],[-71.3847,41.8734],[-71.381,41.8841],[-71.4064,41.8807],[-71.4101,41.8722],[-71.4156,41.8795],[-71.4219,41.8787]]]},"properties":{"geoid":"44058","state":"44","district":"58","name":"State House District 58","chamber":"House"}},{"type":"Feature","geometry":{"type":"Polygon","coordinates":[[[-71.4055,41.8567],[-71.3767,41.8575],[-71.3881,41.8757],[-71.3989,41.8743],[-71.4055,41.8567]]]},"properties":{"geoid":"44059","state":"44","district":"59","name":"State House District 59","chamber":"House"}},{"type":"Feature","geometry":{"type":"Polygon","coordinates":[[[-71.3943,41.8942],[-71.3802,41.8879],[-71.3831,41.8763],[-71.3701,41.8849],[-71.3622,41.88],[-71.3643,41.8883],[-71.354,41.8942],[-71.3943,41.8942]]]},"properties":{"geoid":"44060","state":"44","district":"60","name":"State House District 60","chamber":"House"}},{"type":"Feature","geometry":{"type":"Polygon","coordinates":[[[-71.3643,41.8863],[-71.3612,41.8857],[-71.3635,41.8745],[-71.3472,41.8733],[-71.3467,41.877],[-71.3378,41.8732],[-71.3388,41.8986],[-71.3546,41.8967],[-71.3643,41.8863]]]},"properties":{"geoid":"44061","state":"44","district":"61","name":"State House District 61","chamber":"House"}},{"type":"Feature","geometry":{"type":"Polygon","coordinates":[[[-71.3847,41.8735],[-71.3715,41.8637],[-71.3641,41.8654],[-71.3637,41.8585],[-71.3378,41.8609],[-71.3431,41.8761],[-71.3635,41.8745],[-71.367,41.8852],[-71.3847,41.8735]]]},"properties":{"geoid":"44062","state":"44","district":"62","name":"State House District 62","chamber":"House"}},{"type":"Feature","geometry":{"type":"Polygon","coordinates":[[[-71.3772,41.8265],[-71.3669,41.823],[-71.3701,41.8146],[-71.3395,41.8066],[-71.3475,41.8232],[-71.3354,41.8356],[-71.3426,41.8447],[-71.334,41.8626],[-71.3378,41.8732],[-71.342,41.8688],[-71.3378,41.8609],[-71.3637,41.8585],[-71.3688,41.8388],[-71.3621,41.8349],[-71.3772,41.8265]]]},"properties":{"geoid":"44063","state":"44","district":"63","name":"State House District 63","chamber":"House"}},{"type":"Feature","geometry":{"type":"Polygon","coordinates":[[[-71.3953,41.8117],[-71.3808,41.7963],[-71.3741,41.8028],[-71.3627,41.7999],[-71.3585,41.8121],[-71.3701,41.8146],[-71.3669,41.823],[-71.3774,41.8263],[-71.3621,41.8349],[-71.3688,41.8395],[-71.3641,41.8649],[-71.3715,41.8637],[-71.3811,41.8744],[-71.3846,41.8728],[-71.3723,41.8505],[-71.3736,41.8325],[-71.3953,41.8117]]]},"properties":{"geoid":"44064","state":"44","district":"64","name":"State House District 64","chamber":"House"}},{"type":"Feature","geometry":{"type":"Polygon","coordinates":[[[-71.3808,41.7963],[-71.3701,41.7862],[-71.3697,41.7831],[-71.3782,41.7844],[-71.3783,41.7553],[-71.3652,41.7356],[-71.357,41.7416],[-71.3536,41.7588],[-71.3472,41.7597],[-71.3504,41.7702],[-71.3586,41.7759],[-71.3573,41.7805],[-71.3319,41.7897],[-71.3405,41.797],[-71.3395,41.8066],[-71.3585,41.8121],[-71.3627,41.7999],[-71.3741,41.8028],[-71.3808,41.7963]]]},"properties":{"geoid":"44065","state":"44","district":"65","name":"State House District 65","chamber":"House"}},{"type":"Feature","geometry":{"type":"Polygon","coordinates":[[[-71.3652,41.7356],[-71.3484,41.7207],[-71.3178,41.7247],[-71.3187,41.7292],[-71.2961,41.7284],[-71.2954,41.7325],[-71.308,41.7399],[-71.3174,41.7389],[-71.3143,41.7441],[-71.319,41.7491],[-71.3179,41.7762],[-71.3285,41.7807],[-71.3319,41.7897],[-71.3573,41.7805],[-71.3586,41.7759],[-71.3504,41.7702],[-71.3472,41.7597],[-71.3536,41.7588],[-71.357,41.7416],[-71.3652,41.7356]]]},"properties":{"geoid":"44066","state":"44","district":"66","name":"State House District 66","chamber":"House"}},{"type":"Feature","geometry":{"type":"Polygon","coordinates":[[[-71.3484,41.7207],[-71.3257,41.6932],[-71.331,41.687],[-71.329,41.6799],[-71.2953,41.7073],[-71.2875,41.7234],[-71.2889,41.7375],[-71.2853,41.7312],[-71.2697,41.7292],[-71.2692,41.7207],[-71.2599,41.7212],[-71.2515,41.7154],[-71.2432,41.6966],[-71.2084,41.6906],[-71.2611,41.7521],[-71.3179,41.7762],[-71.319,41.7491],[-71.3143,41.7441],[-71.3174,41.7389],[-71.2972,41.7366],[-71.2961,41.7284],[-71.3187,41.7292],[-71.3178,41.7247],[-71.3484,41.7207]]]},"properties":{"geoid":"44067","state":"44","district":"67","name":"State House District 67","chamber":"House"}},{"type":"Feature","geometry":{"type":"Polygon","coordinates":[[[-71.329,41.6799],[-71.3182,41.6506],[-71.3115,41.644],[-71.3003,41.6427],[-71.282,41.6502],[-71.2823,41.669],[-71.2712,41.6715],[-71.2703,41.6868],[-71.2622,41.6877],[-71.2659,41.7054],[-71.2526,41.7079],[-71.2466,41.7034],[-71.2515,41.7154],[-71.2599,41.7212],[-71.2692,41.7207],[-71.2697,41.7292],[-71.2853,41.7312],[-71.2893,41.7374],[-71.2875,41.7234],[-71.2953,41.7073],[-71.329,41.6799]]]},"properties":{"geoid":"44068","state":"44","district":"68","name":"State House District 68","chamber":"House"}},{"type":"Feature","geometry":{"type":"Polygon","coordinates":[[[-71.3863,41.6102],[-71.3874,41.6037],[-71.3072,41.5655],[-71.3018,41.5766],[-71.2931,41.5791],[-71.2982,41.5886],[-71.2861,41.5966],[-71.2771,41.6236],[-71.2276,41.663],[-71.2104,41.688],[-71.2432,41.6966],[-71.2526,41.7079],[-71.2659,41.7054],[-71.2622,41.6877],[-71.2703,41.6868],[-71.2712,41.6715],[-71.2823,41.669],[-71.282,41.6502],[-71.3035,41.6422],[-71.3182,41.6506],[-71.331,41.687],[-71.3541,41.6782],[-71.3797,41.6565],[-71.3867,41.6316],[-71.3863,41.6102]]]},"properties":{"geoid":"44069","state":"44","district":"69","name":"State House District 69","chamber":"House"}},{"type":"Feature","geometry":{"type":"Polygon","coordinates":[[[-71.2241,41.6667],[-71.2118,41.6563],[-71.2176,41.621],[-71.2072,41.6176],[-71.2123,41.6184],[-71.2122,41.6095],[-71.2009,41.5936],[-71.2063,41.5941],[-71.2092,41.5827],[-71.2043,41.5733],[-71.1585,41.5693],[-71.1644,41.5943],[-71.1368,41.6013],[-71.142,41.6125],[-71.1353,41.6285],[-71.1326,41.6604],[-71.1955,41.6751],[-71.2084,41.6906],[-71.2241,41.6667]]]},"properties":{"geoid":"44070","state":"44","district":"70","name":"State House District 70","chamber":"House"}},{"type":"Feature","geometry":{"type":"Polygon","coordinates":[[[-71.2872,41.5959],[-71.2428,41.5907],[-71.2432,41.5868],[-71.2227,41.5916],[-71.225,41.5561],[-71.2082,41.5146],[-71.2114,41.4979],[-71.2025,41.4842],[-71.2197,41.4596],[-71.1952,41.4519],[-71.1693,41.4584],[-71.1164,41.4846],[-71.1211,41.4928],[-71.1316,41.5937],[-71.1372,41.6014],[-71.1644,41.5943],[-71.1585,41.5693],[-71.204,41.5729],[-71.2092,41.5827],[-71.2063,41.5941],[-71.2009,41.5936],[-71.2122,41.6095],[-71.2123,41.6184],[-71.2072,41.6176],[-71.2176,41.621],[-71.2118,41.6563],[-71.2166,41.6632],[-71.2246,41.6661],[-71.2771,41.6236],[-71.2872,41.5959]]]},"properties":{"geoid":"44071","state":"44","district":"71","name":"State House District 71","chamber":"House"}},{"type":"Feature","geometry":{"type":"Polygon","coordinates":[[[-71.3054,41.5678],[-71.2657,41.5383],[-71.2832,41.5218],[-71.2783,41.4965],[-71.2899,41.4936],[-71.2771,41.4801],[-71.2636,41.489],[-71.246,41.4815],[-71.2479,41.4719],[-71.2408,41.4752],[-71.2373,41.4861],[-71.2442,41.4858],[-71.2479,41.4908],[-71.2333,41.5149],[-71.211,41.5002],[-71.2082,41.5146],[-71.225,41.5561],[-71.2227,41.5916],[-71.2432,41.5868],[-71.2428,41.5907],[-71.2888,41.596],[-71.2982,41.5886],[-71.2931,41.5791],[-71.3018,41.5766],[-71.3054,41.5678]]]},"properties":{"geoid":"44072","state":"44","district":"72","name":"State House District 72","chamber":"House"}},{"type":"Feature","geometry":{"type":"Polygon","coordinates":[[[-71.3411,41.5034],[-71.2979,41.4942],[-71.2963,41.4868],[-71.2783,41.4965],[-71.2831,41.517],[-71.2892,41.5059],[-71.3018,41.508],[-71.2982,41.5238],[-71.3039,41.5187],[-71.3263,41.5221],[-71.3411,41.5034]]]},"properties":{"geoid":"44073","state":"44","district":"73","name":"State House District 73","chamber":"House"}},{"type":"Feature","geometry":{"type":"Polygon","coordinates":[[[-71.4219,41.449],[-71.3944,41.442],[-71.3393,41.4788],[-71.3469,41.4946],[-71.3267,41.5219],[-71.3039,41.5187],[-71.2982,41.5238],[-71.3018,41.508],[-71.2892,41.5059],[-71.2832,41.5218],[-71.2657,41.5383],[-71.3015,41.5627],[-71.3874,41.6037],[-71.3987,41.5568],[-71.4015,41.5161],[-71.413,41.4987],[-71.409,41.4683],[-71.4219,41.449]]]},"properties":{"geoid":"44074","state":"44","district":"74","name":"State House District 74","chamber":"House"}},{"type":"Feature","geometry":{"type":"Polygon","coordinates":[[[-71.5094,41.3077],[-71.4948,41.3074],[-71.3745,41.339],[-71.1246,41.4115],[-71.0886,41.4313],[-71.1164,41.4846],[-71.1693,41.4584],[-71.1952,41.4519],[-71.2197,41.4596],[-71.2057,41.476],[-71.2029,41.4885],[-71.211,41.5002],[-71.2333,41.5149],[-71.2479,41.4908],[-71.2442,41.4858],[-71.2373,41.4861],[-71.2375,41.4818],[-71.2478,41.4718],[-71.2453,41.4806],[-71.2545,41.4867],[-71.2672,41.4889],[-71.2756,41.4795],[-71.2871,41.4905],[-71.2963,41.4868],[-71.2979,41.4942],[-71.3412,41.5033],[-71.3469,41.4946],[-71.3377,41.4811],[-71.3597,41.4623],[-71.3619,41.465],[-71.3944,41.442],[-71.4219,41.449],[-71.46,41.3751],[-71.5094,41.3077]]]},"properties":{"geoid":"44075","state":"44","district":"75","name":"State House District 75","chamber":"House"}}]}