{"type":"FeatureCollection","features":[{"type":"Feature","geometry":{"type":"Polygon","coordinates":[[[-71.4406,41.8408],[-71.4333,41.829],[-71.4121,41.8269],[-71.415,41.8366],[-71.4055,41.8567],[-71.4299,41.8613],[-71.4266,41.8531],[-71.4363,41.8549],[-71.4406,41.8408]]]},"properties":{"geoid":"44001","state":"44","district":"1","name":"State Senate District 1","chamber":"Senate"}},{"type":"Feature","geometry":{"type":"Polygon","coordinates":[[[-71.4559,41.8161],[-71.4475,41.8066],[-71.4422,41.8072],[-71.4342,41.7863],[-71.4206,41.7862],[-71.4094,41.794],[-71.4202,41.8072],[-71.4382,41.8119],[-71.437,41.8159],[-71.4559,41.8161]]]},"properties":{"geoid":"44002","state":"44","district":"2","name":"State Senate District 2","chamber":"Senate"}},{"type":"Feature","geometry":{"type":"Polygon","coordinates":[[[-71.4118,41.836],[-71.4097,41.8264],[-71.395,41.8108],[-71.3736,41.8325],[-71.3745,41.8571],[-71.3911,41.8569],[-71.4012,41.8366],[-71.4118,41.836]]]},"properties":{"geoid":"44003","state":"44","district":"3","name":"State Senate District 3","chamber":"Senate"}},{"type":"Feature","geometry":{"type":"Polygon","coordinates":[[[-71.4801,41.86],[-71.4719,41.858],[-71.4753,41.8534],[-71.4729,41.8429],[-71.4787,41.8424],[-71.4725,41.837],[-71.4498,41.8504],[-71.4266,41.8531],[-71.4299,41.8613],[-71.4174,41.8597],[-71.4219,41.8787],[-71.4337,41.8772],[-71.4312,41.8712],[-71.4409,41.8676],[-71.4492,41.8752],[-71.4755,41.8716],[-71.4719,41.8681],[-71.4801,41.86]]]},"properties":{"geoid":"44004","state":"44","district":"4","name":"State Senate District 4","chamber":"Senate"}},{"type":"Feature","geometry":{"type":"Polygon","coordinates":[[[-71.4565,41.8321],[-71.4522,41.8252],[-71.4336,41.8242],[-71.4382,41.8119],[-71.4183,41.819],[-71.4182,41.8279],[-71.4385,41.8326],[-71.4389,41.849],[-71.444,41.8511],[-71.4538,41.8459],[-71.4512,41.8374],[-71.4565,41.8321]]]},"properties":{"geoid":"44005","state":"44","district":"5","name":"State Senate District 5","chamber":"Senate"}},{"type":"Feature","geometry":{"type":"Polygon","coordinates":[[[-71.4357,41.8118],[-71.4202,41.8072],[-71.4022,41.7867],[-71.3927,41.7887],[-71.3997,41.7991],[-71.3901,41.8052],[-71.4116,41.8314],[-71.4118,41.836],[-71.4012,41.8366],[-71.4007,41.8465],[-71.4078,41.842],[-71.4112,41.846],[-71.415,41.8366],[-71.4121,41.8269],[-71.4188,41.826],[-71.4183,41.819],[-71.4357,41.8118]]]},"properties":{"geoid":"44006","state":"44","district":"6","name":"State Senate District 6","chamber":"Senate"}},{"type":"Feature","geometry":{"type":"Polygon","coordinates":[[[-71.482,41.8117],[-71.476,41.8002],[-71.4647,41.8059],[-71.4475,41.8066],[-71.4553,41.8179],[-71.4401,41.814],[-71.4336,41.8242],[-71.4522,41.8252],[-71.4565,41.8321],[-71.4512,41.8374],[-71.4538,41.8459],[-71.4603,41.845],[-71.4725,41.837],[-71.4619,41.8251],[-71.4718,41.8242],[-71.4722,41.814],[-71.482,41.8117]]]},"properties":{"geoid":"44007","state":"44","district":"7","name":"State Senate District 7","chamber":"Senate"}},{"type":"Feature","geometry":{"type":"Polygon","coordinates":[[[-71.3877,41.8788],[-71.3876,41.8731],[-71.3822,41.8739],[-71.367,41.8852],[-71.3649,41.8805],[-71.3497,41.8753],[-71.3544,41.8664],[-71.334,41.8626],[-71.3409,41.8818],[-71.3388,41.8986],[-71.3815,41.8935],[-71.3818,41.8798],[-71.3877,41.8788]]]},"properties":{"geoid":"44008","state":"44","district":"8","name":"State Senate District 8","chamber":"Senate"}},{"type":"Feature","geometry":{"type":"Polygon","coordinates":[[[-71.5343,41.7302],[-71.5334,41.6622],[-71.4992,41.6629],[-71.5017,41.6965],[-71.5189,41.6959],[-71.5126,41.7068],[-71.4916,41.7196],[-71.4971,41.7219],[-71.4978,41.7312],[-71.5343,41.7302]]]},"properties":{"geoid":"44009","state":"44","district":"9","name":"State Senate District 9","chamber":"Senate"}},{"type":"Feature","geometry":{"type":"Polygon","coordinates":[[[-71.294,41.7104],[-71.2805,41.7111],[-71.2801,41.7041],[-71.2659,41.7054],[-71.2622,41.6877],[-71.2703,41.6868],[-71.2678,41.678],[-71.2378,41.6818],[-71.2355,41.6773],[-71.2176,41.6791],[-71.2246,41.6661],[-71.2118,41.6563],[-71.2176,41.621],[-71.1982,41.6153],[-71.1813,41.6231],[-71.1882,41.6317],[-71.1874,41.6415],[-71.1734,41.6511],[-71.1523,41.6271],[-71.148,41.6321],[-71.1518,41.6396],[-71.1347,41.6389],[-71.1326,41.6604],[-71.1955,41.6751],[-71.2611,41.7521],[-71.2844,41.762],[-71.2898,41.7338],[-71.2875,41.7234],[-71.294,41.7104]]]},"properties":{"geoid":"44010","state":"44","district":"10","name":"State Senate District 10","chamber":"Senate"}},{"type":"Feature","geometry":{"type":"Polygon","coordinates":[[[-71.3863,41.6102],[-71.3874,41.6037],[-71.3015,41.5627],[-71.211,41.5002],[-71.2082,41.5146],[-71.225,41.5561],[-71.2223,41.6007],[-71.2118,41.6563],[-71.2246,41.6661],[-71.2176,41.6791],[-71.2355,41.6773],[-71.2378,41.6818],[-71.2678,41.678],[-71.2703,41.6868],[-71.2789,41.6858],[-71.2765,41.6704],[-71.2823,41.669],[-71.282,41.6502],[-71.3035,41.6422],[-71.3182,41.6506],[-71.331,41.687],[-71.3524,41.6789],[-71.379,41.658],[-71.3864,41.6339],[-71.3863,41.6102]]]},"properties":{"geoid":"44011","state":"44","district":"11","name":"State Senate District 11","chamber":"Senate"}},{"type":"Feature","geometry":{"type":"Polygon","coordinates":[[[-71.3233,41.5357],[-71.3251,41.5322],[-71.3015,41.5059],[-71.3088,41.4951],[-71.2979,41.4942],[-71.2965,41.4869],[-71.2871,41.4905],[-71.2883,41.4868],[-71.2771,41.4772],[-71.2441,41.4719],[-71.1952,41.4519],[-71.1693,41.4584],[-71.1164,41.4846],[-71.1211,41.4928],[-71.1316,41.5937],[-71.142,41.6125],[-71.1347,41.6389],[-71.1518,41.6396],[-71.148,41.6321],[-71.1523,41.6271],[-71.1734,41.6511],[-71.1874,41.6415],[-71.1882,41.6317],[-71.1813,41.6231],[-71.1982,41.6153],[-71.2176,41.621],[-71.225,41.5561],[-71.2082,41.5146],[-71.211,41.5002],[-71.3136,41.5686],[-71.3233,41.5357]]]},"properties":{"geoid":"44012","state":"44","district":"12","name":"State Senate District 12","chamber":"Senate"}},{"type":"Feature","geometry":{"type":"Polygon","coordinates":[[[-71.5094,41.3077],[-71.4948,41.3074],[-71.3745,41.339],[-71.1246,41.4115],[-71.0886,41.4313],[-71.1164,41.4846],[-71.1693,41.4584],[-71.1952,41.4519],[-71.2441,41.4719],[-71.2771,41.4772],[-71.2883,41.4868],[-71.2871,41.4905],[-71.2965,41.4869],[-71.2979,41.4942],[-71.3088,41.4951],[-71.3015,41.5059],[-71.3251,41.5322],[-71.3136,41.5686],[-71.3874,41.6037],[-71.3987,41.5568],[-71.4015,41.5161],[-71.413,41.4987],[-71.4091,41.4682],[-71.4294,41.4376],[-71.46,41.3751],[-71.5094,41.3077]]]},"properties":{"geoid":"44013","state":"44","district":"13","name":"State Senate District 13","chamber":"Senate"}},{"type":"Feature","geometry":{"type":"Polygon","coordinates":[[[-71.3953,41.8117],[-71.3729,41.7883],[-71.3504,41.7929],[-71.3502,41.8087],[-71.3585,41.8121],[-71.3524,41.8289],[-71.3604,41.833],[-71.352,41.8456],[-71.3545,41.8595],[-71.375,41.8574],[-71.3736,41.8325],[-71.3953,41.8117]]]},"properties":{"geoid":"44014","state":"44","district":"14","name":"State Senate District 14","chamber":"Senate"}},{"type":"Feature","geometry":{"type":"Polygon","coordinates":[[[-71.4219,41.8787],[-71.4174,41.8597],[-71.4055,41.8567],[-71.4111,41.8492],[-71.408,41.842],[-71.4007,41.8465],[-71.399,41.841],[-71.3911,41.8569],[-71.3662,41.8607],[-71.3663,41.8656],[-71.3715,41.8637],[-71.3811,41.8744],[-71.4039,41.8736],[-71.405,41.8809],[-71.4219,41.8787]]]},"properties":{"geoid":"44015","state":"44","district":"15","name":"State Senate District 15","chamber":"Senate"}},{"type":"Feature","geometry":{"type":"Polygon","coordinates":[[[-71.4073,41.8916],[-71.4039,41.8736],[-71.3818,41.8798],[-71.3802,41.8879],[-71.3859,41.8996],[-71.4073,41.8916]]]},"properties":{"geoid":"44016","state":"44","district":"16","name":"State Senate District 16","chamber":"Senate"}},{"type":"Feature","geometry":{"type":"Polygon","coordinates":[[[-71.6004,41.983],[-71.5903,41.9337],[-71.4908,41.9432],[-71.4811,41.9148],[-71.465,41.9055],[-71.4682,41.883],[-71.4633,41.8735],[-71.4492,41.8752],[-71.4409,41.8676],[-71.4312,41.8712],[-71.4337,41.8772],[-71.4037,41.8811],[-71.4077,41.8931],[-71.4175,41.901],[-71.403,41.9114],[-71.429,41.9241],[-71.4354,41.94],[-71.4618,41.9574],[-71.4649,41.9691],[-71.4787,41.9771],[-71.5333,41.9899],[-71.5381,41.9845],[-71.5584,42.0006],[-71.5645,41.9969],[-71.5784,42.0008],[-71.585,41.9949],[-71.5945,41.995],[-71.6004,41.983]]]},"properties":{"geoid":"44017","state":"44","district":"17","name":"State Senate District 17","chamber":"Senate"}},{"type":"Feature","geometry":{"type":"Polygon","coordinates":[[[-71.3811,41.8744],[-71.3715,41.8637],[-71.3663,41.8656],[-71.3662,41.8607],[-71.375,41.8574],[-71.3545,41.8595],[-71.352,41.8456],[-71.3604,41.833],[-71.3524,41.8289],[-71.3585,41.8121],[-71.35,41.8077],[-71.3504,41.7929],[-71.372,41.7898],[-71.3697,41.7831],[-71.3782,41.7844],[-71.3782,41.757],[-71.3473,41.7594],[-71.3503,41.7702],[-71.3586,41.7759],[-71.3535,41.7843],[-71.3319,41.7897],[-71.3405,41.797],[-71.3393,41.8085],[-71.3475,41.8232],[-71.3354,41.8356],[-71.3426,41.8447],[-71.3347,41.8613],[-71.3544,41.8664],[-71.3497,41.8753],[-71.3649,41.8805],[-71.367,41.8852],[-71.3811,41.8744]]]},"properties":{"geoid":"44018","state":"44","district":"18","name":"State Senate District 18","chamber":"Senate"}},{"type":"Feature","geometry":{"type":"Polygon","coordinates":[[[-71.4537,41.9615],[-71.4488,41.9596],[-71.451,41.9499],[-71.4425,41.9474],[-71.431,41.9346],[-71.429,41.9241],[-71.403,41.9114],[-71.4074,41.9053],[-71.4146,41.9063],[-71.4175,41.901],[-71.4134,41.8964],[-71.4077,41.8912],[-71.3882,41.8998],[-71.3815,41.8935],[-71.3814,42.0188],[-71.4143,42.0185],[-71.4195,42.0012],[-71.4094,41.9828],[-71.4492,41.9787],[-71.4429,41.9716],[-71.4478,41.9677],[-71.445,41.964],[-71.4537,41.9615]]]},"properties":{"geoid":"44019","state":"44","district":"19","name":"State Senate District 19","chamber":"Senate"}},{"type":"Feature","geometry":{"type":"Polygon","coordinates":[[[-71.5105,41.9884],[-71.5071,41.9819],[-71.4795,41.9774],[-71.4654,41.9694],[-71.4618,41.9574],[-71.4509,41.9527],[-71.4488,41.9596],[-71.4538,41.9614],[-71.445,41.964],[-71.4478,41.9677],[-71.4429,41.9716],[-71.4492,41.9787],[-71.4094,41.9828],[-71.4195,42.0012],[-71.4143,42.0185],[-71.5021,42.017],[-71.5039,42.0089],[-71.4965,41.9959],[-71.5105,41.9884]]]},"properties":{"geoid":"44020","state":"44","district":"20","name":"State Senate District 20","chamber":"Senate"}},{"type":"Feature","geometry":{"type":"Polygon","coordinates":[[[-71.7947,41.8544],[-71.7878,41.6344],[-71.7671,41.6368],[-71.7606,41.6275],[-71.7521,41.6378],[-71.7443,41.6392],[-71.7219,41.6339],[-71.7154,41.6238],[-71.6861,41.6352],[-71.6791,41.6252],[-71.646,41.6194],[-71.614,41.6492],[-71.6235,41.6519],[-71.6229,41.6597],[-71.6949,41.6584],[-71.6941,41.6812],[-71.6742,41.691],[-71.6558,41.6921],[-71.6204,41.7043],[-71.5955,41.7],[-71.5935,41.693],[-71.5774,41.6953],[-71.5724,41.6901],[-71.5808,41.679],[-71.5607,41.6838],[-71.5577,41.7169],[-71.5629,41.7297],[-71.5474,41.7312],[-71.5746,41.8587],[-71.7947,41.8544]]]},"properties":{"geoid":"44021","state":"44","district":"21","name":"State Senate District 21","chamber":"Senate"}},{"type":"Feature","geometry":{"type":"Polygon","coordinates":[[[-71.5903,41.9337],[-71.5746,41.8587],[-71.4955,41.869],[-71.4787,41.8424],[-71.4729,41.8429],[-71.4753,41.8534],[-71.4719,41.858],[-71.48,41.8587],[-71.48,41.8631],[-71.4719,41.8681],[-71.4755,41.8716],[-71.4631,41.8739],[-71.4682,41.883],[-71.465,41.9055],[-71.4811,41.9148],[-71.4908,41.9432],[-71.5903,41.9337]]]},"properties":{"geoid":"44022","state":"44","district":"22","name":"State Senate District 22","chamber":"Senate"}},{"type":"Feature","geometry":{"type":"Polygon","coordinates":[[[-71.7992,42.0042],[-71.7947,41.8544],[-71.5746,41.8587],[-71.6004,41.983],[-71.5948,41.9948],[-71.585,41.9949],[-71.5784,42.0008],[-71.5522,41.9987],[-71.5536,42.0145],[-71.7714,42.0095],[-71.7992,42.0081],[-71.7992,42.0042]]]},"properties":{"geoid":"44023","state":"44","district":"23","name":"State Senate District 23","chamber":"Senate"}},{"type":"Feature","geometry":{"type":"Polygon","coordinates":[[[-71.557,41.9993],[-71.5381,41.9845],[-71.5333,41.9899],[-71.5071,41.9819],[-71.5099,41.991],[-71.4965,41.9959],[-71.5039,42.0089],[-71.5021,42.017],[-71.5536,42.0145],[-71.5505,42.0023],[-71.557,41.9993]]]},"properties":{"geoid":"44024","state":"44","district":"24","name":"State Senate District 24","chamber":"Senate"}},{"type":"Feature","geometry":{"type":"Polygon","coordinates":[[[-71.5746,41.8587],[-71.5599,41.7894],[-71.535,41.7933],[-71.5031,41.7891],[-71.4677,41.798],[-71.4637,41.805],[-71.4786,41.8013],[-71.482,41.8117],[-71.4722,41.814],[-71.4718,41.8242],[-71.4623,41.827],[-71.4732,41.8389],[-71.4775,41.8382],[-71.4811,41.8511],[-71.4955,41.869],[-71.5746,41.8587]]]},"properties":{"geoid":"44025","state":"44","district":"25","name":"State Senate District 25","chamber":"Senate"}},{"type":"Feature","geometry":{"type":"Polygon","coordinates":[[[-71.5593,41.7893],[-71.5474,41.7312],[-71.4978,41.7312],[-71.4782,41.7778],[-71.4611,41.7835],[-71.4402,41.8033],[-71.4422,41.8072],[-71.4637,41.805],[-71.4677,41.798],[-71.5031,41.7891],[-71.535,41.7933],[-71.5593,41.7893]]]},"properties":{"geoid":"44026","state":"44","district":"26","name":"State Senate District 26","chamber":"Senate"}},{"type":"Feature","geometry":{"type":"Polygon","coordinates":[[[-71.4987,41.7278],[-71.4907,41.7175],[-71.4839,41.7316],[-71.4606,41.7323],[-71.4572,41.7487],[-71.4417,41.7513],[-71.4406,41.7579],[-71.4341,41.7608],[-71.4392,41.7684],[-71.4358,41.7789],[-71.4544,41.7847],[-71.4779,41.7781],[-71.4987,41.7278]]]},"properties":{"geoid":"44027","state":"44","district":"27","name":"State Senate District 27","chamber":"Senate"}},{"type":"Feature","geometry":{"type":"Polygon","coordinates":[[[-71.461,41.7836],[-71.4413,41.7816],[-71.4358,41.7789],[-71.437,41.7723],[-71.4279,41.7727],[-71.433,41.7593],[-71.3996,41.7683],[-71.3783,41.7553],[-71.3782,41.7844],[-71.3697,41.7831],[-71.3901,41.8052],[-71.3997,41.7991],[-71.3927,41.7887],[-71.4022,41.7867],[-71.4094,41.794],[-71.4206,41.7862],[-71.4342,41.7863],[-71.4403,41.8037],[-71.461,41.7836]]]},"properties":{"geoid":"44028","state":"44","district":"28","name":"State Senate District 28","chamber":"Senate"}},{"type":"Feature","geometry":{"type":"Polygon","coordinates":[[[-71.4479,41.7115],[-71.4407,41.7085],[-71.441,41.7006],[-71.4176,41.7056],[-71.3896,41.7006],[-71.3834,41.7071],[-71.3653,41.7016],[-71.3313,41.7028],[-71.3685,41.7394],[-71.3809,41.7394],[-71.3812,41.7353],[-71.3846,41.7398],[-71.3937,41.7332],[-71.4077,41.7352],[-71.4044,41.7556],[-71.4096,41.757],[-71.4313,41.7418],[-71.4353,41.7459],[-71.4479,41.7115]]]},"properties":{"geoid":"44029","state":"44","district":"29","name":"State Senate District 29","chamber":"Senate"}},{"type":"Feature","geometry":{"type":"Polygon","coordinates":[[[-71.5017,41.6965],[-71.4992,41.6629],[-71.4423,41.664],[-71.4522,41.6485],[-71.4581,41.6498],[-71.4687,41.6386],[-71.4678,41.6342],[-71.4591,41.6379],[-71.4521,41.6294],[-71.4426,41.6458],[-71.4328,41.6513],[-71.4176,41.655],[-71.3805,41.6503],[-71.3748,41.6628],[-71.3257,41.6932],[-71.3316,41.7015],[-71.3739,41.7024],[-71.3802,41.707],[-71.3896,41.7006],[-71.4176,41.7056],[-71.441,41.7006],[-71.4407,41.7085],[-71.4478,41.7114],[-71.451,41.7028],[-71.4645,41.6978],[-71.5017,41.6965]]]},"properties":{"geoid":"44030","state":"44","district":"30","name":"State Senate District 30","chamber":"Senate"}},{"type":"Feature","geometry":{"type":"Polygon","coordinates":[[[-71.5188,41.696],[-71.4652,41.6977],[-71.451,41.7028],[-71.4353,41.7459],[-71.4313,41.7418],[-71.4096,41.757],[-71.4044,41.7556],[-71.4077,41.7352],[-71.3937,41.7332],[-71.3846,41.7398],[-71.3812,41.7353],[-71.3809,41.7394],[-71.3685,41.7394],[-71.3892,41.7641],[-71.3998,41.7683],[-71.433,41.7593],[-71.4279,41.7727],[-71.437,41.7723],[-71.4392,41.7684],[-71.4341,41.7608],[-71.4406,41.7579],[-71.4417,41.7513],[-71.4572,41.7487],[-71.4606,41.7323],[-71.4839,41.7316],[-71.4901,41.7178],[-71.5126,41.7068],[-71.5188,41.696]]]},"properties":{"geoid":"44031","state":"44","district":"31","name":"State Senate District 31","chamber":"Senate"}},{"type":"Feature","geometry":{"type":"Polygon","coordinates":[[[-71.3782,41.757],[-71.3685,41.7394],[-71.3257,41.6932],[-71.331,41.687],[-71.3155,41.6474],[-71.3035,41.6422],[-71.282,41.6502],[-71.2823,41.669],[-71.2765,41.6704],[-71.2789,41.6858],[-71.2622,41.6877],[-71.2659,41.7054],[-71.2801,41.7041],[-71.2805,41.7111],[-71.294,41.7103],[-71.2875,41.7234],[-71.2898,41.7338],[-71.2844,41.762],[-71.3285,41.7807],[-71.3319,41.7897],[-71.3573,41.7805],[-71.3586,41.7759],[-71.3503,41.7702],[-71.3473,41.7595],[-71.3782,41.757]]]},"properties":{"geoid":"44032","state":"44","district":"32","name":"State Senate District 32","chamber":"Senate"}},{"type":"Feature","geometry":{"type":"Polygon","coordinates":[[[-71.695,41.6744],[-71.6949,41.6584],[-71.6229,41.6597],[-71.6235,41.6519],[-71.6138,41.6489],[-71.6523,41.6139],[-71.6594,41.5987],[-71.545,41.6019],[-71.5471,41.6619],[-71.5334,41.6622],[-71.5343,41.7302],[-71.5629,41.7297],[-71.5577,41.7169],[-71.5608,41.6838],[-71.5808,41.679],[-71.5724,41.6901],[-71.5774,41.6953],[-71.5935,41.693],[-71.5955,41.7],[-71.6231,41.7042],[-71.6558,41.6921],[-71.6742,41.691],[-71.6941,41.6812],[-71.695,41.6744]]]},"properties":{"geoid":"44033","state":"44","district":"33","name":"State Senate District 33","chamber":"Senate"}},{"type":"Feature","geometry":{"type":"Polygon","coordinates":[[[-71.8032,41.4043],[-71.7941,41.3973],[-71.7972,41.3932],[-71.7835,41.3865],[-71.7723,41.4007],[-71.7676,41.3998],[-71.7676,41.3949],[-71.7551,41.408],[-71.728,41.3966],[-71.7233,41.4076],[-71.7274,41.4102],[-71.7154,41.4211],[-71.6946,41.4089],[-71.6806,41.4092],[-71.6803,41.3933],[-71.6733,41.3872],[-71.637,41.384],[-71.614,41.3935],[-71.5951,41.4462],[-71.6089,41.4522],[-71.5968,41.4618],[-71.6056,41.4742],[-71.6008,41.4805],[-71.6089,41.4877],[-71.6074,41.5021],[-71.613,41.5251],[-71.5079,41.5001],[-71.5196,41.5299],[-71.5181,41.5922],[-71.5224,41.6026],[-71.6594,41.5987],[-71.646,41.6194],[-71.6791,41.6252],[-71.6861,41.6352],[-71.7154,41.6238],[-71.7219,41.6339],[-71.7443,41.6392],[-71.7521,41.6378],[-71.7606,41.6275],[-71.7671,41.6368],[-71.7878,41.6345],[-71.796,41.4073],[-71.8032,41.4043]]]},"properties":{"geoid":"44034","state":"44","district":"34","name":"State Senate District 34","chamber":"Senate"}},{"type":"Feature","geometry":{"type":"Polygon","coordinates":[[[-71.5471,41.6619],[-71.5448,41.602],[-71.5224,41.6026],[-71.5184,41.594],[-71.5196,41.5299],[-71.5079,41.5001],[-71.4581,41.4991],[-71.4568,41.4958],[-71.4699,41.4519],[-71.4794,41.4423],[-71.4966,41.4387],[-71.5023,41.4416],[-71.5003,41.4297],[-71.4977,41.4328],[-71.4918,41.4298],[-71.4513,41.4542],[-71.4467,41.4891],[-71.4496,41.5073],[-71.4443,41.5212],[-71.4505,41.5206],[-71.4599,41.531],[-71.466,41.5301],[-71.4689,41.5404],[-71.4873,41.554],[-71.4951,41.5734],[-71.4897,41.584],[-71.4592,41.5836],[-71.4546,41.6033],[-71.4583,41.6212],[-71.446,41.6225],[-71.4591,41.6379],[-71.4678,41.6342],[-71.4687,41.6386],[-71.4581,41.6498],[-71.4522,41.6485],[-71.4423,41.664],[-71.5471,41.6619]]]},"properties":{"geoid":"44035","state":"44","district":"35","name":"State Senate District 35","chamber":"Senate"}},{"type":"Feature","geometry":{"type":"MultiPolygon","coordinates":[[[[-71.6788,41.1589],[-71.6761,41.1415],[-71.6683,41.1283],[-71.6189,41.0991],[-71.5693,41.0972],[-71.5175,41.1071],[-71.4914,41.1251],[-71.477,41.1557],[-71.4786,41.1758],[-71.4898,41.1947],[-71.4846,41.2175],[-71.4893,41.2352],[-71.5164,41.2715],[-71.536,41.2862],[-71.5576,41.294],[-71.5916,41.2893],[-71.6245,41.2741],[-71.635,41.2637],[-71.643,41.2313],[-71.6705,41.1945],[-71.6788,41.1589]]],[[[-71.5752,41.3209],[-71.5094,41.3077],[-71.46,41.3751],[-71.4294,41.4376],[-71.409,41.4683],[-71.413,41.4987],[-71.4011,41.5177],[-71.3987,41.5568],[-71.3876,41.5918],[-71.3867,41.6316],[-71.3805,41.6503],[-71.4176,41.655],[-71.4397,41.6478],[-71.4531,41.6299],[-71.446,41.6225],[-71.4583,41.6212],[-71.4546,41.6033],[-71.4592,41.5836],[-71.4897,41.584],[-71.4951,41.5734],[-71.4869,41.5534],[-71.4689,41.5404],[-71.466,41.5301],[-71.4599,41.531],[-71.4505,41.5206],[-71.4443,41.5212],[-71.4496,41.5073],[-71.4467,41.4891],[-71.4516,41.4532],[-71.4948,41.4273],[-71.4971,41.4175],[-71.5032,41.4176],[-71.5145,41.3849],[-71.5752,41.3209]]]]},"properties":{"geoid":"44036","state":"44","district":"36","name":"State Senate District 36","chamber":"Senate"}},{"type":"Feature","geometry":{"type":"Polygon","coordinates":[[[-71.613,41.5251],[-71.6074,41.5021],[-71.6089,41.4877],[-71.6008,41.4805],[-71.6056,41.4742],[-71.5968,41.4618],[-71.6089,41.4522],[-71.5951,41.4462],[-71.6062,41.4154],[-71.5958,41.4216],[-71.5823,41.4208],[-71.5831,41.4166],[-71.5761,41.4161],[-71.5692,41.4053],[-71.5701,41.4006],[-71.5765,41.4002],[-71.5761,41.395],[-71.5715,41.3951],[-71.6051,41.3933],[-71.6,41.3657],[-71.6069,41.3639],[-71.5732,41.3706],[-71.5811,41.3501],[-71.5845,41.317],[-71.5752,41.3209],[-71.5145,41.3849],[-71.5032,41.4176],[-71.4971,41.4175],[-71.4918,41.4298],[-71.4977,41.4328],[-71.5003,41.4297],[-71.5023,41.4416],[-71.4966,41.4387],[-71.4794,41.4423],[-71.4699,41.4519],[-71.4566,41.4947],[-71.4581,41.4991],[-71.4919,41.4972],[-71.5305,41.5038],[-71.613,41.5251]]]},"properties":{"geoid":"44037","state":"44","district":"37","name":"State Senate District 37","chamber":"Senate"}},{"type":"Feature","geometry":{"type":"Polygon","coordinates":[[[-71.9072,41.3045],[-71.791,41.1841],[-71.7915,41.2722],[-71.695,41.2826],[-71.5845,41.317],[-71.5811,41.3501],[-71.5732,41.3706],[-71.6069,41.3639],[-71.6,41.3657],[-71.6051,41.3933],[-71.5715,41.3951],[-71.5761,41.395],[-71.5765,41.4002],[-71.5701,41.4006],[-71.5692,41.4055],[-71.5761,41.4161],[-71.5831,41.4166],[-71.5823,41.4208],[-71.5958,41.4216],[-71.6061,41.4156],[-71.614,41.3935],[-71.6367,41.3841],[-71.6598,41.3847],[-71.6784,41.3903],[-71.681,41.4095],[-71.6946,41.4089],[-71.7156,41.4211],[-71.7274,41.4102],[-71.7233,41.4076],[-71.728,41.3966],[-71.7551,41.408],[-71.7676,41.3949],[-71.7676,41.3998],[-71.7723,41.4007],[-71.7835,41.3865],[-71.7972,41.3932],[-71.7941,41.3973],[-71.8035,41.4041],[-71.796,41.4073],[-71.7965,41.4164],[-71.8203,41.4194],[-71.8397,41.4122],[-71.8436,41.4053],[-71.8422,41.3954],[-71.8331,41.3878],[-71.8306,41.3788],[-71.8379,41.3601],[-71.8294,41.3424],[-71.8575,41.3208],[-71.8665,41.3192],[-71.8921,41.3301],[-71.9072,41.3045]]]},"properties":{"geoid":"44038","state":"44","district":"38","name":"State Senate District 38","chamber":"Senate"}}]}