{"type":"FeatureCollection","features":[{"type":"Feature","geometry":{"type":"Polygon","coordinates":[[[-98.7254,45.6059],[-98.7222,45.4756],[-98.5262,45.4741],[-98.5263,45.4956],[-98.516,45.4956],[-98.516,45.503],[-98.4745,45.5027],[-98.4745,45.5172],[-98.4128,45.517],[-98.4129,45.5025],[-98.3923,45.5024],[-98.3922,45.4155],[-98.7222,45.4175],[-98.7225,45.2438],[-97.9815,45.2404],[-97.9818,45.1533],[-97.2263,45.1518],[-97.2262,45.2976],[-97.0075,45.2969],[-96.8407,45.6453],[-96.7609,45.6875],[-96.7504,45.6988],[-96.6727,45.7323],[-96.6522,45.7468],[-96.6278,45.7862],[-96.6125,45.7944],[-96.5797,45.8258],[-96.5645,45.9095],[-96.57,45.9135],[-96.564,45.9196],[-96.5637,45.9352],[-98.7244,45.9387],[-98.7254,45.6059]]]},"properties":{"geoid":"46001","state":"46","district":"1","name":"State House District 1","chamber":"House"}},{"type":"Feature","geometry":{"type":"Polygon","coordinates":[[[-96.6716,43.5585],[-96.6714,43.5367],[-96.6518,43.5367],[-96.6498,43.5004],[-96.4533,43.5004],[-96.4535,43.6459],[-96.6516,43.6452],[-96.6516,43.5874],[-96.6423,43.5872],[-96.6431,43.581],[-96.6509,43.5584],[-96.6716,43.5585]]]},"properties":{"geoid":"46002","state":"46","district":"2","name":"State House District 2","chamber":"House"}},{"type":"Feature","geometry":{"type":"Polygon","coordinates":[[[-98.5264,45.492],[-98.5262,45.4741],[-98.5162,45.4744],[-98.5175,45.4595],[-98.4909,45.4591],[-98.491,45.4528],[-98.5005,45.4517],[-98.5003,45.4449],[-98.4948,45.4449],[-98.495,45.4159],[-98.3922,45.4155],[-98.3923,45.5024],[-98.4129,45.5025],[-98.4128,45.517],[-98.4745,45.5172],[-98.4745,45.5027],[-98.516,45.503],[-98.516,45.4956],[-98.5263,45.4956],[-98.5264,45.492]]]},"properties":{"geoid":"46003","state":"46","district":"3","name":"State House District 3","chamber":"House"}},{"type":"Feature","geometry":{"type":"Polygon","coordinates":[[[-97.9827,44.9816],[-97.8609,44.9787],[-97.8604,44.8921],[-97.7409,44.8918],[-97.741,44.8847],[-97.7504,44.8758],[-97.735,44.8703],[-97.735,44.8048],[-97.8562,44.8049],[-97.8563,44.5444],[-96.4518,44.5437],[-96.4531,45.3008],[-96.4891,45.3571],[-96.5218,45.3756],[-96.5621,45.3861],[-96.6198,45.4089],[-96.6805,45.4105],[-96.6925,45.4173],[-96.7327,45.4587],[-96.7634,45.52],[-96.8568,45.6054],[-97.0075,45.2969],[-97.2262,45.2976],[-97.2263,45.1518],[-97.9818,45.1533],[-97.9827,44.9816]],[[-97.2548,44.9096],[-97.2486,44.9198],[-97.2493,44.9776],[-97.0038,44.9768],[-97.006,44.8044],[-97.2486,44.8042],[-97.2481,44.8904],[-97.249,44.9023],[-97.2548,44.9096]]]},"properties":{"geoid":"46004","state":"46","district":"4","name":"State House District 4","chamber":"House"}},{"type":"Feature","geometry":{"type":"Polygon","coordinates":[[[-97.2548,44.9097],[-97.2481,44.8904],[-97.2486,44.8042],[-97.006,44.8044],[-97.0038,44.9768],[-97.2493,44.9776],[-97.2486,44.9198],[-97.2548,44.9097]]]},"properties":{"geoid":"46005","state":"46","district":"5","name":"State House District 5","chamber":"House"}},{"type":"Feature","geometry":{"type":"Polygon","coordinates":[[[-96.9249,43.4762],[-96.9245,43.3887],[-96.6876,43.388],[-96.6877,43.4314],[-96.5895,43.4322],[-96.6031,43.4508],[-96.5894,43.4665],[-96.5824,43.4667],[-96.5869,43.4779],[-96.5811,43.4815],[-96.5868,43.4838],[-96.5846,43.4891],[-96.5902,43.4941],[-96.599,43.4953],[-96.5992,43.5005],[-96.6289,43.5004],[-96.6344,43.4943],[-96.6539,43.4931],[-96.6539,43.4895],[-96.6706,43.4907],[-96.6787,43.4821],[-96.6879,43.4875],[-96.701,43.4858],[-96.6976,43.4827],[-96.7076,43.4812],[-96.7077,43.475],[-96.7207,43.475],[-96.7176,43.4712],[-96.7275,43.4698],[-96.7381,43.475],[-96.7374,43.4715],[-96.7473,43.4715],[-96.7474,43.4653],[-96.7673,43.4643],[-96.7623,43.468],[-96.7724,43.4681],[-96.7716,43.4753],[-96.796,43.4791],[-96.7882,43.5003],[-96.9248,43.5],[-96.9249,43.4762]]]},"properties":{"geoid":"46006","state":"46","district":"6","name":"State House District 6","chamber":"House"}},{"type":"Feature","geometry":{"type":"Polygon","coordinates":[[[-96.8988,44.3413],[-96.8985,44.3259],[-96.8879,44.326],[-96.8881,44.3117],[-96.8807,44.3117],[-96.8802,44.2973],[-96.8693,44.2971],[-96.8691,44.2827],[-96.8884,44.2828],[-96.8892,44.1957],[-96.7669,44.1956],[-96.7682,44.268],[-96.7577,44.2681],[-96.758,44.2808],[-96.7636,44.2824],[-96.6976,44.2822],[-96.6976,44.2756],[-96.6774,44.2821],[-96.6472,44.282],[-96.6468,44.322],[-96.652,44.3256],[-96.6517,44.3329],[-96.6468,44.3329],[-96.6465,44.369],[-96.8971,44.3698],[-96.8988,44.3413]]]},"properties":{"geoid":"46007","state":"46","district":"7","name":"State House District 7","chamber":"House"}},{"type":"Feature","geometry":{"type":"Polygon","coordinates":[[[-97.8537,44.199],[-97.8495,44.1952],[-97.8509,44.1108],[-97.7302,44.1105],[-97.7308,43.8496],[-96.8887,43.8484],[-96.8884,44.2828],[-96.8691,44.2827],[-96.8693,44.2971],[-96.8802,44.2973],[-96.8807,44.3117],[-96.8881,44.3117],[-96.8879,44.326],[-96.8985,44.3259],[-96.8971,44.3698],[-96.6465,44.369],[-96.6468,44.3329],[-96.6517,44.3329],[-96.652,44.3256],[-96.6468,44.322],[-96.6472,44.282],[-96.6774,44.2821],[-96.6976,44.2756],[-96.6976,44.2822],[-96.7636,44.2824],[-96.758,44.2808],[-96.7577,44.2681],[-96.7682,44.268],[-96.7669,44.1956],[-96.4528,44.1968],[-96.4518,44.5436],[-97.853,44.5444],[-97.8537,44.199]]]},"properties":{"geoid":"46008","state":"46","district":"8","name":"State House District 8","chamber":"House"}},{"type":"Feature","geometry":{"type":"Polygon","coordinates":[[[-97.0099,43.5111],[-97.0098,43.4998],[-96.8307,43.5003],[-96.8308,43.5148],[-96.8208,43.5148],[-96.8226,43.5293],[-96.8158,43.5293],[-96.8149,43.5439],[-96.7804,43.5439],[-96.7782,43.5687],[-96.7711,43.5786],[-96.7712,43.6018],[-96.791,43.602],[-96.791,43.5875],[-96.8905,43.5871],[-96.8905,43.6453],[-97.0097,43.6452],[-97.0099,43.5111]]]},"properties":{"geoid":"46009","state":"46","district":"9","name":"State House District 9","chamber":"House"}},{"type":"Feature","geometry":{"type":"Polygon","coordinates":[[[-96.7313,43.5272],[-96.7211,43.5221],[-96.7018,43.522],[-96.6962,43.5258],[-96.6986,43.5313],[-96.694,43.5367],[-96.6714,43.5367],[-96.6716,43.5585],[-96.6509,43.5584],[-96.6423,43.5872],[-96.6516,43.5874],[-96.6516,43.5982],[-96.6566,43.5947],[-96.6566,43.6022],[-96.6809,43.602],[-96.6815,43.5947],[-96.6855,43.5947],[-96.6854,43.602],[-96.6912,43.602],[-96.6936,43.573],[-96.711,43.5729],[-96.7114,43.5414],[-96.7313,43.5414],[-96.7313,43.5272]]]},"properties":{"geoid":"46010","state":"46","district":"10","name":"State House District 10","chamber":"House"}},{"type":"Feature","geometry":{"type":"Polygon","coordinates":[[[-96.8308,43.5148],[-96.8307,43.5003],[-96.7882,43.5003],[-96.7807,43.513],[-96.7801,43.5439],[-96.8149,43.5439],[-96.8158,43.5293],[-96.8226,43.5293],[-96.8208,43.5148],[-96.8308,43.5148]]]},"properties":{"geoid":"46011","state":"46","district":"11","name":"State House District 11","chamber":"House"}},{"type":"Feature","geometry":{"type":"Polygon","coordinates":[[[-96.7966,43.4821],[-96.7716,43.4753],[-96.7724,43.4681],[-96.7623,43.468],[-96.7673,43.4643],[-96.7474,43.4653],[-96.7511,43.5185],[-96.7313,43.5185],[-96.7313,43.5367],[-96.7806,43.5366],[-96.7808,43.5127],[-96.7966,43.4821]]]},"properties":{"geoid":"46012","state":"46","district":"12","name":"State House District 12","chamber":"House"}},{"type":"Feature","geometry":{"type":"Polygon","coordinates":[[[-96.7511,43.5185],[-96.7473,43.4715],[-96.7326,43.475],[-96.7314,43.4706],[-96.7176,43.4712],[-96.7207,43.475],[-96.7077,43.475],[-96.7076,43.4812],[-96.6976,43.4827],[-96.701,43.4858],[-96.6879,43.4875],[-96.6787,43.4821],[-96.6706,43.4907],[-96.6539,43.4895],[-96.6539,43.4931],[-96.6289,43.4968],[-96.6289,43.5004],[-96.7077,43.5004],[-96.7111,43.5139],[-96.7039,43.5147],[-96.7018,43.522],[-96.7263,43.5244],[-96.7313,43.524],[-96.7313,43.5185],[-96.7511,43.5185]]]},"properties":{"geoid":"46013","state":"46","district":"13","name":"State House District 13","chamber":"House"}},{"type":"Feature","geometry":{"type":"Polygon","coordinates":[[[-96.7117,43.5118],[-96.7077,43.5004],[-96.6498,43.5004],[-96.6518,43.5367],[-96.694,43.5367],[-96.7035,43.5151],[-96.7117,43.5118]]]},"properties":{"geoid":"46014","state":"46","district":"14","name":"State House District 14","chamber":"House"}},{"type":"Feature","geometry":{"type":"Polygon","coordinates":[[[-96.7807,43.5515],[-96.7803,43.5366],[-96.7313,43.5367],[-96.7313,43.5414],[-96.7114,43.5414],[-96.711,43.5729],[-96.6936,43.573],[-96.6912,43.602],[-96.7712,43.6019],[-96.7711,43.5786],[-96.7782,43.5687],[-96.7807,43.5515]]]},"properties":{"geoid":"46015","state":"46","district":"15","name":"State House District 15","chamber":"House"}},{"type":"Feature","geometry":{"type":"Polygon","coordinates":[[[-97.4014,43.4998],[-97.4006,43.3429],[-97.2801,43.3432],[-97.2796,43.2564],[-97.1613,43.2567],[-97.1605,43.0831],[-96.8057,43.0837],[-96.8065,42.7355],[-96.6879,42.7357],[-96.6877,42.8224],[-96.5877,42.8223],[-96.5956,42.8154],[-96.5911,42.8153],[-96.5776,42.8278],[-96.5811,42.838],[-96.5782,42.8347],[-96.5684,42.8378],[-96.5636,42.8282],[-96.5609,42.8391],[-96.5506,42.8372],[-96.5486,42.8409],[-96.5561,42.8492],[-96.5453,42.8499],[-96.5415,42.8569],[-96.5505,42.8635],[-96.5466,42.8639],[-96.5471,42.874],[-96.5377,42.8785],[-96.5435,42.8838],[-96.5377,42.8867],[-96.5398,42.8898],[-96.5253,42.8919],[-96.5429,42.9038],[-96.5365,42.9056],[-96.5413,42.9239],[-96.5341,42.9237],[-96.5253,42.9356],[-96.5168,42.9323],[-96.5199,42.94],[-96.5093,42.9452],[-96.5089,42.9537],[-96.4989,42.958],[-96.5052,42.9711],[-96.5158,42.9728],[-96.5208,42.9803],[-96.5124,42.9857],[-96.5099,42.9952],[-96.497,42.9985],[-96.492,43.0102],[-96.512,43.0262],[-96.511,43.0397],[-96.5213,43.0397],[-96.5125,43.0411],[-96.5148,43.0452],[-96.5105,43.0499],[-96.4909,43.0508],[-96.4767,43.0627],[-96.4607,43.0643],[-96.4541,43.0838],[-96.4623,43.0929],[-96.4524,43.0982],[-96.4365,43.1202],[-96.4504,43.1424],[-96.4604,43.1436],[-96.4592,43.1475],[-96.4685,43.1519],[-96.464,43.1555],[-96.4696,43.1584],[-96.4649,43.182],[-96.474,43.1896],[-96.475,43.2026],[-96.4707,43.2073],[-96.4765,43.213],[-96.4767,43.2219],[-96.4966,43.2237],[-96.5086,43.2211],[-96.5091,43.2172],[-96.5207,43.218],[-96.5359,43.2276],[-96.5593,43.2229],[-96.5715,43.2388],[-96.5652,43.2445],[-96.5492,43.2468],[-96.5527,43.2581],[-96.5857,43.2695],[-96.5861,43.2745],[-96.5776,43.2792],[-96.5795,43.2957],[-96.588,43.2924],[-96.5885,43.2962],[-96.5737,43.299],[-96.5513,43.293],[-96.5302,43.2999],[-96.5319,43.3042],[-96.5242,43.3109],[-96.5351,43.3365],[-96.5243,43.3474],[-96.5277,43.3483],[-96.5251,43.3536],[-96.531,43.3682],[-96.522,43.3722],[-96.5252,43.3961],[-96.5449,43.3964],[-96.5484,43.4037],[-96.5736,43.419],[-96.5699,43.428],[-96.5761,43.4319],[-96.6877,43.4314],[-96.6876,43.388],[-96.9245,43.3887],[-96.9248,43.5],[-97.4014,43.4998]]]},"properties":{"geoid":"46016","state":"46","district":"16","name":"State House District 16","chamber":"House"}},{"type":"Feature","geometry":{"type":"Polygon","coordinates":[[[-97.1608,42.8951],[-97.1604,42.7997],[-97.1446,42.7901],[-97.1313,42.7719],[-97.0672,42.7723],[-97.0249,42.7624],[-96.9801,42.7603],[-96.9689,42.7543],[-96.9612,42.7406],[-96.9658,42.7271],[-96.9616,42.7198],[-96.9376,42.7196],[-96.9183,42.7319],[-96.9068,42.7338],[-96.8062,42.7042],[-96.8016,42.6988],[-96.8022,42.6722],[-96.7986,42.6681],[-96.7641,42.662],[-96.728,42.6669],[-96.6877,42.6531],[-96.6891,42.6441],[-96.7095,42.6219],[-96.7098,42.6051],[-96.6841,42.5765],[-96.6481,42.5608],[-96.638,42.552],[-96.626,42.5136],[-96.6089,42.5052],[-96.596,42.5046],[-96.5679,42.5179],[-96.5488,42.5205],[-96.5288,42.5133],[-96.5158,42.4942],[-96.5013,42.4827],[-96.4788,42.4797],[-96.4455,42.4906],[-96.4763,42.49],[-96.476,42.5078],[-96.4936,42.5156],[-96.479,42.5264],[-96.477,42.556],[-96.4985,42.5581],[-96.4858,42.575],[-96.4957,42.5795],[-96.4913,42.5868],[-96.5011,42.5893],[-96.51,42.6132],[-96.5177,42.6166],[-96.5299,42.6105],[-96.5313,42.6166],[-96.519,42.619],[-96.5152,42.6284],[-96.5251,42.6347],[-96.5266,42.6415],[-96.5375,42.646],[-96.5412,42.6599],[-96.5594,42.6578],[-96.5558,42.6642],[-96.567,42.6764],[-96.5716,42.6709],[-96.5785,42.6719],[-96.5721,42.6767],[-96.5788,42.6781],[-96.5752,42.6828],[-96.5862,42.6832],[-96.5898,42.691],[-96.5996,42.6869],[-96.5936,42.6898],[-96.5996,42.6989],[-96.6121,42.6956],[-96.6046,42.6985],[-96.6056,42.702],[-96.6151,42.6984],[-96.624,42.7076],[-96.6304,42.7057],[-96.6244,42.714],[-96.628,42.7178],[-96.6244,42.7252],[-96.6342,42.7243],[-96.6305,42.7302],[-96.6395,42.737],[-96.6306,42.7353],[-96.6356,42.7419],[-96.6294,42.7436],[-96.63,42.7507],[-96.6193,42.7548],[-96.6228,42.7584],[-96.6272,42.7544],[-96.6365,42.7695],[-96.6264,42.7714],[-96.6195,42.7841],[-96.6039,42.7834],[-96.6052,42.7914],[-96.5952,42.7929],[-96.5997,42.7984],[-96.5943,42.798],[-96.591,42.8061],[-96.5959,42.815],[-96.5877,42.8223],[-96.6877,42.8224],[-96.6879,42.7357],[-96.8065,42.7355],[-96.8057,43.0837],[-97.0422,43.0835],[-97.0426,42.9101],[-97.1607,42.9095],[-97.1608,42.8951]]]},"properties":{"geoid":"46017","state":"46","district":"17","name":"State House District 17","chamber":"House"}},{"type":"Feature","geometry":{"type":"Polygon","coordinates":[[[-97.6375,43.1688],[-97.6354,42.8515],[-97.6038,42.8583],[-97.5509,42.8478],[-97.5048,42.8585],[-97.487,42.8506],[-97.4449,42.8459],[-97.4108,42.868],[-97.3767,42.8652],[-97.3596,42.8548],[-97.3362,42.8568],[-97.3067,42.8676],[-97.2899,42.8555],[-97.2503,42.8556],[-97.2207,42.8468],[-97.2101,42.8093],[-97.1604,42.7997],[-97.1607,42.9095],[-97.0426,42.9101],[-97.0422,43.0835],[-97.1605,43.0831],[-97.1605,43.17],[-97.6375,43.1688]]]},"properties":{"geoid":"46018","state":"46","district":"18","name":"State House District 18","chamber":"House"}},{"type":"Feature","geometry":{"type":"Polygon","coordinates":[[[-98.163,42.8498],[-98.1537,42.8466],[-98.1531,42.839],[-98.1398,42.8343],[-98.1277,42.82],[-98.0675,42.7846],[-98.0567,42.7707],[-98.0131,42.7622],[-97.9776,42.7698],[-97.9502,42.7695],[-97.9348,42.7769],[-97.909,42.7948],[-97.8886,42.8172],[-97.8758,42.8584],[-97.8581,42.8651],[-97.8286,42.8688],[-97.7744,42.8497],[-97.6932,42.8428],[-97.6468,42.8474],[-97.6354,42.8515],[-97.6375,43.1688],[-97.1605,43.17],[-97.1613,43.2567],[-97.2796,43.2564],[-97.2801,43.3432],[-97.4006,43.3429],[-97.4014,43.4998],[-97.1295,43.4997],[-97.1291,43.848],[-97.9673,43.8507],[-97.9646,43.499],[-98.1148,43.4983],[-98.1095,43.1968],[-98.069,43.1849],[-98.0898,43.1525],[-98.0928,43.1191],[-98.103,43.1127],[-98.1078,43.102],[-98.1098,43.0875],[-98.1062,43.0837],[-98.1094,43.0816],[-98.1056,43.0775],[-98.1103,43.0734],[-98.1033,43.0565],[-98.1028,43.0371],[-98.0949,43.0298],[-98.1105,43.0227],[-98.1079,43.0141],[-98.1143,43.0061],[-98.0928,42.9739],[-98.0989,42.9685],[-98.0947,42.965],[-98.1029,42.9497],[-98.1077,42.9476],[-98.1036,42.9381],[-98.114,42.9373],[-98.1087,42.9334],[-98.1136,42.929],[-98.1063,42.9236],[-98.1143,42.9171],[-98.1111,42.9135],[-98.1235,42.9107],[-98.1119,42.8945],[-98.1136,42.8792],[-98.119,42.875],[-98.117,42.8694],[-98.1235,42.8714],[-98.1395,42.8647],[-98.1383,42.8569],[-98.1474,42.8497],[-98.1545,42.8551],[-98.163,42.8498]]]},"properties":{"geoid":"46019","state":"46","district":"19","name":"State House District 19","chamber":"House"}},{"type":"Feature","geometry":{"type":"Polygon","coordinates":[[[-98.9271,43.9522],[-98.927,43.9351],[-98.3315,43.9377],[-98.3315,43.851],[-98.3252,43.8511],[-98.3253,43.5911],[-98.3206,43.4987],[-97.9646,43.499],[-97.9673,43.8507],[-97.7308,43.8496],[-97.7302,44.1105],[-97.8509,44.1108],[-97.8495,44.1952],[-98.926,44.1966],[-98.9271,43.9522]]]},"properties":{"geoid":"46020","state":"46","district":"20","name":"State House District 20","chamber":"House"}},{"type":"Feature","geometry":{"type":"Polygon","coordinates":[[[-100.2309,43.4942],[-100.231,43.478],[-100.2144,43.4778],[-100.2138,43.1287],[-100.1985,43.1286],[-100.1984,42.9987],[-98.4986,42.9986],[-98.4905,42.9779],[-98.4674,42.9476],[-98.4483,42.9364],[-98.4441,42.9292],[-98.4207,42.9319],[-98.3462,42.9027],[-98.3259,42.8865],[-98.2518,42.8728],[-98.2198,42.8532],[-98.1898,42.8416],[-98.1711,42.8371],[-98.1531,42.839],[-98.1537,42.8466],[-98.1628,42.85],[-98.1545,42.8551],[-98.1474,42.8497],[-98.1383,42.8569],[-98.1395,42.8647],[-98.1235,42.8714],[-98.117,42.8694],[-98.119,42.875],[-98.1136,42.8792],[-98.1119,42.8945],[-98.1235,42.9107],[-98.1111,42.9135],[-98.1143,42.9171],[-98.1063,42.9236],[-98.1136,42.929],[-98.1087,42.9334],[-98.114,42.9373],[-98.1036,42.9381],[-98.1077,42.9476],[-98.1029,42.9497],[-98.0947,42.965],[-98.0989,42.9685],[-98.0928,42.9739],[-98.1143,43.0061],[-98.1079,43.0141],[-98.1105,43.0227],[-98.0949,43.0298],[-98.1028,43.0371],[-98.1033,43.0565],[-98.1103,43.0734],[-98.1056,43.0775],[-98.1094,43.0816],[-98.1062,43.0837],[-98.1098,43.0875],[-98.1078,43.102],[-98.103,43.1127],[-98.0928,43.1191],[-98.0898,43.1525],[-98.069,43.1849],[-98.1095,43.1968],[-98.1148,43.4983],[-98.3206,43.4987],[-98.3253,43.5911],[-98.3252,43.8511],[-98.3315,43.851],[-98.3315,43.9377],[-98.8078,43.9352],[-98.8068,43.8485],[-98.7969,43.8474],[-98.7946,43.4992],[-99.6236,43.4999],[-99.6236,43.7424],[-99.6415,43.7357],[-99.6435,43.7584],[-99.659,43.7666],[-99.6674,43.7635],[-99.6619,43.741],[-99.6682,43.7299],[-99.6843,43.7278],[-99.6897,43.7311],[-99.681,43.7494],[-99.6912,43.7603],[-99.7067,43.7498],[-99.7109,43.7331],[-99.7292,43.719],[-99.7402,43.7237],[-99.7361,43.7328],[-99.7404,43.7472],[-99.7502,43.7478],[-99.7621,43.7396],[-99.7635,43.731],[-99.7458,43.7103],[-99.7986,43.7116],[-99.8021,43.7006],[-99.8399,43.6887],[-99.853,43.7006],[-99.8597,43.7012],[-99.8512,43.6884],[-99.8629,43.692],[-99.8731,43.6891],[-99.8621,43.6829],[-99.8706,43.6707],[-99.8885,43.6773],[-99.8851,43.6859],[-99.8982,43.7008],[-99.9254,43.6868],[-99.9318,43.6874],[-99.9343,43.6955],[-99.955,43.6982],[-99.962,43.6886],[-99.9738,43.6932],[-99.9815,43.6871],[-99.998,43.702],[-100.0004,43.6938],[-100.0099,43.6937],[-100.0069,43.7047],[-100.0133,43.7078],[-100.0311,43.6975],[-100.0362,43.7033],[-100.0451,43.704],[-100.0478,43.6932],[-100.0775,43.692],[-100.0872,43.6852],[-100.1058,43.6944],[-100.1152,43.6854],[-100.1326,43.7032],[-100.1448,43.7033],[-100.1404,43.6945],[-100.1619,43.7044],[-100.1899,43.7062],[-100.1971,43.7042],[-100.2099,43.6833],[-100.2244,43.6974],[-100.2247,43.7131],[-100.2308,43.7139],[-100.2309,43.4942]]]},"properties":{"geoid":"46021","state":"46","district":"21","name":"State House District 21","chamber":"House"}},{"type":"Feature","geometry":{"type":"Polygon","coordinates":[[[-98.7178,45.2088],[-98.7165,44.8969],[-98.7054,44.8969],[-98.7005,44.1967],[-97.8537,44.1952],[-97.8562,44.8049],[-97.735,44.8048],[-97.735,44.8703],[-97.7504,44.8758],[-97.741,44.8847],[-97.7409,44.8918],[-97.8604,44.8921],[-97.8609,44.9787],[-97.9826,44.9792],[-97.9815,45.2404],[-98.7178,45.2437],[-98.7178,45.2088]]]},"properties":{"geoid":"46022","state":"46","district":"22","name":"State House District 22","chamber":"House"}},{"type":"Feature","geometry":{"type":"Polygon","coordinates":[[[-100.4994,45.9437],[-100.4887,45.9303],[-100.4624,45.9196],[-100.4175,45.884],[-100.387,45.8691],[-100.3806,45.8582],[-100.3824,45.8386],[-100.3755,45.816],[-100.3184,45.7245],[-100.3082,45.7012],[-100.3088,45.6896],[-100.323,45.6699],[-100.345,45.6615],[-100.3874,45.6594],[-100.4064,45.65],[-100.4198,45.6248],[-100.4238,45.6248],[-100.4342,45.5857],[-100.4775,45.5575],[-100.4852,45.5472],[-100.4866,45.5365],[-100.4748,45.5215],[-100.4539,45.512],[-100.3821,45.5106],[-100.3476,45.4813],[-100.3303,45.4422],[-100.2999,45.416],[-100.2739,45.3812],[-100.2823,45.3553],[-100.3082,45.3321],[-100.3167,45.3179],[-100.3074,45.2919],[-100.2681,45.2611],[-100.2573,45.2385],[-100.275,45.1983],[-100.279,45.1589],[-100.2907,45.1384],[-100.3242,45.1016],[-100.3266,45.0909],[-100.3165,45.0593],[-100.2816,45.0334],[-100.2794,45.0201],[-100.2895,45.0145],[-100.3122,45.0152],[-100.3776,45.0301],[-100.39,45.0272],[-100.4084,45.0118],[-100.4234,44.9921],[-100.424,44.9758],[-100.4157,44.9235],[-100.4048,44.8977],[-99.3118,44.8972],[-99.3125,44.5475],[-99.3005,44.5474],[-99.3002,44.1948],[-98.7005,44.1967],[-98.7054,44.8969],[-98.7165,44.8969],[-98.7222,45.4175],[-98.495,45.4159],[-98.4948,45.4449],[-98.5003,45.4449],[-98.5005,45.4517],[-98.491,45.4528],[-98.4909,45.4591],[-98.5175,45.4595],[-98.5162,45.4744],[-98.7222,45.4756],[-98.7244,45.9387],[-100.4994,45.9437]]]},"properties":{"geoid":"46023","state":"46","district":"23","name":"State House District 23","chamber":"House"}},{"type":"Feature","geometry":{"type":"Polygon","coordinates":[[[-102.0077,44.1393],[-102.0073,43.9945],[-101.0468,43.995],[-101.0469,44.1685],[-100.3707,44.1685],[-100.3672,44.1687],[-100.3672,44.1946],[-99.9382,44.1952],[-99.936,44.2049],[-99.8942,44.2371],[-99.7857,44.2368],[-99.7854,44.2799],[-99.4214,44.2802],[-99.4217,44.2375],[-99.3005,44.2379],[-99.3005,44.5474],[-99.3125,44.5475],[-99.3118,44.8972],[-100.4048,44.8977],[-100.393,44.875],[-100.4027,44.8568],[-100.4187,44.8434],[-100.4751,44.8164],[-100.5285,44.767],[-100.5464,44.7603],[-100.611,44.7701],[-100.6733,44.8212],[-100.7009,44.8288],[-100.7141,44.8223],[-100.7242,44.8076],[-100.7288,44.7837],[-100.7176,44.7709],[-100.7285,44.7647],[-100.7376,44.7642],[-100.7363,44.7744],[-100.7453,44.7759],[-100.753,44.7733],[-100.7515,44.7619],[-100.7734,44.7585],[-100.7761,44.7612],[-100.7711,44.7678],[-100.7745,44.7722],[-100.798,44.7635],[-100.7982,44.7702],[-100.812,44.768],[-100.8176,44.78],[-100.8312,44.7833],[-100.8434,44.777],[-100.8537,44.7807],[-100.889,44.7698],[-100.8956,44.7779],[-100.9107,44.7837],[-100.9172,44.7696],[-100.9398,44.7625],[-100.9552,44.7655],[-100.9583,44.7619],[-100.9551,44.7544],[-100.976,44.751],[-100.9877,44.732],[-100.9983,44.7394],[-101.0064,44.7288],[-101.0226,44.7242],[-101.0629,44.7425],[-101.0832,44.7384],[-101.1413,44.747],[-101.1494,44.7429],[-101.1537,44.7288],[-101.1612,44.7221],[-101.2351,44.6906],[-101.2398,44.6985],[-101.2494,44.6989],[-101.2752,44.6852],[-101.2988,44.6895],[-101.3192,44.6805],[-101.3247,44.6815],[-101.3282,44.691],[-101.3393,44.6835],[-101.3599,44.689],[-101.3625,44.685],[-101.3582,44.6737],[-101.374,44.671],[-101.3648,44.6564],[-101.3771,44.6587],[-101.3832,44.6533],[-101.3972,44.6568],[-101.4157,44.6421],[-101.4402,44.6439],[-101.4458,44.6382],[-101.4549,44.638],[-101.4556,44.6287],[-101.4668,44.6193],[-101.4558,44.6102],[-101.4691,44.6118],[-101.4767,44.6018],[-101.4972,44.5998],[-101.494,44.584],[-101.5012,44.5812],[-101.512,44.5854],[-101.5146,44.5755],[-101.531,44.5679],[-101.5367,44.574],[-101.5508,44.5757],[-101.5593,44.5694],[-101.5754,44.5782],[-101.623,44.5729],[-101.6292,44.5758],[-101.6266,44.5799],[-101.6305,44.5865],[-101.6404,44.5794],[-101.6453,44.5851],[-101.6565,44.5825],[-101.6608,44.5881],[-101.676,44.5804],[-101.683,44.5707],[-101.7124,44.5802],[-101.716,44.5727],[-101.7289,44.5661],[-101.747,44.5678],[-101.7493,44.5639],[-101.7443,44.5552],[-101.7649,44.5486],[-101.782,44.5361],[-101.7847,44.5408],[-101.7989,44.5423],[-101.8061,44.5329],[-101.8052,44.5255],[-101.8112,44.5224],[-101.8173,44.5315],[-101.8277,44.5317],[-101.8364,44.5217],[-101.8475,44.5294],[-101.8569,44.5267],[-101.8878,44.5386],[-101.9243,44.53],[-101.9396,44.5351],[-101.9464,44.5287],[-101.9739,44.5268],[-101.9786,44.5228],[-101.9858,44.5252],[-102.0011,44.5109],[-102.001,44.3438],[-102.0072,44.3438],[-102.0077,44.1393]]]},"properties":{"geoid":"46024","state":"46","district":"24","name":"State House District 24","chamber":"House"}},{"type":"Feature","geometry":{"type":"Polygon","coordinates":[[[-97.1295,43.5307],[-97.1295,43.4997],[-97.0098,43.4998],[-97.0097,43.6452],[-96.8905,43.6453],[-96.8905,43.5871],[-96.8753,43.5871],[-96.791,43.5875],[-96.791,43.602],[-96.6854,43.602],[-96.6855,43.5947],[-96.6815,43.5947],[-96.6809,43.602],[-96.6566,43.6022],[-96.6566,43.5947],[-96.6516,43.5982],[-96.6516,43.6452],[-96.4535,43.6459],[-96.4528,44.1968],[-96.8892,44.1957],[-96.8887,43.8484],[-97.1291,43.848],[-97.1295,43.5307]]]},"properties":{"geoid":"46025","state":"46","district":"25","name":"State House District 25","chamber":"House"}},{"type":"Feature","geometry":{"type":"Polygon","coordinates":[[[-103.0914,44.0842],[-103.0906,43.9945],[-103.0507,43.9947],[-103.0506,43.9404],[-102.9392,43.9404],[-102.9391,43.8565],[-102.6867,43.8535],[-102.6937,43.8479],[-102.6882,43.8408],[-102.7009,43.812],[-102.6959,43.7976],[-102.706,43.7971],[-102.7077,43.7895],[-102.7378,43.7717],[-102.7336,43.7642],[-102.7475,43.7564],[-102.7586,43.7411],[-102.7699,43.7389],[-102.7707,43.7292],[-102.7772,43.7268],[-102.7785,43.7205],[-102.7914,43.7218],[-102.7952,43.7133],[-102.8033,43.7102],[-102.801,43.6988],[-102.8113,43.6971],[-102.8173,43.6903],[-102.8081,43.6861],[-102.8161,43.6735],[-102.8138,43.6676],[-102.8237,43.6644],[-102.8288,43.6571],[-102.8473,43.6654],[-102.8489,43.66],[-102.8562,43.6583],[-102.8621,43.6597],[-102.8634,43.6689],[-102.9101,43.6742],[-102.9086,43.6662],[-102.9195,43.6612],[-102.9183,43.656],[-102.9242,43.6507],[-102.9217,43.6407],[-102.9327,43.6309],[-102.9269,43.6261],[-102.9326,43.6187],[-102.9583,43.6135],[-102.9761,43.6187],[-102.9815,43.6113],[-103.001,43.6058],[-103.0006,43.0008],[-101.228,42.9981],[-101.2282,43.7956],[-101.216,43.7992],[-101.2178,43.8038],[-101.2036,43.8128],[-101.1937,43.8036],[-101.1835,43.805],[-101.18,43.8129],[-101.1747,43.8124],[-101.1812,43.8137],[-101.1798,43.8186],[-101.1717,43.8162],[-101.1755,43.8075],[-101.1723,43.8069],[-101.1698,43.8224],[-101.1632,43.8255],[-101.1658,43.8302],[-101.1533,43.8239],[-101.1607,43.8176],[-101.1424,43.82],[-101.1343,43.8285],[-101.1425,43.8335],[-101.1379,43.8413],[-101.1281,43.8404],[-101.1248,43.8443],[-101.1069,43.8368],[-101.1031,43.8403],[-101.1077,43.8466],[-101.0972,43.8438],[-101.0867,43.8496],[-101.083,43.8472],[-101.0867,43.8418],[-101.0702,43.8457],[-101.0705,43.8405],[-101.0643,43.8411],[-101.0641,43.9949],[-102.0073,43.9945],[-102.0072,44.3438],[-102.001,44.3438],[-102.0011,44.5109],[-102.0459,44.5],[-102.0544,44.4903],[-102.055,44.4817],[-102.0759,44.4751],[-102.0732,44.4656],[-102.0839,44.4607],[-102.0839,44.4543],[-102.099,44.4517],[-102.108,44.4366],[-102.1538,44.4452],[-102.1593,44.4437],[-102.1538,44.4369],[-102.1602,44.4288],[-102.1894,44.4272],[-102.2208,44.4425],[-102.2203,44.4514],[-102.2261,44.4525],[-102.2546,44.4468],[-102.28,44.4503],[-102.2934,44.432],[-102.3062,44.4341],[-102.311,44.4248],[-102.3031,44.4206],[-102.3055,44.3928],[-102.2982,44.3889],[-102.3025,44.3834],[-102.2983,44.3769],[-102.3117,44.3638],[-102.3264,44.3669],[-102.324,44.3589],[-102.3416,44.3488],[-102.3366,44.3433],[-102.3429,44.3402],[-102.3417,44.3296],[-102.3478,44.3263],[-102.344,44.3222],[-102.3509,44.3097],[-102.348,44.3046],[-102.3591,44.3007],[-102.367,44.2856],[-102.3676,44.2767],[-102.3588,44.2657],[-102.368,44.262],[-102.3587,44.2489],[-102.3659,44.2424],[-102.357,44.2306],[-102.3731,44.221],[-102.3726,44.2094],[-102.3926,44.2042],[-102.4016,44.1756],[-102.3999,44.1719],[-102.394,44.178],[-102.3872,44.1748],[-102.3877,44.1605],[-102.4017,44.1615],[-102.404,44.1569],[-102.3977,44.1562],[-102.399,44.1508],[-102.388,44.1402],[-103.0506,44.1407],[-103.048,44.0971],[-103.0906,44.0965],[-103.0868,44.0892],[-103.0914,44.0842]]]},"properties":{"geoid":"46027","state":"46","district":"27","name":"State House District 27","chamber":"House"}},{"type":"Feature","geometry":{"type":"Polygon","coordinates":[[[-103.5744,44.2606],[-103.5744,44.2561],[-103.453,44.2566],[-103.4525,44.1834],[-103.3291,44.1839],[-103.3205,44.173],[-103.3303,44.1693],[-103.3202,44.1695],[-103.3153,44.1644],[-103.3037,44.1408],[-102.388,44.1402],[-102.399,44.1508],[-102.3977,44.1562],[-102.404,44.1569],[-102.4017,44.1615],[-102.3877,44.1605],[-102.3872,44.1748],[-102.394,44.178],[-102.3999,44.1719],[-102.4016,44.1756],[-102.3926,44.2042],[-102.3726,44.2094],[-102.3731,44.221],[-102.357,44.2306],[-102.3659,44.2424],[-102.3587,44.2489],[-102.368,44.262],[-102.3588,44.2657],[-102.3676,44.2767],[-102.367,44.2856],[-102.3591,44.3007],[-102.348,44.3046],[-102.3509,44.3097],[-102.344,44.3222],[-102.3478,44.3263],[-102.3417,44.3296],[-102.3429,44.3402],[-102.3366,44.3433],[-102.3416,44.3488],[-102.324,44.3589],[-102.3264,44.3669],[-102.3117,44.3638],[-102.2983,44.3769],[-102.3025,44.3834],[-102.2982,44.3889],[-102.3055,44.3928],[-102.3031,44.4206],[-102.311,44.4248],[-102.3062,44.4341],[-102.2934,44.432],[-102.28,44.4503],[-102.2546,44.4468],[-102.2261,44.4525],[-102.2203,44.4514],[-102.2208,44.4425],[-102.1894,44.4272],[-102.1602,44.4288],[-102.1538,44.4369],[-102.1593,44.4437],[-102.1538,44.4452],[-102.108,44.4366],[-102.099,44.4517],[-102.0839,44.4543],[-102.0839,44.4607],[-102.0732,44.4656],[-102.0759,44.4751],[-102.055,44.4817],[-102.0544,44.4903],[-102.0459,44.5],[-102.0118,44.5053],[-102.0004,44.5117],[-102,45.0383],[-102.9588,45.0396],[-102.9587,44.6906],[-102.9636,44.6906],[-102.9641,44.6043],[-103.5677,44.6041],[-103.5694,44.3442],[-103.5743,44.3442],[-103.5744,44.2606]]]},"properties":{"geoid":"46029","state":"46","district":"29","name":"State House District 29","chamber":"House"}},{"type":"Feature","geometry":{"type":"Polygon","coordinates":[[[-104.0555,43.8537],[-104.053,43.0006],[-103.5766,43.0002],[-103.0006,43.0008],[-103.001,43.6058],[-102.9815,43.6113],[-102.9761,43.6187],[-102.9583,43.6135],[-102.9326,43.6187],[-102.9269,43.6261],[-102.9327,43.6309],[-102.9217,43.6407],[-102.9242,43.6507],[-102.9183,43.656],[-102.9195,43.6612],[-102.9086,43.6662],[-102.9101,43.6742],[-102.8634,43.6689],[-102.8621,43.6597],[-102.8562,43.6583],[-102.8489,43.66],[-102.8473,43.6654],[-102.8288,43.6571],[-102.8237,43.6644],[-102.8138,43.6676],[-102.8161,43.6735],[-102.8081,43.6861],[-102.8173,43.6903],[-102.8113,43.6971],[-102.801,43.6988],[-102.8033,43.7102],[-102.7952,43.7133],[-102.7914,43.7218],[-102.7785,43.7205],[-102.7772,43.7268],[-102.7707,43.7292],[-102.7699,43.7389],[-102.7586,43.7411],[-102.7475,43.7564],[-102.7336,43.7642],[-102.7378,43.7717],[-102.7077,43.7895],[-102.706,43.7971],[-102.6959,43.7976],[-102.7009,43.812],[-102.6882,43.8408],[-102.6937,43.8479],[-102.6867,43.8535],[-102.9391,43.8565],[-102.9392,43.9404],[-103.0506,43.9404],[-103.0507,43.9947],[-103.0906,43.9945],[-103.091,44.0314],[-103.1313,44.0476],[-103.1312,44.0612],[-103.1395,44.0612],[-103.1394,44.0674],[-103.1514,44.0675],[-103.1513,44.0385],[-103.1463,44.0384],[-103.1464,44.0312],[-103.1565,44.0312],[-103.1565,44.0375],[-103.1817,44.0324],[-103.1926,44.0348],[-103.1916,44.0203],[-103.2068,44.0204],[-103.2068,44.0276],[-103.212,44.031],[-103.226,44.03],[-103.2269,44.024],[-103.2319,44.024],[-103.2319,44.0095],[-103.2419,44.0168],[-103.2421,44.0021],[-103.2318,43.995],[-103.2419,43.9949],[-103.2471,44.0018],[-103.2533,44.0021],[-103.2726,43.9879],[-103.2963,43.9902],[-103.2963,43.9965],[-103.3053,43.9938],[-103.3028,43.9893],[-103.3384,43.9871],[-103.3489,43.9812],[-103.3468,43.9782],[-103.363,43.98],[-103.3636,43.9725],[-103.3755,43.9673],[-103.3898,43.9747],[-103.3863,43.9814],[-103.3959,43.9834],[-103.4001,43.9894],[-103.4013,43.9822],[-103.4053,43.9885],[-103.417,43.9889],[-103.4338,43.9797],[-103.4478,43.9794],[-103.4468,43.9743],[-103.4636,43.9735],[-103.4713,43.982],[-103.4835,43.9854],[-103.4468,43.9896],[-103.4507,43.9995],[-103.4674,44.0219],[-103.4856,44.0258],[-103.4925,44.0213],[-103.5013,44.0226],[-103.5041,44.0288],[-103.5158,44.0321],[-103.5049,44.0379],[-103.512,44.0422],[-103.5724,44.0185],[-103.5717,44.0292],[-103.5856,44.038],[-103.5968,44.0574],[-103.5902,44.0593],[-103.5958,44.0608],[-103.599,44.0723],[-103.5998,44.0772],[-103.5943,44.0808],[-103.6014,44.0807],[-103.5969,44.0846],[-103.6014,44.0887],[-103.5895,44.1217],[-103.5948,44.1342],[-103.5895,44.1407],[-103.9802,44.1411],[-104.0546,44.1411],[-104.0555,43.8537]]]},"properties":{"geoid":"46030","state":"46","district":"30","name":"State House District 30","chamber":"House"}},{"type":"Feature","geometry":{"type":"Polygon","coordinates":[[[-104.056,44.5631],[-104.0546,44.1411],[-103.4525,44.1408],[-103.453,44.2566],[-103.5744,44.2561],[-103.5743,44.3442],[-103.5694,44.3442],[-103.5677,44.6041],[-103.8206,44.6048],[-103.8284,44.6011],[-103.8264,44.5932],[-103.8379,44.5938],[-103.8339,44.59],[-103.8424,44.5874],[-103.8522,44.5923],[-103.855,44.5875],[-103.8631,44.5898],[-103.8642,44.5865],[-103.8741,44.5964],[-103.8884,44.599],[-103.8937,44.5941],[-103.8968,44.5974],[-103.9072,44.5935],[-103.9043,44.5904],[-103.9075,44.5871],[-103.9193,44.5894],[-103.9199,44.5842],[-103.9312,44.5853],[-103.933,44.5797],[-103.9405,44.5827],[-103.9478,44.5775],[-103.9633,44.5776],[-103.9675,44.5819],[-103.9701,44.5771],[-103.9799,44.5817],[-103.9866,44.576],[-103.999,44.5781],[-104.0027,44.5734],[-104.0159,44.5802],[-104.0224,44.5781],[-104.0259,44.5828],[-104.03,44.577],[-104.034,44.5812],[-104.0413,44.5754],[-104.0498,44.5768],[-104.0559,44.571],[-104.056,44.5631]]]},"properties":{"geoid":"46031","state":"46","district":"31","name":"State House District 31","chamber":"House"}},{"type":"Feature","geometry":{"type":"Polygon","coordinates":[[[-103.2516,44.1071],[-103.2323,44.1053],[-103.2347,44.0822],[-103.2458,44.0819],[-103.251,44.0713],[-103.2511,44.0559],[-103.2443,44.0494],[-103.2476,44.0351],[-103.2401,44.0499],[-103.2309,44.0517],[-103.2211,44.0462],[-103.2152,44.0469],[-103.218,44.05],[-103.2141,44.05],[-103.2136,44.0556],[-103.1917,44.053],[-103.1917,44.0675],[-103.1995,44.0721],[-103.2091,44.0692],[-103.2104,44.0745],[-103.2167,44.0757],[-103.2117,44.0873],[-103.1911,44.0877],[-103.1795,44.0997],[-103.2217,44.1045],[-103.2217,44.1126],[-103.2516,44.1071]]]},"properties":{"geoid":"46032","state":"46","district":"32","name":"State House District 32","chamber":"House"}},{"type":"Feature","geometry":{"type":"Polygon","coordinates":[[[-103.6014,44.0808],[-103.5943,44.0808],[-103.5998,44.0772],[-103.599,44.0723],[-103.5958,44.0608],[-103.5902,44.0593],[-103.5968,44.0574],[-103.5856,44.038],[-103.5717,44.0292],[-103.5724,44.0185],[-103.512,44.0422],[-103.5049,44.0379],[-103.5162,44.0325],[-103.5041,44.0288],[-103.5028,44.0232],[-103.4925,44.0213],[-103.4856,44.0258],[-103.4673,44.0219],[-103.4468,43.9896],[-103.4705,43.9896],[-103.4838,43.984],[-103.4713,43.982],[-103.4636,43.9735],[-103.4468,43.9743],[-103.4478,43.9794],[-103.4338,43.9797],[-103.417,43.9889],[-103.4053,43.9885],[-103.4013,43.9822],[-103.4001,43.9894],[-103.3959,43.9834],[-103.3863,43.9814],[-103.3898,43.9747],[-103.3755,43.9673],[-103.3636,43.9725],[-103.363,43.98],[-103.3468,43.9782],[-103.3489,43.9812],[-103.3384,43.9871],[-103.3028,43.9893],[-103.3053,43.9938],[-103.2963,43.9965],[-103.2963,43.9902],[-103.2726,43.9879],[-103.2533,44.0021],[-103.2471,44.0018],[-103.2419,43.9949],[-103.2318,43.995],[-103.2421,44.0021],[-103.2419,44.0168],[-103.2319,44.0095],[-103.2319,44.024],[-103.2269,44.024],[-103.2251,44.0304],[-103.212,44.031],[-103.2068,44.0276],[-103.2068,44.0204],[-103.1916,44.0203],[-103.1917,44.053],[-103.2136,44.0556],[-103.2141,44.05],[-103.218,44.05],[-103.2152,44.0469],[-103.2319,44.0519],[-103.2421,44.0487],[-103.2514,44.0146],[-103.2571,44.0204],[-103.272,44.0204],[-103.2721,44.025],[-103.2836,44.0241],[-103.2825,44.0288],[-103.2922,44.0312],[-103.2922,44.0386],[-103.377,44.0384],[-103.3811,44.0639],[-103.3749,44.0612],[-103.3828,44.0677],[-103.3239,44.0709],[-103.3384,44.0745],[-103.3399,44.0786],[-103.3667,44.0814],[-103.3477,44.0904],[-103.3543,44.1041],[-103.3622,44.1088],[-103.3617,44.1216],[-103.3505,44.1185],[-103.3419,44.1229],[-103.3394,44.1156],[-103.3256,44.1161],[-103.3216,44.1195],[-103.3339,44.1214],[-103.3238,44.1281],[-103.328,44.1322],[-103.3093,44.1272],[-103.2989,44.1316],[-103.2931,44.1112],[-103.2772,44.1112],[-103.2735,44.115],[-103.2831,44.133],[-103.2715,44.133],[-103.2718,44.1258],[-103.2472,44.1222],[-103.247,44.1067],[-103.2217,44.1126],[-103.2218,44.1268],[-103.2298,44.1409],[-103.3037,44.1408],[-103.3153,44.1644],[-103.3202,44.1695],[-103.3303,44.1693],[-103.3205,44.173],[-103.3291,44.1839],[-103.4525,44.1834],[-103.4525,44.1408],[-103.5895,44.1407],[-103.5948,44.1342],[-103.5895,44.1217],[-103.6014,44.0887],[-103.5969,44.0846],[-103.6014,44.0808]]]},"properties":{"geoid":"46033","state":"46","district":"33","name":"State House District 33","chamber":"House"}},{"type":"Feature","geometry":{"type":"Polygon","coordinates":[[[-103.3828,44.0677],[-103.3749,44.0612],[-103.3811,44.0639],[-103.377,44.0384],[-103.2922,44.0386],[-103.2922,44.0312],[-103.2825,44.0288],[-103.2836,44.0241],[-103.2721,44.025],[-103.272,44.0204],[-103.2571,44.0204],[-103.2514,44.0146],[-103.2443,44.0494],[-103.2511,44.0559],[-103.251,44.0713],[-103.2458,44.0819],[-103.2347,44.0822],[-103.2323,44.1053],[-103.2516,44.1066],[-103.247,44.1067],[-103.2472,44.1222],[-103.2718,44.1258],[-103.2715,44.133],[-103.2831,44.133],[-103.2735,44.1148],[-103.2931,44.1112],[-103.2989,44.1316],[-103.3093,44.1272],[-103.3257,44.1333],[-103.3296,44.1308],[-103.3238,44.1281],[-103.3339,44.1214],[-103.3224,44.1201],[-103.3234,44.1167],[-103.3394,44.1156],[-103.3419,44.1229],[-103.3505,44.1185],[-103.3622,44.1212],[-103.3622,44.1088],[-103.3543,44.1041],[-103.3477,44.0904],[-103.3667,44.0815],[-103.3399,44.0786],[-103.3384,44.0745],[-103.324,44.0707],[-103.3828,44.0677]]]},"properties":{"geoid":"46034","state":"46","district":"34","name":"State House District 34","chamber":"House"}},{"type":"Feature","geometry":{"type":"Polygon","coordinates":[[[-103.2298,44.1409],[-103.2218,44.1268],[-103.2217,44.1045],[-103.1795,44.0997],[-103.1911,44.0877],[-103.2117,44.0873],[-103.2167,44.0757],[-103.2104,44.0745],[-103.2091,44.0692],[-103.1995,44.0721],[-103.1917,44.0675],[-103.1917,44.0348],[-103.1817,44.0324],[-103.1565,44.0375],[-103.1565,44.0312],[-103.1464,44.0312],[-103.1463,44.0384],[-103.1513,44.0385],[-103.1514,44.0675],[-103.1394,44.0674],[-103.1395,44.0612],[-103.1312,44.0612],[-103.1313,44.0476],[-103.091,44.0314],[-103.0914,44.0842],[-103.0868,44.0892],[-103.0908,44.0963],[-103.048,44.0971],[-103.0506,44.1407],[-103.2298,44.1409]]]},"properties":{"geoid":"46035","state":"46","district":"35","name":"State House District 35","chamber":"House"}},{"type":"Feature","geometry":{"type":"Polygon","coordinates":[[[-101.2284,43.42],[-101.228,42.9976],[-100.1984,42.9987],[-100.1985,43.1286],[-100.2138,43.1287],[-100.2144,43.4778],[-100.231,43.478],[-100.2308,43.7139],[-100.2531,43.703],[-100.2668,43.7088],[-100.2841,43.6968],[-100.2967,43.706],[-100.3052,43.7233],[-100.3273,43.7159],[-100.339,43.7169],[-100.3394,43.8471],[-100.3662,43.847],[-100.3667,43.9109],[-100.5865,43.9085],[-100.5864,43.8208],[-100.7059,43.8217],[-100.7058,43.8841],[-100.7258,43.887],[-100.7258,43.8939],[-100.7058,43.8937],[-100.7058,43.9083],[-100.7658,43.9083],[-100.7664,44.0095],[-100.8059,44.0094],[-100.8062,44.1684],[-101.0469,44.1685],[-101.0468,43.995],[-101.0641,43.9949],[-101.0643,43.8411],[-101.0705,43.8405],[-101.0702,43.8457],[-101.0867,43.8418],[-101.083,43.8472],[-101.0867,43.8496],[-101.0972,43.8438],[-101.1077,43.8466],[-101.1031,43.8403],[-101.1069,43.8368],[-101.1248,43.8443],[-101.1281,43.8404],[-101.1379,43.8413],[-101.1425,43.8335],[-101.1343,43.8285],[-101.1424,43.82],[-101.1607,43.8176],[-101.1533,43.8239],[-101.1658,43.8302],[-101.1632,43.8255],[-101.1698,43.8224],[-101.1723,43.8069],[-101.1755,43.8075],[-101.1717,43.8162],[-101.1798,43.8186],[-101.1812,43.8137],[-101.1747,43.8124],[-101.18,43.8129],[-101.1835,43.805],[-101.1937,43.8036],[-101.2036,43.8128],[-101.2178,43.8038],[-101.216,43.7992],[-101.2282,43.7956],[-101.2284,43.42]]]},"properties":{"geoid":"4626A","state":"46","district":"26A","name":"State House District 26A","chamber":"House"}},{"type":"Feature","geometry":{"type":"Polygon","coordinates":[[[-100.8062,44.141],[-100.8059,44.0094],[-100.7664,44.0095],[-100.7658,43.9083],[-100.7058,43.9083],[-100.7058,43.8937],[-100.7258,43.8939],[-100.7258,43.887],[-100.7058,43.8841],[-100.7059,43.8217],[-100.5864,43.8208],[-100.5865,43.9085],[-100.3667,43.9109],[-100.3662,43.847],[-100.3394,43.8471],[-100.339,43.7169],[-100.3273,43.7159],[-100.3052,43.7233],[-100.287,43.6971],[-100.2762,43.6988],[-100.2656,43.7092],[-100.2531,43.703],[-100.2267,43.7148],[-100.2244,43.6974],[-100.2099,43.6833],[-100.1971,43.7042],[-100.1899,43.7062],[-100.1619,43.7044],[-100.1404,43.6945],[-100.1448,43.7033],[-100.1326,43.7032],[-100.1139,43.6853],[-100.1058,43.6944],[-100.0872,43.6852],[-100.0775,43.692],[-100.0502,43.6922],[-100.0455,43.6961],[-100.0462,43.7036],[-100.0362,43.7033],[-100.0311,43.6975],[-100.0133,43.7078],[-100.0069,43.7047],[-100.0099,43.6937],[-100.0004,43.6938],[-99.998,43.702],[-99.9815,43.6871],[-99.9738,43.6932],[-99.962,43.6886],[-99.955,43.6982],[-99.9343,43.6955],[-99.9318,43.6874],[-99.9254,43.6868],[-99.8982,43.7008],[-99.8851,43.6859],[-99.8885,43.6773],[-99.8706,43.6707],[-99.8621,43.6829],[-99.8731,43.6891],[-99.8629,43.692],[-99.8512,43.6884],[-99.8597,43.7012],[-99.853,43.7006],[-99.8399,43.6887],[-99.8021,43.7006],[-99.7986,43.7116],[-99.7458,43.7103],[-99.7635,43.731],[-99.7621,43.7396],[-99.7506,43.7477],[-99.7404,43.7472],[-99.7361,43.7328],[-99.7402,43.7237],[-99.73,43.7188],[-99.7109,43.7331],[-99.7069,43.7496],[-99.6944,43.7601],[-99.682,43.7531],[-99.6908,43.7342],[-99.6843,43.7278],[-99.6717,43.7286],[-99.6623,43.7355],[-99.6669,43.7642],[-99.6582,43.7665],[-99.6452,43.7601],[-99.6416,43.7357],[-99.6236,43.7424],[-99.6236,43.4999],[-98.7946,43.4992],[-98.7969,43.8474],[-98.8068,43.8485],[-98.8078,43.9352],[-98.927,43.9351],[-98.926,44.1966],[-99.3002,44.1948],[-99.3005,44.2379],[-99.4217,44.2375],[-99.4214,44.2802],[-99.7854,44.2799],[-99.7857,44.2368],[-99.8942,44.2371],[-99.936,44.2049],[-99.9382,44.1952],[-100.3672,44.1946],[-100.3672,44.1687],[-100.3707,44.1685],[-100.8062,44.1684],[-100.8062,44.141]]]},"properties":{"geoid":"4626B","state":"46","district":"26B","name":"State House District 26B","chamber":"House"}},{"type":"Feature","geometry":{"type":"Polygon","coordinates":[[[-102.9575,45.1796],[-102.9574,45.0396],[-102,45.0383],[-102.0004,44.5111],[-101.9858,44.5252],[-101.9786,44.5228],[-101.9739,44.5268],[-101.9464,44.5287],[-101.9396,44.5351],[-101.9243,44.53],[-101.8885,44.5386],[-101.8569,44.5267],[-101.8475,44.5294],[-101.8364,44.5217],[-101.8277,44.5317],[-101.8173,44.5315],[-101.8112,44.5224],[-101.8052,44.5255],[-101.8061,44.5329],[-101.7989,44.5423],[-101.7847,44.5408],[-101.782,44.5361],[-101.7649,44.5486],[-101.7443,44.5552],[-101.7493,44.5639],[-101.747,44.5678],[-101.7289,44.5661],[-101.716,44.5727],[-101.7124,44.5802],[-101.683,44.5707],[-101.676,44.5804],[-101.6608,44.5881],[-101.6565,44.5825],[-101.6453,44.5851],[-101.6404,44.5794],[-101.6305,44.5865],[-101.6266,44.5799],[-101.6292,44.5758],[-101.623,44.5729],[-101.5754,44.5782],[-101.5593,44.5694],[-101.5508,44.5757],[-101.5367,44.574],[-101.531,44.5679],[-101.5146,44.5755],[-101.512,44.5854],[-101.5012,44.5812],[-101.494,44.584],[-101.4972,44.5998],[-101.4767,44.6018],[-101.4691,44.6118],[-101.4558,44.6102],[-101.4668,44.6193],[-101.4556,44.6287],[-101.4549,44.638],[-101.4458,44.6382],[-101.4402,44.6439],[-101.4157,44.6421],[-101.3972,44.6568],[-101.3832,44.6533],[-101.3771,44.6587],[-101.3648,44.6564],[-101.374,44.671],[-101.3582,44.6737],[-101.3625,44.685],[-101.3599,44.689],[-101.3393,44.6835],[-101.3282,44.691],[-101.3247,44.6815],[-101.3192,44.6805],[-101.2988,44.6895],[-101.2752,44.6852],[-101.2494,44.6989],[-101.2398,44.6985],[-101.2351,44.6906],[-101.1612,44.7221],[-101.1537,44.7288],[-101.1494,44.7429],[-101.1413,44.747],[-101.0832,44.7384],[-101.0629,44.7425],[-101.0226,44.7242],[-101.0064,44.7288],[-100.9983,44.7394],[-100.9877,44.732],[-100.976,44.751],[-100.9551,44.7544],[-100.9583,44.7619],[-100.9552,44.7655],[-100.9398,44.7625],[-100.9172,44.7696],[-100.9107,44.7837],[-100.8956,44.7779],[-100.889,44.7698],[-100.8537,44.7807],[-100.8434,44.777],[-100.8312,44.7833],[-100.8176,44.78],[-100.812,44.768],[-100.7982,44.7702],[-100.798,44.7635],[-100.7745,44.7722],[-100.7711,44.7678],[-100.7761,44.7612],[-100.7734,44.7585],[-100.7515,44.7619],[-100.753,44.7733],[-100.7453,44.7759],[-100.7363,44.7744],[-100.7376,44.7642],[-100.7285,44.7647],[-100.7176,44.7709],[-100.7288,44.7837],[-100.7242,44.8076],[-100.7141,44.8223],[-100.7009,44.8288],[-100.6733,44.8212],[-100.611,44.7701],[-100.5484,44.7601],[-100.5303,44.766],[-100.4875,44.8077],[-100.4187,44.8434],[-100.3941,44.8673],[-100.3933,44.8762],[-100.4136,44.9153],[-100.4238,44.9731],[-100.4234,44.9921],[-100.4084,45.0118],[-100.39,45.0272],[-100.3776,45.0301],[-100.3122,45.0152],[-100.2895,45.0145],[-100.2796,45.0196],[-100.2794,45.0311],[-100.3165,45.0593],[-100.3266,45.0909],[-100.3242,45.1016],[-100.2907,45.1384],[-100.279,45.1589],[-100.275,45.1983],[-100.2573,45.2385],[-100.2681,45.2611],[-100.3074,45.2919],[-100.3167,45.3179],[-100.3082,45.3321],[-100.2823,45.3553],[-100.2739,45.3812],[-100.2999,45.416],[-100.3303,45.4422],[-100.3476,45.4813],[-100.3821,45.5106],[-100.4539,45.512],[-100.4748,45.5215],[-100.4866,45.5365],[-100.4852,45.5472],[-100.4775,45.5575],[-100.4342,45.5857],[-100.4238,45.6248],[-100.4198,45.6248],[-100.4064,45.65],[-100.3874,45.6594],[-100.345,45.6615],[-100.323,45.6699],[-100.3088,45.6896],[-100.3082,45.7012],[-100.3184,45.7245],[-100.3755,45.816],[-100.3824,45.8386],[-100.3806,45.8582],[-100.387,45.8691],[-100.4175,45.884],[-100.4624,45.9196],[-100.4887,45.9303],[-100.4994,45.9437],[-102.0004,45.9447],[-102.0005,45.6471],[-102.9502,45.6472],[-102.9501,45.3863],[-102.9569,45.3863],[-102.9575,45.1796]]]},"properties":{"geoid":"4628A","state":"46","district":"28A","name":"State House District 28A","chamber":"House"}},{"type":"Feature","geometry":{"type":"Polygon","coordinates":[[[-104.0579,44.9976],[-104.0559,44.571],[-104.0344,44.5812],[-104.0292,44.5772],[-104.0253,44.5829],[-104.0224,44.5781],[-104.0159,44.5802],[-104.0027,44.5734],[-103.999,44.5781],[-103.9866,44.576],[-103.9799,44.5817],[-103.9701,44.5771],[-103.9675,44.5819],[-103.96,44.5772],[-103.9478,44.5775],[-103.9405,44.5827],[-103.9339,44.5794],[-103.9312,44.5853],[-103.9199,44.5842],[-103.916,44.59],[-103.9075,44.5871],[-103.9043,44.5904],[-103.9072,44.5935],[-103.8968,44.5974],[-103.8937,44.5941],[-103.8884,44.599],[-103.8741,44.5964],[-103.8642,44.5865],[-103.8631,44.5898],[-103.855,44.5875],[-103.8522,44.5923],[-103.8424,44.5874],[-103.8339,44.59],[-103.8379,44.5938],[-103.8264,44.5932],[-103.8284,44.6011],[-103.8206,44.6048],[-102.9641,44.6043],[-102.9636,44.6906],[-102.9587,44.6906],[-102.957,45.3727],[-102.9569,45.3864],[-102.9501,45.3863],[-102.9502,45.6472],[-102.0005,45.6471],[-102.0007,45.9446],[-104.0455,45.9453],[-104.0397,44.9981],[-104.0579,44.9976]]]},"properties":{"geoid":"4628B","state":"46","district":"28B","name":"State House District 28B","chamber":"House"}}]}