{"type":"FeatureCollection","features":[{"type":"Feature","geometry":{"type":"Polygon","coordinates":[[[-114.042,41.0016],[-112.7994,40.9999],[-112.4935,41.0769],[-112.2382,41.3366],[-112.1313,41.3369],[-112.1323,41.3788],[-112.0635,41.4205],[-112.0635,41.4393],[-112.057,41.4394],[-112.0579,41.4486],[-112.0782,41.451],[-112.0782,41.4594],[-112.0638,41.4593],[-112.0641,41.4842],[-112.0552,41.4911],[-112.0531,41.4857],[-112.0445,41.4862],[-112.0446,41.481],[-112.0171,41.4846],[-112.0155,41.5208],[-112.0017,41.5246],[-111.992,41.5102],[-111.969,41.5102],[-111.9689,41.431],[-111.9654,41.428],[-111.9574,41.4337],[-111.9383,41.4159],[-111.9183,41.4124],[-111.9035,41.419],[-111.893,41.4181],[-111.884,41.4272],[-111.8815,41.4412],[-111.8975,41.4454],[-111.9001,41.4537],[-111.917,41.4641],[-111.9064,41.4721],[-111.8959,41.4695],[-111.8785,41.4741],[-111.8732,41.4852],[-111.8756,41.4898],[-111.8844,41.4961],[-111.9052,41.4968],[-111.9093,41.5076],[-111.9056,41.5148],[-111.9119,41.5185],[-111.9164,41.5384],[-111.9274,41.5373],[-111.9373,41.5512],[-111.9526,41.551],[-111.962,41.5436],[-111.975,41.5422],[-111.9778,41.5352],[-111.9838,41.5358],[-111.9967,41.5577],[-111.9941,41.5661],[-112.0067,41.5917],[-112.0045,41.6294],[-112.0154,41.6412],[-112.0159,41.6584],[-112.0309,41.6818],[-112.0451,41.6868],[-112.0519,41.6999],[-112.0428,41.7104],[-112.044,41.7353],[-112.0335,41.7505],[-112.0332,41.7668],[-112.0264,41.7764],[-112.0141,41.7809],[-112.0086,41.7946],[-112.0182,41.8046],[-112.0297,41.8085],[-112.0285,41.8201],[-112.0433,41.8376],[-112.0328,41.8518],[-112.0264,41.8537],[-112.0064,41.8482],[-111.9922,41.833],[-111.9615,41.8419],[-111.9431,41.8733],[-111.9441,41.8884],[-111.9521,41.8884],[-111.9578,41.9247],[-111.9725,41.9246],[-111.9728,41.932],[-111.9585,41.932],[-111.9586,41.9409],[-111.9438,41.9408],[-111.9441,41.96],[-111.94,41.96],[-111.9405,41.9681],[-111.9345,41.9681],[-111.9347,41.9748],[-111.9393,41.9739],[-111.9439,41.98],[-111.9398,41.9844],[-111.945,41.9849],[-111.9451,41.9938],[-111.9499,41.9938],[-111.95,41.9983],[-112.1538,41.9972],[-112.1731,42.0015],[-112.9447,41.9987],[-113.8733,41.9882],[-114.0415,41.9939],[-114.042,41.0016]]]},"properties":{"geoid":"49001","state":"49","district":"1","name":"State House District 1","chamber":"House"}},{"type":"Feature","geometry":{"type":"Polygon","coordinates":[[[-112.0433,41.8376],[-112.0285,41.8201],[-112.0297,41.8085],[-112.0087,41.7949],[-112.0141,41.7809],[-112.0219,41.7788],[-112.0033,41.7568],[-111.9016,41.7392],[-111.9014,41.7494],[-111.8792,41.7494],[-111.8794,41.7441],[-111.8742,41.7433],[-111.8347,41.7426],[-111.8343,41.7595],[-111.7755,41.7622],[-111.7756,41.7804],[-111.7719,41.7804],[-111.7709,41.7949],[-111.7659,41.7949],[-111.7661,41.8186],[-111.7662,41.8242],[-111.7762,41.8242],[-111.7765,41.8603],[-111.7572,41.8602],[-111.7581,41.8825],[-111.8185,41.8847],[-111.8147,41.9038],[-111.8189,41.9038],[-111.8187,41.911],[-111.8266,41.9107],[-111.8257,41.9186],[-111.8292,41.9196],[-111.8261,41.9255],[-111.8148,41.9278],[-111.812,41.9762],[-111.8177,41.9833],[-111.8287,41.9797],[-111.838,41.986],[-111.8333,41.9923],[-111.8371,41.9988],[-111.95,41.9983],[-111.9499,41.9938],[-111.9451,41.9938],[-111.945,41.9849],[-111.9398,41.9844],[-111.9439,41.98],[-111.9393,41.9739],[-111.9347,41.9748],[-111.9345,41.9681],[-111.9405,41.9681],[-111.94,41.96],[-111.9441,41.96],[-111.9438,41.9408],[-111.9586,41.9409],[-111.9585,41.932],[-111.9728,41.932],[-111.9725,41.9246],[-111.9578,41.9247],[-111.9521,41.8884],[-111.9441,41.8884],[-111.9441,41.871],[-111.9637,41.8404],[-111.9922,41.833],[-112.0064,41.8482],[-112.0264,41.8537],[-112.0328,41.8518],[-112.0433,41.8376]]]},"properties":{"geoid":"49002","state":"49","district":"2","name":"State House District 2","chamber":"House"}},{"type":"Feature","geometry":{"type":"Polygon","coordinates":[[[-111.9017,41.7494],[-111.9016,41.7392],[-111.8796,41.7359],[-111.8798,41.7265],[-111.8626,41.7208],[-111.8602,41.7134],[-111.8353,41.7175],[-111.8326,41.7145],[-111.8278,41.7214],[-111.8003,41.7224],[-111.8032,41.7187],[-111.7944,41.7187],[-111.7941,41.6782],[-111.807,41.6721],[-111.8035,41.666],[-111.7595,41.6559],[-111.7304,41.6578],[-111.7219,41.6486],[-111.7065,41.6428],[-111.6835,41.6592],[-111.6614,41.6632],[-111.6333,41.6633],[-111.5767,41.6483],[-111.5667,41.6513],[-111.5692,41.6584],[-111.5585,41.6553],[-111.5497,41.6447],[-111.5317,41.6413],[-111.4536,41.6562],[-111.4375,41.6606],[-111.4346,41.6701],[-111.43,41.6729],[-111.4314,41.667],[-111.4254,41.6739],[-111.4269,41.6947],[-111.4198,41.6968],[-111.4212,41.7062],[-111.417,41.7121],[-111.4201,41.7246],[-111.442,41.7358],[-111.4433,41.7713],[-111.4495,41.7719],[-111.4547,41.7796],[-111.4508,41.7925],[-111.462,41.8126],[-111.4609,41.818],[-111.5078,41.8525],[-111.502,41.8609],[-111.5094,41.8687],[-111.4944,41.8737],[-111.4922,41.8839],[-111.5031,41.8878],[-111.5004,41.8983],[-111.5117,41.9084],[-111.5035,41.9138],[-111.4785,41.9127],[-111.4715,41.9282],[-111.4768,41.9359],[-111.4732,41.947],[-111.4761,41.9581],[-111.4834,41.9638],[-111.4845,41.9755],[-111.5078,41.9876],[-111.5078,41.9996],[-111.8371,41.9988],[-111.8333,41.9923],[-111.838,41.986],[-111.8287,41.9797],[-111.8177,41.9833],[-111.812,41.9762],[-111.8148,41.9278],[-111.8261,41.9255],[-111.8292,41.9196],[-111.8257,41.9186],[-111.8266,41.9107],[-111.8187,41.911],[-111.8189,41.9038],[-111.8147,41.9038],[-111.8185,41.8847],[-111.7581,41.8825],[-111.7572,41.8602],[-111.7765,41.8603],[-111.7762,41.8242],[-111.7662,41.8242],[-111.7659,41.7949],[-111.7709,41.7949],[-111.7719,41.7804],[-111.7756,41.7804],[-111.7755,41.7622],[-111.8343,41.7595],[-111.8347,41.7426],[-111.8742,41.7433],[-111.8794,41.7441],[-111.8792,41.7494],[-111.9017,41.7494]]]},"properties":{"geoid":"49003","state":"49","district":"3","name":"State House District 3","chamber":"House"}},{"type":"Feature","geometry":{"type":"Polygon","coordinates":[[[-111.8572,41.1373],[-111.8489,41.1337],[-111.8445,41.1216],[-111.856,41.1123],[-111.8565,41.1029],[-111.8515,41.0975],[-111.8551,41.0924],[-111.8483,41.0756],[-111.8518,41.0667],[-111.8444,41.0594],[-111.8395,41.0406],[-111.8335,41.0371],[-111.8395,41.0312],[-111.8382,41.023],[-111.8255,41.0184],[-111.8208,41.0069],[-111.8062,41.0018],[-111.7751,40.9605],[-111.7825,40.9568],[-111.7941,40.961],[-111.8154,40.9574],[-111.7911,40.928],[-111.7936,40.9157],[-111.7821,40.912],[-111.7761,40.9005],[-111.7815,40.8956],[-111.7622,40.8877],[-111.7687,40.8722],[-111.7467,40.871],[-111.7384,40.8608],[-111.7124,40.8517],[-111.6956,40.8618],[-111.6635,40.8499],[-111.6605,40.8453],[-111.6657,40.8307],[-111.6455,40.824],[-111.639,40.8097],[-111.6411,40.7989],[-111.6487,40.7922],[-111.643,40.7859],[-111.6491,40.7733],[-111.6399,40.7705],[-111.636,40.7627],[-111.624,40.7604],[-111.6235,40.7535],[-111.6045,40.7497],[-111.5927,40.7531],[-111.6005,40.7456],[-111.5936,40.7113],[-111.6004,40.7085],[-111.5927,40.6991],[-111.5866,40.6994],[-111.5873,40.6898],[-111.5538,40.6872],[-111.5373,40.7044],[-111.5254,40.7064],[-111.511,40.7063],[-111.5075,40.7011],[-111.4918,40.7034],[-111.4916,40.6975],[-111.4723,40.6976],[-111.4624,40.6831],[-111.4502,40.6817],[-111.4369,40.6806],[-111.4366,40.686],[-111.4124,40.6811],[-111.3939,40.6906],[-111.39,40.6601],[-111.3698,40.6296],[-111.3264,40.6231],[-111.3032,40.6058],[-111.2936,40.6079],[-111.2874,40.5983],[-111.2524,40.5816],[-111.2123,40.5739],[-111.1515,40.5483],[-111.1371,40.5584],[-111.1332,40.5752],[-111.1204,40.5906],[-111.0791,40.5946],[-111.0536,40.5811],[-111.0318,40.5759],[-111.0224,40.5792],[-111.011,40.592],[-110.9804,40.5915],[-110.9643,40.6028],[-110.9607,40.6242],[-110.945,40.6463],[-110.9488,40.6613],[-110.9462,40.6705],[-110.934,40.6804],[-110.9012,40.6828],[-110.903,40.7064],[-110.8852,40.7163],[-110.8943,40.7231],[-110.8924,40.727],[-110.8755,40.7284],[-110.8652,40.7231],[-110.8642,40.7289],[-110.8828,40.7624],[-110.8863,40.7863],[-110.8707,40.8176],[-110.8487,40.8376],[-110.8465,40.8521],[-110.8317,40.8752],[-110.8267,40.9191],[-110.8648,40.9972],[-111.0468,40.9979],[-111.0467,42.0017],[-111.5078,41.9996],[-111.5078,41.9876],[-111.4845,41.9755],[-111.4834,41.9638],[-111.4761,41.9581],[-111.4732,41.947],[-111.4768,41.9359],[-111.4715,41.9282],[-111.4785,41.9127],[-111.5035,41.9138],[-111.5117,41.9084],[-111.5004,41.8983],[-111.5031,41.8878],[-111.4922,41.8839],[-111.4944,41.8737],[-111.5094,41.8687],[-111.502,41.8609],[-111.5078,41.8525],[-111.4608,41.8178],[-111.462,41.8126],[-111.4508,41.7925],[-111.4547,41.7796],[-111.4495,41.7719],[-111.4433,41.7713],[-111.442,41.7357],[-111.4175,41.7204],[-111.4198,41.6968],[-111.4269,41.6947],[-111.4268,41.6778],[-111.4147,41.6756],[-111.4144,41.6672],[-111.4061,41.6659],[-111.4015,41.6546],[-111.4165,41.6391],[-111.4107,41.6272],[-111.4299,41.6184],[-111.4272,41.5811],[-111.4335,41.553],[-111.4451,41.5444],[-111.4425,41.5323],[-111.4589,41.5318],[-111.4568,41.5206],[-111.4782,41.5038],[-111.4756,41.4886],[-111.4815,41.4768],[-111.4905,41.4726],[-111.4899,41.4663],[-111.5009,41.4643],[-111.506,41.4438],[-111.5008,41.4376],[-111.5108,41.4274],[-111.5079,41.414],[-111.4754,41.3998],[-111.4776,41.3843],[-111.4629,41.3797],[-111.4596,41.3736],[-111.4478,41.3729],[-111.4459,41.3669],[-111.4326,41.362],[-111.4238,41.3651],[-111.4205,41.3609],[-111.4263,41.3432],[-111.4381,41.3383],[-111.4375,41.3234],[-111.4494,41.3159],[-111.4399,41.2898],[-111.4461,41.285],[-111.4454,41.2777],[-111.4579,41.2736],[-111.4581,41.2679],[-111.4667,41.262],[-111.4643,41.2582],[-111.4781,41.2507],[-111.4773,41.2453],[-111.4945,41.2413],[-111.4912,41.2376],[-111.4968,41.2269],[-111.5067,41.2311],[-111.5261,41.2288],[-111.5356,41.2362],[-111.5601,41.2402],[-111.5913,41.2408],[-111.6091,41.2293],[-111.6066,41.2241],[-111.6113,41.2106],[-111.6228,41.2058],[-111.6246,41.2002],[-111.6416,41.1986],[-111.6569,41.1861],[-111.6674,41.1874],[-111.6781,41.1812],[-111.7171,41.1864],[-111.7277,41.1971],[-111.7452,41.2035],[-111.7486,41.2145],[-111.7646,41.2078],[-111.774,41.2182],[-111.8061,41.2159],[-111.8196,41.197],[-111.8076,41.1834],[-111.8121,41.1701],[-111.8007,41.1666],[-111.7956,41.1479],[-111.8001,41.1428],[-111.8572,41.1373]]]},"properties":{"geoid":"49004","state":"49","district":"4","name":"State House District 4","chamber":"House"}},{"type":"Feature","geometry":{"type":"Polygon","coordinates":[[[-112.0519,41.7002],[-112.0451,41.6868],[-112.0309,41.6818],[-112.0159,41.6584],[-112.0154,41.6412],[-112.0045,41.6294],[-112.0067,41.5917],[-111.9941,41.5661],[-111.9967,41.5577],[-111.9838,41.5358],[-111.9778,41.5352],[-111.975,41.5422],[-111.962,41.5436],[-111.9526,41.551],[-111.9373,41.5512],[-111.9274,41.5373],[-111.9164,41.5384],[-111.9119,41.5185],[-111.9056,41.5148],[-111.9093,41.5076],[-111.9052,41.4968],[-111.8844,41.4961],[-111.8756,41.4898],[-111.8732,41.4852],[-111.8785,41.4741],[-111.8959,41.4695],[-111.9064,41.4721],[-111.917,41.4641],[-111.9001,41.4537],[-111.8975,41.4454],[-111.8815,41.4412],[-111.8855,41.4263],[-111.8724,41.4218],[-111.88,41.4144],[-111.8752,41.4049],[-111.8684,41.3986],[-111.837,41.388],[-111.8279,41.3927],[-111.8136,41.388],[-111.7929,41.3914],[-111.7807,41.3786],[-111.7606,41.3688],[-111.7261,41.3761],[-111.7263,41.3856],[-111.7107,41.3965],[-111.7067,41.413],[-111.7178,41.4161],[-111.7215,41.4274],[-111.7074,41.4253],[-111.696,41.4171],[-111.6792,41.4272],[-111.6667,41.4288],[-111.6477,41.4054],[-111.6401,41.4145],[-111.6186,41.4224],[-111.5841,41.4183],[-111.575,41.4289],[-111.5644,41.4232],[-111.5542,41.4238],[-111.5514,41.4137],[-111.5415,41.4051],[-111.5318,41.4146],[-111.5108,41.4231],[-111.5008,41.4376],[-111.506,41.4438],[-111.5035,41.4594],[-111.5008,41.4644],[-111.4899,41.4663],[-111.4905,41.4726],[-111.4815,41.4768],[-111.4756,41.4886],[-111.4782,41.5038],[-111.4568,41.5206],[-111.4589,41.5318],[-111.4423,41.5327],[-111.4451,41.5444],[-111.4335,41.553],[-111.4272,41.5811],[-111.4299,41.6184],[-111.4107,41.6272],[-111.4165,41.6391],[-111.4015,41.6546],[-111.4061,41.6659],[-111.4144,41.6672],[-111.4147,41.6756],[-111.4259,41.6767],[-111.4312,41.6671],[-111.4302,41.6729],[-111.4372,41.6668],[-111.4376,41.6606],[-111.5253,41.6417],[-111.5497,41.6447],[-111.5585,41.6553],[-111.5692,41.6584],[-111.5667,41.6513],[-111.5767,41.6483],[-111.6333,41.6633],[-111.6835,41.6592],[-111.7065,41.6428],[-111.7219,41.6486],[-111.7304,41.6578],[-111.7595,41.6559],[-111.8049,41.6667],[-111.807,41.6721],[-111.7941,41.6782],[-111.7944,41.7187],[-111.8032,41.7187],[-111.8003,41.7224],[-111.8278,41.7214],[-111.8326,41.7145],[-111.8353,41.7175],[-111.8602,41.7134],[-111.8626,41.7208],[-111.8798,41.7265],[-111.8796,41.7359],[-111.999,41.7554],[-112.0219,41.7788],[-112.0332,41.7668],[-112.0335,41.7505],[-112.044,41.7353],[-112.0428,41.7104],[-112.0519,41.7002]]]},"properties":{"geoid":"49005","state":"49","district":"5","name":"State House District 5","chamber":"House"}},{"type":"Feature","geometry":{"type":"Polygon","coordinates":[[[-112.3396,41.2338],[-112.268,41.2447],[-112.2382,41.2432],[-112.2382,41.2489],[-112.2261,41.2502],[-112.1805,41.2501],[-112.1804,41.272],[-112.1226,41.2717],[-112.1229,41.2443],[-112.0045,41.2445],[-112.0036,41.2409],[-112.0036,41.2445],[-111.9897,41.2444],[-111.9919,41.2782],[-112.003,41.2956],[-111.9963,41.2967],[-112.0032,41.3043],[-111.9922,41.3042],[-111.9917,41.3197],[-112.0283,41.3366],[-112.0223,41.3438],[-112.0084,41.3438],[-111.9632,41.3653],[-111.975,41.3772],[-111.9758,41.3845],[-111.9675,41.3955],[-111.9725,41.4201],[-111.9622,41.4276],[-111.9689,41.431],[-111.969,41.5102],[-111.992,41.5102],[-112.0017,41.5246],[-112.0061,41.5244],[-112.0062,41.5208],[-112.0155,41.5208],[-112.0171,41.4846],[-112.0446,41.481],[-112.0445,41.4862],[-112.0531,41.4857],[-112.0534,41.4916],[-112.0641,41.4842],[-112.0638,41.4593],[-112.0782,41.4594],[-112.0783,41.4519],[-112.0579,41.4486],[-112.057,41.4394],[-112.0635,41.4393],[-112.0635,41.4205],[-112.1323,41.3788],[-112.1313,41.3369],[-112.2382,41.3366],[-112.3396,41.2338]]]},"properties":{"geoid":"49006","state":"49","district":"6","name":"State House District 6","chamber":"House"}},{"type":"Feature","geometry":{"type":"Polygon","coordinates":[[[-112.0032,41.3043],[-111.9963,41.2967],[-112.003,41.2956],[-111.9919,41.2782],[-111.9894,41.2594],[-111.9288,41.2567],[-111.9287,41.2665],[-111.9429,41.2665],[-111.943,41.2738],[-111.9503,41.2775],[-111.9426,41.278],[-111.9427,41.2919],[-111.9318,41.3051],[-111.934,41.3173],[-111.9505,41.3173],[-111.9594,41.3251],[-111.9733,41.3215],[-111.9764,41.3305],[-111.9909,41.3317],[-112.0003,41.3214],[-111.9917,41.3197],[-111.9922,41.3042],[-112.0032,41.3043]]]},"properties":{"geoid":"49007","state":"49","district":"7","name":"State House District 7","chamber":"House"}},{"type":"Feature","geometry":{"type":"Polygon","coordinates":[[[-112.0283,41.3366],[-112.0003,41.3214],[-111.9877,41.3317],[-111.9764,41.3305],[-111.9733,41.3215],[-111.9594,41.3251],[-111.9505,41.3173],[-111.934,41.3173],[-111.9318,41.3051],[-111.9427,41.2919],[-111.9426,41.278],[-111.9503,41.2775],[-111.943,41.2738],[-111.9429,41.2665],[-111.9287,41.2665],[-111.9288,41.2567],[-111.9894,41.2594],[-111.9897,41.2444],[-111.9728,41.2443],[-111.9701,41.2387],[-111.9536,41.234],[-111.9497,41.2162],[-111.9428,41.2161],[-111.9403,41.2056],[-111.9293,41.2057],[-111.93,41.176],[-111.9092,41.1707],[-111.8962,41.1732],[-111.8729,41.1876],[-111.8688,41.1808],[-111.8766,41.1697],[-111.8705,41.161],[-111.8546,41.1545],[-111.8561,41.1386],[-111.8287,41.1382],[-111.8001,41.1428],[-111.7954,41.1483],[-111.8011,41.167],[-111.8121,41.1701],[-111.8076,41.1834],[-111.8196,41.197],[-111.8061,41.2159],[-111.774,41.2182],[-111.7646,41.2078],[-111.7486,41.2145],[-111.7452,41.2035],[-111.7277,41.1971],[-111.7171,41.1864],[-111.6851,41.1805],[-111.6666,41.1876],[-111.6573,41.186],[-111.6409,41.1988],[-111.6246,41.2002],[-111.6228,41.2058],[-111.6113,41.2106],[-111.6066,41.2241],[-111.6091,41.2293],[-111.5913,41.2408],[-111.5601,41.2402],[-111.5356,41.2362],[-111.5261,41.2288],[-111.5067,41.2311],[-111.4968,41.2269],[-111.4912,41.2376],[-111.4945,41.2413],[-111.4773,41.2453],[-111.4781,41.2507],[-111.4643,41.2582],[-111.4667,41.262],[-111.4581,41.2679],[-111.4579,41.2736],[-111.4451,41.2781],[-111.4461,41.285],[-111.4391,41.2949],[-111.4494,41.3159],[-111.4375,41.3234],[-111.4381,41.3383],[-111.4263,41.3432],[-111.4204,41.3605],[-111.4238,41.3651],[-111.4326,41.362],[-111.4459,41.3669],[-111.4478,41.3729],[-111.4596,41.3736],[-111.4629,41.3797],[-111.4774,41.3842],[-111.4754,41.3998],[-111.4994,41.4083],[-111.5082,41.4143],[-111.5108,41.4231],[-111.5318,41.4146],[-111.5415,41.4051],[-111.5514,41.4137],[-111.5542,41.4238],[-111.5644,41.4232],[-111.575,41.4289],[-111.5841,41.4183],[-111.6186,41.4224],[-111.6401,41.4145],[-111.6477,41.4054],[-111.6667,41.4288],[-111.6792,41.4272],[-111.696,41.4171],[-111.7074,41.4253],[-111.7215,41.4274],[-111.7178,41.4161],[-111.7067,41.413],[-111.7107,41.3965],[-111.7263,41.3856],[-111.7261,41.3761],[-111.7606,41.3688],[-111.7807,41.3786],[-111.7929,41.3914],[-111.8136,41.388],[-111.8279,41.3927],[-111.8367,41.3879],[-111.8684,41.3986],[-111.88,41.4139],[-111.8723,41.4213],[-111.8757,41.4237],[-111.8855,41.4263],[-111.893,41.4181],[-111.9264,41.4125],[-111.9383,41.4159],[-111.9586,41.4339],[-111.9725,41.4201],[-111.9675,41.3955],[-111.9758,41.3845],[-111.975,41.3772],[-111.9632,41.3653],[-112.0084,41.3438],[-112.0223,41.3438],[-112.0283,41.3366]]]},"properties":{"geoid":"49008","state":"49","district":"8","name":"State House District 8","chamber":"House"}},{"type":"Feature","geometry":{"type":"Polygon","coordinates":[[[-112.0932,41.1789],[-112.0205,41.1762],[-111.9941,41.2054],[-111.9844,41.207],[-111.9811,41.2166],[-111.9497,41.2162],[-111.9535,41.2337],[-111.9701,41.2387],[-111.9728,41.2443],[-112.0036,41.2445],[-112.0036,41.2409],[-112.0045,41.2445],[-112.0374,41.2445],[-112.0375,41.238],[-112.0447,41.238],[-112.0449,41.2197],[-112.0929,41.22],[-112.0932,41.1789]]]},"properties":{"geoid":"49009","state":"49","district":"9","name":"State House District 9","chamber":"House"}},{"type":"Feature","geometry":{"type":"Polygon","coordinates":[[[-112.0135,41.1834],[-111.9926,41.1813],[-111.9831,41.1888],[-111.9871,41.1762],[-111.954,41.1752],[-111.9365,41.1613],[-111.9222,41.1574],[-111.9135,41.1476],[-111.9136,41.1401],[-111.9032,41.1364],[-111.8562,41.1391],[-111.8546,41.1545],[-111.8705,41.161],[-111.8766,41.1697],[-111.8688,41.1808],[-111.8729,41.1876],[-111.8962,41.1732],[-111.9092,41.1707],[-111.93,41.176],[-111.9293,41.2057],[-111.9403,41.2056],[-111.9428,41.2161],[-111.9811,41.2166],[-111.9844,41.207],[-111.9941,41.2054],[-112.0135,41.1834]]]},"properties":{"geoid":"49010","state":"49","district":"10","name":"State House District 10","chamber":"House"}},{"type":"Feature","geometry":{"type":"Polygon","coordinates":[[[-112.0375,41.1526],[-112.0357,41.1326],[-112.0308,41.1326],[-112.0308,41.1253],[-112.0246,41.1253],[-112.0105,41.1109],[-112.0233,41.1109],[-112.0153,41.1035],[-111.9446,41.1019],[-111.9397,41.1082],[-111.93,41.107],[-111.9266,41.1136],[-111.9173,41.1152],[-111.9153,41.1212],[-111.9251,41.1203],[-111.9211,41.1369],[-111.9032,41.1364],[-111.9136,41.1401],[-111.9135,41.1476],[-111.9222,41.1574],[-111.9365,41.1613],[-111.954,41.1752],[-111.9871,41.1762],[-111.9831,41.1888],[-111.9926,41.1813],[-112.0147,41.1835],[-112.026,41.1762],[-112.0261,41.1526],[-112.0375,41.1526]]]},"properties":{"geoid":"49011","state":"49","district":"11","name":"State House District 11","chamber":"House"}},{"type":"Feature","geometry":{"type":"Polygon","coordinates":[[[-112.4934,41.077],[-112.4516,41.0873],[-112.1127,41.0893],[-112.1127,41.0965],[-112.1055,41.0965],[-112.1054,41.1001],[-112.1127,41.1037],[-112.1125,41.1399],[-112.0838,41.1399],[-112.084,41.1494],[-112.0779,41.1527],[-112.0261,41.1526],[-112.026,41.1762],[-112.0931,41.1761],[-112.0929,41.22],[-112.0449,41.2197],[-112.0447,41.238],[-112.0375,41.238],[-112.0357,41.2451],[-112.1229,41.2443],[-112.1226,41.2717],[-112.1804,41.272],[-112.1805,41.2501],[-112.2261,41.2502],[-112.2382,41.2489],[-112.2382,41.2432],[-112.268,41.2447],[-112.3397,41.2337],[-112.4934,41.077]]]},"properties":{"geoid":"49012","state":"49","district":"12","name":"State House District 12","chamber":"House"}},{"type":"Feature","geometry":{"type":"Polygon","coordinates":[[[-112.1126,41.1049],[-112.0931,41.1037],[-112.0934,41.1109],[-112.0105,41.1109],[-112.0246,41.1253],[-112.0308,41.1253],[-112.0308,41.1326],[-112.0357,41.1326],[-112.0375,41.1526],[-112.0779,41.1527],[-112.084,41.1494],[-112.0838,41.1399],[-112.1125,41.1399],[-112.1126,41.1049]]]},"properties":{"geoid":"49013","state":"49","district":"13","name":"State House District 13","chamber":"House"}},{"type":"Feature","geometry":{"type":"Polygon","coordinates":[[[-112.1127,41.0894],[-112.1047,41.0892],[-112.1047,41.0748],[-112.0875,41.0747],[-112.0886,41.0892],[-112.0838,41.0892],[-112.0839,41.0747],[-112.0214,41.0747],[-112.0214,41.0819],[-111.9873,41.0856],[-112.0038,41.1035],[-112.0153,41.1035],[-112.0302,41.1113],[-112.0934,41.1109],[-112.0931,41.1037],[-112.1079,41.1037],[-112.1055,41.0965],[-112.1127,41.0965],[-112.1127,41.0894]]]},"properties":{"geoid":"49014","state":"49","district":"14","name":"State House District 14","chamber":"House"}},{"type":"Feature","geometry":{"type":"Polygon","coordinates":[[[-112.4935,41.0769],[-112.2602,40.7691],[-112.1483,40.8461],[-112.0081,40.921],[-112.0076,40.9855],[-111.9836,40.994],[-111.9765,40.9929],[-111.9731,40.9861],[-111.9665,40.9918],[-111.9587,40.9895],[-111.9477,40.9946],[-111.9474,40.9997],[-111.9476,41.0042],[-111.9552,41.0045],[-111.959,41.0102],[-111.9451,41.0161],[-111.939,41.0131],[-111.9615,41.0585],[-111.9873,41.0856],[-112.0214,41.0819],[-112.0214,41.0747],[-112.0839,41.0747],[-112.0838,41.0892],[-112.0886,41.0892],[-112.0875,41.0747],[-112.1047,41.0748],[-112.1047,41.0892],[-112.4516,41.0873],[-112.4935,41.0769]]]},"properties":{"geoid":"49015","state":"49","district":"15","name":"State House District 15","chamber":"House"}},{"type":"Feature","geometry":{"type":"Polygon","coordinates":[[[-112.0027,41.1036],[-111.9766,41.074],[-111.9501,41.0744],[-111.9498,41.0669],[-111.9437,41.0618],[-111.9178,41.0697],[-111.9071,41.079],[-111.8917,41.0795],[-111.8934,41.097],[-111.8881,41.0938],[-111.8559,41.1053],[-111.856,41.1123],[-111.8445,41.1216],[-111.8489,41.1337],[-111.8599,41.1399],[-111.9108,41.1346],[-111.9199,41.1377],[-111.9251,41.1325],[-111.9251,41.1203],[-111.9155,41.1185],[-111.9266,41.1136],[-111.93,41.107],[-111.9397,41.1082],[-111.9446,41.1019],[-112.0027,41.1036]]]},"properties":{"geoid":"49016","state":"49","district":"16","name":"State House District 16","chamber":"House"}},{"type":"Feature","geometry":{"type":"Polygon","coordinates":[[[-111.9759,41.0743],[-111.9484,41.0378],[-111.9385,41.0123],[-111.923,41.0003],[-111.9076,41.0008],[-111.9097,41.0049],[-111.9039,41.0053],[-111.897,41.0165],[-111.873,41.0164],[-111.8717,40.9998],[-111.844,41.001],[-111.8049,40.9917],[-111.7963,40.9852],[-111.8067,41.0023],[-111.8208,41.0069],[-111.8255,41.0184],[-111.8382,41.023],[-111.8395,41.0312],[-111.8335,41.0371],[-111.8395,41.0406],[-111.8444,41.0594],[-111.8518,41.0667],[-111.8483,41.0756],[-111.8559,41.1053],[-111.8881,41.0938],[-111.8934,41.097],[-111.8917,41.0795],[-111.9071,41.079],[-111.9178,41.0697],[-111.9433,41.0619],[-111.9498,41.0669],[-111.9501,41.0744],[-111.9759,41.0743]]]},"properties":{"geoid":"49017","state":"49","district":"17","name":"State House District 17","chamber":"House"}},{"type":"Feature","geometry":{"type":"Polygon","coordinates":[[[-112.008,40.9237],[-111.9587,40.9218],[-111.9586,40.9127],[-111.9392,40.9054],[-111.9161,40.9074],[-111.9015,40.9183],[-111.8925,40.9131],[-111.892,40.9066],[-111.8301,40.9087],[-111.8237,40.9104],[-111.8234,40.9153],[-111.7999,40.921],[-111.7931,40.9282],[-111.8069,40.9492],[-111.8121,40.9506],[-111.8145,40.9599],[-111.791,40.9609],[-111.7825,40.9568],[-111.7749,40.9598],[-111.8016,40.9926],[-111.7963,40.9851],[-111.8049,40.9917],[-111.844,41.001],[-111.8717,40.9998],[-111.873,41.0164],[-111.897,41.0165],[-111.9039,41.0053],[-111.9097,41.0049],[-111.9076,41.0008],[-111.923,41.0003],[-111.9451,41.0161],[-111.96,41.0076],[-111.9476,41.0042],[-111.9477,40.9946],[-111.9629,40.9887],[-111.9665,40.9918],[-111.9703,40.9863],[-111.9827,40.994],[-112.0076,40.9855],[-112.008,40.9237]]]},"properties":{"geoid":"49018","state":"49","district":"18","name":"State House District 18","chamber":"House"}},{"type":"Feature","geometry":{"type":"Polygon","coordinates":[[[-111.9691,40.8858],[-111.9214,40.8878],[-111.9136,40.8833],[-111.8938,40.8834],[-111.8922,40.8747],[-111.8857,40.8747],[-111.887,40.8554],[-111.8736,40.8555],[-111.8496,40.8452],[-111.8488,40.8388],[-111.8378,40.8307],[-111.7892,40.8456],[-111.778,40.8447],[-111.7389,40.8612],[-111.7467,40.871],[-111.7687,40.8722],[-111.7622,40.8877],[-111.7815,40.8956],[-111.7762,40.9012],[-111.7824,40.9124],[-111.7936,40.9157],[-111.7925,40.9302],[-111.7999,40.921],[-111.8385,40.9075],[-111.892,40.9066],[-111.8925,40.9131],[-111.9015,40.9183],[-111.9161,40.9074],[-111.9352,40.9054],[-111.9586,40.9127],[-111.9593,40.8963],[-111.9691,40.8858]]]},"properties":{"geoid":"49019","state":"49","district":"19","name":"State House District 19","chamber":"House"}},{"type":"Feature","geometry":{"type":"Polygon","coordinates":[[[-111.9721,40.877],[-111.9637,40.8702],[-111.9656,40.852],[-111.9619,40.8474],[-111.9539,40.8487],[-111.9441,40.8345],[-111.9463,40.8218],[-111.8709,40.8217],[-111.8384,40.8308],[-111.8498,40.84],[-111.8496,40.8452],[-111.8736,40.8555],[-111.887,40.8554],[-111.8857,40.8747],[-111.8922,40.8747],[-111.8938,40.8834],[-111.9136,40.8833],[-111.9214,40.8878],[-111.9683,40.8859],[-111.9721,40.877]]]},"properties":{"geoid":"49020","state":"49","district":"20","name":"State House District 20","chamber":"House"}},{"type":"Feature","geometry":{"type":"Polygon","coordinates":[[[-112.2597,40.7694],[-112.2259,40.7242],[-112.1905,40.7403],[-112.15,40.771],[-112.0134,40.7711],[-111.987,40.7646],[-111.939,40.7662],[-111.939,40.7584],[-111.9168,40.7585],[-111.8997,40.7606],[-111.8997,40.7824],[-111.9109,40.7824],[-111.9236,40.8071],[-111.9165,40.8218],[-111.9463,40.8218],[-111.943,40.8314],[-111.9495,40.8438],[-111.9656,40.852],[-111.9637,40.8702],[-111.9721,40.877],[-111.9661,40.8917],[-111.9593,40.8963],[-111.9587,40.9218],[-112.0066,40.9218],[-112.1483,40.8461],[-112.2597,40.7694]]]},"properties":{"geoid":"49021","state":"49","district":"21","name":"State House District 21","chamber":"House"}},{"type":"Feature","geometry":{"type":"Polygon","coordinates":[[[-111.9242,40.8098],[-111.9109,40.7824],[-111.8997,40.7824],[-111.8997,40.7606],[-111.836,40.7573],[-111.8146,40.7763],[-111.8154,40.7973],[-111.7998,40.7984],[-111.7998,40.8124],[-111.7872,40.8197],[-111.7405,40.8241],[-111.7305,40.8349],[-111.7156,40.8345],[-111.69,40.8233],[-111.6907,40.8111],[-111.6541,40.8282],[-111.6655,40.8304],[-111.6607,40.8462],[-111.6741,40.8553],[-111.7005,40.8616],[-111.7124,40.8517],[-111.7389,40.8612],[-111.778,40.8447],[-111.7892,40.8456],[-111.8354,40.8308],[-111.8441,40.8322],[-111.8583,40.8243],[-111.9165,40.8218],[-111.9242,40.8098]]]},"properties":{"geoid":"49022","state":"49","district":"22","name":"State House District 22","chamber":"House"}},{"type":"Feature","geometry":{"type":"Polygon","coordinates":[[[-111.8654,40.7196],[-111.7899,40.7124],[-111.7923,40.7077],[-111.6451,40.7127],[-111.6062,40.7129],[-111.5954,40.7085],[-111.6006,40.7454],[-111.5926,40.7528],[-111.6045,40.7497],[-111.6235,40.7535],[-111.624,40.7604],[-111.636,40.7627],[-111.6399,40.7705],[-111.6491,40.7733],[-111.643,40.7859],[-111.6487,40.7922],[-111.6411,40.7989],[-111.639,40.8094],[-111.6457,40.8241],[-111.6541,40.8282],[-111.6907,40.8111],[-111.6933,40.8258],[-111.7295,40.8353],[-111.7405,40.8241],[-111.7872,40.8197],[-111.7998,40.8124],[-111.7998,40.7984],[-111.8154,40.7973],[-111.8146,40.7763],[-111.836,40.7573],[-111.8539,40.7585],[-111.8539,40.752],[-111.8595,40.752],[-111.8596,40.7335],[-111.8653,40.7335],[-111.8654,40.7196]]]},"properties":{"geoid":"49023","state":"49","district":"23","name":"State House District 23","chamber":"House"}},{"type":"Feature","geometry":{"type":"Polygon","coordinates":[[[-111.914,40.7606],[-111.9041,40.7443],[-111.9043,40.7185],[-111.8654,40.7195],[-111.8653,40.7335],[-111.8596,40.7335],[-111.8595,40.752],[-111.8539,40.752],[-111.8539,40.7585],[-111.914,40.7606]]]},"properties":{"geoid":"49024","state":"49","district":"24","name":"State House District 24","chamber":"House"}},{"type":"Feature","geometry":{"type":"Polygon","coordinates":[[[-112.0251,40.7709],[-112.0249,40.715],[-112.0058,40.7141],[-112.0087,40.711],[-111.9962,40.7039],[-111.9962,40.6966],[-111.9389,40.6966],[-111.939,40.7143],[-111.9211,40.7175],[-111.9261,40.726],[-111.9042,40.7254],[-111.9041,40.7443],[-111.9137,40.7597],[-111.939,40.7584],[-111.939,40.7662],[-111.987,40.7646],[-112.0251,40.7709]]]},"properties":{"geoid":"49025","state":"49","district":"25","name":"State House District 25","chamber":"House"}},{"type":"Feature","geometry":{"type":"Polygon","coordinates":[[[-112.1041,40.771],[-112.0808,40.7513],[-112.0823,40.6965],[-112.0631,40.6965],[-112.0631,40.682],[-112.0247,40.6685],[-112.0248,40.6966],[-111.9962,40.6966],[-111.9962,40.7039],[-112.0087,40.711],[-112.0058,40.7141],[-112.0249,40.715],[-112.025,40.7712],[-112.1041,40.771]]]},"properties":{"geoid":"49026","state":"49","district":"26","name":"State House District 26","chamber":"House"}},{"type":"Feature","geometry":{"type":"Polygon","coordinates":[[[-112.2259,40.7242],[-112.2077,40.7157],[-112.2011,40.7049],[-112.1986,40.6934],[-112.2044,40.6786],[-112.2029,40.654],[-112.1942,40.6356],[-112.1977,40.6255],[-112.1753,40.604],[-112.175,40.5853],[-112.1836,40.5734],[-112.1782,40.5563],[-112.1828,40.541],[-112.1787,40.5219],[-112.1877,40.5139],[-112.1758,40.5001],[-112.181,40.4918],[-112.1773,40.4846],[-112.1705,40.491],[-112.1448,40.4847],[-112.1208,40.4898],[-112.1074,40.5084],[-112.091,40.5134],[-112.0898,40.5272],[-112.0691,40.5387],[-112.062,40.5536],[-112.0529,40.6239],[-112.0246,40.624],[-112.0247,40.6685],[-112.0631,40.682],[-112.0631,40.6965],[-112.0823,40.6965],[-112.0807,40.7511],[-112.1041,40.7713],[-112.1522,40.7704],[-112.1905,40.7403],[-112.2259,40.7242]]]},"properties":{"geoid":"49027","state":"49","district":"27","name":"State House District 27","chamber":"House"}},{"type":"Feature","geometry":{"type":"Polygon","coordinates":[[[-112.3631,40.565],[-112.3403,40.5463],[-112.3498,40.5438],[-112.3606,40.524],[-112.3354,40.5167],[-112.3423,40.4925],[-112.3321,40.4927],[-112.3175,40.5075],[-112.2895,40.5077],[-112.2845,40.483],[-112.2252,40.4469],[-112.2145,40.4482],[-112.2122,40.4593],[-112.1957,40.4623],[-112.1903,40.4685],[-112.1729,40.4671],[-112.1814,40.4934],[-112.1758,40.5001],[-112.1877,40.5139],[-112.1787,40.5219],[-112.1828,40.541],[-112.1782,40.5563],[-112.1836,40.5734],[-112.175,40.5853],[-112.1753,40.604],[-112.1977,40.6255],[-112.1942,40.6356],[-112.2029,40.654],[-112.2044,40.6786],[-112.1987,40.6969],[-112.2077,40.7157],[-112.2243,40.7229],[-112.2528,40.7067],[-112.2506,40.6769],[-112.2595,40.6639],[-112.2763,40.6532],[-112.2932,40.6527],[-112.2984,40.6485],[-112.2946,40.6458],[-112.3123,40.6369],[-112.3105,40.6309],[-112.2911,40.6302],[-112.294,40.592],[-112.3322,40.5906],[-112.332,40.5797],[-112.351,40.5795],[-112.3507,40.5651],[-112.3631,40.565]]]},"properties":{"geoid":"49028","state":"49","district":"28","name":"State House District 28","chamber":"House"}},{"type":"Feature","geometry":{"type":"Polygon","coordinates":[[[-114.05,38.5741],[-112.5031,38.5714],[-112.5031,38.6006],[-112.4848,38.6006],[-112.4844,38.6446],[-112.4752,38.6447],[-112.4753,38.6593],[-112.4662,38.6593],[-112.466,38.6739],[-112.4477,38.6739],[-112.4475,38.6813],[-112.366,38.6842],[-112.3565,38.6839],[-112.3566,38.6767],[-112.31,38.6763],[-112.3099,38.6834],[-112.2823,38.6869],[-112.2824,38.7015],[-112.2554,38.705],[-112.2554,38.7123],[-112.2415,38.7125],[-112.2366,38.7271],[-112.2184,38.7274],[-112.2191,38.764],[-112.2284,38.764],[-112.2245,38.8648],[-112.1885,38.8648],[-112.1885,38.8794],[-112.1716,38.8786],[-112.1694,38.9061],[-112.1508,38.9065],[-112.1519,38.9355],[-112.134,38.9355],[-112.1339,38.9593],[-112.0652,38.9593],[-112.0657,38.9884],[-112.0564,38.9884],[-112.0564,38.9957],[-112.0189,38.9959],[-112.019,39.0242],[-112.014,39.0243],[-112.016,39.3146],[-112.0722,39.3149],[-112.0721,39.3297],[-112.1889,39.3294],[-112.1889,39.3731],[-112.1936,39.3731],[-112.1933,39.4898],[-112.2026,39.4899],[-112.2026,39.5043],[-112.212,39.5116],[-112.212,39.526],[-112.1932,39.526],[-112.1933,39.5405],[-112.2027,39.5404],[-112.212,39.5477],[-112.212,39.554],[-112.3545,39.5537],[-112.3018,39.6451],[-112.2059,39.7106],[-112.1793,39.7583],[-112.1543,39.7761],[-112.1454,39.7999],[-112.1381,39.8391],[-112.1379,39.9006],[-112.1445,39.9196],[-112.1956,39.943],[-112.2298,39.9458],[-112.2432,39.9571],[-112.2363,39.9605],[-112.2245,39.9885],[-112.1999,40.0041],[-112.1865,40.0061],[-112.1781,40.0148],[-112.172,40.0398],[-112.1838,40.06],[-112.18,40.0672],[-112.1731,40.0662],[-112.1745,40.0818],[-112.1579,40.0891],[-112.1509,40.1073],[-112.1608,40.1142],[-112.1637,40.1234],[-112.1763,40.131],[-112.1678,40.1467],[-112.174,40.1545],[-112.1587,40.1634],[-112.1558,40.1704],[-112.1444,40.1735],[-112.1534,40.1818],[-112.1469,40.1895],[-112.1486,40.1957],[-112.1605,40.1992],[-112.1585,40.2067],[-112.1495,40.2122],[-112.1569,40.2194],[-112.1669,40.2181],[-112.1767,40.2277],[-112.1793,40.2494],[-112.1839,40.25],[-112.1838,40.2581],[-112.1922,40.2645],[-112.1864,40.2867],[-112.1921,40.3041],[-112.1986,40.3069],[-112.1927,40.3229],[-112.1963,40.3258],[-112.1755,40.3358],[-112.1947,40.3613],[-112.1887,40.3725],[-112.2016,40.388],[-112.1946,40.4211],[-112.2095,40.4323],[-112.2132,40.4551],[-112.2145,40.4482],[-112.2252,40.4469],[-112.2843,40.4828],[-112.2895,40.5077],[-112.3175,40.5075],[-112.3321,40.4927],[-112.3423,40.4925],[-112.3354,40.5167],[-112.3606,40.524],[-112.3498,40.5438],[-112.3403,40.5463],[-112.3631,40.565],[-112.3507,40.5651],[-112.351,40.5795],[-112.332,40.5797],[-112.3322,40.5906],[-112.294,40.592],[-112.2911,40.6302],[-112.3105,40.6309],[-112.3123,40.6369],[-112.2946,40.6458],[-112.2984,40.6485],[-112.2932,40.6527],[-112.2763,40.6532],[-112.2605,40.6628],[-112.2506,40.6769],[-112.2548,40.7047],[-112.2241,40.7229],[-112.4935,41.0769],[-112.7994,40.9999],[-114.042,40.9999],[-114.05,38.5741]]]},"properties":{"geoid":"49029","state":"49","district":"29","name":"State House District 29","chamber":"House"}},{"type":"Feature","geometry":{"type":"Polygon","coordinates":[[[-112.0248,40.6966],[-112.0247,40.6676],[-111.958,40.6676],[-111.958,40.6821],[-111.9675,40.6821],[-111.9675,40.6966],[-112.0248,40.6966]]]},"properties":{"geoid":"49030","state":"49","district":"30","name":"State House District 30","chamber":"House"}},{"type":"Feature","geometry":{"type":"Polygon","coordinates":[[[-111.9675,40.6966],[-111.9675,40.6821],[-111.958,40.6821],[-111.958,40.6676],[-111.9485,40.6676],[-111.9484,40.6563],[-111.9235,40.6531],[-111.9081,40.6656],[-111.9122,40.6821],[-111.9245,40.6884],[-111.9217,40.6963],[-111.9284,40.7029],[-111.9227,40.7064],[-111.9241,40.7143],[-111.939,40.7143],[-111.9389,40.6966],[-111.9675,40.6966]]]},"properties":{"geoid":"49031","state":"49","district":"31","name":"State House District 31","chamber":"House"}},{"type":"Feature","geometry":{"type":"Polygon","coordinates":[[[-111.9284,40.7029],[-111.9219,40.6967],[-111.9246,40.6887],[-111.9211,40.6863],[-111.8451,40.6871],[-111.8528,40.7056],[-111.8436,40.706],[-111.8421,40.7189],[-111.9022,40.7178],[-111.9042,40.7254],[-111.9261,40.726],[-111.9204,40.7204],[-111.9227,40.7064],[-111.9284,40.7029]]]},"properties":{"geoid":"49032","state":"49","district":"32","name":"State House District 32","chamber":"House"}},{"type":"Feature","geometry":{"type":"Polygon","coordinates":[[[-111.8528,40.7056],[-111.8416,40.6743],[-111.8025,40.6744],[-111.8084,40.6459],[-111.7911,40.642],[-111.7911,40.6386],[-111.7221,40.6651],[-111.7076,40.6588],[-111.6842,40.6681],[-111.6624,40.6634],[-111.6397,40.6679],[-111.6301,40.6626],[-111.6213,40.6653],[-111.615,40.6602],[-111.6053,40.6626],[-111.5966,40.6585],[-111.6048,40.6688],[-111.5997,40.6916],[-111.5927,40.6992],[-111.6062,40.7129],[-111.7923,40.7077],[-111.7899,40.7124],[-111.8217,40.7131],[-111.8421,40.7189],[-111.8436,40.706],[-111.8528,40.7056]]]},"properties":{"geoid":"49033","state":"49","district":"33","name":"State House District 33","chamber":"House"}},{"type":"Feature","geometry":{"type":"Polygon","coordinates":[[[-111.8809,40.6738],[-111.8705,40.6607],[-111.8655,40.6605],[-111.8659,40.6496],[-111.8484,40.6494],[-111.8345,40.6385],[-111.8086,40.6375],[-111.8025,40.6744],[-111.8416,40.6743],[-111.8451,40.6871],[-111.877,40.6871],[-111.877,40.6743],[-111.8809,40.6738]]]},"properties":{"geoid":"49034","state":"49","district":"34","name":"State House District 34","chamber":"House"}},{"type":"Feature","geometry":{"type":"Polygon","coordinates":[[[-111.9388,40.6434],[-111.9388,40.6305],[-111.9318,40.6299],[-111.866,40.6385],[-111.8655,40.6605],[-111.8807,40.6722],[-111.877,40.6743],[-111.877,40.6871],[-111.9211,40.6863],[-111.9122,40.6821],[-111.9081,40.6656],[-111.9235,40.6531],[-111.9388,40.6532],[-111.9388,40.6434]]]},"properties":{"geoid":"49035","state":"49","district":"35","name":"State House District 35","chamber":"House"}},{"type":"Feature","geometry":{"type":"Polygon","coordinates":[[[-111.982,40.6562],[-111.9768,40.6415],[-111.9766,40.6095],[-111.9387,40.6095],[-111.9388,40.6559],[-111.9484,40.6563],[-111.9485,40.6676],[-111.9814,40.6676],[-111.982,40.6562]]]},"properties":{"geoid":"49036","state":"49","district":"36","name":"State House District 36","chamber":"House"}},{"type":"Feature","geometry":{"type":"Polygon","coordinates":[[[-112.0247,40.6676],[-112.0246,40.6313],[-111.9766,40.6313],[-111.9814,40.6676],[-112.0247,40.6676]]]},"properties":{"geoid":"49037","state":"49","district":"37","name":"State House District 37","chamber":"House"}},{"type":"Feature","geometry":{"type":"Polygon","coordinates":[[[-112.0633,40.5663],[-112.0148,40.566],[-112.0164,40.5851],[-112.0052,40.5879],[-112.0054,40.6095],[-111.9766,40.6095],[-111.9766,40.6313],[-112.0246,40.6313],[-112.0246,40.624],[-112.0529,40.6239],[-112.0633,40.5663]]]},"properties":{"geoid":"49038","state":"49","district":"38","name":"State House District 38","chamber":"House"}},{"type":"Feature","geometry":{"type":"Polygon","coordinates":[[[-112.0058,40.6033],[-112.0052,40.5879],[-111.9772,40.5878],[-111.9771,40.5805],[-111.9128,40.5804],[-111.9103,40.5848],[-111.9103,40.6106],[-111.9213,40.6095],[-111.9232,40.6304],[-111.9388,40.6305],[-111.9387,40.6095],[-112.0054,40.6095],[-112.0058,40.6033]]]},"properties":{"geoid":"49039","state":"49","district":"39","name":"State House District 39","chamber":"House"}},{"type":"Feature","geometry":{"type":"Polygon","coordinates":[[[-111.9232,40.6304],[-111.9213,40.6095],[-111.9103,40.6106],[-111.9128,40.5804],[-111.8999,40.5807],[-111.9002,40.5879],[-111.8992,40.5807],[-111.8817,40.5807],[-111.8817,40.5963],[-111.8722,40.5963],[-111.8721,40.6207],[-111.866,40.6222],[-111.866,40.6385],[-111.8891,40.6385],[-111.8894,40.6333],[-111.9232,40.6304]]]},"properties":{"geoid":"49040","state":"49","district":"40","name":"State House District 40","chamber":"House"}},{"type":"Feature","geometry":{"type":"Polygon","coordinates":[[[-111.866,40.6204],[-111.8327,40.6132],[-111.8314,40.6024],[-111.8074,40.6022],[-111.8006,40.5818],[-111.7922,40.5865],[-111.7898,40.578],[-111.7771,40.573],[-111.7769,40.5622],[-111.7553,40.5551],[-111.7563,40.5489],[-111.7376,40.5282],[-111.735,40.5327],[-111.7206,40.5251],[-111.7131,40.5327],[-111.6981,40.5357],[-111.6757,40.5329],[-111.6639,40.5414],[-111.6614,40.55],[-111.6502,40.5513],[-111.6377,40.5681],[-111.6058,40.5644],[-111.5986,40.5778],[-111.5642,40.5847],[-111.5532,40.6096],[-111.5589,40.6134],[-111.5576,40.6196],[-111.5766,40.6335],[-111.5781,40.6439],[-111.5939,40.6517],[-111.5967,40.6598],[-111.615,40.6602],[-111.6213,40.6653],[-111.6301,40.6626],[-111.6397,40.6679],[-111.6624,40.6634],[-111.6842,40.6681],[-111.7076,40.6588],[-111.7221,40.6651],[-111.7911,40.6386],[-111.8051,40.6464],[-111.8086,40.6375],[-111.8345,40.6385],[-111.8484,40.6494],[-111.8659,40.6496],[-111.866,40.6204]]]},"properties":{"geoid":"49041","state":"49","district":"41","name":"State House District 41","chamber":"House"}},{"type":"Feature","geometry":{"type":"Polygon","coordinates":[[[-111.8535,40.5443],[-111.8508,40.5281],[-111.8277,40.5361],[-111.8129,40.5352],[-111.8097,40.5433],[-111.801,40.5442],[-111.7962,40.5515],[-111.7866,40.5514],[-111.7913,40.5587],[-111.7769,40.5624],[-111.7771,40.573],[-111.7898,40.578],[-111.7922,40.5865],[-111.8006,40.5818],[-111.8056,40.5903],[-111.8038,40.5986],[-111.8134,40.6039],[-111.8316,40.6024],[-111.8341,40.5897],[-111.8394,40.595],[-111.8531,40.595],[-111.8535,40.5443]]]},"properties":{"geoid":"49042","state":"49","district":"42","name":"State House District 42","chamber":"House"}},{"type":"Feature","geometry":{"type":"Polygon","coordinates":[[[-111.9292,40.5769],[-111.9291,40.5622],[-111.9139,40.5592],[-111.8722,40.5588],[-111.872,40.5699],[-111.8532,40.5627],[-111.8531,40.595],[-111.8394,40.595],[-111.8341,40.5897],[-111.8317,40.6114],[-111.8688,40.6219],[-111.8721,40.6207],[-111.8722,40.5963],[-111.8817,40.5963],[-111.8817,40.5807],[-111.8992,40.5807],[-111.9002,40.5879],[-111.8999,40.5807],[-111.9183,40.5819],[-111.9292,40.5805],[-111.9292,40.5769]]]},"properties":{"geoid":"49043","state":"49","district":"43","name":"State House District 43","chamber":"House"}},{"type":"Feature","geometry":{"type":"Polygon","coordinates":[[[-112.0332,40.566],[-112.03,40.5512],[-112.0241,40.5542],[-112.0109,40.5448],[-112.0042,40.5487],[-111.9843,40.5442],[-111.9772,40.5619],[-111.9482,40.5624],[-111.9482,40.5732],[-111.9291,40.5725],[-111.9292,40.5805],[-111.9771,40.5805],[-111.9772,40.5878],[-112.0147,40.5879],[-112.0148,40.566],[-112.0332,40.566]]]},"properties":{"geoid":"49044","state":"49","district":"44","name":"State House District 44","chamber":"House"}},{"type":"Feature","geometry":{"type":"Polygon","coordinates":[[[-111.9843,40.5442],[-111.9843,40.5369],[-111.9591,40.5368],[-111.9339,40.5405],[-111.9174,40.5369],[-111.9166,40.5443],[-111.871,40.5443],[-111.8627,40.537],[-111.8627,40.5297],[-111.8528,40.5297],[-111.8532,40.5627],[-111.872,40.5699],[-111.8722,40.5588],[-111.913,40.5591],[-111.9291,40.5622],[-111.9291,40.5725],[-111.9482,40.5732],[-111.9482,40.5624],[-111.9772,40.5619],[-111.9843,40.5442]]]},"properties":{"geoid":"49045","state":"49","district":"45","name":"State House District 45","chamber":"House"}},{"type":"Feature","geometry":{"type":"Polygon","coordinates":[[[-111.9469,40.4728],[-111.9333,40.4424],[-111.9387,40.4423],[-111.9381,40.4296],[-111.9009,40.4635],[-111.8924,40.4641],[-111.8801,40.4739],[-111.8708,40.4769],[-111.8584,40.4693],[-111.8462,40.4766],[-111.8362,40.4749],[-111.8348,40.4818],[-111.8263,40.4827],[-111.8263,40.4864],[-111.7896,40.4979],[-111.788,40.5137],[-111.7626,40.5292],[-111.7438,40.5225],[-111.7376,40.5282],[-111.7563,40.5489],[-111.7557,40.5554],[-111.7741,40.5621],[-111.7865,40.5624],[-111.7914,40.5551],[-111.7866,40.5514],[-111.7962,40.5515],[-111.801,40.5442],[-111.8097,40.5433],[-111.8129,40.5352],[-111.8277,40.5361],[-111.839,40.5297],[-111.8627,40.5297],[-111.8651,40.5406],[-111.8817,40.5443],[-111.8818,40.5007],[-111.9031,40.5037],[-111.9222,40.4863],[-111.939,40.4864],[-111.9396,40.4822],[-111.942,40.4852],[-111.9469,40.4728]]]},"properties":{"geoid":"49046","state":"49","district":"46","name":"State House District 46","chamber":"House"}},{"type":"Feature","geometry":{"type":"Polygon","coordinates":[[[-111.9929,40.5051],[-111.9903,40.4967],[-111.9709,40.4791],[-111.9468,40.4714],[-111.942,40.4852],[-111.9396,40.4822],[-111.939,40.4864],[-111.9222,40.4863],[-111.9036,40.5035],[-111.8818,40.5007],[-111.8817,40.5443],[-111.9166,40.5443],[-111.9174,40.5369],[-111.9339,40.5405],[-111.9577,40.5369],[-111.9577,40.5146],[-111.9672,40.5147],[-111.9673,40.5078],[-111.9929,40.5051]]]},"properties":{"geoid":"49047","state":"49","district":"47","name":"State House District 47","chamber":"House"}},{"type":"Feature","geometry":{"type":"Polygon","coordinates":[[[-112.0705,40.5371],[-112.033,40.537],[-112.033,40.5142],[-112.0245,40.5144],[-112.0245,40.5078],[-111.9673,40.5078],[-111.9672,40.5147],[-111.9577,40.5146],[-111.9577,40.5369],[-111.9843,40.5369],[-111.9843,40.5442],[-112.0042,40.5487],[-112.0109,40.5448],[-112.0241,40.5542],[-112.03,40.5512],[-112.0332,40.566],[-112.0633,40.566],[-112.062,40.5534],[-112.0705,40.5371]]]},"properties":{"geoid":"49048","state":"49","district":"48","name":"State House District 48","chamber":"House"}},{"type":"Feature","geometry":{"type":"Polygon","coordinates":[[[-112.1782,40.4825],[-112.1719,40.4655],[-112.1601,40.461],[-112.156,40.4672],[-112.1432,40.4704],[-112.1148,40.4507],[-112.1121,40.4389],[-112.0934,40.4479],[-112.0668,40.4464],[-112.0358,40.4642],[-112.0315,40.4505],[-112.0203,40.4473],[-112.0248,40.4444],[-112.0213,40.4388],[-112.0066,40.4352],[-112.0065,40.4265],[-111.9928,40.4243],[-111.982,40.4142],[-111.946,40.4248],[-111.9381,40.4296],[-111.9387,40.4423],[-111.9333,40.4424],[-111.9468,40.4714],[-111.9711,40.4793],[-111.9903,40.4967],[-111.9927,40.5078],[-112.0245,40.5078],[-112.0245,40.5144],[-112.033,40.5142],[-112.033,40.537],[-112.0706,40.5369],[-112.0873,40.5289],[-112.0927,40.5224],[-112.091,40.5134],[-112.1074,40.5084],[-112.1213,40.4897],[-112.1448,40.4847],[-112.1705,40.491],[-112.1764,40.4895],[-112.1782,40.4825]]]},"properties":{"geoid":"49049","state":"49","district":"49","name":"State House District 49","chamber":"House"}},{"type":"Feature","geometry":{"type":"Polygon","coordinates":[[[-112.2142,40.4524],[-112.2095,40.4323],[-112.1946,40.4211],[-112.2016,40.388],[-112.1887,40.3725],[-112.1947,40.3613],[-112.1755,40.3358],[-112.1963,40.3258],[-112.1927,40.3229],[-112.1986,40.3069],[-112.1921,40.3041],[-112.1864,40.2867],[-112.1922,40.2645],[-112.1838,40.2581],[-112.1839,40.25],[-112.1793,40.2494],[-112.1767,40.2277],[-112.1669,40.2181],[-112.1569,40.2194],[-112.1495,40.2122],[-112.1585,40.2067],[-112.1605,40.1992],[-112.1486,40.1957],[-112.1469,40.1895],[-112.1534,40.1818],[-112.1448,40.1717],[-112.1558,40.1704],[-112.1587,40.1634],[-112.1736,40.1552],[-112.1678,40.1467],[-112.1763,40.1314],[-112.1509,40.1073],[-112.1571,40.0979],[-112.1322,40.0908],[-112.1307,40.0862],[-112.115,40.0804],[-112.0967,40.086],[-112.0455,40.0869],[-112.0425,40.0829],[-112.0342,40.0884],[-112.0142,40.0842],[-112.0106,40.0776],[-112.0188,40.0679],[-112.0113,40.0716],[-112.0104,40.0669],[-111.9942,40.0745],[-111.995,40.0547],[-112.0055,40.0547],[-112.001,40.0473],[-111.9992,40.0173],[-111.983,40.0129],[-111.9735,39.9651],[-111.8672,39.9602],[-111.8571,39.9673],[-111.8622,39.9964],[-111.8432,39.9966],[-111.8431,39.9821],[-111.8354,39.9796],[-111.8148,39.9824],[-111.8151,40.0042],[-111.8024,40.0044],[-111.801,40.0117],[-111.8058,40.0134],[-111.8083,40.0242],[-111.8129,40.0169],[-111.8177,40.0259],[-111.8247,40.0258],[-111.8289,40.0701],[-111.8151,40.0742],[-111.8059,40.0871],[-111.7879,40.0851],[-111.788,40.0979],[-111.7759,40.0978],[-111.7973,40.1172],[-111.7926,40.1227],[-111.8006,40.1266],[-111.7914,40.1335],[-111.7998,40.1377],[-111.7994,40.1441],[-111.8126,40.1449],[-111.8277,40.1743],[-111.8164,40.25],[-111.8547,40.257],[-111.8557,40.2624],[-111.8473,40.2688],[-111.8759,40.2679],[-111.8796,40.2607],[-111.8861,40.2606],[-111.8861,40.2715],[-111.9058,40.2751],[-111.9058,40.2931],[-111.9203,40.2967],[-111.9205,40.3112],[-111.9058,40.3076],[-111.9058,40.3184],[-111.9255,40.3184],[-111.9265,40.3328],[-111.9451,40.3329],[-111.9451,40.3401],[-111.9546,40.3402],[-111.9546,40.3328],[-111.9594,40.3328],[-111.9594,40.3438],[-111.9451,40.3438],[-111.9481,40.3558],[-111.964,40.3694],[-111.9498,40.3948],[-111.9784,40.395],[-111.9784,40.4002],[-111.9547,40.402],[-111.945,40.3984],[-111.9449,40.4203],[-111.9407,40.4204],[-111.9381,40.4296],[-111.96,40.4184],[-111.9821,40.4142],[-111.9928,40.4243],[-112.0065,40.4265],[-112.0066,40.4352],[-112.021,40.4385],[-112.0248,40.4444],[-112.0203,40.4473],[-112.0315,40.4505],[-112.0331,40.4626],[-112.0382,40.4646],[-112.0668,40.4464],[-112.0934,40.4479],[-112.112,40.4389],[-112.1148,40.4507],[-112.1432,40.4704],[-112.156,40.4672],[-112.1601,40.461],[-112.1902,40.4685],[-112.1957,40.4623],[-112.2122,40.4593],[-112.2142,40.4524]]]},"properties":{"geoid":"49050","state":"49","district":"50","name":"State House District 50","chamber":"House"}},{"type":"Feature","geometry":{"type":"Polygon","coordinates":[[[-111.9784,40.3986],[-111.9784,40.395],[-111.9498,40.3948],[-111.964,40.3694],[-111.9481,40.3558],[-111.9451,40.3438],[-111.9594,40.3438],[-111.9594,40.3328],[-111.9546,40.3328],[-111.9546,40.3402],[-111.9451,40.3401],[-111.9451,40.3329],[-111.9265,40.3328],[-111.9255,40.3184],[-111.9058,40.3184],[-111.9058,40.3076],[-111.9156,40.3076],[-111.9156,40.3112],[-111.9205,40.3082],[-111.9203,40.2967],[-111.9058,40.2931],[-111.9058,40.2751],[-111.8861,40.2715],[-111.8861,40.2606],[-111.8796,40.2607],[-111.8759,40.2679],[-111.8558,40.2682],[-111.8988,40.3314],[-111.9114,40.3382],[-111.8986,40.3611],[-111.9043,40.3625],[-111.9088,40.3714],[-111.9052,40.376],[-111.9141,40.3803],[-111.9026,40.3855],[-111.9061,40.3901],[-111.8955,40.3971],[-111.8978,40.4013],[-111.893,40.3991],[-111.9029,40.4033],[-111.8917,40.4146],[-111.9043,40.4285],[-111.9152,40.4319],[-111.9141,40.4408],[-111.9057,40.4444],[-111.9133,40.4525],[-111.9449,40.4203],[-111.945,40.3984],[-111.9668,40.4022],[-111.9784,40.3986]]]},"properties":{"geoid":"49051","state":"49","district":"51","name":"State House District 51","chamber":"House"}},{"type":"Feature","geometry":{"type":"Polygon","coordinates":[[[-111.9151,40.4325],[-111.9043,40.4285],[-111.8917,40.4146],[-111.9029,40.4033],[-111.893,40.3991],[-111.8978,40.4013],[-111.8955,40.3971],[-111.9061,40.3901],[-111.9026,40.3855],[-111.9141,40.3803],[-111.9049,40.3755],[-111.9088,40.3714],[-111.9043,40.3625],[-111.8986,40.3611],[-111.9018,40.3547],[-111.8873,40.3607],[-111.8682,40.361],[-111.8289,40.3543],[-111.8019,40.3419],[-111.8017,40.3478],[-111.7952,40.3478],[-111.7959,40.379],[-111.8354,40.3922],[-111.8737,40.4168],[-111.9057,40.4444],[-111.9141,40.4408],[-111.9151,40.4325]]]},"properties":{"geoid":"49052","state":"49","district":"52","name":"State House District 52","chamber":"House"}},{"type":"Feature","geometry":{"type":"Polygon","coordinates":[[[-111.9133,40.4525],[-111.8761,40.4186],[-111.8354,40.3922],[-111.7959,40.379],[-111.7957,40.3972],[-111.7903,40.4064],[-111.8262,40.4036],[-111.822,40.4136],[-111.8305,40.4244],[-111.817,40.4315],[-111.8235,40.4367],[-111.8212,40.4463],[-111.836,40.4499],[-111.8403,40.4426],[-111.8642,40.4462],[-111.8667,40.4537],[-111.8601,40.4645],[-111.8726,40.4645],[-111.8726,40.4717],[-111.9009,40.4635],[-111.9075,40.4535],[-111.9133,40.4525]]]},"properties":{"geoid":"49053","state":"49","district":"53","name":"State House District 53","chamber":"House"}},{"type":"Feature","geometry":{"type":"Polygon","coordinates":[[[-111.8831,40.4717],[-111.8726,40.4717],[-111.8726,40.4645],[-111.8601,40.4645],[-111.8667,40.4537],[-111.8642,40.4462],[-111.8403,40.4426],[-111.836,40.4499],[-111.8212,40.4463],[-111.8235,40.4367],[-111.817,40.4315],[-111.8305,40.4244],[-111.822,40.4136],[-111.8262,40.4036],[-111.7829,40.4088],[-111.754,40.404],[-111.7427,40.3921],[-111.7351,40.3921],[-111.7352,40.403],[-111.74,40.403],[-111.7401,40.4138],[-111.7449,40.414],[-111.7449,40.4211],[-111.7354,40.4211],[-111.7354,40.4247],[-111.7449,40.4247],[-111.7449,40.4335],[-111.6622,40.4537],[-111.6414,40.4456],[-111.6444,40.4506],[-111.631,40.4472],[-111.6195,40.4533],[-111.6094,40.4663],[-111.5965,40.467],[-111.5891,40.4723],[-111.5748,40.4869],[-111.5791,40.5004],[-111.5698,40.5261],[-111.5726,40.5374],[-111.5678,40.5472],[-111.5816,40.5663],[-111.5986,40.5778],[-111.6058,40.5644],[-111.6379,40.568],[-111.6502,40.5513],[-111.6614,40.55],[-111.664,40.5413],[-111.6783,40.5318],[-111.6981,40.5357],[-111.7131,40.5327],[-111.7206,40.5251],[-111.7351,40.5327],[-111.7438,40.5225],[-111.7624,40.5292],[-111.788,40.5137],[-111.7896,40.4979],[-111.8263,40.4864],[-111.8263,40.4827],[-111.8348,40.4818],[-111.8362,40.4749],[-111.846,40.4766],[-111.863,40.4693],[-111.8734,40.4771],[-111.8831,40.4717]]]},"properties":{"geoid":"49054","state":"49","district":"54","name":"State House District 54","chamber":"House"}},{"type":"Feature","geometry":{"type":"Polygon","coordinates":[[[-111.7959,40.3747],[-111.7519,40.3662],[-111.7423,40.3522],[-111.6628,40.3519],[-111.6541,40.363],[-111.6803,40.3786],[-111.7072,40.4201],[-111.7059,40.4254],[-111.7219,40.4382],[-111.7449,40.4335],[-111.7449,40.4247],[-111.7354,40.4247],[-111.7354,40.4211],[-111.7449,40.4211],[-111.7449,40.414],[-111.7401,40.4138],[-111.74,40.403],[-111.7352,40.403],[-111.7351,40.3921],[-111.7427,40.3921],[-111.754,40.404],[-111.7893,40.4085],[-111.7957,40.3972],[-111.7959,40.3747]]]},"properties":{"geoid":"49055","state":"49","district":"55","name":"State House District 55","chamber":"House"}},{"type":"Feature","geometry":{"type":"Polygon","coordinates":[[[-111.8017,40.3478],[-111.8005,40.3424],[-111.7969,40.3456],[-111.7855,40.3395],[-111.7793,40.3477],[-111.7728,40.341],[-111.7729,40.326],[-111.7593,40.3261],[-111.734,40.2912],[-111.7333,40.3046],[-111.6881,40.3053],[-111.6965,40.3308],[-111.7154,40.3337],[-111.732,40.3522],[-111.7423,40.3522],[-111.7439,40.3598],[-111.7521,40.3663],[-111.7952,40.3727],[-111.7952,40.3478],[-111.8017,40.3478]]]},"properties":{"geoid":"49056","state":"49","district":"56","name":"State House District 56","chamber":"House"}},{"type":"Feature","geometry":{"type":"Polygon","coordinates":[[[-111.7724,40.326],[-111.7723,40.2801],[-111.7586,40.2799],[-111.7369,40.2604],[-111.7235,40.2607],[-111.7254,40.268],[-111.7173,40.2694],[-111.7272,40.2752],[-111.6846,40.2734],[-111.6774,40.2618],[-111.6723,40.2712],[-111.6711,40.2657],[-111.6665,40.2687],[-111.667,40.2971],[-111.7147,40.2972],[-111.7149,40.3045],[-111.7333,40.3046],[-111.734,40.2912],[-111.7593,40.3261],[-111.7724,40.326]]]},"properties":{"geoid":"49057","state":"49","district":"57","name":"State House District 57","chamber":"House"}},{"type":"Feature","geometry":{"type":"Polygon","coordinates":[[[-111.7316,40.3519],[-111.7154,40.3337],[-111.6965,40.3308],[-111.6881,40.3064],[-111.7149,40.3045],[-111.7147,40.2972],[-111.667,40.2971],[-111.6665,40.2687],[-111.6711,40.266],[-111.6673,40.2631],[-111.6474,40.2631],[-111.6475,40.2683],[-111.6047,40.2692],[-111.6001,40.2804],[-111.5669,40.2873],[-111.5669,40.2836],[-111.5369,40.2755],[-111.5347,40.2637],[-111.5114,40.2836],[-111.469,40.2934],[-111.4504,40.3052],[-111.4379,40.3213],[-111.4533,40.3343],[-111.4532,40.3403],[-111.4625,40.3403],[-111.4623,40.3475],[-111.4716,40.3476],[-111.4805,40.355],[-111.4803,40.3622],[-111.5552,40.3627],[-111.5553,40.3699],[-111.5602,40.3698],[-111.5601,40.3878],[-111.5742,40.3914],[-111.5743,40.4129],[-111.5837,40.4128],[-111.5838,40.4202],[-111.5989,40.4345],[-111.6125,40.4319],[-111.6195,40.4533],[-111.631,40.4472],[-111.6444,40.4506],[-111.6412,40.4456],[-111.6622,40.4537],[-111.7219,40.4382],[-111.7059,40.4254],[-111.7072,40.4201],[-111.6803,40.3786],[-111.6541,40.363],[-111.6628,40.3519],[-111.7316,40.3519]]]},"properties":{"geoid":"49058","state":"49","district":"58","name":"State House District 58","chamber":"House"}},{"type":"Feature","geometry":{"type":"Polygon","coordinates":[[[-111.621,40.4498],[-111.6125,40.4319],[-111.5989,40.4345],[-111.5838,40.4202],[-111.5837,40.4128],[-111.5743,40.4129],[-111.5742,40.3914],[-111.5601,40.3878],[-111.5602,40.3698],[-111.5553,40.3699],[-111.5552,40.3627],[-111.4803,40.3622],[-111.4805,40.355],[-111.4716,40.3476],[-111.4623,40.3475],[-111.4625,40.3403],[-111.4532,40.3403],[-111.4533,40.3343],[-111.4379,40.3215],[-111.4574,40.3006],[-111.4516,40.2933],[-111.4337,40.2919],[-111.4264,40.287],[-111.4127,40.2895],[-111.4103,40.2952],[-111.3969,40.2924],[-111.3773,40.2975],[-111.3608,40.2887],[-111.3368,40.2883],[-111.3284,40.2823],[-111.3148,40.2876],[-111.3072,40.283],[-111.308,40.2746],[-111.2977,40.273],[-111.2942,40.2656],[-111.2789,40.2588],[-111.2648,40.2421],[-111.2737,40.2361],[-111.2718,40.2189],[-111.2618,40.2109],[-111.2649,40.2093],[-111.2564,40.2012],[-111.2582,40.1979],[-111.248,40.1938],[-111.2252,40.1664],[-111.2315,40.1479],[-111.225,40.1431],[-111.2215,40.1245],[-111.2415,40.0918],[-111.2407,40.0735],[-111.2359,40.0696],[-111.2494,40.0553],[-111.2462,40.0475],[-111.238,40.0386],[-111.2265,40.0357],[-111.2038,40.0493],[-111.1977,40.0312],[-111.1717,40.0107],[-111.1678,39.9908],[-111.1596,39.9918],[-111.1519,39.985],[-111.143,39.987],[-111.1296,39.9705],[-111.1189,39.9678],[-111.1202,39.9571],[-111.1312,39.9474],[-111.0831,39.9432],[-111.0831,39.9001],[-110.8917,39.8997],[-110.8966,40.4309],[-110.9029,40.4313],[-110.902,40.6822],[-110.934,40.6804],[-110.9444,40.6726],[-110.9488,40.6613],[-110.945,40.6463],[-110.9607,40.6242],[-110.9622,40.6054],[-110.9761,40.593],[-111.0108,40.5921],[-111.0227,40.579],[-111.0323,40.5759],[-111.0536,40.5811],[-111.0791,40.5946],[-111.1072,40.5941],[-111.1233,40.5891],[-111.1332,40.5752],[-111.1371,40.5584],[-111.1515,40.5483],[-111.2123,40.5739],[-111.2524,40.5816],[-111.2874,40.5983],[-111.2936,40.6079],[-111.3032,40.6058],[-111.3264,40.6231],[-111.3698,40.6296],[-111.39,40.6601],[-111.3939,40.6906],[-111.4124,40.6811],[-111.4366,40.686],[-111.4369,40.6806],[-111.442,40.6808],[-111.4624,40.6831],[-111.4723,40.6976],[-111.4916,40.6975],[-111.4918,40.7034],[-111.5075,40.7011],[-111.511,40.7063],[-111.5372,40.7044],[-111.5546,40.6871],[-111.5873,40.6898],[-111.5866,40.6994],[-111.5927,40.6991],[-111.6011,40.6879],[-111.6045,40.6666],[-111.5939,40.6517],[-111.5782,40.6441],[-111.5766,40.6335],[-111.5576,40.6196],[-111.5589,40.6134],[-111.5532,40.6096],[-111.564,40.5849],[-111.5939,40.5771],[-111.5678,40.5472],[-111.5726,40.5374],[-111.5698,40.5261],[-111.5791,40.5004],[-111.5748,40.4869],[-111.5951,40.4676],[-111.6094,40.4663],[-111.621,40.4498]]]},"properties":{"geoid":"49059","state":"49","district":"59","name":"State House District 59","chamber":"House"}},{"type":"Feature","geometry":{"type":"Polygon","coordinates":[[[-111.6724,40.2567],[-111.6675,40.2506],[-111.6675,40.2378],[-111.6363,40.2374],[-111.6281,40.2458],[-111.6169,40.2453],[-111.6107,40.2357],[-111.5899,40.2358],[-111.5899,40.2396],[-111.5424,40.2468],[-111.5369,40.2755],[-111.5669,40.2836],[-111.5669,40.2873],[-111.581,40.2871],[-111.5903,40.2801],[-111.6001,40.2804],[-111.6047,40.2692],[-111.6475,40.2683],[-111.6474,40.2631],[-111.6715,40.266],[-111.6724,40.2567]]]},"properties":{"geoid":"49060","state":"49","district":"60","name":"State House District 60","chamber":"House"}},{"type":"Feature","geometry":{"type":"Polygon","coordinates":[[[-111.9114,40.339],[-111.8984,40.3309],[-111.8558,40.2682],[-111.8464,40.2686],[-111.8543,40.2645],[-111.8553,40.2575],[-111.8164,40.25],[-111.8277,40.1743],[-111.8126,40.1449],[-111.7994,40.1441],[-111.7999,40.1388],[-111.7935,40.1382],[-111.7538,40.1494],[-111.748,40.155],[-111.7485,40.1668],[-111.738,40.1706],[-111.7386,40.1788],[-111.7329,40.183],[-111.7185,40.1784],[-111.7221,40.1674],[-111.7145,40.161],[-111.6962,40.1769],[-111.6848,40.1743],[-111.672,40.1758],[-111.6694,40.1793],[-111.6743,40.1807],[-111.6553,40.1808],[-111.6588,40.1941],[-111.675,40.2045],[-111.6777,40.213],[-111.6745,40.2272],[-111.6797,40.2324],[-111.6675,40.2338],[-111.6723,40.2712],[-111.6774,40.2618],[-111.6846,40.2734],[-111.7272,40.2752],[-111.7173,40.2694],[-111.7254,40.268],[-111.7235,40.2607],[-111.7369,40.2604],[-111.7586,40.2799],[-111.7723,40.2801],[-111.7728,40.341],[-111.7793,40.3477],[-111.7855,40.3395],[-111.8352,40.3558],[-111.8873,40.3607],[-111.9008,40.3544],[-111.9114,40.339]]]},"properties":{"geoid":"49061","state":"49","district":"61","name":"State House District 61","chamber":"House"}},{"type":"Feature","geometry":{"type":"Polygon","coordinates":[[[-111.6795,40.2325],[-111.6745,40.2272],[-111.6777,40.2258],[-111.675,40.2045],[-111.6551,40.1883],[-111.6553,40.1808],[-111.6743,40.1807],[-111.6694,40.1793],[-111.6693,40.1585],[-111.6521,40.156],[-111.6467,40.1445],[-111.6394,40.1446],[-111.6373,40.1535],[-111.6198,40.154],[-111.618,40.1611],[-111.6107,40.1611],[-111.6106,40.1722],[-111.5919,40.1723],[-111.5962,40.1776],[-111.5936,40.1813],[-111.6041,40.1829],[-111.6079,40.1922],[-111.6201,40.2004],[-111.6182,40.2355],[-111.6105,40.2378],[-111.6169,40.2453],[-111.6281,40.2458],[-111.6363,40.2374],[-111.6675,40.2378],[-111.6675,40.2338],[-111.6795,40.2325]]]},"properties":{"geoid":"49062","state":"49","district":"62","name":"State House District 62","chamber":"House"}},{"type":"Feature","geometry":{"type":"Polygon","coordinates":[[[-111.6489,40.1286],[-111.6325,40.1102],[-111.6062,40.0932],[-111.6072,40.0803],[-111.6017,40.0791],[-111.6277,40.061],[-111.6339,40.0394],[-111.6244,40.0434],[-111.6094,40.0312],[-111.5911,40.0303],[-111.5971,40.0111],[-111.591,39.9975],[-111.6137,39.9868],[-111.6163,39.9775],[-111.6261,39.9707],[-111.6206,39.9656],[-111.6331,39.9573],[-111.6358,39.9501],[-111.6308,39.947],[-111.589,39.9381],[-111.5641,39.9261],[-111.5443,39.9243],[-111.5391,39.9469],[-111.5191,39.9657],[-111.5104,39.9673],[-111.4959,39.9935],[-111.4163,39.9975],[-111.3696,39.989],[-111.3199,39.9656],[-111.3094,39.9655],[-111.2895,39.9523],[-111.2483,39.9569],[-111.228,39.9536],[-111.2049,39.9453],[-111.1963,39.9298],[-111.1372,39.9367],[-111.0934,39.9334],[-111.083,39.9285],[-111.0831,39.9432],[-111.1312,39.9474],[-111.1202,39.9571],[-111.1189,39.9678],[-111.1296,39.9705],[-111.143,39.987],[-111.1519,39.985],[-111.1596,39.9918],[-111.1678,39.9908],[-111.1717,40.0107],[-111.1977,40.0312],[-111.2038,40.0493],[-111.2265,40.0357],[-111.238,40.0386],[-111.2456,40.0465],[-111.2494,40.0553],[-111.2359,40.0696],[-111.2407,40.0735],[-111.2415,40.0918],[-111.2215,40.1245],[-111.225,40.1431],[-111.2315,40.1479],[-111.2252,40.1664],[-111.248,40.1938],[-111.2582,40.1979],[-111.2564,40.2012],[-111.2649,40.2093],[-111.2618,40.2109],[-111.2734,40.222],[-111.2737,40.2361],[-111.2648,40.2423],[-111.279,40.2589],[-111.2942,40.2656],[-111.2944,40.2708],[-111.308,40.2746],[-111.3071,40.2826],[-111.3134,40.2873],[-111.3284,40.2823],[-111.3368,40.2883],[-111.3608,40.2887],[-111.3773,40.2975],[-111.3969,40.2924],[-111.4103,40.2952],[-111.4127,40.2895],[-111.4266,40.287],[-111.4337,40.2919],[-111.4516,40.2933],[-111.4573,40.3007],[-111.4718,40.2921],[-111.5131,40.2826],[-111.5369,40.2612],[-111.5424,40.2612],[-111.5424,40.2468],[-111.5899,40.2396],[-111.5899,40.2358],[-111.6182,40.2355],[-111.6201,40.2004],[-111.6079,40.1922],[-111.6041,40.1829],[-111.5936,40.1813],[-111.5962,40.1776],[-111.5919,40.1723],[-111.6106,40.1722],[-111.6107,40.1611],[-111.618,40.1611],[-111.6198,40.154],[-111.6373,40.1535],[-111.6394,40.1446],[-111.6467,40.1445],[-111.6489,40.1286]]]},"properties":{"geoid":"49063","state":"49","district":"63","name":"State House District 63","chamber":"House"}},{"type":"Feature","geometry":{"type":"Polygon","coordinates":[[[-111.8006,40.1266],[-111.7926,40.1227],[-111.7973,40.1172],[-111.7759,40.0978],[-111.7078,40.0982],[-111.7082,40.0853],[-111.6648,40.083],[-111.6624,40.0721],[-111.6705,40.0644],[-111.6686,40.0606],[-111.6834,40.0511],[-111.6859,40.0426],[-111.692,40.0426],[-111.6919,40.0343],[-111.668,40.0236],[-111.6677,40.0056],[-111.6635,39.9984],[-111.6568,39.9985],[-111.6563,39.9839],[-111.6266,39.9732],[-111.6163,39.9775],[-111.6112,39.9893],[-111.591,39.9975],[-111.5971,40.0111],[-111.5913,40.0309],[-111.6094,40.0312],[-111.6244,40.0434],[-111.6339,40.0394],[-111.6277,40.061],[-111.6017,40.0791],[-111.6072,40.0803],[-111.6062,40.0932],[-111.6323,40.11],[-111.6479,40.1268],[-111.6466,40.1485],[-111.6521,40.156],[-111.6693,40.1585],[-111.6695,40.1784],[-111.6848,40.1743],[-111.6962,40.1769],[-111.7149,40.161],[-111.7221,40.1674],[-111.7185,40.1784],[-111.7333,40.1829],[-111.7386,40.1788],[-111.738,40.1706],[-111.7488,40.1664],[-111.7496,40.1527],[-111.7727,40.1422],[-111.7999,40.1388],[-111.7914,40.1332],[-111.8006,40.1266]]]},"properties":{"geoid":"49064","state":"49","district":"64","name":"State House District 64","chamber":"House"}},{"type":"Feature","geometry":{"type":"Polygon","coordinates":[[[-111.843,39.9747],[-111.8419,39.9383],[-111.8313,39.9385],[-111.8239,39.9477],[-111.7944,39.931],[-111.7867,39.9228],[-111.7891,39.9153],[-111.7813,39.9013],[-111.7684,39.8982],[-111.757,39.8888],[-111.7513,39.8992],[-111.7548,39.9244],[-111.7265,39.8996],[-111.7283,39.9055],[-111.7174,39.9188],[-111.7021,39.9072],[-111.6564,39.8984],[-111.6523,39.9067],[-111.6341,39.9154],[-111.6313,39.9241],[-111.6345,39.9344],[-111.6423,39.9409],[-111.6418,39.9507],[-111.6358,39.9501],[-111.6318,39.9586],[-111.6267,39.9583],[-111.6203,39.9673],[-111.6261,39.9707],[-111.6163,39.9775],[-111.6301,39.973],[-111.6563,39.9839],[-111.6568,39.9985],[-111.6635,39.9984],[-111.6677,40.0056],[-111.668,40.0236],[-111.6919,40.0343],[-111.692,40.0426],[-111.6859,40.0426],[-111.6834,40.0511],[-111.6686,40.0606],[-111.6705,40.0644],[-111.6624,40.0721],[-111.6648,40.083],[-111.7082,40.0853],[-111.7078,40.0982],[-111.788,40.0979],[-111.7879,40.0851],[-111.8059,40.0871],[-111.8151,40.0742],[-111.8289,40.0701],[-111.8247,40.0258],[-111.8177,40.0259],[-111.8129,40.0169],[-111.8083,40.0242],[-111.801,40.008],[-111.8024,40.0044],[-111.8151,40.0042],[-111.8148,39.9824],[-111.8242,39.9823],[-111.824,39.9755],[-111.843,39.9747]]]},"properties":{"geoid":"49065","state":"49","district":"65","name":"State House District 65","chamber":"House"}},{"type":"Feature","geometry":{"type":"Polygon","coordinates":[[[-112.3534,39.5553],[-112.212,39.554],[-112.212,39.5477],[-112.2027,39.5404],[-112.1933,39.5405],[-112.1932,39.526],[-112.212,39.526],[-112.212,39.5116],[-112.2026,39.5043],[-112.2026,39.4899],[-112.1933,39.4898],[-112.1936,39.3731],[-112.1889,39.3731],[-112.1889,39.3294],[-112.0721,39.3297],[-112.0722,39.3149],[-112.016,39.3146],[-112.0141,39.0455],[-111.8499,39.0456],[-111.8463,39.0424],[-111.8532,39.0406],[-111.8533,39.033],[-111.2994,39.0323],[-111.3009,39.4672],[-111.2477,39.4672],[-111.2475,39.813],[-110.8578,39.813],[-110.8576,39.8997],[-111.0831,39.9001],[-111.083,39.9285],[-111.0921,39.9331],[-111.1378,39.9367],[-111.1963,39.9298],[-111.2049,39.9453],[-111.228,39.9536],[-111.2483,39.9569],[-111.2895,39.9523],[-111.3094,39.9655],[-111.3199,39.9656],[-111.3696,39.989],[-111.4174,39.9975],[-111.4959,39.9935],[-111.5104,39.9673],[-111.5191,39.9657],[-111.5391,39.9469],[-111.5443,39.9243],[-111.5641,39.9261],[-111.589,39.9381],[-111.6083,39.9391],[-111.6406,39.9525],[-111.6423,39.9409],[-111.6345,39.9344],[-111.6314,39.9231],[-111.6369,39.9123],[-111.6523,39.9067],[-111.659,39.8975],[-111.7021,39.9072],[-111.7174,39.9188],[-111.7283,39.9055],[-111.7265,39.8996],[-111.7548,39.9244],[-111.7513,39.8992],[-111.757,39.8888],[-111.7684,39.8982],[-111.7813,39.9013],[-111.7891,39.9153],[-111.7867,39.9228],[-111.7944,39.931],[-111.8239,39.9477],[-111.8313,39.9385],[-111.8419,39.9383],[-111.843,39.9747],[-111.8235,39.9786],[-111.8431,39.9821],[-111.8432,39.9966],[-111.8622,39.9964],[-111.8571,39.9673],[-111.8681,39.9599],[-111.9735,39.9651],[-111.983,40.0129],[-111.9992,40.0173],[-112.001,40.0473],[-112.0055,40.0547],[-111.995,40.0547],[-111.9942,40.0745],[-112.0104,40.0669],[-112.0113,40.0716],[-112.0188,40.0679],[-112.0106,40.0776],[-112.0142,40.0842],[-112.0342,40.0884],[-112.0425,40.0829],[-112.0455,40.0869],[-112.0967,40.086],[-112.115,40.0804],[-112.1307,40.0862],[-112.1322,40.0908],[-112.1571,40.0979],[-112.1579,40.0891],[-112.1745,40.0818],[-112.1731,40.0662],[-112.18,40.0672],[-112.1838,40.06],[-112.172,40.0396],[-112.1798,40.0117],[-112.2245,39.9885],[-112.2363,39.9605],[-112.2432,39.9571],[-112.2298,39.9458],[-112.1956,39.943],[-112.1445,39.9196],[-112.1379,39.9006],[-112.1382,39.8369],[-112.1527,39.7794],[-112.1793,39.7583],[-112.2069,39.7096],[-112.3018,39.6451],[-112.3534,39.5553]]]},"properties":{"geoid":"49066","state":"49","district":"66","name":"State House District 66","chamber":"House"}},{"type":"Feature","geometry":{"type":"Polygon","coordinates":[[[-111.3013,39.3234],[-111.2997,39.1554],[-111.2752,39.1441],[-111.2607,39.1225],[-111.231,39.1045],[-111.2071,39.0999],[-111.195,39.0877],[-111.1835,39.0909],[-111.1818,39.0963],[-111.1634,39.0881],[-111.1506,39.0881],[-111.1507,39.096],[-111.143,39.0925],[-111.146,39.0992],[-111.1326,39.0999],[-111.1318,39.1066],[-111.1366,39.1103],[-111.1253,39.1126],[-111.1224,39.1104],[-111.1265,39.0971],[-111.1063,39.0962],[-111.1224,39.0949],[-111.1224,39.0891],[-111.0515,39.0904],[-111.0391,39.0868],[-111.0323,39.0925],[-111.031,39.1043],[-111.0206,39.1063],[-111.0157,39.1134],[-110.9953,39.1139],[-110.9891,39.1196],[-110.9606,39.1262],[-110.9621,39.1293],[-110.9491,39.1285],[-110.933,39.1401],[-110.9134,39.1449],[-110.9109,39.1603],[-110.9198,39.1641],[-110.9142,39.1682],[-110.9216,39.1725],[-110.9164,39.1779],[-110.9241,39.1853],[-110.9119,39.2021],[-110.9183,39.2067],[-110.917,39.2138],[-110.9126,39.217],[-110.8899,39.2134],[-110.8841,39.2213],[-110.8902,39.224],[-110.8874,39.2285],[-110.8638,39.2352],[-110.8221,39.2604],[-110.8141,39.2742],[-110.8143,39.2937],[-110.7729,39.3323],[-110.7785,39.3507],[-110.7762,39.356],[-110.7249,39.3987],[-110.7081,39.4214],[-110.7064,39.4385],[-110.7244,39.463],[-110.7211,39.4694],[-110.0219,39.4706],[-110.0245,39.4778],[-110.0147,39.4909],[-110.0223,39.4995],[-110.0254,39.5211],[-110.0397,39.525],[-110.0482,39.5331],[-110.0295,39.5402],[-110.0287,39.5543],[-110.0372,39.5603],[-110.0381,39.5668],[-110.0318,39.5773],[-110.0186,39.5862],[-110.0285,39.5948],[-110.029,39.6007],[-110.018,39.6092],[-110.0113,39.625],[-109.9972,39.6267],[-110.0114,39.6372],[-110.0105,39.6465],[-109.996,39.6462],[-109.9844,39.664],[-109.986,39.6822],[-110.0033,39.6826],[-110.0051,39.6872],[-109.9943,39.6933],[-109.9935,39.7035],[-109.9776,39.7041],[-109.9706,39.7095],[-109.9929,39.7306],[-109.9929,39.7373],[-109.9653,39.7422],[-109.9607,39.7378],[-109.9615,39.7251],[-109.9505,39.7194],[-109.9538,39.7346],[-109.9451,39.75],[-109.9304,39.749],[-109.921,39.7734],[-109.928,39.798],[-109.9211,39.7988],[-109.9184,39.7859],[-109.894,39.7887],[-109.8789,39.7831],[-109.8739,39.7863],[-109.8783,39.7937],[-109.8935,39.8002],[-109.8831,39.8062],[-109.9768,39.8062],[-109.9766,40.3417],[-110.0056,40.3421],[-110.0008,40.339],[-110.0225,40.3274],[-110.0297,40.3339],[-110.0297,40.3237],[-110.0202,40.3238],[-110.0155,40.3129],[-110.0202,40.3129],[-110.0178,40.3021],[-110.0352,40.2999],[-110.0484,40.3021],[-110.0485,40.3321],[-110.3131,40.3341],[-110.3128,40.2414],[-110.3733,40.2414],[-110.3968,40.25],[-110.422,40.2701],[-110.4491,40.2709],[-110.5199,40.298],[-110.5975,40.2968],[-110.6358,40.3084],[-110.6712,40.3313],[-110.6733,40.3239],[-110.7008,40.3152],[-110.696,40.299],[-110.8967,40.2994],[-110.8917,39.8997],[-110.8576,39.8997],[-110.8578,39.813],[-111.2475,39.813],[-111.2477,39.4672],[-111.3009,39.4672],[-111.3013,39.3234]]]},"properties":{"geoid":"49067","state":"49","district":"67","name":"State House District 67","chamber":"House"}},{"type":"Feature","geometry":{"type":"Polygon","coordinates":[[[-110.905,40.6946],[-110.9007,40.6838],[-110.9029,40.4313],[-110.8966,40.4313],[-110.8967,40.2994],[-110.696,40.299],[-110.7008,40.3152],[-110.6733,40.3239],[-110.6712,40.3313],[-110.6358,40.3084],[-110.5975,40.2968],[-110.5199,40.298],[-110.4491,40.2709],[-110.422,40.2701],[-110.3968,40.25],[-110.3733,40.2414],[-110.3128,40.2414],[-110.3131,40.3341],[-110.0485,40.3321],[-110.0484,40.3021],[-110.0352,40.2999],[-110.0178,40.3021],[-110.0202,40.3129],[-110.0155,40.3129],[-110.0202,40.3238],[-110.0297,40.3237],[-110.0297,40.3339],[-110.0225,40.3274],[-110.0008,40.339],[-110.0056,40.3421],[-109.9766,40.3417],[-109.9768,39.8062],[-109.8831,39.8062],[-109.8935,39.8002],[-109.8783,39.7937],[-109.8739,39.7863],[-109.8789,39.7831],[-109.894,39.7887],[-109.9184,39.7859],[-109.9211,39.7988],[-109.928,39.798],[-109.921,39.7734],[-109.9304,39.749],[-109.9451,39.75],[-109.9538,39.7346],[-109.9505,39.7194],[-109.9615,39.7251],[-109.9607,39.7378],[-109.9653,39.7422],[-109.9929,39.7373],[-109.9929,39.7306],[-109.9706,39.7095],[-109.9776,39.7041],[-109.9935,39.7035],[-109.9943,39.6933],[-110.0051,39.6872],[-110.0033,39.6826],[-109.986,39.6822],[-109.9844,39.664],[-109.996,39.6462],[-110.0105,39.6465],[-110.0114,39.6372],[-109.9972,39.6267],[-110.0113,39.625],[-110.018,39.6092],[-110.029,39.6007],[-110.0285,39.5948],[-110.0186,39.5862],[-110.0318,39.5773],[-110.0381,39.5668],[-110.0372,39.5603],[-110.0287,39.5543],[-110.0295,39.5402],[-110.0482,39.5331],[-110.0397,39.525],[-110.0254,39.5211],[-110.0223,39.4995],[-110.0147,39.4909],[-110.0245,39.4778],[-110.024,39.4693],[-109.9533,39.4693],[-109.9533,39.4618],[-109.1069,39.4621],[-109.1043,39.4694],[-109.0959,39.4714],[-109.0876,39.4923],[-109.0768,39.4892],[-109.0729,39.4999],[-109.0685,39.4955],[-109.063,39.4996],[-109.0512,39.4977],[-109.05,41.0007],[-110.2741,40.9948],[-110.8648,40.9972],[-110.8286,40.9273],[-110.8311,40.877],[-110.8465,40.8521],[-110.8487,40.8376],[-110.8696,40.8192],[-110.8863,40.7865],[-110.8828,40.7624],[-110.8642,40.7289],[-110.8652,40.7231],[-110.8755,40.7284],[-110.8924,40.727],[-110.8943,40.7231],[-110.8852,40.7163],[-110.9028,40.7066],[-110.905,40.6946]]]},"properties":{"geoid":"49068","state":"49","district":"68","name":"State House District 68","chamber":"House"}},{"type":"Feature","geometry":{"type":"Polygon","coordinates":[[[-112.9013,37.2863],[-112.8992,37.0004],[-110.6257,37.0037],[-110.4903,37.0036],[-110.4697,36.9977],[-109.0452,36.999],[-109.0426,38.157],[-109.0602,38.2782],[-109.0512,39.4977],[-109.063,39.4996],[-109.0685,39.4955],[-109.0729,39.4999],[-109.0768,39.4892],[-109.0876,39.4923],[-109.0959,39.4714],[-109.1043,39.4694],[-109.1069,39.4621],[-109.9533,39.4618],[-109.9533,39.4693],[-110.7211,39.4694],[-110.7244,39.463],[-110.7064,39.4385],[-110.7081,39.4214],[-110.7249,39.3987],[-110.7762,39.356],[-110.7785,39.3507],[-110.7729,39.3323],[-110.8143,39.2937],[-110.8141,39.2742],[-110.8221,39.2604],[-110.8638,39.2352],[-110.8874,39.2285],[-110.8902,39.224],[-110.8841,39.2213],[-110.8899,39.2134],[-110.9126,39.217],[-110.917,39.2138],[-110.9183,39.2067],[-110.9119,39.2021],[-110.9241,39.1853],[-110.9164,39.1779],[-110.9216,39.1725],[-110.9142,39.1682],[-110.9198,39.1641],[-110.9109,39.1603],[-110.9134,39.1449],[-110.933,39.1401],[-110.9491,39.1285],[-110.9621,39.1293],[-110.9606,39.1262],[-110.9891,39.1196],[-110.9953,39.1139],[-111.0157,39.1134],[-111.0206,39.1063],[-111.031,39.1043],[-111.0323,39.0925],[-111.0391,39.0868],[-111.0515,39.0904],[-111.1224,39.0891],[-111.1224,39.0949],[-111.1063,39.0962],[-111.1265,39.0971],[-111.1224,39.1104],[-111.1253,39.1126],[-111.1366,39.1103],[-111.1318,39.1066],[-111.1326,39.0999],[-111.146,39.0992],[-111.143,39.0925],[-111.1507,39.096],[-111.1506,39.0881],[-111.1634,39.0881],[-111.1818,39.0963],[-111.1835,39.0909],[-111.195,39.0877],[-111.2071,39.0999],[-111.231,39.1045],[-111.2607,39.1225],[-111.2752,39.1441],[-111.2997,39.1554],[-111.2991,38.6723],[-111.307,38.6723],[-111.3057,38.5102],[-111.7563,38.5101],[-111.8236,38.4572],[-111.8372,38.4285],[-111.8488,38.4249],[-111.8432,38.1512],[-111.9512,38.1512],[-111.9513,38.1461],[-112.0245,38.1456],[-112.1558,38.1503],[-112.4788,38.1474],[-112.479,37.9777],[-112.467,37.9777],[-112.4683,37.8905],[-112.5885,37.8904],[-112.5886,37.8822],[-112.5785,37.8821],[-112.5785,37.8045],[-112.6893,37.8056],[-112.6838,37.5437],[-112.9012,37.5435],[-112.9013,37.2863]]]},"properties":{"geoid":"49069","state":"49","district":"69","name":"State House District 69","chamber":"House"}},{"type":"Feature","geometry":{"type":"Polygon","coordinates":[[[-114.0524,37.6048],[-113.5878,37.6046],[-113.5878,37.6182],[-113.4745,37.6183],[-113.4611,37.6112],[-113.4584,37.596],[-113.4371,37.5959],[-113.4371,37.6035],[-113.412,37.6107],[-113.3575,37.6078],[-113.3071,37.6304],[-113.283,37.6371],[-113.2679,37.6361],[-113.1706,37.6807],[-113.166,37.688],[-113.1705,37.7102],[-113.1521,37.7102],[-113.1522,37.7066],[-113.1373,37.7038],[-113.136,37.7102],[-113.134,37.7033],[-113.1471,37.6996],[-113.1293,37.6997],[-113.1294,37.7064],[-113.1199,37.7065],[-113.1198,37.7115],[-113.0946,37.71],[-113.0923,37.7173],[-113.0971,37.721],[-113.1106,37.721],[-113.106,37.732],[-113.0923,37.7266],[-113.0921,37.7196],[-113.0859,37.721],[-113.0879,37.7355],[-113.0786,37.7355],[-113.0859,37.7301],[-113.0765,37.7262],[-113.0735,37.7312],[-113.0601,37.7302],[-113.0601,37.7356],[-113.048,37.7325],[-113.021,37.7574],[-113.007,37.7634],[-113.0132,37.7661],[-113.0092,37.7694],[-112.911,37.8232],[-112.8486,37.8469],[-112.8396,37.852],[-112.8417,37.8569],[-112.8302,37.8533],[-112.8302,37.8616],[-112.8249,37.862],[-112.7754,37.912],[-112.6864,38.0757],[-112.6404,38.1164],[-112.6141,38.148],[-112.1558,38.1503],[-112.0245,38.1456],[-111.9513,38.1461],[-111.9512,38.1512],[-111.8432,38.1512],[-111.8488,38.4249],[-111.8372,38.4285],[-111.8236,38.4572],[-111.7563,38.5101],[-111.3057,38.5102],[-111.307,38.6723],[-111.2991,38.6723],[-111.2994,39.0323],[-111.8533,39.033],[-111.8532,39.0406],[-111.8463,39.0424],[-111.8499,39.0456],[-112.0141,39.0455],[-112.0189,38.9959],[-112.0564,38.9957],[-112.0564,38.9884],[-112.0657,38.9884],[-112.0652,38.9593],[-112.1339,38.9593],[-112.134,38.9355],[-112.1519,38.9355],[-112.1508,38.9065],[-112.1694,38.9061],[-112.1716,38.8786],[-112.1885,38.8794],[-112.1885,38.8648],[-112.2245,38.8648],[-112.2284,38.764],[-112.2191,38.764],[-112.2184,38.7274],[-112.2366,38.7271],[-112.2415,38.7125],[-112.2554,38.7123],[-112.2554,38.705],[-112.2824,38.7015],[-112.2823,38.6869],[-112.3099,38.6834],[-112.31,38.6763],[-112.3566,38.6767],[-112.3565,38.6839],[-112.366,38.6842],[-112.4475,38.6813],[-112.4477,38.6739],[-112.466,38.6739],[-112.4662,38.6593],[-112.4753,38.6593],[-112.4752,38.6447],[-112.4844,38.6446],[-112.4848,38.6006],[-112.5031,38.6006],[-112.5031,38.5714],[-114.05,38.573],[-114.0483,37.8094],[-114.0524,37.6048]]]},"properties":{"geoid":"49070","state":"49","district":"70","name":"State House District 70","chamber":"House"}},{"type":"Feature","geometry":{"type":"Polygon","coordinates":[[[-113.4746,37.6038],[-113.474,37.5291],[-113.2533,37.529],[-113.2535,37.4822],[-113.1461,37.481],[-113.1461,37.4743],[-113.037,37.4745],[-113.0371,37.4997],[-112.9009,37.5],[-112.9012,37.5435],[-112.6838,37.5437],[-112.6893,37.8056],[-112.5785,37.8045],[-112.5785,37.8821],[-112.5886,37.8822],[-112.5885,37.8904],[-112.4683,37.8905],[-112.467,37.9777],[-112.479,37.9777],[-112.4788,38.1474],[-112.6141,38.148],[-112.6404,38.1164],[-112.6864,38.0757],[-112.7754,37.912],[-112.8249,37.862],[-112.8302,37.8616],[-112.8302,37.8533],[-112.8417,37.8569],[-112.8396,37.852],[-112.8486,37.8469],[-112.911,37.8232],[-113.0092,37.7694],[-113.0132,37.7661],[-113.007,37.7634],[-113.021,37.7574],[-113.048,37.7325],[-113.0601,37.7356],[-113.0601,37.7302],[-113.0735,37.7312],[-113.0765,37.7262],[-113.0859,37.7301],[-113.0786,37.7355],[-113.0879,37.7355],[-113.0859,37.721],[-113.0921,37.7196],[-113.0923,37.7266],[-113.106,37.732],[-113.1106,37.721],[-113.0971,37.721],[-113.0925,37.7117],[-113.1198,37.7115],[-113.1199,37.7065],[-113.1294,37.7064],[-113.1293,37.6997],[-113.1478,37.6996],[-113.134,37.7033],[-113.136,37.7102],[-113.1373,37.7038],[-113.1522,37.7066],[-113.1521,37.7102],[-113.1705,37.7102],[-113.166,37.688],[-113.1706,37.6807],[-113.2679,37.6361],[-113.283,37.6371],[-113.3071,37.6304],[-113.357,37.608],[-113.412,37.6107],[-113.4371,37.6035],[-113.4371,37.5959],[-113.4584,37.596],[-113.4611,37.6112],[-113.4745,37.6181],[-113.4746,37.6038]]]},"properties":{"geoid":"49071","state":"49","district":"71","name":"State House District 71","chamber":"House"}},{"type":"Feature","geometry":{"type":"Polygon","coordinates":[[[-113.5581,37.0003],[-112.8992,37.0003],[-112.9009,37.5],[-113.0371,37.4997],[-113.037,37.4745],[-113.1461,37.4743],[-113.1461,37.481],[-113.2535,37.4822],[-113.2533,37.529],[-113.4549,37.5291],[-113.4585,37.5217],[-113.4674,37.5182],[-113.4691,37.5092],[-113.4911,37.5034],[-113.4897,37.4893],[-113.4783,37.4846],[-113.4739,37.4686],[-113.4762,37.4468],[-113.4704,37.4394],[-113.4717,37.4285],[-113.4562,37.422],[-113.4534,37.415],[-113.4605,37.4079],[-113.4503,37.3919],[-113.4519,37.3765],[-113.4306,37.384],[-113.4144,37.383],[-113.4094,37.3785],[-113.3876,37.404],[-113.3492,37.4031],[-113.3302,37.3918],[-113.3047,37.3922],[-113.2919,37.3827],[-113.2872,37.3778],[-113.2903,37.3771],[-113.2901,37.348],[-113.3014,37.348],[-113.3013,37.3022],[-113.3104,37.3022],[-113.3105,37.2877],[-113.3287,37.2877],[-113.3287,37.2625],[-113.323,37.266],[-113.3265,37.2444],[-113.3151,37.2443],[-113.3227,37.2412],[-113.3238,37.2286],[-113.3284,37.2286],[-113.3282,37.2141],[-113.3496,37.2014],[-113.3511,37.1917],[-113.3669,37.1924],[-113.3715,37.1839],[-113.3796,37.1839],[-113.3795,37.1991],[-113.3851,37.1991],[-113.3853,37.2146],[-113.3896,37.2146],[-113.4143,37.1813],[-113.4739,37.1588],[-113.4754,37.1404],[-113.485,37.122],[-113.4934,37.1244],[-113.5014,37.1164],[-113.4961,37.1006],[-113.4996,37.0816],[-113.5223,37.0808],[-113.5219,37.0199],[-113.5154,37.0177],[-113.5132,37.0088],[-113.5581,37.0003]]]},"properties":{"geoid":"49072","state":"49","district":"72","name":"State House District 72","chamber":"House"}},{"type":"Feature","geometry":{"type":"Polygon","coordinates":[[[-113.5643,37.0177],[-113.5602,37],[-113.5132,37.0088],[-113.5154,37.0177],[-113.5219,37.0199],[-113.5223,37.0808],[-113.4996,37.0816],[-113.4961,37.1006],[-113.5014,37.1164],[-113.4934,37.1244],[-113.485,37.122],[-113.4754,37.1404],[-113.4739,37.1588],[-113.4143,37.1813],[-113.3896,37.2146],[-113.3853,37.2146],[-113.3851,37.1991],[-113.3795,37.1991],[-113.3796,37.1839],[-113.3715,37.1839],[-113.3669,37.1924],[-113.3511,37.1917],[-113.3496,37.2014],[-113.3282,37.2141],[-113.3284,37.2286],[-113.3238,37.2286],[-113.3227,37.2412],[-113.3151,37.2443],[-113.3265,37.2444],[-113.323,37.266],[-113.3287,37.2625],[-113.3287,37.2877],[-113.3105,37.2877],[-113.3104,37.3022],[-113.3013,37.3022],[-113.3014,37.348],[-113.2901,37.348],[-113.2872,37.378],[-113.3044,37.3921],[-113.3302,37.3918],[-113.3492,37.4031],[-113.3876,37.404],[-113.4094,37.3785],[-113.4144,37.383],[-113.4311,37.3839],[-113.4554,37.3747],[-113.4663,37.3774],[-113.4718,37.3704],[-113.47,37.3441],[-113.4732,37.3427],[-113.4638,37.3181],[-113.4446,37.3175],[-113.4293,37.3091],[-113.42,37.295],[-113.4243,37.2884],[-113.4364,37.2853],[-113.443,37.2689],[-113.4394,37.2333],[-113.4425,37.2261],[-113.5297,37.2272],[-113.5314,37.2087],[-113.5187,37.1912],[-113.5243,37.1912],[-113.5243,37.1767],[-113.5334,37.1767],[-113.5358,37.1531],[-113.5322,37.1472],[-113.5365,37.1289],[-113.5324,37.1246],[-113.5491,37.1145],[-113.5359,37.092],[-113.5418,37.0842],[-113.5563,37.0864],[-113.5535,37.0748],[-113.5575,37.0744],[-113.5578,37.065],[-113.5458,37.0592],[-113.5554,37.0519],[-113.5643,37.0177]]]},"properties":{"geoid":"49073","state":"49","district":"73","name":"State House District 73","chamber":"House"}},{"type":"Feature","geometry":{"type":"Polygon","coordinates":[[[-114.0524,37.1179],[-114.0501,37.0002],[-113.5602,37],[-113.5633,37.0275],[-113.5554,37.0519],[-113.5458,37.0592],[-113.5576,37.0647],[-113.5554,37.0714],[-113.5622,37.0782],[-113.5799,37.0729],[-113.598,37.0763],[-113.6084,37.086],[-113.6362,37.0846],[-113.6408,37.0955],[-113.6498,37.0956],[-113.6465,37.1137],[-113.6421,37.1173],[-113.6379,37.1137],[-113.6372,37.117],[-113.6282,37.1156],[-113.6309,37.1247],[-113.6213,37.1228],[-113.615,37.1293],[-113.6163,37.1399],[-113.6121,37.1388],[-113.6117,37.1532],[-113.6056,37.1599],[-113.6169,37.169],[-113.6336,37.1686],[-113.6336,37.1794],[-113.6518,37.1794],[-113.6563,37.1939],[-113.6608,37.1939],[-113.6608,37.1758],[-113.6789,37.1758],[-113.688,37.1976],[-113.6979,37.1939],[-113.6979,37.208],[-113.7115,37.2044],[-113.7161,37.208],[-113.7162,37.2183],[-113.7507,37.218],[-113.7507,37.2124],[-113.8049,37.2115],[-113.8053,37.2227],[-113.8134,37.2308],[-113.87,37.2577],[-113.9321,37.3029],[-113.9686,37.3083],[-113.9712,37.3129],[-113.9801,37.3077],[-113.9983,37.3103],[-114.0087,37.3048],[-114.0121,37.3141],[-114.0278,37.3203],[-114.0373,37.3371],[-114.0518,37.3473],[-114.0524,37.1179]]]},"properties":{"geoid":"49074","state":"49","district":"74","name":"State House District 74","chamber":"House"}},{"type":"Feature","geometry":{"type":"Polygon","coordinates":[[[-114.0529,37.5531],[-114.0518,37.3473],[-114.0373,37.3371],[-114.0278,37.3203],[-114.0125,37.3143],[-114.0087,37.3048],[-113.9983,37.3103],[-113.9801,37.3077],[-113.9712,37.3129],[-113.9686,37.3083],[-113.9321,37.3029],[-113.87,37.2577],[-113.8134,37.2308],[-113.8053,37.2227],[-113.8049,37.2115],[-113.7507,37.2124],[-113.7507,37.218],[-113.7162,37.2183],[-113.7161,37.208],[-113.7115,37.2044],[-113.6979,37.208],[-113.6979,37.1939],[-113.688,37.1976],[-113.6789,37.1758],[-113.6608,37.1758],[-113.6608,37.1939],[-113.6563,37.1939],[-113.6518,37.1794],[-113.6336,37.1794],[-113.6336,37.1686],[-113.6169,37.169],[-113.6056,37.1599],[-113.6117,37.1532],[-113.6121,37.1388],[-113.6163,37.1399],[-113.615,37.1293],[-113.6213,37.1228],[-113.6309,37.1247],[-113.6282,37.1156],[-113.6372,37.117],[-113.6379,37.1137],[-113.6421,37.1173],[-113.6465,37.1137],[-113.6498,37.0956],[-113.6408,37.0955],[-113.6362,37.0846],[-113.6084,37.086],[-113.6002,37.0771],[-113.5799,37.0729],[-113.5679,37.0787],[-113.5545,37.0741],[-113.5563,37.0864],[-113.5402,37.0849],[-113.5359,37.0923],[-113.5487,37.1176],[-113.5324,37.1246],[-113.5365,37.1289],[-113.5322,37.1472],[-113.5358,37.1531],[-113.5334,37.1767],[-113.5243,37.1767],[-113.5243,37.1912],[-113.5187,37.1912],[-113.5314,37.2087],[-113.5297,37.2272],[-113.4425,37.2261],[-113.4394,37.2333],[-113.443,37.2689],[-113.4364,37.2853],[-113.4243,37.2884],[-113.42,37.295],[-113.4293,37.3091],[-113.4446,37.3175],[-113.4628,37.3169],[-113.4732,37.3427],[-113.47,37.3441],[-113.4718,37.3704],[-113.4663,37.3774],[-113.4519,37.3765],[-113.4502,37.3909],[-113.4605,37.4079],[-113.453,37.4134],[-113.4562,37.422],[-113.4717,37.4285],[-113.4782,37.4844],[-113.49,37.4901],[-113.4911,37.5034],[-113.4691,37.5092],[-113.4674,37.5182],[-113.4585,37.5217],[-113.4549,37.5291],[-113.474,37.5291],[-113.4745,37.6183],[-113.5878,37.6182],[-113.5878,37.6046],[-114.0523,37.6048],[-114.0529,37.5531]]]},"properties":{"geoid":"49075","state":"49","district":"75","name":"State House District 75","chamber":"House"}}]}