{"type":"FeatureCollection","features":[{"type":"Feature","geometry":{"type":"Polygon","coordinates":[[[-114.044,40.69],[-114.0085,40.6898],[-114.0086,40.7332],[-113.999,40.7333],[-113.999,40.7466],[-113.9445,40.7403],[-113.1378,40.7254],[-112.9893,40.766],[-112.9298,40.8099],[-112.8957,40.8227],[-112.7714,40.758],[-112.6325,40.743],[-112.5728,40.7021],[-112.5632,40.691],[-112.5632,40.6791],[-112.5442,40.6791],[-112.5578,40.6428],[-112.5379,40.6392],[-112.5427,40.6358],[-112.5424,40.6064],[-112.5115,40.6068],[-112.508,40.6032],[-112.5073,40.5705],[-112.4704,40.5709],[-112.4702,40.5636],[-112.4655,40.5634],[-112.3674,40.5647],[-112.3702,40.5855],[-112.3645,40.5885],[-112.3702,40.5883],[-112.3704,40.5938],[-112.4212,40.5922],[-112.4213,40.5996],[-112.387,40.6064],[-112.3331,40.6338],[-112.333,40.6305],[-112.3139,40.6308],[-112.3138,40.6235],[-112.293,40.6237],[-112.2892,40.6532],[-112.2763,40.6532],[-112.2638,40.6602],[-112.251,40.6758],[-112.2545,40.7051],[-112.2241,40.7229],[-112.4935,41.0769],[-112.2382,41.3366],[-112.0285,41.3365],[-112.0223,41.3438],[-112.0084,41.3438],[-111.9632,41.3653],[-111.975,41.3772],[-111.9758,41.3845],[-111.9675,41.3955],[-111.9725,41.4201],[-111.9588,41.4339],[-111.9383,41.4159],[-111.9264,41.4125],[-111.893,41.4181],[-111.8855,41.4263],[-111.8757,41.4237],[-111.8723,41.4213],[-111.88,41.4139],[-111.8684,41.3986],[-111.8367,41.3879],[-111.8279,41.3927],[-111.8136,41.388],[-111.7929,41.3914],[-111.7807,41.3786],[-111.7606,41.3688],[-111.7261,41.3761],[-111.7263,41.3856],[-111.7107,41.3965],[-111.7067,41.413],[-111.7178,41.4161],[-111.7215,41.4274],[-111.7074,41.4253],[-111.696,41.4171],[-111.6792,41.4272],[-111.6667,41.4288],[-111.6477,41.4054],[-111.6401,41.4145],[-111.6186,41.4224],[-111.5841,41.4183],[-111.575,41.4289],[-111.5644,41.4232],[-111.5542,41.4238],[-111.5514,41.4137],[-111.5412,41.4052],[-111.5318,41.4146],[-111.5108,41.4231],[-111.5008,41.4376],[-111.506,41.4438],[-111.5035,41.4594],[-111.5008,41.4644],[-111.4899,41.4663],[-111.4905,41.4726],[-111.4815,41.4768],[-111.4756,41.4886],[-111.4782,41.5038],[-111.4568,41.5206],[-111.4589,41.5318],[-111.4425,41.5323],[-111.4451,41.5444],[-111.4335,41.553],[-111.4272,41.5811],[-111.4299,41.6184],[-111.4107,41.6272],[-111.4165,41.6391],[-111.4016,41.6541],[-111.4022,41.6593],[-111.4068,41.6666],[-111.414,41.6666],[-111.4147,41.6756],[-111.4259,41.6767],[-111.4312,41.6671],[-111.4302,41.6729],[-111.4372,41.6668],[-111.4376,41.6606],[-111.5253,41.6417],[-111.5497,41.6447],[-111.5585,41.6553],[-111.5692,41.6584],[-111.5667,41.6513],[-111.5767,41.6483],[-111.6333,41.6633],[-111.6835,41.6592],[-111.7065,41.6428],[-111.7219,41.6486],[-111.7304,41.6578],[-111.7595,41.6559],[-111.8023,41.6653],[-111.8087,41.676],[-111.8301,41.6774],[-111.8327,41.6876],[-111.8475,41.6864],[-111.8479,41.6929],[-111.8667,41.6918],[-111.8621,41.6855],[-111.8669,41.6855],[-111.8669,41.6809],[-111.8766,41.6855],[-111.8763,41.6782],[-111.8966,41.6619],[-111.9022,41.6621],[-111.905,41.6681],[-111.9261,41.6693],[-111.936,41.6808],[-111.9491,41.6707],[-111.9735,41.6705],[-111.9759,41.6759],[-112.0182,41.6625],[-112.0309,41.6818],[-112.0463,41.688],[-112.0516,41.7041],[-112.0428,41.7104],[-112.044,41.7353],[-112.0335,41.7505],[-112.0332,41.7668],[-112.0264,41.7764],[-112.0141,41.7809],[-112.0087,41.7949],[-112.0297,41.8085],[-112.0285,41.8201],[-112.0462,41.842],[-112.0525,41.8659],[-112.064,41.868],[-112.064,41.8758],[-112.0855,41.9033],[-112.1051,41.9109],[-112.1182,41.9231],[-112.1342,41.959],[-112.1507,41.9703],[-112.1545,41.9862],[-112.1661,41.996],[-112.1592,41.9984],[-112.1731,42.0015],[-112.9447,41.9987],[-113.8733,41.9882],[-114.0415,41.9939],[-114.044,40.69]]]},"properties":{"geoid":"49001","state":"49","district":"1","name":"State Senate District 1","chamber":"Senate"}},{"type":"Feature","geometry":{"type":"Polygon","coordinates":[[[-112.166,41.9962],[-112.1545,41.9862],[-112.1507,41.9703],[-112.1342,41.959],[-112.1182,41.9231],[-112.1051,41.9109],[-112.0855,41.9033],[-112.064,41.8758],[-112.064,41.868],[-112.0525,41.8659],[-112.0462,41.842],[-112.0285,41.8201],[-112.0297,41.8085],[-112.0087,41.7949],[-112.0141,41.7809],[-112.0264,41.7764],[-112.0332,41.7668],[-112.0335,41.7505],[-112.044,41.7353],[-112.0428,41.7104],[-112.0516,41.7041],[-112.0463,41.688],[-112.0309,41.6818],[-112.0182,41.6625],[-111.9759,41.6759],[-111.9735,41.6705],[-111.9491,41.6707],[-111.936,41.6808],[-111.9261,41.6693],[-111.905,41.6681],[-111.9022,41.6621],[-111.8966,41.6619],[-111.8763,41.6782],[-111.8766,41.6855],[-111.8669,41.6809],[-111.8669,41.6855],[-111.8621,41.6855],[-111.8667,41.6918],[-111.8479,41.6929],[-111.8475,41.6864],[-111.8327,41.6876],[-111.8301,41.6774],[-111.8087,41.676],[-111.8023,41.6653],[-111.7595,41.6559],[-111.7304,41.6578],[-111.7219,41.6486],[-111.7065,41.6428],[-111.6835,41.6592],[-111.6333,41.6633],[-111.5767,41.6483],[-111.5667,41.6513],[-111.5692,41.6584],[-111.5585,41.6553],[-111.5497,41.6447],[-111.5317,41.6413],[-111.4376,41.6606],[-111.4372,41.6668],[-111.4302,41.6729],[-111.4312,41.6671],[-111.4259,41.6767],[-111.4147,41.6756],[-111.4144,41.6672],[-111.4061,41.6659],[-111.4016,41.6544],[-111.4165,41.6391],[-111.4107,41.6272],[-111.4299,41.6184],[-111.4269,41.5858],[-111.4331,41.5537],[-111.445,41.5446],[-111.443,41.5314],[-111.4589,41.5318],[-111.4568,41.5206],[-111.4782,41.5038],[-111.4756,41.4886],[-111.4815,41.4768],[-111.4905,41.4726],[-111.4899,41.4663],[-111.5008,41.4644],[-111.5035,41.4594],[-111.506,41.4438],[-111.5008,41.4376],[-111.5107,41.4278],[-111.5107,41.4209],[-111.4994,41.4083],[-111.4754,41.3998],[-111.4776,41.3843],[-111.4629,41.3797],[-111.4596,41.3736],[-111.4479,41.3729],[-111.4465,41.3673],[-111.4341,41.3622],[-111.4048,41.3622],[-111.4035,41.3693],[-111.3841,41.374],[-111.3671,41.3617],[-111.3479,41.3623],[-111.3396,41.3553],[-111.3319,41.3575],[-111.3271,41.3455],[-111.2951,41.3303],[-111.2935,41.3205],[-111.2968,41.3185],[-111.2924,41.3094],[-111.2845,41.3094],[-111.2858,41.3052],[-111.2618,41.2967],[-111.2613,41.2871],[-111.2775,41.2768],[-111.2739,41.2652],[-111.2809,41.2613],[-111.2767,41.2571],[-111.2772,41.2449],[-111.2694,41.2378],[-111.2824,41.2263],[-111.2541,41.2291],[-111.2565,41.2176],[-111.2523,41.2147],[-111.2336,41.2183],[-111.2214,41.213],[-111.2317,41.2027],[-111.2257,41.1913],[-111.2357,41.1839],[-111.2331,41.177],[-111.2646,41.1453],[-111.2627,41.1411],[-111.2324,41.143],[-111.1998,41.1653],[-111.1588,41.1769],[-111.1295,41.1976],[-111.1333,41.2068],[-111.1103,41.2147],[-111.1015,41.2077],[-111.075,41.2442],[-111.0616,41.2511],[-111.0468,41.2516],[-111.0467,42.0017],[-112.166,41.9962]]]},"properties":{"geoid":"49002","state":"49","district":"2","name":"State Senate District 2","chamber":"Senate"}},{"type":"Feature","geometry":{"type":"Polygon","coordinates":[[[-112.0167,41.3212],[-111.9992,41.2899],[-112.0089,41.2907],[-112.0086,41.2446],[-112.0158,41.2447],[-112.0099,41.2224],[-111.9873,41.231],[-111.9646,41.231],[-111.9563,41.2309],[-111.9564,41.2247],[-111.9297,41.2224],[-111.9277,41.2352],[-111.8991,41.2405],[-111.875,41.2523],[-111.8403,41.2508],[-111.8413,41.2539],[-111.8185,41.2593],[-111.7968,41.2502],[-111.782,41.2543],[-111.7722,41.2483],[-111.777,41.2469],[-111.7754,41.2387],[-111.7904,41.2285],[-111.7918,41.2176],[-111.7738,41.2182],[-111.7646,41.2078],[-111.7486,41.2145],[-111.7452,41.2035],[-111.7277,41.1971],[-111.7171,41.1864],[-111.7001,41.1825],[-111.7075,41.1713],[-111.6984,41.1657],[-111.7055,41.1551],[-111.7035,41.151],[-111.6881,41.1506],[-111.7026,41.1429],[-111.7031,41.1379],[-111.6867,41.1119],[-111.6973,41.1027],[-111.689,41.0974],[-111.6942,41.0913],[-111.6871,41.0851],[-111.6995,41.0748],[-111.7071,41.0747],[-111.7115,41.0664],[-111.6897,41.0536],[-111.6975,41.0494],[-111.6865,41.0439],[-111.6824,41.0345],[-111.6937,41.0308],[-111.7129,41.0374],[-111.7356,41.0196],[-111.7856,41.0254],[-111.8034,41.0102],[-111.8163,41.0057],[-111.8061,41.0017],[-111.775,40.9593],[-111.8154,40.9574],[-111.7911,40.928],[-111.7936,40.9157],[-111.7821,40.912],[-111.7761,40.9005],[-111.7815,40.8956],[-111.7622,40.8877],[-111.7687,40.8722],[-111.7467,40.871],[-111.7384,40.8608],[-111.7124,40.8517],[-111.6956,40.8618],[-111.662,40.8484],[-111.6657,40.8307],[-111.6455,40.824],[-111.639,40.8097],[-111.6411,40.7989],[-111.6487,40.7922],[-111.643,40.7859],[-111.6491,40.7733],[-111.621,40.758],[-111.6235,40.7536],[-111.6174,40.7464],[-111.6245,40.741],[-111.6233,40.7312],[-111.6135,40.7281],[-111.6148,40.7195],[-111.6004,40.7085],[-111.5936,40.7107],[-111.5988,40.7224],[-111.5938,40.7408],[-111.5764,40.7373],[-111.5687,40.7326],[-111.5687,40.727],[-111.5597,40.728],[-111.5563,40.7375],[-111.5417,40.7263],[-111.5215,40.7215],[-111.4732,40.7434],[-111.4713,40.7565],[-111.4542,40.7539],[-111.4487,40.7403],[-111.405,40.7381],[-111.3793,40.7379],[-111.3793,40.7528],[-111.375,40.7544],[-111.3414,40.753],[-111.3434,40.7822],[-111.3246,40.7821],[-111.3235,40.8982],[-111.2278,40.8989],[-111.2274,40.9286],[-111.1124,40.9285],[-111.1124,40.9431],[-111.1329,40.9432],[-111.1347,41.1343],[-111.1242,41.1343],[-111.1241,41.1781],[-111.1489,41.1781],[-111.1487,41.1832],[-111.2062,41.1623],[-111.2324,41.143],[-111.2627,41.1411],[-111.2646,41.1453],[-111.2331,41.177],[-111.2357,41.1839],[-111.2257,41.1913],[-111.2317,41.2027],[-111.2217,41.215],[-111.2336,41.2183],[-111.2523,41.2147],[-111.2565,41.2176],[-111.2541,41.2291],[-111.2817,41.2252],[-111.2812,41.2304],[-111.2694,41.2378],[-111.2772,41.2449],[-111.2767,41.2571],[-111.2809,41.2613],[-111.2739,41.2652],[-111.2773,41.2774],[-111.2614,41.2869],[-111.2596,41.293],[-111.2861,41.3053],[-111.2845,41.3094],[-111.2924,41.3094],[-111.2968,41.3185],[-111.2935,41.3205],[-111.2951,41.3303],[-111.3271,41.3455],[-111.3319,41.3575],[-111.3396,41.3553],[-111.3479,41.3623],[-111.3671,41.3617],[-111.3841,41.374],[-111.4035,41.3693],[-111.4048,41.3622],[-111.4341,41.3622],[-111.4465,41.3673],[-111.4479,41.3729],[-111.4596,41.3736],[-111.4629,41.3797],[-111.4776,41.3843],[-111.4754,41.3998],[-111.4994,41.4083],[-111.5082,41.4143],[-111.5108,41.4231],[-111.5318,41.4146],[-111.5415,41.4051],[-111.5514,41.4137],[-111.5542,41.4238],[-111.5644,41.4232],[-111.575,41.4289],[-111.5841,41.4183],[-111.6186,41.4224],[-111.6401,41.4145],[-111.6477,41.4054],[-111.6667,41.4288],[-111.6792,41.4272],[-111.696,41.4171],[-111.7074,41.4253],[-111.7215,41.4274],[-111.7178,41.4161],[-111.7067,41.413],[-111.7107,41.3965],[-111.7263,41.3856],[-111.7261,41.3761],[-111.7606,41.3688],[-111.7807,41.3786],[-111.7929,41.3914],[-111.8136,41.388],[-111.8279,41.3927],[-111.8367,41.3879],[-111.8684,41.3986],[-111.88,41.4139],[-111.8723,41.4213],[-111.8757,41.4237],[-111.8855,41.4263],[-111.893,41.4181],[-111.9264,41.4125],[-111.9383,41.4159],[-111.9586,41.4339],[-111.9725,41.4201],[-111.9675,41.3955],[-111.9758,41.3845],[-111.975,41.3772],[-111.9632,41.3653],[-111.9865,41.3549],[-111.9866,41.3504],[-111.9765,41.3476],[-111.9765,41.3441],[-111.9862,41.3432],[-111.9716,41.343],[-111.9715,41.3395],[-112.0167,41.3212]]]},"properties":{"geoid":"49003","state":"49","district":"3","name":"State Senate District 3","chamber":"Senate"}},{"type":"Feature","geometry":{"type":"Polygon","coordinates":[[[-112.4934,41.077],[-112.1867,41.153],[-112.1813,41.1334],[-112.142,41.1115],[-112.135,41.1009],[-112.1223,41.1059],[-112.1222,41.1252],[-112.0355,41.1253],[-112.0375,41.1526],[-112.0261,41.1526],[-112.026,41.1762],[-112.0205,41.1762],[-111.994,41.2029],[-112.011,41.2239],[-112.0158,41.2445],[-112.0086,41.2446],[-112.0089,41.2907],[-111.9992,41.2899],[-112.0167,41.3212],[-111.9764,41.3367],[-111.9716,41.343],[-111.9862,41.3432],[-111.9765,41.3441],[-111.9765,41.3476],[-111.9866,41.3504],[-111.9865,41.3549],[-112.0087,41.3437],[-112.0223,41.3438],[-112.0287,41.3365],[-112.2382,41.3366],[-112.4934,41.077]]]},"properties":{"geoid":"49004","state":"49","district":"4","name":"State Senate District 4","chamber":"Senate"}},{"type":"Feature","geometry":{"type":"Polygon","coordinates":[[[-112.0391,41.1181],[-112.0261,41.1038],[-111.9546,41.1032],[-111.9566,41.1166],[-111.9397,41.1162],[-111.9397,41.1071],[-111.93,41.107],[-111.9251,41.1144],[-111.9089,41.1141],[-111.9079,41.1275],[-111.9122,41.1348],[-111.8616,41.1402],[-111.7894,41.1367],[-111.7673,41.1255],[-111.7628,41.1141],[-111.7495,41.1088],[-111.7115,41.0664],[-111.7071,41.0747],[-111.6995,41.0748],[-111.6871,41.0851],[-111.6942,41.0913],[-111.689,41.0974],[-111.6973,41.1027],[-111.6867,41.1119],[-111.7031,41.1379],[-111.7026,41.1429],[-111.6881,41.1506],[-111.7035,41.151],[-111.7055,41.1551],[-111.6984,41.1657],[-111.7075,41.1713],[-111.7001,41.1825],[-111.7171,41.1864],[-111.7277,41.1971],[-111.7452,41.2035],[-111.7486,41.2145],[-111.7646,41.2078],[-111.7738,41.2182],[-111.7918,41.2176],[-111.7904,41.2285],[-111.7754,41.2387],[-111.777,41.2469],[-111.7722,41.2483],[-111.782,41.2543],[-111.7968,41.2502],[-111.8185,41.2593],[-111.8413,41.2539],[-111.8403,41.2508],[-111.875,41.2523],[-111.8991,41.2405],[-111.9277,41.2352],[-111.9297,41.2224],[-111.9564,41.2247],[-111.9563,41.2309],[-111.9873,41.231],[-112.0056,41.2252],[-112.0099,41.2224],[-111.9941,41.2023],[-112.0205,41.1762],[-112.026,41.1762],[-112.0261,41.1526],[-112.0375,41.1526],[-112.0319,41.1181],[-112.0391,41.1181]]]},"properties":{"geoid":"49005","state":"49","district":"5","name":"State Senate District 5","chamber":"Senate"}},{"type":"Feature","geometry":{"type":"Polygon","coordinates":[[[-112.4935,41.0769],[-112.2602,40.7691],[-112.1483,40.8461],[-112.0081,40.921],[-112.0076,40.9855],[-111.984,40.9939],[-111.9765,40.9929],[-111.9727,40.986],[-111.9665,40.9918],[-111.9629,40.9887],[-111.9436,40.9946],[-111.945,41.0044],[-111.9367,41.0106],[-111.9484,41.0378],[-111.9766,41.074],[-111.9734,41.1036],[-112.0265,41.1039],[-112.0394,41.1181],[-112.0319,41.1181],[-112.0353,41.1253],[-112.1222,41.1252],[-112.1223,41.1059],[-112.135,41.1009],[-112.142,41.1115],[-112.1813,41.1334],[-112.1865,41.153],[-112.4935,41.0769]]]},"properties":{"geoid":"49006","state":"49","district":"6","name":"State Senate District 6","chamber":"Senate"}},{"type":"Feature","geometry":{"type":"Polygon","coordinates":[[[-112.008,40.9237],[-111.9587,40.9218],[-111.9586,40.9127],[-111.9392,40.9054],[-111.9161,40.9074],[-111.9015,40.9183],[-111.8948,40.9132],[-111.879,40.9172],[-111.8534,40.9148],[-111.8535,40.9075],[-111.8261,40.9095],[-111.8234,40.9153],[-111.7999,40.921],[-111.7925,40.9302],[-111.8121,40.9506],[-111.8145,40.9599],[-111.791,40.9609],[-111.7825,40.9568],[-111.7749,40.9598],[-111.8061,41.0017],[-111.8163,41.0057],[-111.8034,41.0102],[-111.7848,41.0257],[-111.7356,41.0196],[-111.7129,41.0374],[-111.6937,41.0308],[-111.6824,41.0345],[-111.6865,41.0439],[-111.6975,41.0494],[-111.6897,41.0536],[-111.7113,41.0662],[-111.7495,41.1088],[-111.7628,41.1141],[-111.7673,41.1255],[-111.7862,41.1358],[-111.8616,41.1402],[-111.9122,41.1348],[-111.9079,41.1275],[-111.9089,41.1141],[-111.9251,41.1144],[-111.93,41.107],[-111.9397,41.1071],[-111.9397,41.1162],[-111.9566,41.1166],[-111.9546,41.1032],[-111.9734,41.1036],[-111.9766,41.074],[-111.9484,41.0378],[-111.9367,41.0106],[-111.945,41.0044],[-111.9436,40.9946],[-111.9629,40.9887],[-111.9665,40.9918],[-111.9727,40.986],[-111.9765,40.9929],[-111.984,40.9939],[-112.0076,40.9855],[-112.008,40.9237]]]},"properties":{"geoid":"49007","state":"49","district":"7","name":"State Senate District 7","chamber":"Senate"}},{"type":"Feature","geometry":{"type":"Polygon","coordinates":[[[-111.9721,40.877],[-111.9637,40.8702],[-111.9656,40.852],[-111.9619,40.8474],[-111.9537,40.8486],[-111.943,40.8314],[-111.9463,40.8218],[-111.9378,40.8218],[-111.939,40.8082],[-111.9339,40.8044],[-111.9394,40.787],[-111.932,40.7824],[-111.9106,40.7824],[-111.9102,40.7759],[-111.8746,40.774],[-111.8746,40.7774],[-111.8656,40.7774],[-111.8656,40.7819],[-111.8388,40.7764],[-111.8154,40.7917],[-111.8144,40.798],[-111.7998,40.7984],[-111.7998,40.8124],[-111.7872,40.8197],[-111.7405,40.8249],[-111.7408,40.8534],[-111.752,40.8533],[-111.7473,40.86],[-111.7389,40.8612],[-111.7403,40.8652],[-111.752,40.8724],[-111.7687,40.8722],[-111.7622,40.8877],[-111.7815,40.8956],[-111.7762,40.9012],[-111.7824,40.9124],[-111.7936,40.9157],[-111.7925,40.9302],[-111.7999,40.921],[-111.8385,40.9075],[-111.8535,40.9075],[-111.8534,40.9148],[-111.8679,40.9172],[-111.8948,40.9132],[-111.9015,40.9183],[-111.9161,40.9074],[-111.9352,40.9054],[-111.9586,40.9127],[-111.9593,40.8963],[-111.9661,40.8917],[-111.9721,40.877]]]},"properties":{"geoid":"49008","state":"49","district":"8","name":"State Senate District 8","chamber":"Senate"}},{"type":"Feature","geometry":{"type":"Polygon","coordinates":[[[-111.939,40.7522],[-111.939,40.7242],[-111.8882,40.7255],[-111.8882,40.7335],[-111.8203,40.7336],[-111.8075,40.7149],[-111.7899,40.7124],[-111.7923,40.7077],[-111.6062,40.7129],[-111.615,40.7198],[-111.6133,40.7279],[-111.6234,40.7315],[-111.6245,40.741],[-111.6174,40.7464],[-111.6235,40.7536],[-111.621,40.758],[-111.6368,40.7632],[-111.6399,40.7705],[-111.6491,40.7734],[-111.643,40.7859],[-111.6487,40.7922],[-111.6411,40.7989],[-111.639,40.8094],[-111.642,40.8181],[-111.6561,40.8302],[-111.6657,40.8307],[-111.6605,40.8453],[-111.6635,40.8499],[-111.6956,40.8618],[-111.7122,40.8517],[-111.7468,40.8602],[-111.752,40.8533],[-111.7408,40.8534],[-111.7405,40.8249],[-111.7872,40.8197],[-111.7998,40.8124],[-111.7998,40.7984],[-111.8144,40.798],[-111.8154,40.7917],[-111.8388,40.7764],[-111.8639,40.7819],[-111.8746,40.774],[-111.9097,40.778],[-111.9137,40.7597],[-111.939,40.7522]]]},"properties":{"geoid":"49009","state":"49","district":"9","name":"State Senate District 9","chamber":"Senate"}},{"type":"Feature","geometry":{"type":"Polygon","coordinates":[[[-112.2597,40.7694],[-112.2227,40.722],[-112.1724,40.7281],[-112.1287,40.7161],[-112.0918,40.7182],[-112.0919,40.682],[-112.0759,40.6852],[-112.0759,40.682],[-112.0152,40.6821],[-112.0153,40.6906],[-112.0057,40.696],[-111.9771,40.6966],[-111.9771,40.6929],[-111.9485,40.6894],[-111.9484,40.6962],[-111.9435,40.6966],[-111.9455,40.7018],[-111.9389,40.7039],[-111.939,40.7522],[-111.9137,40.7597],[-111.9103,40.7805],[-111.9394,40.787],[-111.9339,40.8044],[-111.939,40.8082],[-111.9378,40.8218],[-111.9463,40.8218],[-111.943,40.8314],[-111.9537,40.8486],[-111.9619,40.8474],[-111.9656,40.852],[-111.9637,40.8702],[-111.9721,40.877],[-111.9661,40.8917],[-111.9593,40.8963],[-111.9587,40.9218],[-112.0066,40.9218],[-112.1483,40.8461],[-112.2597,40.7694]]]},"properties":{"geoid":"49010","state":"49","district":"10","name":"State Senate District 10","chamber":"Senate"}},{"type":"Feature","geometry":{"type":"Polygon","coordinates":[[[-114.047,39.9068],[-112.342,39.9045],[-112.3431,39.9108],[-112.3353,39.9237],[-112.3398,39.9437],[-112.3327,39.9526],[-112.3235,39.9445],[-112.3094,39.9484],[-112.302,39.9366],[-112.2869,39.9411],[-112.2703,39.939],[-112.2364,39.9604],[-112.2245,39.9885],[-112.1798,40.0117],[-112.172,40.0396],[-112.1838,40.06],[-112.18,40.0672],[-112.1731,40.0662],[-112.1745,40.0818],[-112.1579,40.0891],[-112.1571,40.0979],[-112.1322,40.0908],[-112.1307,40.0862],[-112.115,40.0804],[-112.097,40.086],[-112.0483,40.0868],[-112.029,40.1111],[-112.0171,40.1176],[-112.019,40.1287],[-112.0033,40.1444],[-111.9887,40.1407],[-111.9658,40.1458],[-111.9619,40.151],[-111.9301,40.1476],[-111.9091,40.177],[-111.8797,40.201],[-111.8604,40.2458],[-111.9226,40.247],[-111.9207,40.2614],[-111.9488,40.2614],[-111.9488,40.2758],[-111.9673,40.2758],[-111.9673,40.3236],[-111.9578,40.32],[-111.9578,40.3272],[-111.9875,40.338],[-111.9826,40.3523],[-111.9703,40.3665],[-111.9761,40.3685],[-111.9742,40.3807],[-111.9545,40.3839],[-111.9498,40.3948],[-112.0109,40.3919],[-112.0159,40.4094],[-112.0347,40.4242],[-112.0401,40.4492],[-112.0374,40.4555],[-112.0048,40.4566],[-112.0047,40.4784],[-112.032,40.4933],[-112.0674,40.4895],[-112.0696,40.4968],[-112.065,40.4973],[-112.065,40.5096],[-112.0412,40.5179],[-112.0412,40.5224],[-112.0531,40.5224],[-112.0485,40.5312],[-112.0706,40.5369],[-112.062,40.5536],[-112.0529,40.6239],[-112.0246,40.624],[-112.0246,40.6386],[-112.03,40.6422],[-112.03,40.6531],[-112.0246,40.6502],[-112.0247,40.6821],[-112.0759,40.682],[-112.0759,40.6852],[-112.0919,40.682],[-112.0918,40.7182],[-112.1287,40.7161],[-112.1724,40.7281],[-112.2243,40.7229],[-112.2545,40.7051],[-112.251,40.6758],[-112.2638,40.6602],[-112.2763,40.6532],[-112.2892,40.6532],[-112.293,40.6237],[-112.3138,40.6235],[-112.3139,40.6308],[-112.333,40.6305],[-112.3331,40.6338],[-112.387,40.6064],[-112.4213,40.5996],[-112.4212,40.5922],[-112.3704,40.5938],[-112.3702,40.5883],[-112.3645,40.5885],[-112.3702,40.5855],[-112.3674,40.5647],[-112.4637,40.5633],[-112.4702,40.5636],[-112.4704,40.5709],[-112.5073,40.5705],[-112.5079,40.6032],[-112.5115,40.6068],[-112.5424,40.6064],[-112.5427,40.6358],[-112.5379,40.6392],[-112.5578,40.6428],[-112.5442,40.6791],[-112.5632,40.6791],[-112.5632,40.691],[-112.5728,40.7021],[-112.6325,40.743],[-112.7714,40.758],[-112.8939,40.8225],[-112.9298,40.8099],[-112.9893,40.766],[-113.1413,40.7252],[-113.9445,40.7403],[-113.999,40.7466],[-113.999,40.7333],[-114.0086,40.7332],[-114.0085,40.6898],[-114.044,40.6898],[-114.047,39.9068]]]},"properties":{"geoid":"49011","state":"49","district":"11","name":"State Senate District 11","chamber":"Senate"}},{"type":"Feature","geometry":{"type":"Polygon","coordinates":[[[-112.03,40.6531],[-112.0294,40.6386],[-111.9767,40.6386],[-111.977,40.6675],[-111.9388,40.6677],[-111.9388,40.6532],[-111.9235,40.6531],[-111.9082,40.6654],[-111.9079,40.675],[-111.9175,40.6856],[-111.9389,40.6821],[-111.9389,40.6966],[-111.9484,40.6962],[-111.9485,40.6894],[-111.9771,40.6929],[-111.9771,40.6966],[-112.0057,40.696],[-112.0153,40.6906],[-112.0152,40.6821],[-112.0247,40.6821],[-112.0246,40.6502],[-112.03,40.6531]]]},"properties":{"geoid":"49012","state":"49","district":"12","name":"State Senate District 12","chamber":"Senate"}},{"type":"Feature","geometry":{"type":"Polygon","coordinates":[[[-111.9455,40.7018],[-111.9389,40.6966],[-111.9389,40.6821],[-111.9175,40.6856],[-111.9079,40.675],[-111.9093,40.6639],[-111.9296,40.653],[-111.932,40.6451],[-111.9269,40.6378],[-111.9292,40.6283],[-111.9233,40.6263],[-111.923,40.63],[-111.9063,40.6278],[-111.904,40.631],[-111.8984,40.6261],[-111.89,40.6269],[-111.8883,40.6743],[-111.8738,40.6743],[-111.8733,40.6668],[-111.8544,40.6592],[-111.8541,40.6871],[-111.8451,40.6871],[-111.8546,40.7107],[-111.8539,40.7335],[-111.8882,40.7335],[-111.8882,40.7255],[-111.939,40.7242],[-111.9389,40.7039],[-111.9455,40.7018]]]},"properties":{"geoid":"49013","state":"49","district":"13","name":"State Senate District 13","chamber":"Senate"}},{"type":"Feature","geometry":{"type":"Polygon","coordinates":[[[-111.8898,40.6283],[-111.8105,40.6354],[-111.8058,40.6607],[-111.7769,40.6674],[-111.777,40.7078],[-111.7923,40.7077],[-111.7899,40.7124],[-111.8075,40.7149],[-111.8203,40.7336],[-111.8539,40.7335],[-111.8546,40.7107],[-111.8451,40.6871],[-111.8541,40.6871],[-111.8544,40.6592],[-111.8733,40.6668],[-111.8738,40.6743],[-111.8883,40.6743],[-111.8898,40.6283]]]},"properties":{"geoid":"49014","state":"49","district":"14","name":"State Senate District 14","chamber":"Senate"}},{"type":"Feature","geometry":{"type":"Polygon","coordinates":[[[-111.9452,40.5877],[-111.9441,40.5805],[-111.9192,40.5805],[-111.9158,40.5722],[-111.9085,40.5698],[-111.8722,40.5733],[-111.8532,40.5627],[-111.8531,40.6095],[-111.858,40.618],[-111.8327,40.6132],[-111.833,40.6079],[-111.8234,40.6048],[-111.8041,40.6024],[-111.7981,40.5896],[-111.8006,40.5818],[-111.7922,40.5865],[-111.7898,40.578],[-111.7761,40.5725],[-111.703,40.5707],[-111.6412,40.5894],[-111.6412,40.5941],[-111.6338,40.5941],[-111.6357,40.5977],[-111.6255,40.5974],[-111.6184,40.6032],[-111.6094,40.5978],[-111.6081,40.5866],[-111.5988,40.5845],[-111.5981,40.5779],[-111.5716,40.5822],[-111.5601,40.5906],[-111.5532,40.6096],[-111.5589,40.6134],[-111.5576,40.6196],[-111.5766,40.6335],[-111.5782,40.6441],[-111.5939,40.6517],[-111.6045,40.6666],[-111.6011,40.6879],[-111.5927,40.6992],[-111.6062,40.7129],[-111.7682,40.7109],[-111.7815,40.709],[-111.777,40.7078],[-111.7769,40.6674],[-111.8058,40.6607],[-111.8105,40.6354],[-111.8818,40.6308],[-111.8955,40.6261],[-111.904,40.631],[-111.9292,40.6283],[-111.9292,40.5878],[-111.9452,40.5877]]]},"properties":{"geoid":"49015","state":"49","district":"15","name":"State Senate District 15","chamber":"Senate"}},{"type":"Feature","geometry":{"type":"Polygon","coordinates":[[[-112.0246,40.6335],[-112.0241,40.5879],[-111.991,40.5879],[-111.9908,40.5806],[-111.9482,40.5805],[-111.9441,40.5805],[-111.9452,40.5877],[-111.9292,40.5878],[-111.9265,40.6346],[-111.9321,40.6444],[-111.9296,40.653],[-111.9388,40.6532],[-111.9388,40.6677],[-111.977,40.6675],[-111.9767,40.6386],[-112.0246,40.6386],[-112.0246,40.6335]]]},"properties":{"geoid":"49016","state":"49","district":"16","name":"State Senate District 16","chamber":"Senate"}},{"type":"Feature","geometry":{"type":"Polygon","coordinates":[[[-112.0705,40.5371],[-112.0485,40.5312],[-112.0531,40.5224],[-112.0412,40.5224],[-112.0483,40.5124],[-111.9984,40.5223],[-112,40.537],[-111.9387,40.5369],[-111.9339,40.5405],[-111.9174,40.5369],[-111.9166,40.5443],[-111.8949,40.5443],[-111.8984,40.5589],[-111.908,40.5589],[-111.9092,40.5667],[-111.9216,40.5786],[-111.9192,40.5805],[-111.9908,40.5806],[-111.991,40.5879],[-112.0241,40.5879],[-112.0246,40.624],[-112.0529,40.6239],[-112.062,40.5536],[-112.0705,40.5371]]]},"properties":{"geoid":"49017","state":"49","district":"17","name":"State Senate District 17","chamber":"Senate"}},{"type":"Feature","geometry":{"type":"Polygon","coordinates":[[[-112.0696,40.4969],[-112.0674,40.4895],[-112.032,40.4933],[-112.0047,40.4784],[-112.0048,40.4566],[-112.0374,40.4555],[-112.0401,40.4492],[-112.0347,40.4242],[-112.0159,40.4094],[-112.0109,40.3919],[-111.9498,40.3948],[-111.9545,40.3839],[-111.9354,40.387],[-111.9283,40.3952],[-111.9313,40.398],[-111.9192,40.3994],[-111.9273,40.4277],[-111.9199,40.4342],[-111.9217,40.4411],[-111.9133,40.4525],[-111.9131,40.4642],[-111.8918,40.4911],[-111.8909,40.5],[-111.8818,40.5007],[-111.8817,40.5443],[-111.9166,40.5443],[-111.9174,40.5369],[-111.9339,40.5405],[-111.9387,40.5369],[-112,40.537],[-111.9984,40.5223],[-112.065,40.5096],[-112.065,40.4973],[-112.0696,40.4969]]]},"properties":{"geoid":"49018","state":"49","district":"18","name":"State Senate District 18","chamber":"Senate"}},{"type":"Feature","geometry":{"type":"Polygon","coordinates":[[[-111.9156,40.5722],[-111.908,40.5589],[-111.8984,40.5589],[-111.8949,40.5443],[-111.8817,40.5443],[-111.8818,40.5007],[-111.8535,40.499],[-111.87,40.4906],[-111.8509,40.4735],[-111.8586,40.4692],[-111.8667,40.4537],[-111.8642,40.4462],[-111.8403,40.4426],[-111.836,40.4499],[-111.8308,40.4499],[-111.8212,40.4463],[-111.8219,40.432],[-111.7852,40.4319],[-111.7733,40.4689],[-111.7496,40.4634],[-111.7496,40.4575],[-111.7449,40.4573],[-111.7207,40.459],[-111.7093,40.4698],[-111.693,40.4728],[-111.6958,40.5028],[-111.6846,40.5126],[-111.6813,40.5329],[-111.664,40.5413],[-111.6614,40.55],[-111.6503,40.5512],[-111.6379,40.568],[-111.6058,40.5644],[-111.5981,40.5779],[-111.5988,40.5845],[-111.6081,40.5866],[-111.6094,40.5978],[-111.6181,40.6033],[-111.6255,40.5974],[-111.6357,40.5977],[-111.6338,40.5941],[-111.6412,40.5941],[-111.6412,40.5894],[-111.7027,40.5707],[-111.772,40.5718],[-111.7885,40.577],[-111.7922,40.5865],[-111.8006,40.5818],[-111.7981,40.5896],[-111.8041,40.6024],[-111.8234,40.6048],[-111.833,40.6079],[-111.8327,40.6132],[-111.858,40.618],[-111.8531,40.6095],[-111.8532,40.5627],[-111.8722,40.5733],[-111.8897,40.5697],[-111.9156,40.5722]]]},"properties":{"geoid":"49019","state":"49","district":"19","name":"State Senate District 19","chamber":"Senate"}},{"type":"Feature","geometry":{"type":"Polygon","coordinates":[[[-111.621,40.4498],[-111.6106,40.4309],[-111.6059,40.4504],[-111.5765,40.4537],[-111.5627,40.4385],[-111.5551,40.4422],[-111.5548,40.4331],[-111.5398,40.4055],[-111.5235,40.4059],[-111.5084,40.416],[-111.4909,40.4081],[-111.4782,40.4117],[-111.4889,40.4189],[-111.4928,40.4372],[-111.4775,40.4446],[-111.4767,40.4739],[-111.4605,40.4847],[-111.455,40.4818],[-111.4574,40.4726],[-111.4527,40.4726],[-111.4519,40.4781],[-111.4461,40.4781],[-111.4501,40.4722],[-111.4382,40.4726],[-111.4145,40.4804],[-111.411,40.4803],[-111.4145,40.4763],[-111.4006,40.4781],[-111.3974,40.4715],[-111.3953,40.4752],[-111.3907,40.4723],[-111.3953,40.4782],[-111.3477,40.4781],[-111.3477,40.4928],[-111.2723,40.4983],[-111.2527,40.4964],[-111.2443,40.4868],[-111.2331,40.4852],[-111.2013,40.4405],[-111.2001,40.432],[-111.1775,40.4208],[-111.1838,40.4072],[-111.2229,40.4133],[-111.2294,40.3346],[-111.2191,40.2787],[-111.2084,40.2628],[-111.1816,40.2412],[-111.1914,40.226],[-111.185,40.1898],[-111.1975,40.1804],[-111.1913,40.1739],[-111.198,40.1666],[-111.1919,40.1631],[-111.2062,40.1521],[-111.2269,40.1497],[-111.2215,40.1245],[-111.2415,40.0918],[-111.2407,40.0735],[-111.2359,40.0696],[-111.2494,40.0553],[-111.2462,40.0475],[-111.238,40.0386],[-111.2265,40.0357],[-111.2038,40.0493],[-111.1977,40.0312],[-111.1717,40.0107],[-111.1678,39.9908],[-111.1596,39.9918],[-111.1519,39.985],[-111.143,39.987],[-111.1296,39.9705],[-111.1189,39.9678],[-111.1202,39.9571],[-111.1312,39.9474],[-111.0831,39.9432],[-111.0831,39.9001],[-110.8576,39.8997],[-110.8578,39.8133],[-110.5182,39.8116],[-110.5182,39.8067],[-109.8831,39.8062],[-109.8937,39.8011],[-109.8769,39.7926],[-109.8739,39.7863],[-109.8772,39.7832],[-109.894,39.7887],[-109.9187,39.786],[-109.9216,39.7994],[-109.9294,39.7966],[-109.921,39.7734],[-109.9304,39.749],[-109.9451,39.75],[-109.9538,39.7346],[-109.9502,39.7196],[-109.9615,39.7251],[-109.9607,39.7378],[-109.9653,39.7422],[-109.9929,39.7373],[-109.9929,39.7306],[-109.9706,39.7095],[-109.9776,39.7041],[-109.9935,39.7035],[-109.9943,39.6933],[-110.0051,39.6872],[-110.0033,39.6826],[-109.986,39.6822],[-109.9844,39.664],[-109.996,39.6462],[-110.0105,39.6465],[-110.0114,39.6372],[-109.9972,39.6267],[-110.0113,39.625],[-110.018,39.6092],[-110.029,39.6007],[-110.0285,39.5948],[-110.0186,39.5862],[-110.0318,39.5773],[-110.0381,39.5668],[-110.0372,39.5603],[-110.0287,39.5543],[-110.0295,39.5402],[-110.0482,39.5331],[-110.0397,39.525],[-110.0254,39.5211],[-110.0223,39.4995],[-110.0147,39.4909],[-110.0245,39.4778],[-110.024,39.4693],[-109.9533,39.4693],[-109.9533,39.4618],[-109.1069,39.4621],[-109.1043,39.4694],[-109.0959,39.4714],[-109.0876,39.4923],[-109.0768,39.4892],[-109.0729,39.4999],[-109.0685,39.4955],[-109.063,39.4996],[-109.0512,39.4977],[-109.05,41.0007],[-110.2741,40.9948],[-111.0468,40.9979],[-111.0468,41.2516],[-111.0616,41.2511],[-111.0756,41.2436],[-111.1015,41.2077],[-111.1103,41.2147],[-111.1333,41.2068],[-111.1295,41.1976],[-111.1487,41.1832],[-111.1489,41.1781],[-111.1241,41.1781],[-111.1242,41.1343],[-111.1347,41.1343],[-111.1329,40.9432],[-111.1124,40.9431],[-111.1124,40.9285],[-111.2274,40.9286],[-111.2278,40.8989],[-111.3235,40.8982],[-111.3246,40.7821],[-111.3434,40.7822],[-111.3414,40.753],[-111.3793,40.7528],[-111.3793,40.7379],[-111.4487,40.7403],[-111.4542,40.7539],[-111.4713,40.7565],[-111.4727,40.7437],[-111.5201,40.7216],[-111.5412,40.726],[-111.5563,40.7375],[-111.5597,40.728],[-111.5687,40.727],[-111.5687,40.7326],[-111.5815,40.7392],[-111.5834,40.7365],[-111.5847,40.741],[-111.5965,40.7393],[-111.5988,40.7224],[-111.5936,40.7111],[-111.6004,40.7085],[-111.5927,40.6992],[-111.6011,40.6879],[-111.6045,40.6666],[-111.5939,40.6517],[-111.5782,40.6441],[-111.5766,40.6335],[-111.5576,40.6196],[-111.5589,40.6134],[-111.5532,40.6096],[-111.564,40.5849],[-111.5939,40.5771],[-111.5678,40.5472],[-111.5726,40.5374],[-111.5698,40.5261],[-111.5791,40.5004],[-111.5748,40.4869],[-111.5951,40.4676],[-111.6094,40.4663],[-111.621,40.4498]]]},"properties":{"geoid":"49020","state":"49","district":"20","name":"State Senate District 20","chamber":"Senate"}},{"type":"Feature","geometry":{"type":"Polygon","coordinates":[[[-111.8703,40.4399],[-111.8592,40.4206],[-111.8593,40.4077],[-111.8372,40.3939],[-111.8264,40.3797],[-111.8354,40.3714],[-111.8352,40.3558],[-111.7855,40.3395],[-111.7816,40.3477],[-111.7744,40.3477],[-111.7743,40.3535],[-111.7687,40.3499],[-111.7642,40.354],[-111.769,40.3701],[-111.747,40.3611],[-111.7026,40.3613],[-111.6968,40.352],[-111.706,40.3523],[-111.7058,40.338],[-111.6987,40.3379],[-111.7,40.3338],[-111.6583,40.3337],[-111.6583,40.3519],[-111.6628,40.3519],[-111.6548,40.3649],[-111.6755,40.3733],[-111.707,40.4196],[-111.7106,40.432],[-111.7219,40.4382],[-111.6622,40.4537],[-111.6414,40.4456],[-111.6444,40.4506],[-111.631,40.4472],[-111.6195,40.4533],[-111.6094,40.4663],[-111.5948,40.4679],[-111.5748,40.4869],[-111.5791,40.5004],[-111.5698,40.5261],[-111.5726,40.5374],[-111.5678,40.5472],[-111.5936,40.577],[-111.6022,40.5753],[-111.6058,40.5644],[-111.6377,40.5681],[-111.6502,40.5513],[-111.6614,40.55],[-111.664,40.5413],[-111.6852,40.5272],[-111.6846,40.5126],[-111.6961,40.5005],[-111.693,40.4728],[-111.7093,40.4698],[-111.7207,40.459],[-111.7449,40.4573],[-111.7496,40.4575],[-111.7496,40.4634],[-111.7733,40.4689],[-111.7852,40.4319],[-111.8219,40.432],[-111.8212,40.4463],[-111.8308,40.4499],[-111.836,40.4499],[-111.8403,40.4426],[-111.8636,40.446],[-111.8641,40.4405],[-111.8703,40.4399]]]},"properties":{"geoid":"49021","state":"49","district":"21","name":"State Senate District 21","chamber":"Senate"}},{"type":"Feature","geometry":{"type":"Polygon","coordinates":[[[-111.9874,40.3382],[-111.9578,40.3272],[-111.9578,40.32],[-111.9673,40.3236],[-111.9673,40.2758],[-111.9488,40.2758],[-111.9488,40.2614],[-111.9207,40.2614],[-111.9226,40.247],[-111.8604,40.2458],[-111.8553,40.2516],[-111.8557,40.2624],[-111.8464,40.2686],[-111.8558,40.2682],[-111.8988,40.3314],[-111.9114,40.3382],[-111.9009,40.3543],[-111.8896,40.3602],[-111.8352,40.3553],[-111.8354,40.3714],[-111.8264,40.3774],[-111.8366,40.3935],[-111.8593,40.4077],[-111.8592,40.4206],[-111.8641,40.4316],[-111.8688,40.4314],[-111.8662,40.4371],[-111.8703,40.4399],[-111.8637,40.4442],[-111.8667,40.4537],[-111.8586,40.4692],[-111.8509,40.4735],[-111.87,40.4906],[-111.8535,40.499],[-111.8909,40.5],[-111.8918,40.4911],[-111.9132,40.4639],[-111.9133,40.4525],[-111.9217,40.4411],[-111.9199,40.4341],[-111.9273,40.4277],[-111.9192,40.3994],[-111.9313,40.398],[-111.9283,40.3952],[-111.9354,40.387],[-111.9742,40.3807],[-111.9761,40.3685],[-111.9703,40.3665],[-111.9826,40.3523],[-111.9874,40.3382]]]},"properties":{"geoid":"49022","state":"49","district":"22","name":"State Senate District 22","chamber":"Senate"}},{"type":"Feature","geometry":{"type":"Polygon","coordinates":[[[-111.7792,40.3477],[-111.7728,40.341],[-111.7723,40.2801],[-111.7586,40.2799],[-111.7529,40.2713],[-111.7306,40.2567],[-111.7361,40.2396],[-111.7318,40.2368],[-111.6815,40.2338],[-111.6881,40.2401],[-111.6675,40.2506],[-111.6814,40.2664],[-111.7047,40.3193],[-111.6959,40.3192],[-111.6963,40.3338],[-111.7058,40.338],[-111.706,40.3523],[-111.6968,40.352],[-111.7026,40.3613],[-111.747,40.3611],[-111.769,40.3701],[-111.7642,40.354],[-111.7687,40.3499],[-111.7743,40.3535],[-111.7744,40.3477],[-111.7792,40.3477]]]},"properties":{"geoid":"49023","state":"49","district":"23","name":"State Senate District 23","chamber":"Senate"}},{"type":"Feature","geometry":{"type":"Polygon","coordinates":[[[-111.7219,40.4382],[-111.7106,40.432],[-111.707,40.4196],[-111.6755,40.3733],[-111.6541,40.3633],[-111.6628,40.3519],[-111.6583,40.3519],[-111.6583,40.3337],[-111.6963,40.3338],[-111.6959,40.3192],[-111.7047,40.3193],[-111.6814,40.2664],[-111.6675,40.2506],[-111.6881,40.2401],[-111.6815,40.2338],[-111.6466,40.2337],[-111.6326,40.211],[-111.6201,40.2004],[-111.6182,40.2355],[-111.5899,40.2358],[-111.5899,40.2396],[-111.5424,40.2468],[-111.5424,40.2612],[-111.5369,40.2612],[-111.5131,40.2826],[-111.4718,40.2921],[-111.4504,40.3052],[-111.4379,40.3215],[-111.4519,40.3343],[-111.3219,40.3346],[-111.3219,40.3506],[-111.333,40.3713],[-111.3405,40.3732],[-111.3496,40.3901],[-111.377,40.4146],[-111.3814,40.4154],[-111.3824,40.4092],[-111.3936,40.4054],[-111.3967,40.3988],[-111.4123,40.3967],[-111.4147,40.4077],[-111.4379,40.4092],[-111.4352,40.4241],[-111.4521,40.4293],[-111.4579,40.4274],[-111.4597,40.4177],[-111.4648,40.4167],[-111.465,40.4205],[-111.4802,40.4103],[-111.492,40.408],[-111.5084,40.416],[-111.5235,40.4059],[-111.5395,40.4054],[-111.5548,40.4331],[-111.5551,40.4422],[-111.5627,40.4385],[-111.5765,40.4537],[-111.6063,40.4502],[-111.6105,40.4309],[-111.6177,40.4385],[-111.6195,40.4533],[-111.631,40.4472],[-111.6444,40.4506],[-111.6412,40.4456],[-111.6622,40.4537],[-111.7219,40.4382]]]},"properties":{"geoid":"49024","state":"49","district":"24","name":"State Senate District 24","chamber":"Senate"}},{"type":"Feature","geometry":{"type":"Polygon","coordinates":[[[-111.9429,40.125],[-111.9167,40.1045],[-111.9294,40.095],[-111.9258,40.0833],[-111.8922,40.0548],[-111.8529,40.0548],[-111.853,40.04],[-111.8436,40.0401],[-111.8435,40.0328],[-111.825,40.0333],[-111.8247,40.0258],[-111.8177,40.0259],[-111.8129,40.0169],[-111.8083,40.0242],[-111.8058,40.0134],[-111.801,40.0117],[-111.8049,40.0049],[-111.7942,40.0034],[-111.7979,39.9832],[-111.7942,39.9789],[-111.7722,39.979],[-111.7769,39.9756],[-111.7692,39.9788],[-111.7637,39.9912],[-111.7624,40.0187],[-111.7543,40.012],[-111.7444,40.0157],[-111.7458,40.0109],[-111.7297,40.0086],[-111.7298,40.0122],[-111.7165,40.016],[-111.7225,40.0241],[-111.7162,40.0269],[-111.7009,40.0125],[-111.7006,40.0006],[-111.705,40.0033],[-111.7006,39.9981],[-111.6912,40.001],[-111.6846,39.9945],[-111.6603,39.9937],[-111.6599,39.9837],[-111.6321,39.9735],[-111.6163,39.9775],[-111.6137,39.9868],[-111.6005,39.9942],[-111.6,39.9889],[-111.5937,39.9884],[-111.5964,39.9861],[-111.5841,39.9818],[-111.5921,39.9829],[-111.5883,39.9764],[-111.5479,39.9769],[-111.5405,39.9792],[-111.5443,39.9829],[-111.5392,39.9963],[-111.5293,39.9957],[-111.5305,40.0053],[-111.5233,40.0202],[-111.5072,40.026],[-111.5194,40.0337],[-111.516,40.0338],[-111.5452,40.0427],[-111.5485,40.0531],[-111.5678,40.0604],[-111.5887,40.0827],[-111.5916,40.0943],[-111.6149,40.1273],[-111.6053,40.1448],[-111.6394,40.1446],[-111.6375,40.1668],[-111.618,40.1711],[-111.6203,40.1861],[-111.6107,40.1871],[-111.6466,40.2337],[-111.7269,40.2347],[-111.7361,40.2396],[-111.7306,40.2567],[-111.7529,40.2713],[-111.7586,40.2799],[-111.7723,40.2801],[-111.7728,40.341],[-111.7793,40.3477],[-111.7855,40.3395],[-111.8352,40.3558],[-111.8873,40.3607],[-111.9005,40.3546],[-111.9091,40.3436],[-111.9114,40.3382],[-111.8988,40.3314],[-111.8558,40.2682],[-111.8464,40.2686],[-111.8557,40.2624],[-111.8553,40.2516],[-111.8771,40.2047],[-111.9091,40.177],[-111.9429,40.125]]]},"properties":{"geoid":"49025","state":"49","district":"25","name":"State Senate District 25","chamber":"Senate"}},{"type":"Feature","geometry":{"type":"Polygon","coordinates":[[[-112.5758,37.0048],[-112.5659,37.0041],[-112.566,37.0007],[-110.6257,37.0037],[-110.4903,37.0036],[-110.4697,36.9977],[-109.0452,36.999],[-109.0426,38.157],[-109.0602,38.2782],[-109.0512,39.4977],[-109.063,39.4996],[-109.0685,39.4955],[-109.0729,39.4999],[-109.0768,39.4892],[-109.0876,39.4923],[-109.0959,39.4714],[-109.1043,39.4694],[-109.1069,39.4621],[-109.9533,39.4618],[-109.9533,39.4693],[-110.024,39.4693],[-110.0245,39.4778],[-110.0147,39.4909],[-110.0223,39.4995],[-110.0254,39.5211],[-110.0397,39.525],[-110.0482,39.5331],[-110.0295,39.5402],[-110.0287,39.5543],[-110.0372,39.5603],[-110.0381,39.5668],[-110.0318,39.5773],[-110.0186,39.5862],[-110.0285,39.5948],[-110.029,39.6007],[-110.018,39.6092],[-110.0113,39.625],[-109.9972,39.6267],[-110.0114,39.6372],[-110.0105,39.6465],[-109.996,39.6462],[-109.9844,39.664],[-109.986,39.6822],[-110.0033,39.6826],[-110.0051,39.6872],[-109.9943,39.6933],[-109.9935,39.7035],[-109.9776,39.7041],[-109.9706,39.7095],[-109.9929,39.7306],[-109.9929,39.7373],[-109.9653,39.7422],[-109.9607,39.7378],[-109.9615,39.7251],[-109.9502,39.7196],[-109.9538,39.7346],[-109.9451,39.75],[-109.9304,39.749],[-109.921,39.7734],[-109.9294,39.7966],[-109.9216,39.7994],[-109.9187,39.786],[-109.894,39.7887],[-109.8772,39.7832],[-109.8739,39.7863],[-109.8769,39.7926],[-109.8937,39.8011],[-109.8831,39.8062],[-110.5182,39.8067],[-110.5182,39.8116],[-110.8578,39.8133],[-110.8576,39.8997],[-111.0831,39.9001],[-111.0831,39.9432],[-111.1312,39.9474],[-111.1202,39.9571],[-111.1189,39.9678],[-111.1296,39.9705],[-111.143,39.987],[-111.1519,39.985],[-111.1596,39.9918],[-111.1678,39.9908],[-111.1717,40.0107],[-111.1977,40.0312],[-111.2038,40.0493],[-111.2267,40.0357],[-111.2382,40.0387],[-111.2494,40.0553],[-111.2359,40.0695],[-111.2407,40.0735],[-111.238,40.0803],[-111.2419,40.0901],[-111.2215,40.1245],[-111.2269,40.1497],[-111.2062,40.1521],[-111.1924,40.1622],[-111.198,40.1669],[-111.1913,40.1742],[-111.1975,40.1804],[-111.185,40.1898],[-111.1914,40.226],[-111.1816,40.2412],[-111.2084,40.2628],[-111.2191,40.2787],[-111.2282,40.3225],[-111.2247,40.369],[-111.2282,40.381],[-111.2229,40.4133],[-111.1838,40.4072],[-111.177,40.4153],[-111.1778,40.4215],[-111.2001,40.432],[-111.2013,40.4405],[-111.2322,40.4842],[-111.2443,40.4868],[-111.2528,40.4964],[-111.3477,40.4928],[-111.3477,40.4781],[-111.3953,40.4782],[-111.3918,40.4718],[-111.4006,40.4729],[-111.4006,40.4781],[-111.4145,40.4763],[-111.411,40.4803],[-111.4145,40.4804],[-111.4382,40.4726],[-111.4501,40.4722],[-111.4461,40.4781],[-111.4519,40.4781],[-111.4527,40.4726],[-111.4574,40.4726],[-111.4577,40.4842],[-111.4701,40.4813],[-111.4767,40.4739],[-111.4773,40.4449],[-111.4931,40.4365],[-111.4876,40.4172],[-111.4785,40.4127],[-111.465,40.4205],[-111.4648,40.4167],[-111.4597,40.4177],[-111.4573,40.4278],[-111.442,40.4279],[-111.4352,40.4241],[-111.4379,40.4092],[-111.4195,40.4098],[-111.4147,40.4077],[-111.4128,40.397],[-111.4052,40.3964],[-111.3824,40.4092],[-111.3814,40.4154],[-111.3748,40.4137],[-111.3496,40.3901],[-111.3405,40.3732],[-111.333,40.3713],[-111.3219,40.3506],[-111.3219,40.3346],[-111.4519,40.3343],[-111.4379,40.3215],[-111.4504,40.3052],[-111.4718,40.2921],[-111.5131,40.2826],[-111.5369,40.2612],[-111.5424,40.2612],[-111.5424,40.2468],[-111.5899,40.2396],[-111.5899,40.2358],[-111.6182,40.2355],[-111.6201,40.2004],[-111.6107,40.1871],[-111.6203,40.1861],[-111.618,40.1711],[-111.6375,40.1668],[-111.6394,40.1446],[-111.6053,40.1448],[-111.6149,40.1273],[-111.5916,40.0943],[-111.5887,40.0827],[-111.5678,40.0604],[-111.5485,40.0531],[-111.5452,40.0427],[-111.516,40.0338],[-111.5194,40.0337],[-111.5072,40.0259],[-111.5233,40.0202],[-111.5305,40.0053],[-111.5293,39.9957],[-111.5392,39.9963],[-111.5427,39.978],[-111.5883,39.9764],[-111.5921,39.9829],[-111.5841,39.9818],[-111.5964,39.9861],[-111.5937,39.9884],[-111.6,39.9889],[-111.6005,39.9942],[-111.6137,39.9868],[-111.6163,39.9775],[-111.6283,39.9729],[-111.6599,39.9837],[-111.6603,39.9937],[-111.6846,39.9945],[-111.6912,40.001],[-111.7006,39.9981],[-111.705,40.0033],[-111.7006,40.0006],[-111.7009,40.0125],[-111.7162,40.0269],[-111.7225,40.0241],[-111.7165,40.016],[-111.7298,40.0122],[-111.7297,40.0086],[-111.7458,40.0109],[-111.7444,40.0157],[-111.7543,40.012],[-111.7624,40.0187],[-111.7653,39.9857],[-111.7781,39.9707],[-111.7765,39.9645],[-111.784,39.9628],[-111.7723,39.9419],[-111.7534,39.9225],[-111.7513,39.8992],[-111.761,39.8839],[-111.7578,39.8766],[-111.7381,39.8642],[-111.7341,39.8539],[-111.7466,39.85],[-111.7488,39.8331],[-111.7664,39.8107],[-111.2475,39.813],[-111.2477,39.4672],[-111.3009,39.4672],[-111.2984,38.7518],[-111.2991,38.6723],[-111.307,38.6723],[-111.3057,38.5],[-111.2489,38.4998],[-111.2484,38.4692],[-111.1934,38.4688],[-111.1936,38.4546],[-111.1752,38.4547],[-111.1751,38.4257],[-111.1935,38.4258],[-111.1936,38.3968],[-111.1752,38.3968],[-111.1753,38.3825],[-111.157,38.3824],[-111.1568,38.339],[-111.1384,38.339],[-111.1384,38.3245],[-111.1196,38.3245],[-111.1196,38.2853],[-111.1395,38.2839],[-111.1375,38.1929],[-111.1195,38.1928],[-111.1196,38.1524],[-111.1145,38.1524],[-111.1147,38.1251],[-111.1054,38.1243],[-111.1053,38.1174],[-111.0961,38.1175],[-111.0958,38.0959],[-111.1052,38.0959],[-111.1051,38.0887],[-111.1145,38.0886],[-111.1146,38.0742],[-111.1233,38.0743],[-111.1235,38.0598],[-111.1143,38.0598],[-111.1144,38.0305],[-111.065,38.0304],[-111.0657,38.0214],[-111.0824,38.007],[-111.0506,37.9184],[-111.0127,37.8557],[-110.9816,37.833],[-110.9635,37.7691],[-110.9311,37.7103],[-110.9097,37.6576],[-110.88,37.622],[-110.8647,37.6103],[-110.8561,37.555],[-110.8461,37.5406],[-112.183,37.5369],[-112.1831,37.5218],[-112.2013,37.5218],[-112.2012,37.4498],[-112.2208,37.4498],[-112.2207,37.4349],[-112.2662,37.4277],[-112.2662,37.4132],[-112.306,37.4096],[-112.306,37.3986],[-112.4128,37.3978],[-112.4244,37.3908],[-112.4436,37.3942],[-112.451,37.3806],[-112.4502,37.3484],[-112.4563,37.3242],[-112.4812,37.3013],[-112.4827,37.2946],[-112.4921,37.292],[-112.5065,37.2768],[-112.5238,37.27],[-112.5207,37.2661],[-112.5302,37.2656],[-112.5442,37.2554],[-112.545,37.2387],[-112.5408,37.2325],[-112.5443,37.223],[-112.5356,37.195],[-112.5408,37.1862],[-112.5353,37.1749],[-112.5412,37.1551],[-112.5379,37.1528],[-112.5391,37.1293],[-112.5492,37.108],[-112.5361,37.0741],[-112.5353,37.0548],[-112.5474,37.0548],[-112.5384,37.0475],[-112.5383,37.0396],[-112.5563,37.0403],[-112.5608,37.0366],[-112.5608,37.0332],[-112.5518,37.0331],[-112.5519,37.0259],[-112.5652,37.0224],[-112.5653,37.015],[-112.5758,37.0148],[-112.5758,37.0048]]]},"properties":{"geoid":"49026","state":"49","district":"26","name":"State Senate District 26","chamber":"Senate"}},{"type":"Feature","geometry":{"type":"Polygon","coordinates":[[[-113.5581,37.0003],[-112.566,37.0007],[-112.5659,37.0041],[-112.5758,37.0041],[-112.5758,37.0148],[-112.5653,37.015],[-112.5652,37.0224],[-112.5519,37.0259],[-112.5518,37.0331],[-112.5608,37.0332],[-112.5608,37.0366],[-112.5563,37.0403],[-112.5383,37.0396],[-112.5384,37.0475],[-112.5474,37.0548],[-112.5353,37.0548],[-112.5361,37.0741],[-112.5492,37.108],[-112.5391,37.1293],[-112.5379,37.1528],[-112.5412,37.1551],[-112.5353,37.1749],[-112.5408,37.1862],[-112.5356,37.195],[-112.5443,37.223],[-112.5408,37.2325],[-112.545,37.2387],[-112.5441,37.2556],[-112.5302,37.2656],[-112.5207,37.2661],[-112.5238,37.27],[-112.5065,37.2768],[-112.4921,37.292],[-112.4827,37.2946],[-112.4812,37.3013],[-112.4563,37.3242],[-112.4502,37.3484],[-112.451,37.3806],[-112.4436,37.3942],[-112.4244,37.3908],[-112.4128,37.3978],[-112.306,37.3986],[-112.306,37.4096],[-112.2662,37.4132],[-112.2662,37.4277],[-112.2207,37.4349],[-112.2208,37.4498],[-112.2012,37.4498],[-112.2013,37.5218],[-112.1831,37.5218],[-112.183,37.5369],[-110.8461,37.5406],[-110.8561,37.555],[-110.8647,37.6103],[-110.88,37.622],[-110.9097,37.6576],[-110.9311,37.7103],[-110.9635,37.7691],[-110.9816,37.833],[-111.0127,37.8557],[-111.0506,37.9184],[-111.0824,38.007],[-111.0657,38.0214],[-111.065,38.0304],[-111.1144,38.0305],[-111.1143,38.0598],[-111.1235,38.0598],[-111.1233,38.0743],[-111.1146,38.0742],[-111.1145,38.0886],[-111.1051,38.0887],[-111.1052,38.0959],[-111.0958,38.0959],[-111.0961,38.1175],[-111.1053,38.1174],[-111.1054,38.1243],[-111.1147,38.1251],[-111.1145,38.1524],[-111.1196,38.1524],[-111.1195,38.1928],[-111.1375,38.1929],[-111.1395,38.2839],[-111.1196,38.2853],[-111.1196,38.3245],[-111.1384,38.3245],[-111.1384,38.339],[-111.1568,38.339],[-111.157,38.3824],[-111.1753,38.3825],[-111.1752,38.3968],[-111.1936,38.3968],[-111.1935,38.4258],[-111.1751,38.4257],[-111.1752,38.4547],[-111.1936,38.4546],[-111.1934,38.4688],[-111.2484,38.4692],[-111.2489,38.4998],[-111.3057,38.5],[-111.307,38.6723],[-111.2991,38.6723],[-111.2984,38.7518],[-111.3009,39.4672],[-111.2477,39.4672],[-111.2475,39.813],[-111.7663,39.8106],[-111.7488,39.8331],[-111.7466,39.85],[-111.7341,39.8539],[-111.738,39.8641],[-111.7571,39.8757],[-111.761,39.8837],[-111.7513,39.8992],[-111.7534,39.9225],[-111.7723,39.9419],[-111.784,39.9628],[-111.7765,39.9645],[-111.7781,39.9707],[-111.7721,39.9756],[-111.7769,39.9756],[-111.7722,39.979],[-111.7979,39.9804],[-111.7942,40.0034],[-111.8049,40.0049],[-111.801,40.0117],[-111.8058,40.0134],[-111.8083,40.0242],[-111.8129,40.0169],[-111.8177,40.0259],[-111.8247,40.0258],[-111.825,40.0333],[-111.8435,40.0328],[-111.8436,40.0401],[-111.853,40.04],[-111.8529,40.0548],[-111.8922,40.0548],[-111.9233,40.0804],[-111.9294,40.095],[-111.9167,40.1045],[-111.9429,40.1237],[-111.9301,40.1476],[-111.9617,40.151],[-111.9658,40.1458],[-111.9887,40.1407],[-112.0056,40.1429],[-112.019,40.1287],[-112.0171,40.1176],[-112.0551,40.0844],[-112.097,40.086],[-112.115,40.0804],[-112.1307,40.0862],[-112.1322,40.0908],[-112.1571,40.0979],[-112.1579,40.0891],[-112.1745,40.0818],[-112.1731,40.0662],[-112.18,40.0672],[-112.1838,40.06],[-112.172,40.0396],[-112.1798,40.0117],[-112.2245,39.9885],[-112.2364,39.9604],[-112.2703,39.939],[-112.2869,39.9411],[-112.302,39.9366],[-112.3094,39.9484],[-112.3235,39.9445],[-112.3327,39.9526],[-112.3398,39.9437],[-112.3353,39.9237],[-112.3431,39.9108],[-112.342,39.9045],[-112.6039,39.9037],[-112.5848,39.7796],[-112.5998,39.7386],[-112.5897,39.6235],[-112.5928,39.5988],[-112.6013,39.5779],[-112.6327,39.5494],[-112.6492,39.5242],[-112.6495,39.5088],[-112.6283,39.5082],[-112.4332,39.4618],[-112.5034,39.3969],[-112.496,39.3933],[-112.4962,39.3486],[-112.4692,39.2959],[-112.41,39.2036],[-112.4099,39.155],[-112.482,39.1544],[-112.4727,39.1165],[-112.4812,39.1034],[-112.4947,39.0948],[-112.4961,39.0722],[-112.5067,39.0424],[-112.5317,39.0097],[-112.5114,38.994],[-112.5085,38.9844],[-112.5157,38.9773],[-112.52,38.9819],[-112.5591,38.9742],[-112.5685,38.9649],[-112.5696,38.9415],[-112.5398,38.9415],[-112.5655,38.9238],[-112.5694,38.914],[-112.561,38.8934],[-112.5359,38.8863],[-112.5412,38.8817],[-112.5421,38.8484],[-112.5464,38.8484],[-112.5477,38.8315],[-112.5517,38.8293],[-112.5524,38.8151],[-112.5423,38.8152],[-112.5426,38.7775],[-112.5874,38.7353],[-112.5979,38.7191],[-112.6018,38.6866],[-112.5882,38.6687],[-112.6093,38.6364],[-112.6085,38.6005],[-112.6035,38.5727],[-112.5154,38.5728],[-112.5185,38.5666],[-112.5158,38.5306],[-112.5226,38.5212],[-112.5141,38.5023],[-112.5188,38.5],[-112.5101,38.4888],[-112.5191,38.4787],[-112.5098,38.4676],[-112.5015,38.466],[-112.4934,38.4516],[-112.4792,38.448],[-112.453,38.4292],[-112.4435,38.4053],[-112.4338,38.4018],[-112.417,38.4195],[-112.403,38.4156],[-112.3977,38.4049],[-112.4039,38.4005],[-112.4038,38.3948],[-112.3979,38.3863],[-112.3742,38.3771],[-112.3619,38.3559],[-112.344,38.3478],[-112.3384,38.3405],[-112.3354,38.3328],[-112.3409,38.3253],[-112.3387,38.3124],[-112.3486,38.3049],[-112.3499,38.2835],[-112.3808,38.2506],[-112.3714,38.2348],[-112.3571,38.225],[-112.3649,38.2151],[-112.3952,38.2059],[-112.4105,38.1886],[-112.4227,38.1832],[-112.4225,38.1708],[-112.435,38.1633],[-112.4337,38.1535],[-112.4788,38.1474],[-112.479,37.9777],[-112.467,37.9777],[-112.4683,37.8905],[-112.5885,37.8904],[-112.5886,37.8822],[-112.5785,37.8821],[-112.5785,37.8045],[-112.6893,37.8056],[-112.6838,37.5437],[-112.9012,37.5435],[-112.9009,37.5],[-113.0371,37.4997],[-113.037,37.4745],[-113.1461,37.4743],[-113.1461,37.481],[-113.2209,37.482],[-113.236,37.4259],[-113.2347,37.4132],[-113.2492,37.3782],[-113.2962,37.3096],[-113.3064,37.2836],[-113.2971,37.2736],[-113.2933,37.2598],[-113.2864,37.2591],[-113.2818,37.2252],[-113.2722,37.2149],[-113.2723,37.2017],[-113.2845,37.1774],[-113.3338,37.1763],[-113.3952,37.1626],[-113.4217,37.1351],[-113.4216,37.1268],[-113.4262,37.1267],[-113.4307,37.1151],[-113.4771,37.1121],[-113.477,37.0964],[-113.4948,37.0962],[-113.4965,37.089],[-113.5179,37.0888],[-113.5178,37.0815],[-113.5223,37.0808],[-113.5223,37.0241],[-113.5132,37.0088],[-113.5581,37.0003]]]},"properties":{"geoid":"49027","state":"49","district":"27","name":"State Senate District 27","chamber":"Senate"}},{"type":"Feature","geometry":{"type":"Polygon","coordinates":[[[-114.0524,37.6048],[-113.5878,37.6046],[-113.5878,37.6182],[-113.4745,37.6183],[-113.474,37.5291],[-113.4549,37.5291],[-113.4585,37.5217],[-113.4674,37.5182],[-113.4691,37.5092],[-113.4911,37.5034],[-113.49,37.4901],[-113.4782,37.4844],[-113.4717,37.4285],[-113.4562,37.422],[-113.453,37.4134],[-113.4605,37.4079],[-113.4502,37.3909],[-113.4519,37.3765],[-113.4663,37.3774],[-113.4718,37.3704],[-113.47,37.3441],[-113.4732,37.3427],[-113.4628,37.3169],[-113.4446,37.3175],[-113.4293,37.3091],[-113.42,37.295],[-113.4243,37.2884],[-113.4364,37.2853],[-113.443,37.2689],[-113.4394,37.2333],[-113.4425,37.2261],[-113.5297,37.2272],[-113.5314,37.2087],[-113.5187,37.1912],[-113.5243,37.1912],[-113.5243,37.1767],[-113.5334,37.1767],[-113.5364,37.1253],[-113.5275,37.1284],[-113.5256,37.1246],[-113.5138,37.1245],[-113.5136,37.1122],[-113.5294,37.0977],[-113.518,37.0961],[-113.5179,37.0888],[-113.4965,37.089],[-113.4948,37.0962],[-113.477,37.0964],[-113.4771,37.1121],[-113.4307,37.1151],[-113.4262,37.1267],[-113.4216,37.1268],[-113.4217,37.1351],[-113.3952,37.1626],[-113.3338,37.1763],[-113.2845,37.1774],[-113.2723,37.2017],[-113.2722,37.2149],[-113.2818,37.2252],[-113.2864,37.2591],[-113.2933,37.2598],[-113.2971,37.2736],[-113.3064,37.2836],[-113.2962,37.3096],[-113.2492,37.3782],[-113.2347,37.4132],[-113.236,37.4259],[-113.2209,37.482],[-113.1461,37.481],[-113.1461,37.4743],[-113.037,37.4745],[-113.0371,37.4997],[-112.9009,37.5],[-112.9012,37.5435],[-112.6838,37.5437],[-112.6893,37.8056],[-112.5785,37.8045],[-112.5785,37.8821],[-112.5886,37.8822],[-112.5885,37.8904],[-112.4683,37.8905],[-112.467,37.9777],[-112.479,37.9777],[-112.4788,38.1474],[-112.4337,38.1535],[-112.435,38.1633],[-112.4225,38.1708],[-112.4227,38.1832],[-112.4105,38.1886],[-112.3952,38.2059],[-112.3649,38.2151],[-112.3572,38.2247],[-112.3714,38.2348],[-112.3808,38.2506],[-112.3507,38.2818],[-112.3486,38.3049],[-112.3389,38.3119],[-112.3409,38.3253],[-112.3354,38.3328],[-112.3437,38.3475],[-112.3619,38.3559],[-112.3742,38.3771],[-112.3979,38.3863],[-112.4038,38.3948],[-112.4039,38.4005],[-112.3977,38.4049],[-112.403,38.4156],[-112.417,38.4195],[-112.4338,38.4018],[-112.4435,38.4053],[-112.453,38.4292],[-112.4792,38.448],[-112.4934,38.4516],[-112.5015,38.466],[-112.5098,38.4676],[-112.5191,38.4787],[-112.5101,38.4888],[-112.5188,38.5],[-112.5141,38.5023],[-112.5226,38.5212],[-112.5158,38.5306],[-112.5185,38.5666],[-112.5154,38.5728],[-112.6035,38.5727],[-112.6083,38.5994],[-112.6093,38.6364],[-112.5882,38.6687],[-112.6018,38.6866],[-112.5981,38.7185],[-112.588,38.7347],[-112.5426,38.7775],[-112.5423,38.8152],[-112.5524,38.8151],[-112.5517,38.8293],[-112.5477,38.8315],[-112.5464,38.8484],[-112.5421,38.8484],[-112.5412,38.8817],[-112.5359,38.8863],[-112.561,38.8934],[-112.5694,38.914],[-112.5655,38.9238],[-112.5398,38.9415],[-112.5696,38.9415],[-112.5685,38.9649],[-112.5591,38.9742],[-112.52,38.9819],[-112.5157,38.9773],[-112.5085,38.9844],[-112.5114,38.994],[-112.5317,39.0097],[-112.5067,39.0424],[-112.4961,39.0722],[-112.4947,39.0948],[-112.4812,39.1034],[-112.4727,39.1165],[-112.482,39.1544],[-112.4099,39.155],[-112.41,39.2036],[-112.4692,39.2959],[-112.4962,39.3486],[-112.496,39.3933],[-112.5034,39.3969],[-112.4332,39.4618],[-112.6283,39.5082],[-112.6495,39.5088],[-112.6492,39.5242],[-112.6327,39.5494],[-112.6013,39.5779],[-112.5928,39.5988],[-112.5897,39.6235],[-112.5998,39.7386],[-112.5848,39.7796],[-112.6039,39.9037],[-114.047,39.9061],[-114.0483,37.8094],[-114.0524,37.6048]]]},"properties":{"geoid":"49028","state":"49","district":"28","name":"State Senate District 28","chamber":"Senate"}},{"type":"Feature","geometry":{"type":"Polygon","coordinates":[[[-114.0529,37.5531],[-114.0501,37.0002],[-113.5581,37],[-113.5132,37.0088],[-113.5223,37.0241],[-113.5223,37.0808],[-113.5178,37.0815],[-113.518,37.0961],[-113.5294,37.0977],[-113.5136,37.1122],[-113.5138,37.1245],[-113.5256,37.1246],[-113.5275,37.1284],[-113.5364,37.1253],[-113.5334,37.1767],[-113.5243,37.1767],[-113.5243,37.1912],[-113.5187,37.1912],[-113.5314,37.2087],[-113.5297,37.2272],[-113.4425,37.2261],[-113.4394,37.2333],[-113.443,37.2689],[-113.4364,37.2853],[-113.4243,37.2884],[-113.42,37.295],[-113.4293,37.3091],[-113.4446,37.3175],[-113.4628,37.3169],[-113.4732,37.3427],[-113.47,37.3441],[-113.4718,37.3704],[-113.4663,37.3774],[-113.4519,37.3765],[-113.4502,37.3909],[-113.4605,37.4079],[-113.453,37.4134],[-113.4562,37.422],[-113.4717,37.4285],[-113.4782,37.4844],[-113.49,37.4901],[-113.4911,37.5034],[-113.4691,37.5092],[-113.4674,37.5182],[-113.4585,37.5217],[-113.4549,37.5291],[-113.474,37.5291],[-113.4745,37.6183],[-113.5878,37.6182],[-113.5878,37.6046],[-114.0523,37.6048],[-114.0529,37.5531]]]},"properties":{"geoid":"49029","state":"49","district":"29","name":"State Senate District 29","chamber":"Senate"}}]}