{"type":"FeatureCollection","features":[{"type":"Feature","geometry":{"type":"Polygon","coordinates":[[[-78.8696,38.7628],[-78.6418,38.6047],[-78.627,38.6175],[-78.5899,38.6864],[-78.5488,38.7387],[-78.5093,38.7256],[-78.4941,38.7412],[-78.4701,38.7526],[-78.3947,38.8228],[-78.3433,38.8056],[-78.3272,38.7917],[-78.2949,38.7842],[-78.2848,38.7593],[-78.2734,38.7621],[-78.253,38.757],[-78.2302,38.7692],[-78.201,38.7766],[-78.1846,38.793],[-78.1802,38.818],[-78.1709,38.8192],[-78.171,38.8293],[-78.16,38.8365],[-78.1514,38.8484],[-78.1526,38.8544],[-78.1303,38.8619],[-78.1301,38.87],[-78.1122,38.8804],[-78.0949,38.8798],[-78.092,38.8856],[-78.0618,38.8919],[-78.0618,38.9003],[-78.0759,38.9086],[-78.0622,38.9303],[-78.0396,38.9398],[-78.017,38.9712],[-77.989,38.9975],[-77.9655,39.0087],[-77.9564,39.0209],[-77.9412,39.0235],[-77.8933,39.0554],[-77.8776,39.078],[-77.8628,39.081],[-77.8438,39.1197],[-77.8283,39.1324],[-78.3471,39.466],[-78.3465,39.4426],[-78.3532,39.4368],[-78.3467,39.4276],[-78.3599,39.409],[-78.3494,39.3973],[-78.3509,39.391],[-78.3432,39.3888],[-78.3669,39.3593],[-78.3404,39.3536],[-78.3393,39.3486],[-78.3474,39.3434],[-78.36,39.3178],[-78.3641,39.3188],[-78.3672,39.3101],[-78.3934,39.283],[-78.4029,39.2786],[-78.4194,39.2575],[-78.3997,39.2439],[-78.4056,39.2312],[-78.4387,39.1981],[-78.4249,39.1933],[-78.4263,39.1828],[-78.4037,39.1675],[-78.4273,39.1527],[-78.4394,39.1321],[-78.4599,39.1134],[-78.4952,39.101],[-78.5227,39.0711],[-78.5719,39.032],[-78.5505,39.0181],[-78.5705,39.0016],[-78.6017,38.9646],[-78.6112,38.9761],[-78.6187,38.9741],[-78.6205,38.9826],[-78.6278,38.9818],[-78.6384,38.9668],[-78.6466,38.9681],[-78.6707,38.9338],[-78.6805,38.9253],[-78.6883,38.9248],[-78.6974,38.9144],[-78.7043,38.9152],[-78.7193,38.9052],[-78.7171,38.936],[-78.7391,38.9271],[-78.7591,38.9005],[-78.786,38.8872],[-78.8696,38.7628]]]},"properties":{"geoid":"51001","state":"51","district":"1","name":"State Senate District 1","chamber":"Senate"}},{"type":"Feature","geometry":{"type":"Polygon","coordinates":[[[-80.0556,37.9528],[-80.0274,37.943],[-80.0019,37.9605],[-79.9747,37.9537],[-79.9354,37.9544],[-79.8873,37.893],[-79.8081,37.8808],[-79.7491,37.8854],[-79.6928,37.8445],[-79.6606,37.8721],[-79.6548,37.8679],[-79.6476,37.8743],[-79.609,37.9358],[-79.5817,37.9546],[-79.5406,38.0021],[-79.5338,38.0034],[-79.5325,38.011],[-79.5111,38.0353],[-79.5245,38.0411],[-79.5092,38.0523],[-79.4827,38.0861],[-79.2933,37.9755],[-79.1825,38.0224],[-79.1851,38.028],[-79.1758,38.0309],[-79.1732,38.0412],[-79.1569,38.0575],[-79.1512,38.0754],[-79.1602,38.0766],[-79.1529,38.0998],[-79.164,38.1009],[-79.1674,38.1064],[-79.1635,38.1289],[-79.1511,38.1424],[-79.1478,38.1534],[-79.1367,38.156],[-79.1257,38.1675],[-79.1118,38.1922],[-79.1171,38.2048],[-79.1071,38.2218],[-79.0825,38.2031],[-79.059,38.2078],[-79.0558,38.1929],[-79.0601,38.1868],[-79.0445,38.19],[-79.0338,38.199],[-79.0228,38.1956],[-79.0248,38.1922],[-79.0114,38.1817],[-79.0204,38.1816],[-79.0243,38.1765],[-79.0124,38.1673],[-79.0181,38.1488],[-79.0265,38.1362],[-79.0488,38.1221],[-79.0089,38.1026],[-78.9748,38.0727],[-78.9432,38.062],[-78.9507,38.0645],[-78.9503,38.0695],[-78.935,38.0769],[-78.9288,38.0915],[-78.9214,38.0885],[-78.9038,38.0998],[-78.8784,38.0913],[-78.8644,38.0957],[-78.8655,38.0823],[-78.8559,38.0747],[-78.8561,38.0692],[-78.8657,38.0623],[-78.8657,38.0466],[-78.8722,38.0396],[-78.8678,38.0334],[-78.8575,38.0326],[-78.8217,38.0592],[-78.7928,38.0695],[-78.7936,38.0778],[-78.7792,38.0835],[-78.7772,38.0932],[-78.7838,38.1003],[-78.779,38.1065],[-78.7875,38.1173],[-78.788,38.1268],[-78.7795,38.1321],[-78.7718,38.1661],[-78.7421,38.2177],[-78.7112,38.2386],[-78.7066,38.2464],[-78.6952,38.2465],[-78.681,38.2549],[-78.6698,38.2473],[-78.6622,38.2535],[-78.6551,38.2606],[-78.6664,38.2661],[-78.6606,38.2703],[-78.6639,38.2767],[-78.6512,38.2935],[-78.6353,38.2916],[-78.6285,38.3],[-78.6027,38.3069],[-78.601,38.3147],[-78.5875,38.3248],[-78.5539,38.3342],[-78.5538,38.3485],[-78.5469,38.3529],[-78.5439,38.3633],[-78.5228,38.3695],[-78.5264,38.3724],[-78.5151,38.3937],[-78.5066,38.394],[-78.4932,38.4063],[-78.4822,38.4299],[-78.4766,38.4321],[-78.4743,38.4456],[-78.4651,38.447],[-78.4627,38.4595],[-78.4415,38.4903],[-78.4468,38.4993],[-78.4361,38.5217],[-78.4428,38.5278],[-78.438,38.5309],[-78.4302,38.5269],[-78.4198,38.5344],[-78.4132,38.5478],[-78.3809,38.5613],[-78.3832,38.5883],[-78.3603,38.6136],[-78.355,38.612],[-78.341,38.6257],[-78.3259,38.6307],[-78.3156,38.6516],[-78.3201,38.6595],[-78.3175,38.6695],[-78.324,38.6727],[-78.3144,38.6825],[-78.32,38.6984],[-78.3322,38.7056],[-78.3188,38.7379],[-78.3035,38.7389],[-78.2995,38.7484],[-78.2905,38.7504],[-78.2851,38.7587],[-78.2915,38.7706],[-78.2899,38.7796],[-78.3296,38.7929],[-78.3433,38.8056],[-78.3947,38.8228],[-78.4701,38.7526],[-78.4941,38.7412],[-78.5093,38.7256],[-78.5488,38.7387],[-78.5899,38.6864],[-78.627,38.6175],[-78.6418,38.6047],[-78.994,38.8501],[-79.0003,38.8454],[-79.0066,38.8237],[-79.0195,38.8179],[-79.0273,38.7921],[-79.0466,38.7921],[-79.055,38.7857],[-79.0516,38.7726],[-79.0791,38.7372],[-79.093,38.702],[-79.0843,38.6865],[-79.0928,38.6598],[-79.1064,38.6562],[-79.1205,38.6602],[-79.1308,38.6537],[-79.1515,38.6202],[-79.1583,38.5931],[-79.171,38.5681],[-79.2059,38.5245],[-79.2106,38.4929],[-79.2257,38.4765],[-79.2399,38.4701],[-79.2427,38.4542],[-79.2545,38.4559],[-79.2673,38.4383],[-79.2828,38.4317],[-79.2797,38.4237],[-79.2829,38.4181],[-79.2907,38.421],[-79.3123,38.4119],[-79.4766,38.4572],[-79.5215,38.5341],[-79.5369,38.5509],[-79.6491,38.5915],[-79.6629,38.5704],[-79.6593,38.5624],[-79.6651,38.5609],[-79.6698,38.5503],[-79.6709,38.541],[-79.6669,38.5383],[-79.673,38.5287],[-79.6622,38.5152],[-79.6705,38.5077],[-79.6804,38.5106],[-79.683,38.5013],[-79.6976,38.4872],[-79.6934,38.4802],[-79.6991,38.4703],[-79.6884,38.4569],[-79.6897,38.4315],[-79.7066,38.4157],[-79.7295,38.3812],[-79.7317,38.3734],[-79.7268,38.3708],[-79.726,38.3632],[-79.7422,38.3532],[-79.7644,38.3565],[-79.7731,38.3355],[-79.7966,38.3235],[-79.8087,38.3094],[-79.8028,38.2921],[-79.7954,38.2902],[-79.7865,38.2746],[-79.7892,38.2684],[-79.8063,38.2592],[-79.812,38.2604],[-79.8196,38.2482],[-79.8309,38.2497],[-79.8351,38.2419],[-79.8452,38.2411],[-79.8746,38.213],[-79.8903,38.2059],[-79.8973,38.1934],[-79.9201,38.1825],[-79.9149,38.1677],[-79.9195,38.1626],[-79.9187,38.1548],[-79.9327,38.1362],[-79.9453,38.1322],[-79.9389,38.1116],[-79.9264,38.1065],[-79.9544,38.0804],[-79.9739,38.04],[-79.9716,38.0352],[-79.9955,38.0071],[-79.9994,37.9949],[-80.0556,37.9528]]]},"properties":{"geoid":"51002","state":"51","district":"2","name":"State Senate District 2","chamber":"Senate"}},{"type":"Feature","geometry":{"type":"Polygon","coordinates":[[[-80.4728,37.4237],[-80.4361,37.3397],[-80.4469,37.3321],[-80.4422,37.3199],[-80.4367,37.3225],[-80.4309,37.3164],[-80.3872,37.3336],[-80.3446,37.3529],[-80.3248,37.3688],[-80.2622,37.3415],[-80.2586,37.3087],[-80.1924,37.2343],[-80.1781,37.2432],[-80.1686,37.2596],[-80.1429,37.2671],[-80.1384,37.2647],[-80.1375,37.2708],[-80.1226,37.2679],[-80.105,37.2781],[-80.1205,37.2871],[-80.1061,37.2916],[-80.1049,37.2961],[-80.0989,37.2929],[-80.0819,37.2985],[-80.0727,37.3045],[-80.072,37.312],[-80.0689,37.3073],[-80.0673,37.3124],[-80.0336,37.3243],[-80.0279,37.311],[-80.0222,37.3083],[-79.9678,37.3377],[-79.959,37.3201],[-79.9497,37.3263],[-79.9462,37.3209],[-79.9293,37.32],[-79.9181,37.3284],[-79.9192,37.3209],[-79.9055,37.3218],[-79.8793,37.304],[-79.872,37.2782],[-79.851,37.2843],[-79.8504,37.2951],[-79.8396,37.3006],[-79.8475,37.3094],[-79.8442,37.3177],[-79.7887,37.3493],[-79.7833,37.3692],[-79.7761,37.374],[-79.7777,37.3814],[-79.7931,37.3812],[-79.814,37.4039],[-79.7905,37.4088],[-79.7568,37.4249],[-79.7518,37.4317],[-79.7191,37.449],[-79.6771,37.4836],[-79.6535,37.482],[-79.6282,37.4536],[-79.6172,37.458],[-79.5937,37.4489],[-79.5827,37.4519],[-79.5811,37.4724],[-79.559,37.4964],[-79.5552,37.4991],[-79.546,37.4892],[-79.5326,37.5057],[-79.5189,37.5084],[-79.5142,37.5166],[-79.5047,37.5208],[-79.5051,37.5292],[-79.4969,37.5369],[-79.4789,37.5484],[-79.4641,37.5496],[-79.458,37.5601],[-79.4405,37.564],[-79.4341,37.5723],[-79.4386,37.5779],[-79.449,37.5785],[-79.4464,37.5839],[-79.4575,37.5994],[-79.4574,37.6068],[-79.4453,37.6182],[-79.4264,37.6155],[-79.4193,37.6259],[-79.4016,37.626],[-79.3804,37.6428],[-79.3656,37.6457],[-79.3584,37.656],[-79.3452,37.6606],[-79.3406,37.6786],[-79.3226,37.6925],[-79.3167,37.7033],[-79.3174,37.7148],[-79.3048,37.7294],[-79.3085,37.7343],[-79.2647,37.7947],[-79.2557,37.7935],[-79.2459,37.8053],[-79.2314,37.8132],[-79.2163,37.8015],[-79.2177,37.7962],[-79.209,37.7889],[-79.1986,37.788],[-79.1709,37.8004],[-79.1642,37.8163],[-79.1581,37.8197],[-79.1602,37.8267],[-79.1545,37.8334],[-79.1589,37.8387],[-79.1443,37.8564],[-79.1515,37.866],[-79.1465,37.8752],[-79.1574,37.891],[-79.1459,37.8889],[-79.0912,37.9109],[-79.0625,37.9176],[-79.0523,37.9128],[-79.0446,37.8909],[-79.0172,37.8935],[-79.016,37.8876],[-79.0051,37.8817],[-78.9811,37.906],[-78.9551,37.9164],[-78.9591,37.9203],[-78.9569,37.9259],[-78.9419,37.9404],[-78.9267,37.9401],[-78.92,37.9463],[-78.8991,37.9488],[-78.9024,37.958],[-78.8926,37.975],[-78.9076,37.9761],[-78.9069,37.9875],[-78.8879,37.9966],[-78.882,38.0182],[-78.8737,38.0286],[-78.8579,38.0298],[-78.8722,38.0396],[-78.8657,38.0466],[-78.8657,38.0623],[-78.8561,38.0692],[-78.8559,38.0747],[-78.8655,38.0823],[-78.8644,38.0957],[-78.8784,38.0913],[-78.9038,38.0998],[-78.9214,38.0885],[-78.9288,38.0915],[-78.935,38.0769],[-78.9503,38.0695],[-78.9507,38.0645],[-78.9432,38.062],[-78.9748,38.0727],[-79.0089,38.1026],[-79.0488,38.1221],[-79.0265,38.1362],[-79.0181,38.1488],[-79.0124,38.1673],[-79.0243,38.1765],[-79.0204,38.1816],[-79.0114,38.1817],[-79.0248,38.1922],[-79.0228,38.1956],[-79.0338,38.199],[-79.0445,38.19],[-79.0601,38.1868],[-79.0558,38.1929],[-79.059,38.2078],[-79.0825,38.2031],[-79.1071,38.2218],[-79.1171,38.2048],[-79.1118,38.1922],[-79.1257,38.1675],[-79.1367,38.156],[-79.1478,38.1534],[-79.1511,38.1424],[-79.1635,38.1289],[-79.1674,38.1064],[-79.164,38.1009],[-79.1529,38.0998],[-79.1602,38.0766],[-79.1512,38.0754],[-79.1569,38.0575],[-79.1732,38.0412],[-79.1758,38.0309],[-79.1851,38.028],[-79.1825,38.0224],[-79.2933,37.9755],[-79.4827,38.0861],[-79.5092,38.0523],[-79.5245,38.0411],[-79.5111,38.0353],[-79.5325,38.011],[-79.5338,38.0034],[-79.5406,38.0021],[-79.5817,37.9546],[-79.609,37.9358],[-79.6476,37.8743],[-79.6548,37.8679],[-79.6606,37.8721],[-79.6928,37.8445],[-79.7491,37.8854],[-79.8081,37.8808],[-79.8873,37.893],[-79.9354,37.9544],[-79.9747,37.9537],[-80.0019,37.9605],[-80.0274,37.943],[-80.0568,37.9518],[-80.0745,37.9422],[-80.0966,37.9181],[-80.1029,37.9189],[-80.119,37.9036],[-80.1177,37.8977],[-80.1298,37.8942],[-80.1415,37.8824],[-80.149,37.8869],[-80.1622,37.8751],[-80.1767,37.8528],[-80.1828,37.8514],[-80.1794,37.8398],[-80.193,37.8347],[-80.2065,37.816],[-80.2186,37.8098],[-80.2277,37.7979],[-80.2295,37.7923],[-80.2235,37.7824],[-80.2159,37.782],[-80.2166,37.776],[-80.2305,37.7783],[-80.2414,37.7681],[-80.2484,37.7683],[-80.2509,37.7555],[-80.2574,37.7561],[-80.2628,37.7383],[-80.252,37.7298],[-80.2531,37.7259],[-80.2959,37.6928],[-80.2794,37.6571],[-80.2675,37.6462],[-80.221,37.6278],[-80.2403,37.607],[-80.2589,37.5955],[-80.3285,37.5643],[-80.3122,37.5462],[-80.3304,37.5363],[-80.3093,37.5274],[-80.2917,37.5365],[-80.2824,37.5335],[-80.2998,37.5083],[-80.3271,37.4954],[-80.3668,37.4849],[-80.3632,37.48],[-80.372,37.4741],[-80.4728,37.4237]]]},"properties":{"geoid":"51003","state":"51","district":"3","name":"State Senate District 3","chamber":"Senate"}},{"type":"Feature","geometry":{"type":"Polygon","coordinates":[[[-80.4791,37.2853],[-80.4081,37.2752],[-80.3968,37.266],[-80.4052,37.2596],[-80.3997,37.2562],[-80.4008,37.2472],[-80.4094,37.2517],[-80.4029,37.2436],[-80.3944,37.2427],[-80.3973,37.2269],[-80.3817,37.2251],[-80.3912,37.206],[-80.3791,37.2063],[-80.395,37.2015],[-80.3837,37.1937],[-80.3879,37.186],[-80.4053,37.1863],[-80.4174,37.1765],[-80.4365,37.1808],[-80.4488,37.1776],[-80.4534,37.1517],[-80.4451,37.1471],[-80.4482,37.1421],[-80.425,37.1393],[-80.4311,37.135],[-80.4258,37.1305],[-80.4383,37.1259],[-80.4345,37.1178],[-80.4235,37.1189],[-80.4233,37.1141],[-80.4317,37.1084],[-80.4273,37.107],[-80.4131,37.1172],[-80.4038,37.1084],[-80.3782,37.1113],[-80.3893,37.0896],[-80.4018,37.0846],[-80.4098,37.0706],[-80.4045,37.0481],[-80.4171,37.0416],[-80.4082,37.0295],[-80.4157,37.0214],[-80.4046,37.0144],[-80.3895,37.0217],[-80.3759,37.0185],[-80.3476,37.0216],[-80.2837,37.0788],[-80.1781,37.1134],[-80.1737,37.1091],[-80.1621,37.1092],[-80.1332,37.1193],[-80.1225,37.1317],[-80.1073,37.1376],[-80.1047,37.1501],[-80.09,37.1526],[-80.0863,37.1619],[-80.0747,37.1571],[-80.0722,37.1614],[-80.0446,37.1668],[-80.0317,37.1746],[-80.0232,37.1704],[-80.0092,37.1727],[-80.0012,37.1672],[-80.0054,37.1576],[-80.0012,37.1517],[-79.9913,37.1528],[-79.9896,37.1434],[-79.975,37.1432],[-79.9646,37.1374],[-79.9538,37.1395],[-79.9452,37.1509],[-79.9139,37.1652],[-79.9114,37.1776],[-79.8951,37.1818],[-79.8939,37.1993],[-79.8865,37.2007],[-79.8834,37.2095],[-79.8696,37.2167],[-79.8521,37.215],[-79.8519,37.2237],[-79.8425,37.2303],[-79.8465,37.2474],[-79.8584,37.2672],[-79.8465,37.2787],[-79.851,37.2843],[-79.872,37.2782],[-79.8793,37.304],[-79.9055,37.3218],[-79.9192,37.3209],[-79.9181,37.3284],[-79.9293,37.32],[-79.9462,37.3209],[-79.9497,37.3263],[-79.959,37.3201],[-79.9676,37.3377],[-80.0222,37.3083],[-80.0279,37.311],[-80.0336,37.3243],[-80.0673,37.3124],[-80.0689,37.3073],[-80.072,37.312],[-80.0727,37.3045],[-80.0819,37.2985],[-80.0989,37.2929],[-80.1049,37.2961],[-80.1061,37.2916],[-80.1205,37.2871],[-80.105,37.2781],[-80.1226,37.2679],[-80.1375,37.2708],[-80.1384,37.2647],[-80.1429,37.2671],[-80.1686,37.2596],[-80.1781,37.2432],[-80.1924,37.2343],[-80.2586,37.3087],[-80.2622,37.3415],[-80.3248,37.3688],[-80.3446,37.3529],[-80.4166,37.324],[-80.4791,37.2853]]]},"properties":{"geoid":"51004","state":"51","district":"4","name":"State Senate District 4","chamber":"Senate"}},{"type":"Feature","geometry":{"type":"Polygon","coordinates":[[[-81.9019,37.1401],[-81.8897,37.1109],[-81.8184,37.0428],[-81.7806,36.9589],[-81.8187,36.9473],[-81.8219,36.9397],[-81.8371,36.929],[-81.6996,36.7893],[-81.619,36.634],[-81.5808,36.6465],[-81.564,36.6582],[-81.5472,36.6565],[-81.5388,36.6649],[-81.5312,36.685],[-81.5314,36.6938],[-81.5431,36.697],[-81.544,36.7015],[-81.4557,36.7185],[-81.4388,36.7169],[-81.384,36.74],[-81.299,36.7527],[-81.262,36.763],[-81.3021,36.8495],[-81.2763,36.857],[-81.2721,36.8719],[-81.2183,36.8768],[-81.2116,36.8686],[-81.1713,36.871],[-81.1663,36.8892],[-81.1744,36.899],[-81.1799,36.8978],[-81.1882,36.9098],[-81.1597,36.923],[-81.1323,36.9294],[-81.1278,36.92],[-81.1162,36.9138],[-81.1186,36.9283],[-81.1061,36.9226],[-81.0986,36.9312],[-81.0923,36.9277],[-81.0909,36.9329],[-81.0807,36.931],[-81.0772,36.9368],[-81.0628,36.9261],[-81.0491,36.9247],[-81.0403,36.9185],[-81.0313,36.9247],[-81.0232,36.9417],[-81.0257,36.9464],[-80.9947,36.9634],[-80.9962,36.9771],[-81.0057,36.9744],[-81.0173,36.978],[-81.0122,36.9828],[-81.0225,36.9903],[-81.0215,36.9965],[-80.9917,37.0137],[-80.9731,37.0164],[-80.9746,37.0272],[-80.9524,37.0354],[-80.9459,37.0507],[-80.9602,37.0596],[-80.9212,37.0719],[-80.9127,37.0733],[-80.8932,37.0274],[-80.8351,36.9789],[-80.8093,36.9534],[-80.8093,36.9404],[-80.8027,36.9465],[-80.7405,36.879],[-80.6826,36.8951],[-80.6808,36.9092],[-80.6591,36.9135],[-80.6528,36.9228],[-80.6367,36.9271],[-80.6274,36.9376],[-80.5932,36.9454],[-80.5799,36.9577],[-80.5686,36.9603],[-80.5642,36.9688],[-80.5528,36.9702],[-80.5484,36.9825],[-80.5393,36.9891],[-80.5207,36.997],[-80.5169,37.0029],[-80.5204,37.0112],[-80.5127,37.0081],[-80.4934,36.9815],[-80.4931,36.9871],[-80.4848,36.9883],[-80.4856,36.9995],[-80.4722,36.9929],[-80.4735,37.0033],[-80.4629,37.0022],[-80.4628,37.0111],[-80.4511,37.0127],[-80.4512,37.0216],[-80.446,37.0193],[-80.443,37.0074],[-80.4335,37.0166],[-80.4242,37.012],[-80.4226,37.0026],[-80.4129,37.003],[-80.4155,37.0205],[-80.4047,37.0146],[-80.4157,37.0214],[-80.4082,37.0295],[-80.4171,37.0416],[-80.4045,37.0481],[-80.4098,37.0706],[-80.4018,37.0846],[-80.3893,37.0896],[-80.3782,37.1112],[-80.4038,37.1084],[-80.4131,37.1172],[-80.4273,37.107],[-80.4317,37.1084],[-80.4233,37.1141],[-80.4235,37.1189],[-80.4345,37.1178],[-80.4383,37.1259],[-80.4258,37.1305],[-80.4311,37.135],[-80.425,37.1393],[-80.4488,37.1424],[-80.4451,37.1471],[-80.4525,37.1486],[-80.4522,37.1591],[-80.4488,37.1776],[-80.4365,37.1808],[-80.4174,37.1765],[-80.4053,37.1863],[-80.3879,37.186],[-80.3837,37.1937],[-80.3948,37.2022],[-80.3791,37.2063],[-80.3912,37.206],[-80.3817,37.2251],[-80.3973,37.2269],[-80.3944,37.2427],[-80.4029,37.2436],[-80.4094,37.2517],[-80.4008,37.2472],[-80.3997,37.2562],[-80.4052,37.2596],[-80.3968,37.266],[-80.4081,37.2752],[-80.4551,37.2849],[-80.4792,37.2853],[-80.4309,37.3164],[-80.446,37.3242],[-80.4469,37.3321],[-80.4361,37.3397],[-80.4728,37.4237],[-80.4949,37.4351],[-80.4973,37.4448],[-80.493,37.4577],[-80.5114,37.4817],[-80.5614,37.4698],[-80.6227,37.4333],[-80.6344,37.4312],[-80.7163,37.3887],[-80.7701,37.3724],[-80.7842,37.3946],[-80.8057,37.398],[-80.8086,37.4065],[-80.8372,37.4254],[-80.8463,37.4234],[-80.8595,37.4295],[-80.8653,37.4201],[-80.863,37.4115],[-80.8832,37.3839],[-80.8495,37.3469],[-80.869,37.3386],[-80.8992,37.3157],[-80.9442,37.2966],[-80.977,37.2918],[-80.9822,37.296],[-80.9796,37.3023],[-81.1041,37.2806],[-81.167,37.2629],[-81.2251,37.2349],[-81.3201,37.2993],[-81.3645,37.338],[-81.3727,37.3202],[-81.3943,37.3164],[-81.3987,37.3102],[-81.3968,37.3045],[-81.4051,37.2988],[-81.4023,37.2958],[-81.416,37.2736],[-81.4477,37.2722],[-81.4801,37.2511],[-81.4923,37.251],[-81.4991,37.258],[-81.5076,37.2337],[-81.5456,37.2202],[-81.5557,37.2076],[-81.6782,37.2015],[-81.6836,37.2116],[-81.6948,37.2134],[-81.7157,37.2288],[-81.7196,37.2385],[-81.7311,37.2401],[-81.7401,37.2378],[-81.7411,37.2258],[-81.7551,37.2194],[-81.7569,37.2075],[-81.7634,37.2009],[-81.7739,37.2039],[-81.7997,37.1851],[-81.812,37.1852],[-81.8217,37.1787],[-81.8336,37.1801],[-81.8456,37.1731],[-81.8573,37.1744],[-81.8725,37.1647],[-81.8671,37.1578],[-81.8898,37.1491],[-81.8975,37.1522],[-81.9019,37.1401]]]},"properties":{"geoid":"51005","state":"51","district":"5","name":"State Senate District 5","chamber":"Senate"}},{"type":"Feature","geometry":{"type":"Polygon","coordinates":[[[-83.6753,36.6012],[-83.2763,36.5982],[-83.2489,36.5938],[-81.9341,36.5942],[-81.9226,36.6162],[-81.6276,36.6116],[-81.6109,36.6169],[-81.6054,36.6353],[-81.6058,36.6384],[-81.619,36.634],[-81.6996,36.7893],[-81.8371,36.929],[-81.8219,36.9397],[-81.8187,36.9473],[-81.7806,36.9589],[-81.8184,37.0428],[-81.8897,37.1109],[-81.9008,37.1445],[-81.8975,37.1522],[-81.8898,37.1491],[-81.8671,37.1578],[-81.8725,37.1647],[-81.8573,37.1744],[-81.8211,37.1788],[-81.812,37.1852],[-81.7902,37.1892],[-81.7739,37.2039],[-81.7626,37.2014],[-81.7551,37.2194],[-81.7411,37.2258],[-81.7401,37.2376],[-81.7444,37.2435],[-81.7409,37.2542],[-81.7461,37.2637],[-81.7576,37.2686],[-81.7571,37.2761],[-81.7732,37.2739],[-81.7824,37.2823],[-81.7931,37.2812],[-81.8007,37.2857],[-81.8258,37.2791],[-81.8344,37.2854],[-81.8499,37.2852],[-81.8541,37.29],[-81.8545,37.3066],[-81.8596,37.3048],[-81.8657,37.3095],[-81.8605,37.3159],[-81.8725,37.3224],[-81.8794,37.3325],[-81.8939,37.33],[-81.8996,37.3416],[-81.9177,37.3492],[-81.9285,37.3605],[-81.926,37.3655],[-81.9334,37.3693],[-81.9311,37.3758],[-81.9367,37.3807],[-81.9288,37.3938],[-81.93,37.4053],[-81.923,37.4114],[-81.9389,37.422],[-81.9356,37.4384],[-81.9576,37.4491],[-81.9704,37.4477],[-81.9688,37.4515],[-81.9762,37.4572],[-81.987,37.4549],[-81.9961,37.4715],[-81.9909,37.4844],[-81.9776,37.4846],[-81.965,37.4935],[-81.9538,37.4915],[-81.9531,37.5013],[-81.9262,37.5136],[-81.9337,37.5195],[-81.9378,37.5136],[-81.9443,37.5133],[-81.9476,37.5259],[-81.944,37.5313],[-81.956,37.5284],[-81.9573,37.5354],[-81.9672,37.5329],[-81.968,37.538],[-82.3158,37.295],[-82.3247,37.283],[-82.3438,37.2807],[-82.3421,37.274],[-82.349,37.268],[-82.4397,37.2471],[-82.4866,37.2312],[-82.4915,37.225],[-82.4988,37.227],[-82.5209,37.2122],[-82.5304,37.2132],[-82.5329,37.2067],[-82.5508,37.2045],[-82.5923,37.183],[-82.6334,37.1544],[-82.6533,37.1512],[-82.6567,37.1447],[-82.6767,37.1349],[-82.6829,37.137],[-82.7214,37.1208],[-82.7267,37.1148],[-82.7217,37.101],[-82.725,37.0918],[-82.7167,37.0774],[-82.7267,37.073],[-82.7224,37.0449],[-82.7428,37.0428],[-82.7479,37.0244],[-82.7595,37.0273],[-82.7829,37.0078],[-82.8287,37.0058],[-82.8302,36.9944],[-82.8373,36.9873],[-82.8675,36.978],[-82.8701,36.965],[-82.8557,36.9538],[-82.8623,36.9413],[-82.8577,36.9287],[-82.8774,36.9085],[-82.868,36.9],[-82.8774,36.8955],[-82.8787,36.8895],[-82.9074,36.8793],[-82.9078,36.8748],[-82.9516,36.8662],[-82.9708,36.8576],[-82.9986,36.8566],[-83.0066,36.8476],[-83.0221,36.8499],[-83.0266,36.8556],[-83.0478,36.8517],[-83.0728,36.8545],[-83.0752,36.8407],[-83.1019,36.8282],[-83.0985,36.8135],[-83.1043,36.804],[-83.1232,36.7867],[-83.1332,36.7846],[-83.129,36.7758],[-83.1325,36.7644],[-83.1256,36.7616],[-83.1351,36.7426],[-83.1948,36.7394],[-83.3097,36.7106],[-83.3868,36.6866],[-83.3965,36.6769],[-83.4247,36.6673],[-83.4666,36.6647],[-83.4992,36.6704],[-83.5301,36.666],[-83.5371,36.6589],[-83.5624,36.6512],[-83.5776,36.6414],[-83.5864,36.6439],[-83.6139,36.6349],[-83.624,36.6255],[-83.6451,36.6243],[-83.6493,36.6168],[-83.6753,36.6012]]]},"properties":{"geoid":"51006","state":"51","district":"6","name":"State Senate District 6","chamber":"Senate"}},{"type":"Feature","geometry":{"type":"Polygon","coordinates":[[[-81.6724,36.592],[-81.6775,36.5881],[-81.443,36.5768],[-80.8378,36.5591],[-80.7046,36.5623],[-80.2949,36.5441],[-79.7148,36.542],[-79.5941,37.0422],[-79.6026,37.0487],[-79.5923,37.0507],[-79.6224,37.0786],[-79.6224,37.083],[-79.6116,37.0824],[-79.6155,37.0916],[-79.6264,37.0922],[-79.6411,37.1031],[-79.6512,37.1267],[-79.6705,37.1496],[-79.6807,37.1559],[-79.6882,37.1497],[-79.7013,37.1643],[-79.6963,37.1528],[-79.7035,37.15],[-79.7199,37.1909],[-79.7329,37.187],[-79.7563,37.1895],[-79.7621,37.2014],[-79.7683,37.1977],[-79.7766,37.2026],[-79.7799,37.2134],[-79.7742,37.2168],[-79.7812,37.2326],[-79.7936,37.2319],[-79.7948,37.2195],[-79.8049,37.2151],[-79.8182,37.2262],[-79.8303,37.2244],[-79.833,37.216],[-79.8436,37.217],[-79.8472,37.2254],[-79.8519,37.2237],[-79.8521,37.215],[-79.8696,37.2167],[-79.8834,37.2095],[-79.8865,37.2007],[-79.8939,37.1993],[-79.8951,37.1818],[-79.9114,37.1776],[-79.9139,37.1652],[-79.9452,37.1509],[-79.9538,37.1395],[-79.9646,37.1374],[-79.975,37.1432],[-79.9896,37.1434],[-79.9913,37.1528],[-80.0012,37.1517],[-80.0054,37.1576],[-80.0012,37.1672],[-80.0092,37.1727],[-80.0232,37.1704],[-80.0317,37.1746],[-80.0446,37.1668],[-80.0722,37.1614],[-80.0747,37.1571],[-80.0863,37.1619],[-80.09,37.1526],[-80.1047,37.1501],[-80.1073,37.1376],[-80.1225,37.1317],[-80.1332,37.1193],[-80.1621,37.1092],[-80.1737,37.1091],[-80.1781,37.1134],[-80.2837,37.0788],[-80.3477,37.0216],[-80.3759,37.0185],[-80.3895,37.0217],[-80.4046,37.0144],[-80.414,37.0221],[-80.4169,37.0158],[-80.4111,37.0097],[-80.4171,37.0017],[-80.4232,37.0031],[-80.4261,37.0141],[-80.4335,37.0166],[-80.443,37.0074],[-80.446,37.0193],[-80.4516,37.0215],[-80.4511,37.0127],[-80.4628,37.0111],[-80.4616,37.0032],[-80.4667,36.9997],[-80.4735,37.0033],[-80.4722,36.9929],[-80.4856,36.9995],[-80.4848,36.9883],[-80.4931,36.9871],[-80.4927,36.9815],[-80.5127,37.0081],[-80.5204,37.0112],[-80.5169,37.0029],[-80.5207,36.997],[-80.5393,36.9891],[-80.5484,36.9825],[-80.5528,36.9702],[-80.5642,36.9688],[-80.5686,36.9603],[-80.5799,36.9577],[-80.5932,36.9454],[-80.6274,36.9376],[-80.6367,36.9271],[-80.6528,36.9228],[-80.6591,36.9135],[-80.6808,36.9092],[-80.6826,36.8951],[-80.7405,36.879],[-80.8027,36.9465],[-80.8093,36.9404],[-80.8093,36.9534],[-80.8351,36.9789],[-80.8932,37.0274],[-80.9127,37.0733],[-80.9212,37.0719],[-80.9602,37.0596],[-80.9459,37.0507],[-80.9524,37.0354],[-80.9746,37.0272],[-80.9731,37.0164],[-80.9917,37.0137],[-81.0215,36.9965],[-81.0225,36.9903],[-81.0122,36.9828],[-81.0173,36.978],[-81.0057,36.9744],[-80.9962,36.9771],[-80.9947,36.9634],[-81.0257,36.9464],[-81.0232,36.9417],[-81.0313,36.9247],[-81.0403,36.9185],[-81.0491,36.9247],[-81.0628,36.9261],[-81.0772,36.9368],[-81.0807,36.931],[-81.0909,36.9329],[-81.0923,36.9277],[-81.0986,36.9312],[-81.1061,36.9226],[-81.1186,36.9283],[-81.1162,36.9138],[-81.1278,36.92],[-81.1323,36.9294],[-81.1597,36.923],[-81.1882,36.9098],[-81.1799,36.8978],[-81.1744,36.899],[-81.1663,36.8892],[-81.1713,36.871],[-81.2116,36.8686],[-81.2183,36.8768],[-81.2721,36.8719],[-81.2763,36.857],[-81.3021,36.8495],[-81.262,36.763],[-81.299,36.7527],[-81.384,36.74],[-81.4388,36.7169],[-81.4557,36.7185],[-81.544,36.7015],[-81.5431,36.697],[-81.5314,36.6938],[-81.5312,36.685],[-81.5388,36.6649],[-81.5472,36.6565],[-81.564,36.6582],[-81.5808,36.6465],[-81.6016,36.6423],[-81.6109,36.6169],[-81.6469,36.6119],[-81.6724,36.592]]]},"properties":{"geoid":"51007","state":"51","district":"7","name":"State Senate District 7","chamber":"Senate"}},{"type":"Feature","geometry":{"type":"Polygon","coordinates":[[[-79.858,37.2675],[-79.8465,37.2474],[-79.8425,37.2306],[-79.8473,37.2233],[-79.8436,37.217],[-79.833,37.216],[-79.8303,37.2244],[-79.8196,37.2264],[-79.8049,37.2151],[-79.7948,37.2195],[-79.7936,37.2319],[-79.7812,37.2326],[-79.7742,37.2168],[-79.7799,37.2134],[-79.7766,37.2026],[-79.7683,37.1977],[-79.7621,37.2014],[-79.7563,37.1895],[-79.7329,37.187],[-79.7224,37.1923],[-79.7029,37.1494],[-79.6963,37.1528],[-79.7013,37.1643],[-79.6882,37.1497],[-79.6807,37.1559],[-79.6705,37.1496],[-79.6512,37.1267],[-79.6411,37.1031],[-79.6116,37.0865],[-79.6121,37.0818],[-79.6228,37.08],[-79.5931,37.0529],[-79.5934,37.048],[-79.6025,37.0492],[-79.6002,37.0446],[-79.5643,37.0347],[-79.5595,37.0439],[-79.5426,37.045],[-79.5507,37.0529],[-79.5426,37.0516],[-79.5332,37.0395],[-79.4971,37.0235],[-79.4807,37.0058],[-79.459,37.0194],[-79.4833,37.0353],[-79.4801,37.0442],[-79.49,37.0557],[-79.4901,37.062],[-79.4778,37.0642],[-79.4461,37.0555],[-79.4052,37.0632],[-79.4047,37.0918],[-79.388,37.0927],[-79.3711,37.1059],[-79.3709,37.1127],[-79.3824,37.1194],[-79.3519,37.1226],[-79.3413,37.1282],[-79.3452,37.1336],[-79.3395,37.1375],[-79.3326,37.1259],[-79.2972,37.105],[-79.2727,37.1112],[-79.2644,37.1268],[-79.254,37.1329],[-79.2442,37.1243],[-79.2318,37.0989],[-79.2221,37.1014],[-79.2221,37.1154],[-79.213,37.1179],[-79.203,37.1067],[-79.2059,37.0748],[-79.1931,37.0546],[-79.1809,37.0707],[-79.1671,37.0675],[-79.1399,37.0773],[-79.1353,37.0863],[-79.124,37.0898],[-79.1173,37.0866],[-79.1104,37.0679],[-79.0568,37.0454],[-79.0186,37.0404],[-79.0048,37.0299],[-78.9723,37.0502],[-78.9046,37.0223],[-78.8242,37.2054],[-78.8569,37.212],[-78.8547,37.226],[-78.8634,37.2406],[-78.8914,37.2487],[-78.9152,37.2423],[-78.9217,37.2459],[-78.9265,37.2771],[-78.9411,37.284],[-78.9431,37.2924],[-78.9497,37.2925],[-78.9534,37.3171],[-79.0217,37.4292],[-79.0431,37.4332],[-79.0403,37.4224],[-79.0461,37.416],[-79.0709,37.4213],[-79.0607,37.3915],[-79.0664,37.386],[-79.1062,37.4065],[-79.1112,37.4061],[-79.114,37.3977],[-79.1203,37.3982],[-79.1392,37.4164],[-79.1436,37.4329],[-79.1472,37.4354],[-79.1466,37.4287],[-79.1847,37.4581],[-79.1884,37.4745],[-79.2095,37.4775],[-79.2246,37.4935],[-79.2195,37.505],[-79.2404,37.5062],[-79.2588,37.4942],[-79.2642,37.5094],[-79.2931,37.4994],[-79.3393,37.5166],[-79.365,37.5462],[-79.3697,37.5679],[-79.3841,37.5943],[-79.394,37.5966],[-79.4057,37.6077],[-79.4311,37.6018],[-79.4359,37.6049],[-79.4369,37.6171],[-79.4453,37.6182],[-79.4574,37.6068],[-79.4575,37.5994],[-79.4464,37.5839],[-79.449,37.5785],[-79.4386,37.5779],[-79.4341,37.5723],[-79.4405,37.564],[-79.458,37.5601],[-79.4641,37.5496],[-79.4789,37.5484],[-79.4969,37.5369],[-79.5051,37.5292],[-79.5047,37.5208],[-79.5142,37.5166],[-79.5189,37.5084],[-79.5326,37.5057],[-79.546,37.4892],[-79.5552,37.4991],[-79.559,37.4964],[-79.5811,37.4724],[-79.5827,37.4519],[-79.5937,37.4489],[-79.6172,37.458],[-79.6282,37.4536],[-79.6535,37.482],[-79.6771,37.4836],[-79.7191,37.449],[-79.7518,37.4317],[-79.7568,37.4249],[-79.7905,37.4088],[-79.814,37.4039],[-79.7931,37.3812],[-79.7777,37.3814],[-79.7761,37.374],[-79.7833,37.3692],[-79.7887,37.3493],[-79.8442,37.3177],[-79.8475,37.3094],[-79.8396,37.3006],[-79.8504,37.2951],[-79.8507,37.2824],[-79.8465,37.2787],[-79.858,37.2675]]]},"properties":{"geoid":"51008","state":"51","district":"8","name":"State Senate District 8","chamber":"Senate"}},{"type":"Feature","geometry":{"type":"Polygon","coordinates":[[[-79.7148,36.542],[-78.0463,36.5436],[-78.0036,37.0228],[-77.9961,37.0225],[-77.9967,37.0147],[-77.9681,36.9873],[-77.9542,36.9913],[-77.9209,36.9827],[-77.9173,36.9866],[-77.8898,36.9888],[-77.9003,37.1439],[-77.8759,37.1479],[-77.8417,37.1699],[-77.816,37.1685],[-77.796,37.1924],[-78.2312,37.2962],[-78.235,37.3681],[-78.2471,37.3591],[-78.2601,37.3603],[-78.2563,37.3524],[-78.2588,37.343],[-78.2764,37.3486],[-78.2815,37.3356],[-78.2939,37.3333],[-78.2927,37.3241],[-78.31,37.3209],[-78.3218,37.3093],[-78.3339,37.3091],[-78.3345,37.3164],[-78.3425,37.3192],[-78.3504,37.3121],[-78.3525,37.3017],[-78.3608,37.3103],[-78.3709,37.3075],[-78.3711,37.2996],[-78.3652,37.2941],[-78.3684,37.2859],[-78.3573,37.2792],[-78.3836,37.2681],[-78.3865,37.2598],[-78.4101,37.2367],[-78.4199,37.2411],[-78.4425,37.2301],[-78.4436,37.2464],[-78.4379,37.2503],[-78.4575,37.2575],[-78.4605,37.2512],[-78.4862,37.2575],[-78.4818,37.2697],[-78.4852,37.2701],[-78.4984,37.2689],[-78.5092,37.2602],[-78.5284,37.2601],[-78.5411,37.2469],[-78.5698,37.2357],[-78.5813,37.2432],[-78.6058,37.2466],[-78.6129,37.2559],[-78.6481,37.2679],[-78.6137,37.2865],[-78.633,37.3143],[-78.6733,37.2685],[-78.6816,37.2488],[-78.7076,37.2374],[-78.7203,37.2371],[-78.7344,37.2203],[-78.7411,37.2246],[-78.7533,37.2207],[-78.7639,37.2287],[-78.7767,37.2293],[-78.8062,37.2026],[-78.8242,37.2054],[-78.9046,37.0223],[-78.9723,37.0502],[-79.0048,37.0299],[-79.0186,37.0404],[-79.0568,37.0454],[-79.1104,37.0679],[-79.1173,37.0866],[-79.124,37.0898],[-79.1353,37.0863],[-79.1399,37.0773],[-79.1671,37.0675],[-79.1809,37.0707],[-79.1931,37.0546],[-79.2059,37.0748],[-79.203,37.1067],[-79.213,37.1179],[-79.2221,37.1154],[-79.2221,37.1014],[-79.2318,37.0989],[-79.2442,37.1243],[-79.254,37.1329],[-79.2644,37.1268],[-79.2727,37.1112],[-79.2972,37.105],[-79.3326,37.1259],[-79.3414,37.1372],[-79.3447,37.1257],[-79.3641,37.1194],[-79.3824,37.1194],[-79.3709,37.1127],[-79.3711,37.1059],[-79.388,37.0927],[-79.4047,37.0918],[-79.4052,37.0632],[-79.4461,37.0555],[-79.4778,37.0642],[-79.4901,37.062],[-79.49,37.0557],[-79.4801,37.0442],[-79.4833,37.0353],[-79.459,37.0194],[-79.4799,37.006],[-79.4984,37.0243],[-79.5356,37.0411],[-79.5426,37.0516],[-79.5507,37.0529],[-79.5426,37.045],[-79.5595,37.0439],[-79.5643,37.0347],[-79.5941,37.0422],[-79.7148,36.542]]]},"properties":{"geoid":"51009","state":"51","district":"9","name":"State Senate District 9","chamber":"Senate"}},{"type":"Feature","geometry":{"type":"Polygon","coordinates":[[[-79.0217,37.4292],[-78.9534,37.3171],[-78.9497,37.2925],[-78.9431,37.2924],[-78.9411,37.284],[-78.9265,37.2771],[-78.9217,37.2459],[-78.9152,37.2423],[-78.8914,37.2487],[-78.8634,37.2406],[-78.8547,37.226],[-78.8569,37.212],[-78.8082,37.2019],[-78.7773,37.2291],[-78.7639,37.2287],[-78.7533,37.2207],[-78.7411,37.2246],[-78.7345,37.2202],[-78.7203,37.2371],[-78.7076,37.2374],[-78.6816,37.2488],[-78.6733,37.2685],[-78.633,37.3143],[-78.6137,37.2865],[-78.6481,37.2679],[-78.6129,37.2559],[-78.6056,37.2465],[-78.5813,37.2432],[-78.5698,37.2357],[-78.5411,37.2469],[-78.5284,37.2601],[-78.5092,37.2602],[-78.4984,37.2689],[-78.4859,37.2702],[-78.4818,37.2697],[-78.4862,37.2575],[-78.4605,37.2512],[-78.4575,37.2575],[-78.4379,37.2503],[-78.4436,37.2464],[-78.4428,37.23],[-78.4199,37.2411],[-78.4104,37.2366],[-78.3865,37.2598],[-78.3836,37.2681],[-78.3573,37.2792],[-78.3684,37.2859],[-78.3652,37.2941],[-78.3711,37.2996],[-78.3709,37.3075],[-78.3608,37.3103],[-78.3525,37.3017],[-78.3504,37.3121],[-78.3425,37.3192],[-78.3345,37.3164],[-78.3339,37.3091],[-78.3218,37.3093],[-78.31,37.3209],[-78.2927,37.3241],[-78.2939,37.3333],[-78.2815,37.3356],[-78.2764,37.3486],[-78.2588,37.343],[-78.2563,37.3524],[-78.2601,37.3603],[-78.2471,37.3591],[-78.235,37.3681],[-78.2312,37.2962],[-77.7962,37.1925],[-77.7839,37.1971],[-77.7477,37.1927],[-77.7273,37.2037],[-77.7177,37.2161],[-77.7005,37.223],[-77.6868,37.2228],[-77.6806,37.2286],[-77.6886,37.2281],[-77.6869,37.2353],[-77.6784,37.2351],[-77.673,37.2418],[-77.6613,37.2407],[-77.656,37.2537],[-77.6489,37.2554],[-77.6506,37.2651],[-77.6619,37.2771],[-77.6675,37.2925],[-77.6817,37.2921],[-77.6857,37.2835],[-77.6926,37.2814],[-77.7088,37.3001],[-77.7162,37.2969],[-77.7187,37.2839],[-77.7355,37.2842],[-77.7413,37.2678],[-77.7635,37.2707],[-77.7706,37.2861],[-77.8068,37.3045],[-77.8089,37.316],[-77.7963,37.324],[-77.7975,37.3337],[-77.8383,37.3386],[-77.8505,37.3451],[-77.852,37.3557],[-77.8609,37.3622],[-77.8766,37.3643],[-77.8782,37.3835],[-77.873,37.392],[-77.8674,37.3928],[-77.8751,37.4171],[-77.8468,37.4151],[-77.8341,37.4226],[-77.8092,37.4261],[-77.7985,37.4455],[-77.7978,37.459],[-77.6554,37.564],[-77.6349,37.5658],[-77.6315,37.5762],[-77.6165,37.5774],[-77.6182,37.5888],[-77.6283,37.5944],[-77.6264,37.5989],[-77.6403,37.6028],[-77.6432,37.6138],[-77.6521,37.617],[-77.6549,37.6381],[-77.6409,37.6781],[-77.642,37.6879],[-77.6377,37.6867],[-77.6302,37.7073],[-77.6225,37.7049],[-77.6068,37.7098],[-77.5946,37.6963],[-77.5579,37.6819],[-77.5435,37.6846],[-77.5222,37.7002],[-77.5113,37.7018],[-77.494,37.701],[-77.4882,37.6859],[-77.4785,37.6808],[-77.4713,37.6877],[-77.4566,37.678],[-77.4511,37.68],[-77.4521,37.6881],[-77.44,37.6914],[-77.4337,37.685],[-77.422,37.6882],[-77.4157,37.684],[-77.4165,37.6936],[-77.4249,37.7036],[-77.4133,37.7154],[-77.4273,37.7162],[-77.4463,37.7271],[-77.457,37.7502],[-77.4539,37.7559],[-77.431,37.739],[-77.4189,37.7413],[-77.4101,37.7326],[-77.3936,37.733],[-77.3669,37.7497],[-77.3643,37.7584],[-77.3591,37.747],[-77.352,37.7479],[-77.3344,37.7546],[-77.3374,37.7648],[-77.3217,37.77],[-77.3297,37.7779],[-77.3318,37.792],[-77.3493,37.7889],[-77.3531,37.7951],[-77.3623,37.7977],[-77.3666,37.7926],[-77.3628,37.7888],[-77.3707,37.7882],[-77.3747,37.7764],[-77.4051,37.7802],[-77.4034,37.7861],[-77.3909,37.7867],[-77.3983,37.7906],[-77.3953,37.8029],[-77.4228,37.8095],[-77.4206,37.8156],[-77.4095,37.8202],[-77.4283,37.8296],[-77.4281,37.8566],[-77.4246,37.8617],[-77.4187,37.8606],[-77.4449,37.8946],[-77.4839,37.8833],[-77.4924,37.8891],[-77.4935,37.8975],[-77.5186,37.9066],[-77.5289,37.9208],[-77.5453,37.9158],[-77.5567,37.9221],[-77.5462,37.9282],[-77.5626,37.9367],[-77.5642,37.9466],[-77.5763,37.958],[-77.5862,37.9492],[-77.6033,37.9554],[-77.6182,37.9501],[-77.6139,37.9591],[-77.6214,37.9667],[-77.6326,37.9652],[-77.6309,37.9717],[-77.6434,37.9794],[-77.6427,37.9925],[-77.6593,37.9919],[-77.6608,37.9975],[-77.6672,37.997],[-77.6773,38.0065],[-77.7119,38.0127],[-77.7222,38.0232],[-77.7306,38.0208],[-77.7281,38.0271],[-77.7323,38.0316],[-77.7398,38.0329],[-77.7469,38.0236],[-77.7488,38.0367],[-77.7409,38.0377],[-77.7482,38.0421],[-77.7452,38.0511],[-77.7561,38.0482],[-77.7685,38.0517],[-77.7845,38.0633],[-77.7866,38.0763],[-77.8109,38.0795],[-77.8377,38.106],[-77.8455,38.1043],[-77.8462,38.0983],[-77.8512,38.1043],[-77.8572,38.1],[-77.8598,38.1052],[-77.8884,38.1131],[-77.9024,38.1081],[-77.9125,38.1115],[-77.9167,38.1183],[-77.9297,38.1137],[-77.9471,38.12],[-77.9803,38.1195],[-78.0022,38.1386],[-78.0217,38.1422],[-78.0247,38.1365],[-78.0297,38.1397],[-78.0475,38.1358],[-78.0758,38.1413],[-78.0807,38.1469],[-78.1019,38.1526],[-78.1124,38.1473],[-78.1097,38.1331],[-78.1209,38.1115],[-78.1181,38.1022],[-78.1314,38.0963],[-78.1389,38.0793],[-78.1488,38.0755],[-78.1492,38.0688],[-78.1401,38.064],[-78.1398,38.0577],[-78.1304,38.0554],[-78.1323,38.0421],[-78.1245,38.0301],[-78.1383,38.0024],[-78.1269,38.0012],[-78.1235,37.9938],[-78.1188,37.9961],[-78.1016,37.9852],[-78.0959,37.9891],[-78.0847,37.9851],[-78.0818,37.9893],[-78.0543,37.9783],[-78.0358,37.9827],[-78.0317,37.9711],[-78.0217,37.9743],[-78.0189,37.9666],[-78.0265,37.962],[-78.0252,37.9444],[-78.0334,37.9298],[-78.0263,37.9171],[-78.0374,37.8983],[-78.0435,37.8945],[-78.0556,37.9044],[-78.174,37.9502],[-78.193,37.9524],[-78.2301,37.9785],[-78.2765,37.9915],[-78.3069,38.0064],[-78.4967,37.794],[-78.4954,37.7676],[-78.4995,37.7616],[-78.5128,37.7572],[-78.5456,37.764],[-78.5808,37.754],[-78.6139,37.7558],[-78.6417,37.7371],[-78.6467,37.7222],[-78.6539,37.716],[-78.6559,37.7035],[-78.6442,37.6936],[-78.6417,37.6834],[-78.6609,37.6779],[-78.6771,37.6962],[-78.6927,37.6978],[-78.6956,37.6914],[-78.6887,37.6773],[-78.7104,37.6724],[-78.719,37.6615],[-78.7127,37.6417],[-78.7158,37.6366],[-78.7394,37.6315],[-78.7949,37.6426],[-78.8212,37.6318],[-78.8235,37.6217],[-78.8099,37.6044],[-78.8332,37.5892],[-78.8303,37.5809],[-78.8133,37.5682],[-78.8253,37.558],[-78.8246,37.5377],[-78.8405,37.5366],[-78.8601,37.5454],[-78.8815,37.532],[-78.8967,37.5327],[-78.8921,37.5196],[-78.8955,37.5132],[-78.9237,37.4976],[-78.9496,37.5034],[-78.9394,37.4925],[-78.9416,37.4828],[-78.9745,37.4696],[-78.9985,37.4493],[-79.0109,37.4451],[-79.0149,37.4328],[-79.0217,37.4292]]]},"properties":{"geoid":"51010","state":"51","district":"10","name":"State Senate District 10","chamber":"Senate"}},{"type":"Feature","geometry":{"type":"Polygon","coordinates":[[[-79.4369,37.6171],[-79.4359,37.6049],[-79.4315,37.602],[-79.4045,37.6075],[-79.3803,37.5906],[-79.3662,37.5482],[-79.3417,37.518],[-79.2931,37.4994],[-79.2642,37.5094],[-79.2588,37.4942],[-79.2404,37.5062],[-79.22,37.5053],[-79.2246,37.4935],[-79.2095,37.4775],[-79.189,37.475],[-79.1853,37.4591],[-79.1759,37.4494],[-79.1466,37.4287],[-79.1472,37.4354],[-79.1436,37.4329],[-79.1392,37.4164],[-79.1268,37.4026],[-79.1147,37.3975],[-79.1112,37.4061],[-79.1062,37.4065],[-79.0664,37.386],[-79.0607,37.3915],[-79.0709,37.4213],[-79.0461,37.416],[-79.0403,37.4224],[-79.0431,37.4332],[-79.017,37.4306],[-79.0103,37.4456],[-78.9985,37.4493],[-78.9673,37.4741],[-78.9403,37.4843],[-78.9407,37.4953],[-78.9496,37.5034],[-78.9199,37.499],[-78.8929,37.5161],[-78.8974,37.5323],[-78.8815,37.532],[-78.8614,37.5451],[-78.8398,37.5364],[-78.8246,37.5377],[-78.8253,37.558],[-78.8133,37.5682],[-78.8303,37.5809],[-78.8332,37.5892],[-78.8099,37.6044],[-78.8235,37.6217],[-78.8212,37.6318],[-78.7949,37.6426],[-78.7394,37.6315],[-78.7158,37.6366],[-78.7127,37.6417],[-78.719,37.6615],[-78.7104,37.6724],[-78.6887,37.6773],[-78.6956,37.6914],[-78.6927,37.6978],[-78.6771,37.6962],[-78.6609,37.6779],[-78.6417,37.6834],[-78.6442,37.6936],[-78.6559,37.7035],[-78.6539,37.716],[-78.6467,37.7222],[-78.6417,37.7371],[-78.6139,37.7558],[-78.5808,37.754],[-78.5456,37.764],[-78.5128,37.7572],[-78.4995,37.7616],[-78.4954,37.7676],[-78.4967,37.794],[-78.3069,38.0064],[-78.2765,37.9915],[-78.2301,37.9785],[-78.2051,37.9573],[-78.174,37.9502],[-78.0556,37.9044],[-78.0435,37.8945],[-78.0263,37.917],[-78.0333,37.9305],[-78.0252,37.9444],[-78.0265,37.962],[-78.0189,37.9666],[-78.0228,37.9749],[-78.0341,37.9717],[-78.0358,37.9827],[-78.054,37.9783],[-78.0818,37.9893],[-78.0847,37.9851],[-78.0959,37.9891],[-78.1016,37.9852],[-78.1188,37.9961],[-78.1235,37.9938],[-78.1269,38.0012],[-78.1383,38.0022],[-78.1245,38.0301],[-78.1323,38.0421],[-78.1304,38.0554],[-78.1398,38.0577],[-78.149,38.0742],[-78.1388,38.0794],[-78.1315,38.0963],[-78.1181,38.1022],[-78.1209,38.1115],[-78.1097,38.1331],[-78.1133,38.1434],[-78.1339,38.1385],[-78.1443,38.143],[-78.1715,38.1297],[-78.2094,38.1311],[-78.6631,38.2779],[-78.6606,38.2703],[-78.6664,38.2661],[-78.6551,38.2606],[-78.6698,38.2473],[-78.681,38.2549],[-78.6952,38.2465],[-78.7066,38.2464],[-78.7112,38.2386],[-78.7263,38.232],[-78.7452,38.2144],[-78.7526,38.1942],[-78.7718,38.1661],[-78.7795,38.1321],[-78.788,38.1268],[-78.7875,38.1173],[-78.779,38.1065],[-78.7838,38.1003],[-78.7772,38.0932],[-78.7792,38.0835],[-78.7936,38.0778],[-78.7928,38.0695],[-78.8299,38.054],[-78.8581,38.0294],[-78.8743,38.028],[-78.882,38.0182],[-78.8879,37.9966],[-78.9071,37.9872],[-78.9076,37.9761],[-78.8926,37.975],[-78.9024,37.958],[-78.8991,37.9488],[-78.92,37.9463],[-78.9267,37.9401],[-78.9419,37.9404],[-78.9569,37.9259],[-78.9591,37.9203],[-78.9551,37.9164],[-78.9811,37.906],[-79.0051,37.8817],[-79.016,37.8876],[-79.0172,37.8935],[-79.0446,37.8909],[-79.0523,37.9128],[-79.0625,37.9176],[-79.0912,37.9109],[-79.1459,37.8889],[-79.1574,37.891],[-79.1465,37.8752],[-79.1515,37.866],[-79.1443,37.8564],[-79.1589,37.8387],[-79.1545,37.8334],[-79.1602,37.8267],[-79.1581,37.8197],[-79.1642,37.8163],[-79.1709,37.8004],[-79.1986,37.788],[-79.209,37.7889],[-79.2177,37.7962],[-79.2163,37.8015],[-79.2314,37.8132],[-79.2459,37.8053],[-79.2557,37.7935],[-79.2647,37.7947],[-79.3085,37.7343],[-79.3048,37.7294],[-79.3174,37.7148],[-79.3167,37.7033],[-79.3226,37.6925],[-79.3406,37.6786],[-79.3452,37.6606],[-79.3584,37.656],[-79.3656,37.6457],[-79.3804,37.6428],[-79.4016,37.626],[-79.418,37.6265],[-79.4264,37.6155],[-79.4369,37.6171]]]},"properties":{"geoid":"51011","state":"51","district":"11","name":"State Senate District 11","chamber":"Senate"}},{"type":"Feature","geometry":{"type":"Polygon","coordinates":[[[-77.8784,37.3827],[-77.8766,37.3643],[-77.8528,37.3567],[-77.8499,37.3447],[-77.8383,37.3386],[-77.7975,37.3337],[-77.7963,37.324],[-77.8089,37.316],[-77.8068,37.3045],[-77.7706,37.2861],[-77.7621,37.27],[-77.7398,37.2687],[-77.7355,37.2842],[-77.7187,37.2839],[-77.717,37.2954],[-77.7117,37.2998],[-77.7035,37.2982],[-77.6926,37.2814],[-77.6857,37.2835],[-77.6817,37.2921],[-77.6682,37.2928],[-77.6513,37.2653],[-77.6125,37.2706],[-77.6033,37.2639],[-77.6005,37.2537],[-77.5831,37.2455],[-77.5789,37.2379],[-77.5682,37.2393],[-77.5673,37.2317],[-77.5596,37.225],[-77.5361,37.2263],[-77.5226,37.2171],[-77.4926,37.2249],[-77.4408,37.2235],[-77.4005,37.2402],[-77.3849,37.2413],[-77.3798,37.2469],[-77.3781,37.2705],[-77.3623,37.2822],[-77.3682,37.2985],[-77.3791,37.2841],[-77.3897,37.2873],[-77.3917,37.2827],[-77.4011,37.2828],[-77.3997,37.2719],[-77.4126,37.2832],[-77.4265,37.283],[-77.4231,37.2745],[-77.4323,37.276],[-77.4316,37.2902],[-77.4541,37.3112],[-77.4604,37.3351],[-77.4714,37.3496],[-77.4969,37.3569],[-77.5046,37.3753],[-77.4974,37.3873],[-77.5155,37.3871],[-77.5151,37.3937],[-77.5463,37.4076],[-77.6138,37.4103],[-77.6294,37.4225],[-77.6228,37.429],[-77.5816,37.4436],[-77.5918,37.4608],[-77.5683,37.4669],[-77.5501,37.4835],[-77.5451,37.4974],[-77.5496,37.5056],[-77.5383,37.5119],[-77.5285,37.5255],[-77.5287,37.5319],[-77.545,37.5281],[-77.5545,37.543],[-77.5779,37.5323],[-77.5968,37.5347],[-77.6012,37.5452],[-77.5958,37.5459],[-77.5955,37.5558],[-77.6477,37.5593],[-77.6554,37.564],[-77.7978,37.459],[-77.7985,37.4455],[-77.8092,37.4261],[-77.8341,37.4226],[-77.8468,37.4151],[-77.8749,37.4174],[-77.8674,37.3928],[-77.873,37.392],[-77.8784,37.3827]]]},"properties":{"geoid":"51012","state":"51","district":"12","name":"State Senate District 12","chamber":"Senate"}},{"type":"Feature","geometry":{"type":"Polygon","coordinates":[[[-77.6731,36.9016],[-77.6639,36.8947],[-77.6483,36.8975],[-77.6479,36.8813],[-77.6408,36.8745],[-77.6334,36.8754],[-77.6389,36.8848],[-77.632,36.8881],[-77.6253,36.8805],[-77.5947,36.8711],[-77.577,36.8525],[-77.5673,36.8531],[-77.5575,36.8456],[-77.5457,36.8526],[-77.5316,36.8533],[-77.5012,36.8451],[-77.4752,36.8611],[-77.4587,36.863],[-77.4899,36.7209],[-77.431,36.7072],[-76.8376,37.0022],[-76.6993,37.0584],[-76.7012,37.0662],[-76.6932,37.0741],[-76.6956,37.0833],[-76.6845,37.0882],[-76.6842,37.1039],[-76.6752,37.1084],[-76.6794,37.1114],[-76.6803,37.1263],[-76.6725,37.133],[-76.6754,37.139],[-76.6416,37.1538],[-76.6428,37.1888],[-76.6635,37.2058],[-76.6918,37.2109],[-76.7128,37.2016],[-76.7285,37.1748],[-76.7497,37.1716],[-76.8089,37.2223],[-76.8832,37.2231],[-76.8864,37.246],[-76.8732,37.2583],[-76.8831,37.2759],[-76.8808,37.2873],[-76.8716,37.2963],[-76.88,37.3099],[-76.8747,37.3204],[-76.8736,37.3426],[-76.8805,37.3512],[-76.8735,37.3634],[-76.8771,37.3692],[-76.8848,37.3686],[-76.908,37.349],[-76.9159,37.3526],[-76.9096,37.3653],[-76.8978,37.3738],[-76.9188,37.3855],[-76.9064,37.3926],[-76.9049,37.4049],[-76.9167,37.3954],[-76.9291,37.3987],[-76.9333,37.388],[-76.9425,37.3832],[-76.9453,37.3941],[-76.9369,37.4034],[-76.9408,37.4099],[-76.954,37.4035],[-76.9688,37.4065],[-76.9727,37.4102],[-76.9696,37.4167],[-76.982,37.4209],[-76.9889,37.415],[-76.9983,37.4182],[-77.0169,37.4142],[-77.0236,37.4178],[-77.0265,37.429],[-77.0358,37.4268],[-77.0477,37.4323],[-77.0594,37.4289],[-77.0598,37.4352],[-77.0702,37.44],[-77.096,37.4403],[-77.1008,37.4474],[-77.1179,37.4545],[-77.1269,37.4716],[-77.1419,37.4684],[-77.1418,37.4763],[-77.1608,37.4753],[-77.1582,37.4862],[-77.1701,37.481],[-77.1713,37.4872],[-77.207,37.5134],[-77.2206,37.5327],[-77.2315,37.5395],[-77.2466,37.5392],[-77.2659,37.5519],[-77.2919,37.5608],[-77.3028,37.5599],[-77.3405,37.575],[-77.3778,37.5612],[-77.388,37.5503],[-77.3951,37.5494],[-77.3932,37.5373],[-77.3855,37.5352],[-77.386,37.5289],[-77.3937,37.527],[-77.3874,37.5171],[-77.3943,37.5149],[-77.3939,37.505],[-77.4083,37.5106],[-77.4102,37.5172],[-77.4165,37.5172],[-77.4228,37.4962],[-77.4175,37.4518],[-77.4283,37.429],[-77.4141,37.4197],[-77.399,37.4212],[-77.395,37.4048],[-77.3986,37.4053],[-77.384,37.3964],[-77.3877,37.3863],[-77.3757,37.3817],[-77.3722,37.3907],[-77.3652,37.3909],[-77.3579,37.3843],[-77.3604,37.3749],[-77.3186,37.3802],[-77.3087,37.3925],[-77.3094,37.403],[-77.3036,37.4059],[-77.2983,37.4038],[-77.2973,37.3967],[-77.3115,37.3733],[-77.3058,37.3578],[-77.2865,37.352],[-77.2726,37.3533],[-77.2671,37.3605],[-77.2665,37.3755],[-77.2497,37.382],[-77.2457,37.365],[-77.2671,37.3401],[-77.2707,37.3208],[-77.282,37.319],[-77.283,37.3134],[-77.2873,37.3169],[-77.2965,37.3127],[-77.2954,37.3095],[-77.2976,37.3125],[-77.3231,37.3084],[-77.3397,37.3151],[-77.3525,37.3102],[-77.3576,37.2805],[-77.373,37.2682],[-77.3767,37.2449],[-77.3852,37.2384],[-77.4017,37.2391],[-77.441,37.2235],[-77.4926,37.2249],[-77.5216,37.217],[-77.5361,37.2263],[-77.5596,37.225],[-77.5673,37.2317],[-77.5682,37.2393],[-77.5767,37.2368],[-77.584,37.2461],[-77.5953,37.2423],[-77.5981,37.2368],[-77.5888,37.2323],[-77.5831,37.2176],[-77.5838,37.1951],[-77.6013,37.1939],[-77.6144,37.1794],[-77.6055,37.1677],[-77.5996,37.1383],[-77.6231,37.1395],[-77.6257,37.1181],[-77.6552,37.0997],[-77.6572,37.0828],[-77.6454,37.0781],[-77.6594,37.0667],[-77.6642,37.0565],[-77.6409,37.0409],[-77.6377,37.0074],[-77.648,36.9521],[-77.6564,36.9416],[-77.6542,36.9222],[-77.6681,36.9117],[-77.6731,36.9016]]]},"properties":{"geoid":"51013","state":"51","district":"13","name":"State Senate District 13","chamber":"Senate"}},{"type":"Feature","geometry":{"type":"Polygon","coordinates":[[[-77.6012,37.5452],[-77.5924,37.5329],[-77.5678,37.5348],[-77.5545,37.543],[-77.545,37.5281],[-77.5287,37.5319],[-77.5285,37.5255],[-77.5079,37.5339],[-77.4885,37.5211],[-77.4889,37.5152],[-77.4701,37.5155],[-77.4719,37.5089],[-77.4666,37.5026],[-77.4714,37.4918],[-77.466,37.4844],[-77.4565,37.4836],[-77.4486,37.4863],[-77.4459,37.4951],[-77.437,37.4918],[-77.4217,37.499],[-77.4165,37.5172],[-77.4102,37.5172],[-77.4083,37.5106],[-77.3939,37.505],[-77.3943,37.5149],[-77.3874,37.5171],[-77.3937,37.527],[-77.386,37.5289],[-77.3855,37.5352],[-77.3932,37.5373],[-77.3951,37.5494],[-77.388,37.5503],[-77.3778,37.5612],[-77.337,37.5757],[-77.4038,37.6052],[-77.4087,37.6147],[-77.4053,37.626],[-77.4183,37.6332],[-77.4214,37.6417],[-77.4322,37.6452],[-77.4518,37.6357],[-77.4771,37.6363],[-77.4795,37.6296],[-77.4917,37.6248],[-77.5007,37.6272],[-77.4914,37.5975],[-77.4821,37.594],[-77.4726,37.5786],[-77.4824,37.5731],[-77.4935,37.5823],[-77.4999,37.5754],[-77.5324,37.5925],[-77.532,37.5826],[-77.5436,37.5816],[-77.5475,37.5725],[-77.5259,37.5682],[-77.5297,37.5592],[-77.5461,37.5604],[-77.5606,37.5555],[-77.585,37.5585],[-77.5955,37.5558],[-77.5958,37.5459],[-77.6012,37.5452]]]},"properties":{"geoid":"51014","state":"51","district":"14","name":"State Senate District 14","chamber":"Senate"}},{"type":"Feature","geometry":{"type":"Polygon","coordinates":[[[-77.6303,37.4238],[-77.6138,37.4103],[-77.5463,37.4076],[-77.5151,37.3937],[-77.5155,37.3871],[-77.4974,37.3873],[-77.5046,37.3753],[-77.4969,37.3569],[-77.4714,37.3496],[-77.4604,37.3351],[-77.4541,37.3112],[-77.4316,37.2902],[-77.4323,37.276],[-77.4231,37.2745],[-77.4265,37.283],[-77.4126,37.2832],[-77.3997,37.2719],[-77.4011,37.2828],[-77.3917,37.2827],[-77.3897,37.2873],[-77.3791,37.2841],[-77.3682,37.2985],[-77.3623,37.2822],[-77.3781,37.2705],[-77.3803,37.2455],[-77.4027,37.2361],[-77.3858,37.2382],[-77.377,37.2443],[-77.3737,37.2669],[-77.3571,37.2817],[-77.3525,37.3102],[-77.3397,37.3151],[-77.3231,37.3084],[-77.2976,37.3125],[-77.2954,37.3095],[-77.2965,37.3127],[-77.2873,37.3169],[-77.283,37.3134],[-77.282,37.319],[-77.2707,37.3208],[-77.2671,37.3401],[-77.2442,37.3693],[-77.2497,37.382],[-77.2665,37.3755],[-77.2671,37.3605],[-77.2726,37.3533],[-77.2865,37.352],[-77.3058,37.3578],[-77.3115,37.3733],[-77.2982,37.3921],[-77.2982,37.4035],[-77.3028,37.4058],[-77.3094,37.403],[-77.3087,37.3925],[-77.3158,37.3826],[-77.3262,37.3776],[-77.3604,37.3749],[-77.3581,37.3847],[-77.3688,37.392],[-77.3757,37.3817],[-77.3877,37.3863],[-77.384,37.3964],[-77.3986,37.4053],[-77.395,37.4048],[-77.3988,37.421],[-77.4057,37.4233],[-77.4035,37.4178],[-77.4062,37.4231],[-77.42,37.4215],[-77.429,37.4307],[-77.4175,37.4518],[-77.4217,37.499],[-77.437,37.4918],[-77.4459,37.4951],[-77.4502,37.4852],[-77.466,37.4844],[-77.4714,37.4918],[-77.4666,37.5026],[-77.4719,37.5089],[-77.4701,37.5155],[-77.4889,37.5152],[-77.4885,37.5211],[-77.5079,37.5339],[-77.5262,37.5273],[-77.5383,37.5119],[-77.5496,37.5056],[-77.5451,37.4974],[-77.5476,37.488],[-77.5669,37.468],[-77.5918,37.4608],[-77.5816,37.4436],[-77.6303,37.4238]]]},"properties":{"geoid":"51015","state":"51","district":"15","name":"State Senate District 15","chamber":"Senate"}},{"type":"Feature","geometry":{"type":"Polygon","coordinates":[[[-77.6554,37.564],[-77.6483,37.5594],[-77.6069,37.5554],[-77.5297,37.5592],[-77.5259,37.5682],[-77.5475,37.5725],[-77.5436,37.5816],[-77.532,37.5826],[-77.5324,37.5925],[-77.4999,37.5754],[-77.4935,37.5823],[-77.4824,37.5731],[-77.4725,37.5787],[-77.4821,37.594],[-77.4914,37.5975],[-77.5007,37.6272],[-77.4917,37.6248],[-77.4795,37.6296],[-77.4771,37.6363],[-77.4518,37.6357],[-77.4331,37.6451],[-77.4214,37.6417],[-77.4395,37.6681],[-77.4437,37.6826],[-77.4487,37.6844],[-77.4601,37.6782],[-77.4715,37.6877],[-77.4786,37.6809],[-77.4882,37.6859],[-77.4949,37.7015],[-77.5221,37.7002],[-77.5434,37.6846],[-77.5579,37.6819],[-77.5946,37.6963],[-77.6068,37.7098],[-77.6225,37.7049],[-77.6302,37.7073],[-77.6377,37.6867],[-77.642,37.6879],[-77.6409,37.6781],[-77.6549,37.6381],[-77.6521,37.617],[-77.6432,37.6138],[-77.6403,37.6028],[-77.6264,37.5989],[-77.6283,37.5944],[-77.6182,37.5888],[-77.6164,37.5779],[-77.6315,37.5762],[-77.6349,37.5658],[-77.6554,37.564]]]},"properties":{"geoid":"51016","state":"51","district":"16","name":"State Senate District 16","chamber":"Senate"}},{"type":"Feature","geometry":{"type":"Polygon","coordinates":[[[-78.0463,36.5437],[-77.1705,36.5473],[-76.9165,36.5439],[-76.9159,36.5521],[-76.4915,36.5506],[-76.4575,36.8148],[-76.4204,36.8663],[-76.3997,36.8662],[-76.399,36.861],[-76.3779,36.8698],[-76.3787,36.8558],[-76.3602,36.8528],[-76.3622,36.8501],[-76.357,36.8484],[-76.3406,36.8578],[-76.3308,36.8684],[-76.3368,36.875],[-76.3285,36.8932],[-76.3423,36.9056],[-76.3456,36.9245],[-76.3418,36.9248],[-76.3385,36.9408],[-76.3705,36.9446],[-76.3844,36.9511],[-76.3996,36.9309],[-76.4425,36.9393],[-76.4715,36.9779],[-76.6282,37.0928],[-76.6458,37.1252],[-76.6416,37.1538],[-76.6754,37.139],[-76.6725,37.133],[-76.6803,37.1263],[-76.6794,37.1114],[-76.6752,37.1084],[-76.6842,37.1039],[-76.6845,37.0882],[-76.6956,37.0833],[-76.6932,37.0741],[-76.7012,37.0662],[-76.6976,37.0598],[-76.7017,37.0572],[-76.8376,37.0022],[-77.431,36.7072],[-77.4894,36.7207],[-77.4587,36.863],[-77.4752,36.8611],[-77.5012,36.8451],[-77.5316,36.8533],[-77.5457,36.8526],[-77.5575,36.8456],[-77.5673,36.8531],[-77.577,36.8525],[-77.5947,36.8711],[-77.6253,36.8805],[-77.632,36.8881],[-77.6389,36.8848],[-77.6334,36.8754],[-77.6408,36.8745],[-77.6479,36.8813],[-77.6483,36.8975],[-77.6639,36.8947],[-77.6732,36.9014],[-77.6681,36.9117],[-77.6542,36.9222],[-77.6564,36.9416],[-77.648,36.9521],[-77.6377,37.0074],[-77.6409,37.0409],[-77.6642,37.0565],[-77.6594,37.0667],[-77.6454,37.0781],[-77.6572,37.0828],[-77.655,37.1004],[-77.6258,37.118],[-77.6231,37.1395],[-77.5996,37.1383],[-77.6055,37.1677],[-77.6144,37.1797],[-77.6013,37.1939],[-77.5838,37.1951],[-77.5825,37.2043],[-77.5886,37.232],[-77.5981,37.2368],[-77.5892,37.2463],[-77.5914,37.2494],[-77.6005,37.2537],[-77.6033,37.2639],[-77.6125,37.2706],[-77.6212,37.2667],[-77.6326,37.2697],[-77.6429,37.2637],[-77.6506,37.2651],[-77.6489,37.2554],[-77.656,37.2537],[-77.6613,37.2407],[-77.673,37.2418],[-77.6784,37.2351],[-77.6869,37.2353],[-77.6886,37.2281],[-77.6806,37.2286],[-77.6868,37.2228],[-77.7005,37.223],[-77.7177,37.2161],[-77.7273,37.2037],[-77.7477,37.1927],[-77.7931,37.1958],[-77.816,37.1685],[-77.8417,37.1699],[-77.8759,37.1479],[-77.9003,37.1439],[-77.8898,36.9888],[-77.9173,36.9866],[-77.9209,36.9827],[-77.9542,36.9913],[-77.9681,36.9873],[-77.9967,37.0147],[-77.9961,37.0225],[-78.0036,37.0228],[-78.0463,36.5437]]]},"properties":{"geoid":"51017","state":"51","district":"17","name":"State Senate District 17","chamber":"Senate"}},{"type":"Feature","geometry":{"type":"Polygon","coordinates":[[[-76.4668,36.7463],[-76.3887,36.7593],[-76.3713,36.7583],[-76.3644,36.7551],[-76.3657,36.742],[-76.372,36.7361],[-76.3664,36.7345],[-76.3515,36.743],[-76.3245,36.7386],[-76.3021,36.7277],[-76.2828,36.7491],[-76.2672,36.7559],[-76.2534,36.7426],[-76.2459,36.7493],[-76.2492,36.7577],[-76.2422,36.76],[-76.2258,36.7453],[-76.2142,36.767],[-76.2037,36.763],[-76.2037,36.7697],[-76.2278,36.8319],[-76.2261,36.8399],[-76.2438,36.8369],[-76.2575,36.8208],[-76.2747,36.828],[-76.29,36.822],[-76.2943,36.8416],[-76.3013,36.8506],[-76.3308,36.8684],[-76.357,36.8484],[-76.3622,36.8501],[-76.3602,36.8528],[-76.3787,36.8558],[-76.3779,36.8698],[-76.399,36.861],[-76.3997,36.8662],[-76.4204,36.8663],[-76.4575,36.8148],[-76.4668,36.7463]]]},"properties":{"geoid":"51018","state":"51","district":"18","name":"State Senate District 18","chamber":"Senate"}},{"type":"Feature","geometry":{"type":"Polygon","coordinates":[[[-76.4915,36.5507],[-75.7975,36.5509],[-75.8198,36.6252],[-75.8746,36.7443],[-75.9053,36.857],[-75.9811,36.8442],[-75.9794,36.8377],[-75.9833,36.8378],[-75.9862,36.8484],[-76.0039,36.8474],[-76.0042,36.8382],[-76.0467,36.8365],[-76.0457,36.8303],[-76.0529,36.8286],[-76.0509,36.8117],[-76.0547,36.8084],[-76.0581,36.8151],[-76.067,36.8165],[-76.0859,36.8003],[-76.0791,36.7862],[-76.0854,36.7789],[-76.0945,36.774],[-76.1224,36.7747],[-76.1234,36.7683],[-76.1433,36.757],[-76.2037,36.7697],[-76.2037,36.763],[-76.2142,36.767],[-76.2258,36.7453],[-76.2422,36.76],[-76.2492,36.7577],[-76.2459,36.7493],[-76.2534,36.7426],[-76.2672,36.7559],[-76.2828,36.7491],[-76.3021,36.7277],[-76.3245,36.7386],[-76.3515,36.743],[-76.3664,36.7345],[-76.372,36.7361],[-76.3657,36.742],[-76.3644,36.7551],[-76.3713,36.7583],[-76.3887,36.7593],[-76.4668,36.7462],[-76.4915,36.5507]]]},"properties":{"geoid":"51019","state":"51","district":"19","name":"State Senate District 19","chamber":"Senate"}},{"type":"Feature","geometry":{"type":"Polygon","coordinates":[[[-76.245,36.9382],[-76.2414,36.9147],[-76.1925,36.918],[-76.182,36.9067],[-76.1985,36.8866],[-76.1931,36.8774],[-76.1793,36.887],[-76.172,36.8714],[-76.1518,36.8684],[-76.1448,36.8571],[-76.1347,36.8652],[-76.1257,36.8634],[-76.1223,36.8582],[-76.1268,36.8502],[-76.1226,36.8467],[-76.1275,36.8385],[-76.121,36.8326],[-76.09,36.839],[-76.0882,36.8321],[-76.0953,36.83],[-76.0976,36.8206],[-76.082,36.8141],[-76.0809,36.8054],[-76.067,36.8165],[-76.0581,36.8151],[-76.0547,36.8084],[-76.0511,36.8116],[-76.0529,36.8286],[-76.0457,36.8303],[-76.0467,36.8365],[-76.0042,36.8382],[-76.0039,36.8474],[-75.9862,36.8484],[-75.9833,36.8378],[-75.9794,36.8377],[-75.9811,36.8442],[-75.9053,36.857],[-75.9283,36.9382],[-75.8897,37.0545],[-75.8694,37.074],[-75.8545,37.0793],[-75.8356,37.095],[-75.8241,37.1101],[-75.8059,37.1161],[-75.766,37.1549],[-75.7446,37.1823],[-75.7293,37.2169],[-75.7323,37.2457],[-75.7155,37.2757],[-75.679,37.3126],[-75.6566,37.3239],[-75.6444,37.3423],[-75.6403,37.3639],[-75.6435,37.3729],[-75.604,37.422],[-75.5956,37.4656],[-75.5891,37.4779],[-75.5299,37.5567],[-75.5284,37.5849],[-75.5418,37.6061],[-75.5332,37.6299],[-75.5185,37.6494],[-75.516,37.6715],[-75.5077,37.6887],[-75.4744,37.7392],[-75.4609,37.7714],[-75.4171,37.821],[-75.3802,37.8104],[-75.3601,37.8102],[-75.338,37.8152],[-75.3031,37.8382],[-75.275,37.8751],[-75.2418,37.9315],[-75.1664,38.0278],[-75.2496,38.0267],[-75.6244,37.9942],[-75.6338,37.9845],[-75.6295,37.976],[-75.6382,37.9794],[-75.6482,37.9668],[-75.6477,37.947],[-75.7046,37.9547],[-75.7616,37.9414],[-75.8012,37.9122],[-75.9527,37.9068],[-75.9437,37.9461],[-75.9933,37.9535],[-76.052,37.9536],[-76.2365,37.8866],[-76.1408,37.5426],[-76.1337,37.0411],[-76.1584,36.9901],[-76.2248,36.959],[-76.2308,36.9473],[-76.245,36.9382]]]},"properties":{"geoid":"51020","state":"51","district":"20","name":"State Senate District 20","chamber":"Senate"}},{"type":"Feature","geometry":{"type":"Polygon","coordinates":[[[-76.3456,36.9245],[-76.3408,36.9016],[-76.3285,36.8932],[-76.3368,36.875],[-76.3013,36.8506],[-76.2943,36.8416],[-76.29,36.822],[-76.2747,36.828],[-76.2575,36.8208],[-76.2438,36.8369],[-76.2261,36.8399],[-76.1973,36.8281],[-76.1769,36.857],[-76.1933,36.8652],[-76.1884,36.8741],[-76.1985,36.8866],[-76.182,36.9067],[-76.1925,36.918],[-76.2414,36.9147],[-76.245,36.9382],[-76.2308,36.9473],[-76.2248,36.959],[-76.1584,36.9901],[-76.1339,37.0409],[-76.2497,37.0001],[-76.2995,36.9687],[-76.3323,36.9661],[-76.3382,36.9252],[-76.3456,36.9245]]]},"properties":{"geoid":"51021","state":"51","district":"21","name":"State Senate District 21","chamber":"Senate"}},{"type":"Feature","geometry":{"type":"Polygon","coordinates":[[[-76.2278,36.8338],[-76.2037,36.7697],[-76.1865,36.7637],[-76.1433,36.757],[-76.1234,36.7683],[-76.1224,36.7747],[-76.0945,36.774],[-76.0791,36.7862],[-76.0859,36.8003],[-76.0805,36.8066],[-76.082,36.8141],[-76.0976,36.8206],[-76.0953,36.83],[-76.0882,36.8321],[-76.09,36.839],[-76.121,36.8326],[-76.1275,36.8385],[-76.1226,36.8467],[-76.1268,36.8502],[-76.1223,36.8582],[-76.1257,36.8634],[-76.1347,36.8652],[-76.1448,36.8571],[-76.1518,36.8684],[-76.172,36.8714],[-76.1793,36.887],[-76.1931,36.8774],[-76.1884,36.8741],[-76.1928,36.8647],[-76.1769,36.857],[-76.1947,36.83],[-76.2002,36.8279],[-76.2261,36.8399],[-76.2278,36.8338]]]},"properties":{"geoid":"51022","state":"51","district":"22","name":"State Senate District 22","chamber":"Senate"}},{"type":"Feature","geometry":{"type":"Polygon","coordinates":[[[-76.52,37.1386],[-76.5079,37.123],[-76.5147,37.1202],[-76.4351,36.9957],[-76.4385,36.9945],[-76.4485,37.0087],[-76.4694,36.9939],[-76.4862,36.9886],[-76.4646,36.9713],[-76.4453,36.9419],[-76.4348,36.9353],[-76.3996,36.9309],[-76.3844,36.9511],[-76.3705,36.9446],[-76.3385,36.9408],[-76.3418,36.9248],[-76.3382,36.9252],[-76.3323,36.9661],[-76.2991,36.9688],[-76.2497,37.0001],[-76.1337,37.0411],[-76.1349,37.1176],[-76.2754,37.1161],[-76.2753,37.1212],[-76.2907,37.1159],[-76.3016,37.1032],[-76.3447,37.0968],[-76.351,37.1067],[-76.3675,37.113],[-76.3762,37.1083],[-76.3824,37.1122],[-76.3879,37.1088],[-76.3846,37.1052],[-76.3938,37.1084],[-76.4012,37.1055],[-76.3976,37.0959],[-76.4235,37.0918],[-76.459,37.1008],[-76.5003,37.1475],[-76.5106,37.149],[-76.52,37.1386]]]},"properties":{"geoid":"51023","state":"51","district":"23","name":"State Senate District 23","chamber":"Senate"}},{"type":"Feature","geometry":{"type":"Polygon","coordinates":[[[-76.7555,37.3543],[-76.7545,37.3402],[-76.7347,37.3317],[-76.7359,37.323],[-76.7279,37.3059],[-76.731,37.3101],[-76.7405,37.3058],[-76.7409,37.3016],[-76.7332,37.2976],[-76.7341,37.2864],[-76.7249,37.2835],[-76.7257,37.2797],[-76.7375,37.2802],[-76.743,37.2755],[-76.7387,37.2754],[-76.7411,37.2652],[-76.7345,37.2554],[-76.7254,37.2498],[-76.6731,37.2477],[-76.6642,37.2511],[-76.6809,37.2606],[-76.6803,37.2656],[-76.6693,37.266],[-76.6549,37.2416],[-76.6327,37.2363],[-76.6283,37.2299],[-76.6389,37.2159],[-76.6588,37.203],[-76.6428,37.1888],[-76.6416,37.1534],[-76.6461,37.1265],[-76.6282,37.0928],[-76.4862,36.9886],[-76.4694,36.9939],[-76.4485,37.0087],[-76.4385,36.9945],[-76.4351,36.9957],[-76.5147,37.1202],[-76.5079,37.123],[-76.52,37.1386],[-76.5106,37.149],[-76.5003,37.1475],[-76.459,37.1008],[-76.4235,37.0918],[-76.3976,37.0959],[-76.4012,37.1055],[-76.3938,37.1084],[-76.3846,37.1052],[-76.3879,37.1088],[-76.3824,37.1122],[-76.3762,37.1083],[-76.3675,37.113],[-76.351,37.1067],[-76.3447,37.0968],[-76.3016,37.1032],[-76.2907,37.1159],[-76.2753,37.1212],[-76.2754,37.1161],[-76.1349,37.1176],[-76.1363,37.2821],[-76.3045,37.2784],[-76.4041,37.2418],[-76.4689,37.2339],[-76.5126,37.2464],[-76.5364,37.2711],[-76.5688,37.288],[-76.6026,37.316],[-76.6495,37.3743],[-76.6587,37.3801],[-76.6801,37.3668],[-76.6834,37.3701],[-76.7103,37.3647],[-76.7269,37.3712],[-76.7423,37.3706],[-76.7555,37.3543]]]},"properties":{"geoid":"51024","state":"51","district":"24","name":"State Senate District 24","chamber":"Senate"}},{"type":"Feature","geometry":{"type":"Polygon","coordinates":[[[-77.7849,38.0651],[-77.7685,38.0517],[-77.7561,38.0482],[-77.7452,38.0511],[-77.7482,38.0421],[-77.7409,38.0377],[-77.7488,38.0367],[-77.7469,38.0236],[-77.7398,38.0329],[-77.7323,38.0316],[-77.7281,38.0271],[-77.7306,38.0208],[-77.7222,38.0232],[-77.7119,38.0127],[-77.6773,38.0065],[-77.6672,37.997],[-77.6608,37.9975],[-77.6593,37.9919],[-77.6427,37.9925],[-77.6433,37.9792],[-77.6309,37.9717],[-77.6325,37.9651],[-77.6193,37.9652],[-77.6139,37.959],[-77.6162,37.949],[-77.604,37.9554],[-77.5862,37.9492],[-77.5763,37.958],[-77.5642,37.9466],[-77.5626,37.9367],[-77.5462,37.9282],[-77.5567,37.9221],[-77.5453,37.9158],[-77.5289,37.9208],[-77.5186,37.9066],[-77.4935,37.8975],[-77.4924,37.8891],[-77.4839,37.8833],[-77.4449,37.8946],[-77.4187,37.8606],[-77.4246,37.8617],[-77.4281,37.8566],[-77.4283,37.8296],[-77.4095,37.8202],[-77.4206,37.8156],[-77.4228,37.8095],[-77.3953,37.8029],[-77.3983,37.7906],[-77.3909,37.7867],[-77.4034,37.7861],[-77.4051,37.7802],[-77.3747,37.7764],[-77.3707,37.7882],[-77.3628,37.7888],[-77.3666,37.7926],[-77.3623,37.7977],[-77.3531,37.7951],[-77.3493,37.7889],[-77.3322,37.7923],[-77.3297,37.7779],[-77.3217,37.77],[-77.3374,37.7648],[-77.3355,37.756],[-77.3036,37.7551],[-77.3039,37.7442],[-77.3207,37.7437],[-77.3227,37.734],[-77.2935,37.7398],[-77.2973,37.7247],[-77.2924,37.7141],[-77.2796,37.7138],[-77.2696,37.7236],[-77.2599,37.7136],[-77.2478,37.7094],[-77.2437,37.7122],[-77.2499,37.7176],[-77.2474,37.7216],[-77.2518,37.7224],[-77.2453,37.7308],[-77.2438,37.7266],[-77.2365,37.7264],[-77.2355,37.7175],[-77.2301,37.7135],[-77.2439,37.6992],[-77.2368,37.6923],[-77.2416,37.6868],[-77.2138,37.6889],[-77.2086,37.6837],[-77.2124,37.6775],[-77.2066,37.677],[-77.1992,37.6898],[-77.1843,37.6869],[-77.1821,37.674],[-77.1919,37.6663],[-77.1867,37.6577],[-77.1672,37.6605],[-77.1634,37.6682],[-77.1481,37.6639],[-77.1476,37.6752],[-77.1417,37.6653],[-77.1365,37.6671],[-77.1326,37.6625],[-77.1197,37.66],[-77.1104,37.6637],[-77.1091,37.6538],[-77.1178,37.6423],[-77.1143,37.6367],[-77.1293,37.636],[-77.1257,37.6288],[-77.1057,37.6242],[-77.0971,37.617],[-77.0901,37.6186],[-77.0913,37.6046],[-77.0833,37.5979],[-77.0726,37.5969],[-77.0672,37.6039],[-77.0362,37.5856],[-77.0193,37.5837],[-77.0259,37.5737],[-77.0144,37.5649],[-77.0001,37.5618],[-76.983,37.5655],[-76.9817,37.5732],[-76.9931,37.5805],[-76.9653,37.585],[-76.9552,37.5632],[-76.9582,37.555],[-76.9757,37.5459],[-76.974,37.5413],[-76.9463,37.5358],[-76.9427,37.5596],[-76.9186,37.5695],[-76.9031,37.5658],[-76.9057,37.5502],[-76.9008,37.5461],[-76.8759,37.5518],[-76.8732,37.5575],[-76.8825,37.5755],[-76.8685,37.5814],[-76.8562,37.5782],[-76.8537,37.571],[-76.865,37.5471],[-76.8767,37.5364],[-76.8769,37.5295],[-76.8569,37.5231],[-76.8226,37.5524],[-76.7922,37.5176],[-76.7866,37.5224],[-76.7888,37.537],[-76.7778,37.5479],[-76.7524,37.5417],[-76.7339,37.5484],[-76.7195,37.5357],[-76.7066,37.5347],[-76.6989,37.538],[-76.704,37.544],[-76.6924,37.5442],[-76.6615,37.558],[-76.6541,37.6032],[-76.6232,37.586],[-76.6121,37.5906],[-76.6125,37.5819],[-76.5958,37.5881],[-76.5887,37.5796],[-76.5753,37.5745],[-76.5703,37.5614],[-76.5597,37.5616],[-76.5537,37.5552],[-76.552,37.5667],[-76.5479,37.5679],[-76.5426,37.5592],[-76.5307,37.5571],[-76.5237,37.5486],[-76.5073,37.5475],[-76.4997,37.5371],[-76.4802,37.5359],[-76.4563,37.5209],[-76.4249,37.5105],[-76.4116,37.515],[-76.4038,37.5356],[-76.3909,37.5303],[-76.3548,37.5273],[-76.327,37.5127],[-76.3187,37.5151],[-76.296,37.5359],[-76.1408,37.5422],[-76.2366,37.8901],[-76.2679,37.9122],[-76.3386,37.9453],[-76.4129,37.9663],[-76.465,38.0132],[-76.5166,38.0268],[-76.5162,38.0449],[-76.5342,38.0635],[-76.5365,38.0749],[-76.5962,38.1067],[-76.6104,38.1485],[-76.6054,38.1489],[-76.764,38.1678],[-76.7999,38.1689],[-76.8394,38.1636],[-76.8767,38.173],[-76.9111,38.1974],[-76.949,38.2084],[-76.9623,38.2299],[-76.9569,38.2375],[-76.9621,38.257],[-76.9813,38.2745],[-76.9909,38.2736],[-77.0009,38.28],[-77.0164,38.2988],[-77.0281,38.3053],[-77.0307,38.3116],[-77.0145,38.3326],[-77.0159,38.371],[-77.0115,38.3744],[-77.0415,38.4007],[-77.0534,38.3988],[-77.0842,38.3687],[-77.1382,38.3679],[-77.1584,38.3485],[-77.1793,38.3419],[-77.2047,38.3411],[-77.2471,38.3315],[-77.2766,38.3379],[-77.2871,38.3488],[-77.3209,38.3461],[-77.3216,38.3381],[-77.3303,38.3339],[-77.3267,38.3187],[-77.3395,38.303],[-77.3392,38.2873],[-77.3474,38.2722],[-77.3431,38.268],[-77.3447,38.2606],[-77.3284,38.2533],[-77.3269,38.2444],[-77.342,38.2527],[-77.3604,38.2424],[-77.3769,38.25],[-77.3909,38.2456],[-77.4201,38.258],[-77.4389,38.2816],[-77.4471,38.2846],[-77.4544,38.2836],[-77.4502,38.2748],[-77.4575,38.2714],[-77.4665,38.28],[-77.4738,38.2702],[-77.4946,38.2739],[-77.497,38.283],[-77.5015,38.279],[-77.5117,38.28],[-77.5148,38.2687],[-77.496,38.2647],[-77.4977,38.2556],[-77.5252,38.2449],[-77.5265,38.2356],[-77.5354,38.242],[-77.5575,38.2352],[-77.5699,38.2177],[-77.566,38.214],[-77.5615,38.1614],[-77.5767,38.1674],[-77.5878,38.166],[-77.5944,38.1713],[-77.6015,38.148],[-77.6425,38.1628],[-77.6509,38.1619],[-77.714,38.1251],[-77.7321,38.0964],[-77.7497,38.0913],[-77.7849,38.0651]]]},"properties":{"geoid":"51025","state":"51","district":"25","name":"State Senate District 25","chamber":"Senate"}},{"type":"Feature","geometry":{"type":"Polygon","coordinates":[[[-77.4569,37.7505],[-77.4462,37.727],[-77.4273,37.7162],[-77.4133,37.7154],[-77.4249,37.7036],[-77.4165,37.6936],[-77.4157,37.684],[-77.422,37.6882],[-77.4337,37.685],[-77.44,37.6914],[-77.4521,37.6881],[-77.4523,37.6845],[-77.4511,37.6803],[-77.4486,37.6844],[-77.4422,37.681],[-77.4395,37.6681],[-77.4242,37.6486],[-77.4207,37.6365],[-77.4053,37.626],[-77.4087,37.6147],[-77.4038,37.6052],[-77.3055,37.5608],[-77.2659,37.5519],[-77.2466,37.5392],[-77.2317,37.5396],[-77.2206,37.5327],[-77.207,37.5134],[-77.1713,37.4872],[-77.1701,37.481],[-77.1582,37.4862],[-77.1608,37.4753],[-77.1418,37.4763],[-77.1419,37.4684],[-77.1269,37.4716],[-77.1179,37.4545],[-77.1008,37.4474],[-77.096,37.4403],[-77.0702,37.44],[-77.0598,37.4352],[-77.0594,37.4289],[-77.0477,37.4323],[-77.0358,37.4268],[-77.0265,37.429],[-77.0236,37.4178],[-77.0169,37.4142],[-76.9983,37.4182],[-76.9889,37.415],[-76.982,37.4209],[-76.9696,37.4167],[-76.9727,37.4102],[-76.9688,37.4065],[-76.954,37.4035],[-76.9408,37.4099],[-76.9369,37.4034],[-76.9453,37.3941],[-76.9425,37.3832],[-76.9333,37.388],[-76.9291,37.3987],[-76.9167,37.3954],[-76.9049,37.4049],[-76.9064,37.3926],[-76.9188,37.3855],[-76.8978,37.3738],[-76.9096,37.3653],[-76.9159,37.3526],[-76.908,37.349],[-76.8848,37.3686],[-76.8771,37.3692],[-76.8735,37.3634],[-76.8805,37.3512],[-76.8736,37.3426],[-76.8747,37.3204],[-76.88,37.3099],[-76.8716,37.2963],[-76.8808,37.2873],[-76.8831,37.2759],[-76.8732,37.2583],[-76.8864,37.246],[-76.8832,37.2231],[-76.8089,37.2223],[-76.7531,37.1727],[-76.7285,37.1748],[-76.7151,37.1991],[-76.6973,37.2097],[-76.6764,37.2105],[-76.6588,37.203],[-76.6389,37.2159],[-76.6283,37.2299],[-76.6327,37.2363],[-76.6549,37.2416],[-76.6693,37.266],[-76.6803,37.2656],[-76.6809,37.2606],[-76.6642,37.2511],[-76.674,37.2475],[-76.726,37.2499],[-76.7361,37.2572],[-76.7411,37.2652],[-76.7387,37.2754],[-76.743,37.2755],[-76.7375,37.2802],[-76.7257,37.2797],[-76.7249,37.2835],[-76.7341,37.2864],[-76.7332,37.2976],[-76.7409,37.3016],[-76.7405,37.3058],[-76.731,37.3101],[-76.7279,37.3059],[-76.7359,37.323],[-76.7347,37.3317],[-76.7545,37.3402],[-76.7555,37.3542],[-76.7422,37.3706],[-76.7269,37.3712],[-76.7103,37.3647],[-76.6834,37.3701],[-76.6801,37.3668],[-76.6587,37.3801],[-76.6495,37.3743],[-76.6026,37.316],[-76.5688,37.288],[-76.5364,37.2711],[-76.5126,37.2464],[-76.4689,37.2339],[-76.4041,37.2418],[-76.3045,37.2784],[-76.1363,37.2821],[-76.1408,37.5422],[-76.296,37.5359],[-76.3187,37.5151],[-76.327,37.5127],[-76.3548,37.5273],[-76.3909,37.5303],[-76.4038,37.5356],[-76.4116,37.515],[-76.4249,37.5105],[-76.4563,37.5209],[-76.4802,37.5359],[-76.4997,37.5371],[-76.5073,37.5475],[-76.5237,37.5486],[-76.5307,37.5571],[-76.5426,37.5592],[-76.5479,37.5679],[-76.552,37.5667],[-76.5537,37.5552],[-76.5597,37.5616],[-76.5703,37.5614],[-76.5753,37.5745],[-76.5887,37.5796],[-76.5958,37.5881],[-76.6125,37.5819],[-76.6121,37.5906],[-76.6232,37.586],[-76.6541,37.6032],[-76.6615,37.558],[-76.6924,37.5442],[-76.704,37.544],[-76.6989,37.538],[-76.7066,37.5347],[-76.7195,37.5357],[-76.7339,37.5484],[-76.7524,37.5417],[-76.7778,37.5479],[-76.7888,37.537],[-76.7866,37.5224],[-76.7922,37.5176],[-76.818,37.5505],[-76.8241,37.5524],[-76.851,37.5261],[-76.8638,37.5232],[-76.8777,37.5338],[-76.865,37.5471],[-76.8536,37.5726],[-76.8576,37.5791],[-76.8685,37.5814],[-76.8825,37.5755],[-76.8732,37.5575],[-76.8759,37.5518],[-76.9008,37.5461],[-76.9057,37.5502],[-76.9031,37.5658],[-76.9202,37.5692],[-76.9427,37.5596],[-76.9445,37.5378],[-76.953,37.5358],[-76.9762,37.544],[-76.9582,37.555],[-76.9552,37.5632],[-76.9667,37.5858],[-76.9936,37.5799],[-76.9817,37.5732],[-76.983,37.5655],[-77.0125,37.5643],[-77.0258,37.5734],[-77.0193,37.5837],[-77.0362,37.5856],[-77.0672,37.6039],[-77.0709,37.5977],[-77.0801,37.5966],[-77.0913,37.6046],[-77.0901,37.6186],[-77.0971,37.617],[-77.1057,37.6242],[-77.1237,37.6269],[-77.1296,37.6356],[-77.1143,37.6367],[-77.1178,37.6423],[-77.1091,37.6538],[-77.1104,37.6637],[-77.1197,37.66],[-77.1326,37.6625],[-77.1365,37.6671],[-77.1417,37.6653],[-77.1476,37.6752],[-77.1481,37.6639],[-77.1634,37.6682],[-77.1664,37.6609],[-77.1836,37.657],[-77.1919,37.6663],[-77.1821,37.674],[-77.1843,37.6869],[-77.1992,37.6898],[-77.2066,37.677],[-77.2124,37.6775],[-77.2086,37.6837],[-77.2138,37.6889],[-77.2409,37.6863],[-77.2368,37.6923],[-77.2439,37.6992],[-77.2301,37.7135],[-77.2355,37.7175],[-77.2347,37.7243],[-77.2438,37.7266],[-77.244,37.7303],[-77.2518,37.7224],[-77.2474,37.7216],[-77.2499,37.7176],[-77.2437,37.7122],[-77.2489,37.7092],[-77.2696,37.7236],[-77.2796,37.7138],[-77.2924,37.7141],[-77.2973,37.7247],[-77.2935,37.7398],[-77.3225,37.7337],[-77.3207,37.7437],[-77.3039,37.7442],[-77.3038,37.7553],[-77.3344,37.7546],[-77.3591,37.747],[-77.3643,37.7584],[-77.3669,37.7497],[-77.3943,37.7329],[-77.4101,37.7326],[-77.4189,37.7413],[-77.431,37.739],[-77.4538,37.7558],[-77.4569,37.7505]]]},"properties":{"geoid":"51026","state":"51","district":"26","name":"State Senate District 26","chamber":"Senate"}},{"type":"Feature","geometry":{"type":"Polygon","coordinates":[[[-77.6859,38.3596],[-77.6576,38.3341],[-77.664,38.3216],[-77.6585,38.3183],[-77.662,38.3119],[-77.6512,38.3108],[-77.6523,38.3053],[-77.6468,38.301],[-77.6489,38.2856],[-77.6363,38.2751],[-77.6356,38.2662],[-77.6199,38.2582],[-77.6238,38.2481],[-77.5961,38.2489],[-77.5966,38.2442],[-77.5849,38.2504],[-77.5831,38.2581],[-77.5754,38.2492],[-77.5585,38.2434],[-77.5592,38.2338],[-77.5354,38.242],[-77.5265,38.2356],[-77.5252,38.2449],[-77.4977,38.2556],[-77.496,38.2647],[-77.5148,38.2687],[-77.5117,38.28],[-77.5015,38.279],[-77.4975,38.2832],[-77.4946,38.2739],[-77.4738,38.2702],[-77.4665,38.28],[-77.4575,38.2714],[-77.4502,38.2748],[-77.4544,38.2836],[-77.4407,38.2825],[-77.4201,38.258],[-77.3909,38.2456],[-77.3769,38.25],[-77.3604,38.2424],[-77.342,38.2527],[-77.3269,38.2444],[-77.3284,38.2533],[-77.3447,38.2606],[-77.3431,38.268],[-77.3474,38.2722],[-77.3392,38.2873],[-77.3395,38.303],[-77.3267,38.3187],[-77.3303,38.3339],[-77.3216,38.3381],[-77.3206,38.3462],[-77.2871,38.3488],[-77.288,38.3591],[-77.3049,38.3753],[-77.3092,38.391],[-77.33,38.4011],[-77.3521,38.42],[-77.3554,38.4311],[-77.37,38.4413],[-77.3678,38.4502],[-77.3737,38.459],[-77.3629,38.466],[-77.3716,38.4796],[-77.3889,38.4716],[-77.3944,38.4744],[-77.3887,38.4799],[-77.3922,38.4859],[-77.408,38.4655],[-77.4184,38.4747],[-77.4451,38.4732],[-77.4408,38.4861],[-77.4453,38.4861],[-77.4457,38.4939],[-77.4505,38.4958],[-77.4706,38.494],[-77.4766,38.4861],[-77.5115,38.4838],[-77.5402,38.4896],[-77.5639,38.5058],[-77.5799,38.5069],[-77.5888,38.504],[-77.6342,38.4663],[-77.6282,38.45],[-77.6341,38.4423],[-77.6282,38.4335],[-77.6352,38.4153],[-77.6341,38.3993],[-77.6326,38.393],[-77.6218,38.3889],[-77.6187,38.3678],[-77.6272,38.3687],[-77.6334,38.3602],[-77.6398,38.3592],[-77.6442,38.3667],[-77.6371,38.3719],[-77.6457,38.3781],[-77.6714,38.3705],[-77.6791,38.3601],[-77.6859,38.3596]]]},"properties":{"geoid":"51027","state":"51","district":"27","name":"State Senate District 27","chamber":"Senate"}},{"type":"Feature","geometry":{"type":"Polygon","coordinates":[[[-78.6626,38.2779],[-78.2094,38.1311],[-78.1715,38.1297],[-78.1443,38.143],[-78.1339,38.1385],[-78.1166,38.14],[-78.1019,38.1526],[-78.0807,38.1469],[-78.0758,38.1413],[-78.0475,38.1358],[-78.0297,38.1397],[-78.0247,38.1365],[-78.0188,38.1419],[-78.002,38.1385],[-77.9803,38.1195],[-77.9471,38.12],[-77.9297,38.1137],[-77.9167,38.1183],[-77.9125,38.1115],[-77.9024,38.1081],[-77.8884,38.1131],[-77.8598,38.1052],[-77.8572,38.1],[-77.8512,38.1043],[-77.8462,38.0983],[-77.8455,38.1043],[-77.8382,38.1062],[-77.8197,38.0924],[-77.8109,38.0795],[-77.7866,38.0763],[-77.7825,38.0675],[-77.7497,38.0913],[-77.7321,38.0964],[-77.714,38.1251],[-77.6509,38.1619],[-77.6425,38.1628],[-77.6015,38.148],[-77.5944,38.1713],[-77.5878,38.166],[-77.5767,38.1674],[-77.5615,38.1614],[-77.566,38.214],[-77.5699,38.2177],[-77.558,38.2429],[-77.5754,38.2492],[-77.5836,38.2581],[-77.5847,38.2507],[-77.5966,38.2442],[-77.5961,38.2489],[-77.6238,38.2481],[-77.6199,38.2582],[-77.6356,38.2662],[-77.6363,38.2751],[-77.6489,38.2856],[-77.6468,38.301],[-77.6523,38.3053],[-77.6512,38.3108],[-77.662,38.3119],[-77.6585,38.3183],[-77.664,38.3216],[-77.6576,38.3341],[-77.6859,38.3596],[-77.6791,38.3601],[-77.6714,38.3705],[-77.6457,38.3781],[-77.6371,38.3719],[-77.6442,38.3667],[-77.6398,38.3592],[-77.6334,38.3602],[-77.6272,38.3687],[-77.6187,38.3678],[-77.6218,38.3889],[-77.6326,38.393],[-77.6341,38.3993],[-77.6352,38.4153],[-77.6282,38.4335],[-77.6341,38.4423],[-77.6282,38.45],[-77.6342,38.4663],[-77.5313,38.5565],[-77.71,38.8238],[-77.7227,38.8263],[-77.7361,38.8184],[-77.7507,38.8179],[-77.7701,38.7934],[-77.7828,38.7865],[-77.7858,38.7818],[-77.7801,38.7743],[-77.7795,38.7597],[-77.7837,38.7512],[-77.7633,38.7402],[-77.7667,38.7377],[-77.7539,38.7341],[-77.7618,38.7265],[-77.7579,38.7206],[-77.7712,38.7231],[-77.7813,38.7175],[-77.7789,38.7275],[-77.7988,38.7381],[-77.8188,38.725],[-77.8237,38.7141],[-77.8168,38.7156],[-77.8,38.7026],[-77.7985,38.6921],[-77.7878,38.6959],[-77.7873,38.6774],[-77.8047,38.643],[-77.8111,38.641],[-77.8177,38.629],[-77.8283,38.6375],[-77.8594,38.6429],[-77.8599,38.6208],[-77.8686,38.6234],[-77.8698,38.6323],[-77.877,38.6309],[-77.8805,38.6365],[-77.8733,38.6398],[-77.8715,38.648],[-77.8838,38.6665],[-77.8961,38.6621],[-77.9016,38.6659],[-77.9025,38.675],[-77.8919,38.6811],[-77.9041,38.6842],[-77.902,38.6905],[-77.906,38.6958],[-77.9277,38.699],[-77.9332,38.6951],[-77.9421,38.6987],[-77.9553,38.695],[-77.9951,38.7101],[-78.0151,38.7251],[-78.0063,38.7275],[-78.0094,38.7298],[-78.006,38.7325],[-78.0126,38.7328],[-78.0134,38.7398],[-78.0192,38.7404],[-78.0165,38.7542],[-78.0281,38.7575],[-78.0225,38.7703],[-78.0261,38.7769],[-78.0195,38.7781],[-78.0296,38.7867],[-78.0267,38.7884],[-78.0318,38.7935],[-78.0259,38.7959],[-78.0354,38.8002],[-78.0438,38.7975],[-78.0473,38.802],[-78.0514,38.7992],[-78.0507,38.8054],[-78.0593,38.8114],[-78.081,38.825],[-78.0997,38.8304],[-78.1222,38.8562],[-78.1235,38.8655],[-78.1306,38.8649],[-78.143,38.8591],[-78.142,38.8556],[-78.1526,38.8544],[-78.1514,38.8484],[-78.16,38.8365],[-78.171,38.8293],[-78.1709,38.8192],[-78.1802,38.818],[-78.1846,38.793],[-78.2007,38.7768],[-78.2302,38.7692],[-78.253,38.757],[-78.2793,38.7622],[-78.2905,38.7504],[-78.2995,38.7484],[-78.3035,38.7389],[-78.3188,38.7379],[-78.3322,38.7056],[-78.32,38.6984],[-78.3144,38.6825],[-78.324,38.6727],[-78.3175,38.6695],[-78.3201,38.6595],[-78.3156,38.6516],[-78.3259,38.6307],[-78.341,38.6257],[-78.355,38.612],[-78.3603,38.6136],[-78.3832,38.5883],[-78.3809,38.5613],[-78.4132,38.5478],[-78.4198,38.5344],[-78.4302,38.5269],[-78.438,38.5309],[-78.4428,38.5278],[-78.4361,38.5217],[-78.4468,38.4993],[-78.4415,38.4903],[-78.4627,38.4595],[-78.4651,38.447],[-78.4743,38.4456],[-78.4766,38.4321],[-78.4822,38.4299],[-78.4932,38.4063],[-78.5066,38.394],[-78.5151,38.3937],[-78.5264,38.3724],[-78.5228,38.3695],[-78.5439,38.3633],[-78.5469,38.3529],[-78.5538,38.3485],[-78.5539,38.3342],[-78.5875,38.3248],[-78.601,38.3147],[-78.6027,38.3069],[-78.6285,38.3],[-78.6353,38.2916],[-78.6512,38.2935],[-78.6626,38.2779]]]},"properties":{"geoid":"51028","state":"51","district":"28","name":"State Senate District 28","chamber":"Senate"}},{"type":"Feature","geometry":{"type":"Polygon","coordinates":[[[-77.6702,38.7649],[-77.5313,38.5565],[-77.5888,38.504],[-77.5639,38.5058],[-77.5402,38.4896],[-77.5115,38.4838],[-77.4766,38.4861],[-77.4706,38.494],[-77.4505,38.4958],[-77.4457,38.4939],[-77.4453,38.4861],[-77.4408,38.4861],[-77.4451,38.4732],[-77.4184,38.4747],[-77.408,38.4655],[-77.3922,38.4859],[-77.3887,38.4799],[-77.3944,38.4744],[-77.3889,38.4716],[-77.3716,38.4796],[-77.3629,38.466],[-77.3737,38.459],[-77.3678,38.4502],[-77.37,38.4413],[-77.3554,38.4311],[-77.3521,38.42],[-77.33,38.4011],[-77.3092,38.391],[-77.323,38.4335],[-77.3185,38.4744],[-77.3096,38.4956],[-77.2853,38.5197],[-77.2763,38.5472],[-77.2565,38.5605],[-77.2518,38.575],[-77.2844,38.5916],[-77.2839,38.5782],[-77.2958,38.5757],[-77.309,38.5838],[-77.3068,38.5868],[-77.316,38.5936],[-77.2928,38.6281],[-77.3035,38.6274],[-77.298,38.6384],[-77.3022,38.651],[-77.3124,38.6468],[-77.3364,38.673],[-77.3491,38.6782],[-77.3524,38.6726],[-77.3639,38.6725],[-77.3599,38.6812],[-77.3856,38.6877],[-77.393,38.6958],[-77.4072,38.7002],[-77.4101,38.7102],[-77.4046,38.7208],[-77.3974,38.7139],[-77.3913,38.731],[-77.3869,38.7306],[-77.3844,38.7214],[-77.3775,38.7291],[-77.3795,38.7365],[-77.3897,38.743],[-77.3882,38.7489],[-77.4022,38.7524],[-77.4039,38.746],[-77.4117,38.7448],[-77.4064,38.7534],[-77.4173,38.7609],[-77.4128,38.7627],[-77.4158,38.7675],[-77.4126,38.7717],[-77.4298,38.7811],[-77.4328,38.7793],[-77.422,38.7766],[-77.4194,38.7697],[-77.4236,38.7694],[-77.4206,38.7623],[-77.4273,38.7536],[-77.4391,38.7592],[-77.4421,38.7509],[-77.447,38.7562],[-77.4428,38.7604],[-77.4447,38.7663],[-77.4586,38.7724],[-77.4477,38.7609],[-77.4516,38.7383],[-77.4726,38.7273],[-77.4889,38.7319],[-77.4939,38.7255],[-77.5014,38.7384],[-77.5069,38.7405],[-77.515,38.7358],[-77.5025,38.7155],[-77.5062,38.7061],[-77.5133,38.7162],[-77.524,38.7178],[-77.5215,38.723],[-77.53,38.7235],[-77.5345,38.7372],[-77.5472,38.7313],[-77.5967,38.7365],[-77.6177,38.7529],[-77.6149,38.7572],[-77.625,38.7677],[-77.6372,38.7725],[-77.6565,38.7682],[-77.6621,38.7719],[-77.6702,38.7649]],[[-77.4419,38.7506],[-77.436,38.7551],[-77.4381,38.7506],[-77.4419,38.7506]]]},"properties":{"geoid":"51029","state":"51","district":"29","name":"State Senate District 29","chamber":"Senate"}},{"type":"Feature","geometry":{"type":"MultiPolygon","coordinates":[[[[-77.7159,38.8411],[-77.7157,38.8321],[-77.6697,38.7634],[-77.6686,38.7696],[-77.6621,38.7719],[-77.6565,38.7682],[-77.6372,38.7725],[-77.625,38.7677],[-77.6149,38.7572],[-77.6177,38.7529],[-77.5967,38.7365],[-77.5472,38.7313],[-77.5345,38.7372],[-77.53,38.7235],[-77.5215,38.723],[-77.524,38.7178],[-77.5133,38.7162],[-77.5062,38.7061],[-77.5025,38.7155],[-77.515,38.7358],[-77.5069,38.7405],[-77.5014,38.7384],[-77.4939,38.7255],[-77.4889,38.7319],[-77.4726,38.7273],[-77.4546,38.7356],[-77.4477,38.7609],[-77.4586,38.7724],[-77.4447,38.7663],[-77.4428,38.7604],[-77.447,38.7562],[-77.4421,38.7509],[-77.4391,38.7592],[-77.4273,38.7536],[-77.4206,38.7623],[-77.422,38.7766],[-77.4328,38.7793],[-77.4431,38.8037],[-77.4506,38.8022],[-77.4529,38.7962],[-77.494,38.7982],[-77.4893,38.8089],[-77.5052,38.8163],[-77.5035,38.8252],[-77.5124,38.8304],[-77.5088,38.8411],[-77.5297,38.837],[-77.5367,38.8416],[-77.5351,38.8472],[-77.5443,38.8503],[-77.5495,38.8468],[-77.5522,38.8865],[-77.5642,38.8861],[-77.5916,38.8967],[-77.609,38.9132],[-77.6177,38.9307],[-77.6295,38.9335],[-77.6373,38.9417],[-77.6552,38.9427],[-77.6803,38.8934],[-77.6926,38.887],[-77.7049,38.8432],[-77.7159,38.8411]]],[[[-77.4419,38.7506],[-77.4381,38.7506],[-77.436,38.7551],[-77.4419,38.7506]]]]},"properties":{"geoid":"51030","state":"51","district":"30","name":"State Senate District 30","chamber":"Senate"}},{"type":"Feature","geometry":{"type":"Polygon","coordinates":[[[-78.1312,38.8682],[-78.1235,38.8655],[-78.1222,38.8562],[-78.0997,38.8304],[-78.081,38.825],[-78.0593,38.8114],[-78.0507,38.8054],[-78.0514,38.7992],[-78.0473,38.802],[-78.0438,38.7975],[-78.0354,38.8002],[-78.0259,38.7959],[-78.0318,38.7935],[-78.0267,38.7884],[-78.0296,38.7867],[-78.0195,38.7781],[-78.0261,38.7769],[-78.0225,38.7703],[-78.0281,38.7575],[-78.0165,38.7542],[-78.0192,38.7404],[-78.0134,38.7398],[-78.0126,38.7328],[-78.006,38.7325],[-78.0094,38.7298],[-78.0063,38.7275],[-78.0151,38.7251],[-77.9951,38.7101],[-77.9553,38.695],[-77.9421,38.6987],[-77.9332,38.6951],[-77.9277,38.699],[-77.906,38.6958],[-77.902,38.6905],[-77.9041,38.6842],[-77.8919,38.6811],[-77.9025,38.675],[-77.9016,38.6659],[-77.8961,38.6621],[-77.8838,38.6665],[-77.8715,38.648],[-77.8733,38.6398],[-77.8805,38.6365],[-77.877,38.6309],[-77.8698,38.6323],[-77.8686,38.6234],[-77.8581,38.6226],[-77.8594,38.6429],[-77.8283,38.6375],[-77.8177,38.629],[-77.8111,38.641],[-77.8047,38.643],[-77.7873,38.6774],[-77.7871,38.6863],[-77.7878,38.6959],[-77.7985,38.6921],[-77.8,38.7026],[-77.8237,38.7173],[-77.7988,38.7381],[-77.7789,38.7275],[-77.7813,38.7175],[-77.7712,38.7231],[-77.758,38.7206],[-77.7618,38.7265],[-77.7539,38.7341],[-77.7667,38.7377],[-77.7633,38.7402],[-77.7837,38.7512],[-77.7801,38.7742],[-77.7858,38.7818],[-77.7699,38.7937],[-77.751,38.8178],[-77.7361,38.8184],[-77.7227,38.8263],[-77.71,38.8238],[-77.7157,38.8321],[-77.7157,38.8432],[-77.7049,38.8432],[-77.6926,38.887],[-77.6803,38.8934],[-77.6552,38.9427],[-77.6372,38.9416],[-77.625,38.9318],[-77.6242,38.9366],[-77.5966,38.9386],[-77.5922,38.9466],[-77.582,38.9481],[-77.5757,38.9656],[-77.5437,38.9596],[-77.5602,38.9866],[-77.549,38.9885],[-77.5304,39.0058],[-77.5319,39.0216],[-77.5199,39.0428],[-77.5203,39.0539],[-77.5073,39.0687],[-77.5002,39.0657],[-77.5032,39.0597],[-77.4939,39.0521],[-77.4862,39.0563],[-77.4817,39.0714],[-77.3713,39.0143],[-77.3283,39.0577],[-77.3401,39.0629],[-77.3858,39.0621],[-77.457,39.0734],[-77.4854,39.1093],[-77.5207,39.1214],[-77.5277,39.1447],[-77.5176,39.1694],[-77.5075,39.1814],[-77.4787,39.1897],[-77.4742,39.2078],[-77.4577,39.225],[-77.4866,39.2473],[-77.5431,39.2669],[-77.5607,39.286],[-77.565,39.3052],[-77.6159,39.3025],[-77.6509,39.3108],[-77.6761,39.3245],[-77.693,39.3184],[-77.7195,39.3213],[-77.7349,39.3126],[-77.7479,39.2944],[-77.7584,39.2651],[-77.7707,39.2553],[-77.7709,39.2494],[-77.7672,39.249],[-77.7714,39.2365],[-77.7863,39.2218],[-77.7982,39.2007],[-77.806,39.1717],[-77.8216,39.1519],[-77.8221,39.1401],[-77.8438,39.1197],[-77.8628,39.081],[-77.8776,39.078],[-77.8933,39.0554],[-77.9412,39.0235],[-77.9564,39.0209],[-77.9655,39.0087],[-77.989,38.9975],[-78.017,38.9712],[-78.0396,38.9398],[-78.0622,38.9303],[-78.0759,38.9086],[-78.0618,38.9003],[-78.0618,38.8919],[-78.092,38.8856],[-78.0949,38.8798],[-78.1122,38.8804],[-78.1312,38.8682]]]},"properties":{"geoid":"51031","state":"51","district":"31","name":"State Senate District 31","chamber":"Senate"}},{"type":"Feature","geometry":{"type":"Polygon","coordinates":[[[-77.625,38.9319],[-77.6176,38.9306],[-77.609,38.9132],[-77.5916,38.8967],[-77.5642,38.8861],[-77.5522,38.8865],[-77.5492,38.868],[-77.5529,38.8643],[-77.5481,38.8628],[-77.5525,38.8564],[-77.5473,38.8531],[-77.5504,38.8487],[-77.536,38.8474],[-77.3713,39.0143],[-77.4817,39.0714],[-77.4862,39.0563],[-77.4939,39.0521],[-77.5032,39.0597],[-77.5002,39.0657],[-77.5073,39.0687],[-77.5203,39.0539],[-77.5199,39.0428],[-77.5319,39.0216],[-77.5304,39.0058],[-77.549,38.9885],[-77.5602,38.9866],[-77.5437,38.9596],[-77.5757,38.9656],[-77.582,38.9481],[-77.5922,38.9466],[-77.5966,38.9386],[-77.6242,38.9366],[-77.625,38.9319]]]},"properties":{"geoid":"51032","state":"51","district":"32","name":"State Senate District 32","chamber":"Senate"}},{"type":"Feature","geometry":{"type":"Polygon","coordinates":[[[-77.4101,38.7102],[-77.4054,38.6988],[-77.3933,38.696],[-77.3851,38.6875],[-77.3599,38.6812],[-77.3639,38.6725],[-77.3524,38.6726],[-77.3491,38.6782],[-77.3364,38.673],[-77.3126,38.6469],[-77.3022,38.651],[-77.298,38.6384],[-77.3035,38.6274],[-77.2928,38.6281],[-77.316,38.5936],[-77.299,38.5766],[-77.2839,38.5782],[-77.2844,38.5916],[-77.2518,38.575],[-77.2464,38.5934],[-77.2273,38.6046],[-77.2301,38.6251],[-77.2207,38.6474],[-77.2579,38.6847],[-77.2562,38.698],[-77.2611,38.7087],[-77.2569,38.7081],[-77.2506,38.7176],[-77.2507,38.7281],[-77.2208,38.7177],[-77.2113,38.7193],[-77.2257,38.7393],[-77.221,38.7496],[-77.2266,38.7534],[-77.2274,38.7613],[-77.2404,38.7671],[-77.254,38.7841],[-77.2698,38.7886],[-77.2727,38.7966],[-77.3255,38.8007],[-77.3277,38.7822],[-77.3395,38.7832],[-77.3547,38.7722],[-77.3287,38.763],[-77.3402,38.7588],[-77.3413,38.7424],[-77.3595,38.7332],[-77.3672,38.7341],[-77.3604,38.7223],[-77.3633,38.7155],[-77.3691,38.7104],[-77.3739,38.7119],[-77.3891,38.7314],[-77.3949,38.7267],[-77.3939,38.7153],[-77.3995,38.7139],[-77.4038,38.7214],[-77.4101,38.7102]]]},"properties":{"geoid":"51033","state":"51","district":"33","name":"State Senate District 33","chamber":"Senate"}},{"type":"Feature","geometry":{"type":"Polygon","coordinates":[[[-77.2611,38.7087],[-77.2562,38.698],[-77.2579,38.6847],[-77.2207,38.6474],[-77.2301,38.6251],[-77.2273,38.6046],[-77.2037,38.6182],[-77.1297,38.6347],[-77.1364,38.6502],[-77.1324,38.6741],[-77.1226,38.6853],[-77.08,38.7089],[-77.0792,38.7131],[-77.0535,38.7098],[-77.0433,38.7184],[-77.0414,38.7854],[-77.0715,38.7996],[-77.0986,38.8033],[-77.1491,38.796],[-77.1544,38.7912],[-77.1585,38.7727],[-77.1727,38.7631],[-77.1856,38.7387],[-77.1901,38.7405],[-77.1838,38.7576],[-77.227,38.7575],[-77.221,38.7496],[-77.2257,38.7392],[-77.2113,38.7193],[-77.2208,38.7177],[-77.2507,38.7281],[-77.2506,38.7176],[-77.2569,38.7081],[-77.2611,38.7087]]]},"properties":{"geoid":"51034","state":"51","district":"34","name":"State Senate District 34","chamber":"Senate"}},{"type":"Feature","geometry":{"type":"Polygon","coordinates":[[[-77.3451,38.835],[-77.3164,38.8274],[-77.3213,38.8158],[-77.2974,38.8066],[-77.2955,38.799],[-77.3013,38.7975],[-77.2727,38.7966],[-77.2698,38.7886],[-77.2539,38.784],[-77.227,38.7575],[-77.1838,38.7576],[-77.1896,38.738],[-77.1726,38.7633],[-77.1587,38.7724],[-77.1531,38.7934],[-77.1345,38.7986],[-77.1399,38.8002],[-77.1444,38.8104],[-77.1372,38.8215],[-77.1417,38.826],[-77.1349,38.8308],[-77.1377,38.8394],[-77.1454,38.8412],[-77.1406,38.8455],[-77.1475,38.8521],[-77.142,38.8572],[-77.1559,38.872],[-77.1747,38.8465],[-77.2068,38.8547],[-77.2125,38.8586],[-77.2125,38.866],[-77.2699,38.865],[-77.2705,38.8409],[-77.2864,38.8417],[-77.2873,38.8361],[-77.2967,38.8373],[-77.3031,38.8328],[-77.308,38.8369],[-77.3187,38.8347],[-77.3188,38.842],[-77.3348,38.8515],[-77.3451,38.835]]]},"properties":{"geoid":"51035","state":"51","district":"35","name":"State Senate District 35","chamber":"Senate"}},{"type":"Feature","geometry":{"type":"Polygon","coordinates":[[[-77.537,38.8426],[-77.5296,38.837],[-77.5086,38.8409],[-77.5124,38.8304],[-77.5035,38.8252],[-77.5052,38.8163],[-77.4893,38.8089],[-77.4939,38.7981],[-77.4529,38.7962],[-77.4504,38.8023],[-77.443,38.8036],[-77.4333,38.78],[-77.4126,38.7717],[-77.4158,38.7675],[-77.4128,38.7627],[-77.4173,38.7609],[-77.4064,38.7534],[-77.4117,38.7448],[-77.4039,38.746],[-77.4022,38.7524],[-77.3884,38.749],[-77.3897,38.743],[-77.3779,38.7337],[-77.3796,38.7189],[-77.3703,38.7103],[-77.3604,38.7223],[-77.3672,38.7341],[-77.3595,38.7332],[-77.3413,38.7424],[-77.3402,38.7588],[-77.3287,38.763],[-77.3547,38.7722],[-77.3395,38.7832],[-77.3277,38.7822],[-77.3255,38.8007],[-77.2955,38.799],[-77.2975,38.8066],[-77.3213,38.8158],[-77.3164,38.8274],[-77.3448,38.8337],[-77.3284,38.8654],[-77.3426,38.878],[-77.3541,38.8752],[-77.3757,38.8853],[-77.3827,38.9049],[-77.3726,38.927],[-77.3867,38.9412],[-77.4041,38.9325],[-77.4138,38.9421],[-77.4273,38.9441],[-77.4322,38.9527],[-77.537,38.8426]]]},"properties":{"geoid":"51036","state":"51","district":"36","name":"State Senate District 36","chamber":"Senate"}},{"type":"Feature","geometry":{"type":"Polygon","coordinates":[[[-77.3827,38.9048],[-77.3802,38.8928],[-77.3686,38.8794],[-77.3539,38.8752],[-77.3427,38.878],[-77.3284,38.8654],[-77.3348,38.8514],[-77.3188,38.842],[-77.3187,38.8347],[-77.308,38.8369],[-77.3031,38.8328],[-77.2967,38.8373],[-77.2873,38.8361],[-77.2864,38.8417],[-77.2705,38.8409],[-77.2699,38.865],[-77.2125,38.866],[-77.2125,38.8586],[-77.2068,38.8547],[-77.1747,38.8465],[-77.1563,38.8724],[-77.1498,38.8734],[-77.1723,38.8932],[-77.1888,38.8963],[-77.1832,38.9001],[-77.1979,38.9259],[-77.2197,38.9343],[-77.2527,38.9328],[-77.2574,38.9148],[-77.2652,38.9168],[-77.2715,38.9121],[-77.2736,38.9163],[-77.2788,38.9061],[-77.3053,38.9201],[-77.3057,38.9302],[-77.3337,38.9111],[-77.352,38.9086],[-77.3607,38.9082],[-77.3736,38.925],[-77.3827,38.9048]]]},"properties":{"geoid":"51037","state":"51","district":"37","name":"State Senate District 37","chamber":"Senate"}},{"type":"Feature","geometry":{"type":"Polygon","coordinates":[[[-77.4322,38.9494],[-77.4238,38.9421],[-77.4138,38.9421],[-77.4041,38.9325],[-77.3839,38.9396],[-77.3607,38.9082],[-77.3337,38.9111],[-77.3224,38.9221],[-77.3139,38.921],[-77.3079,38.9304],[-77.3053,38.9201],[-77.2788,38.9061],[-77.2736,38.9163],[-77.2715,38.9121],[-77.2652,38.9168],[-77.2574,38.9148],[-77.2527,38.9328],[-77.2171,38.9338],[-77.1977,38.9257],[-77.1832,38.9001],[-77.1888,38.8963],[-77.1723,38.8932],[-77.1198,38.9344],[-77.1488,38.965],[-77.1978,38.9667],[-77.2237,38.9721],[-77.23,38.9797],[-77.2352,38.9761],[-77.245,38.9827],[-77.2558,39.0017],[-77.2454,39.0175],[-77.2478,39.0261],[-77.3283,39.0577],[-77.4322,38.9494]]]},"properties":{"geoid":"51038","state":"51","district":"38","name":"State Senate District 38","chamber":"Senate"}},{"type":"Feature","geometry":{"type":"Polygon","coordinates":[[[-77.1563,38.8724],[-77.142,38.8572],[-77.1475,38.8521],[-77.1406,38.8455],[-77.1454,38.8412],[-77.1363,38.8369],[-77.1349,38.8308],[-77.1422,38.8238],[-77.1372,38.8215],[-77.1444,38.8104],[-77.1376,38.7982],[-77.1036,38.8035],[-77.0763,38.8007],[-77.0403,38.7852],[-77.0378,38.8301],[-77.0432,38.8314],[-77.048,38.8413],[-77.0346,38.84],[-77.0321,38.8503],[-77.038,38.8632],[-77.0428,38.8634],[-77.0377,38.8651],[-77.0434,38.8742],[-77.0505,38.8666],[-77.0681,38.865],[-77.0647,38.8447],[-77.0857,38.844],[-77.0878,38.8274],[-77.1497,38.8757],[-77.1563,38.8724]]]},"properties":{"geoid":"51039","state":"51","district":"39","name":"State Senate District 39","chamber":"Senate"}},{"type":"Feature","geometry":{"type":"Polygon","coordinates":[[[-77.1723,38.8932],[-77.0878,38.8274],[-77.0857,38.844],[-77.0647,38.8447],[-77.0681,38.865],[-77.0505,38.8666],[-77.0434,38.8742],[-77.0506,38.872],[-77.0687,38.9003],[-77.0866,38.903],[-77.102,38.9119],[-77.1198,38.9344],[-77.1723,38.8932]]]},"properties":{"geoid":"51040","state":"51","district":"40","name":"State Senate District 40","chamber":"Senate"}}]}