{"type":"FeatureCollection","features":[{"type":"Feature","geometry":{"type":"Polygon","coordinates":[[[-73.1905,44.0189],[-73.1898,43.988],[-73.1735,43.9676],[-73.1699,43.9518],[-73.0581,43.9629],[-73.0647,44.0576],[-73.1639,44.0478],[-73.1617,44.037],[-73.1675,44.0294],[-73.1653,44.021],[-73.1695,44.0122],[-73.182,44.0195],[-73.1905,44.0189]]]},"properties":{"geoid":"50A-1","state":"50","district":"Addison-1","name":"Addison-1 State House District","chamber":"House"}},{"type":"Feature","geometry":{"type":"Polygon","coordinates":[[[-73.2593,43.9474],[-73.2417,43.9048],[-73.1793,43.9084],[-73.1887,43.8938],[-73.1741,43.8831],[-73.1767,43.8681],[-73.1707,43.863],[-73.1614,43.8652],[-73.1562,43.8423],[-73.0299,43.8467],[-73.0331,43.8442],[-73.0268,43.8421],[-73.0171,43.8049],[-72.9597,43.8261],[-72.9729,43.8668],[-72.9802,43.864],[-72.9801,43.8829],[-73.0016,43.8886],[-72.9462,43.9742],[-72.9122,43.9656],[-72.9077,43.9718],[-72.9059,44.0365],[-73.0326,44.0366],[-73.0322,44.045],[-73.0633,44.0422],[-73.0581,43.9629],[-73.1699,43.9518],[-73.1735,43.9676],[-73.1898,43.988],[-73.1905,44.0189],[-73.2567,44.012],[-73.2593,43.9474]]]},"properties":{"geoid":"50A-2","state":"50","district":"Addison-2","name":"Addison-2 State House District","chamber":"House"}},{"type":"Feature","geometry":{"type":"Polygon","coordinates":[[[-73.4377,44.0461],[-73.4076,44.0211],[-73.2633,44.0344],[-73.2706,44.0419],[-73.2723,44.0535],[-73.2762,44.0531],[-73.2797,44.0706],[-73.2505,44.0797],[-73.2496,44.0882],[-73.2391,44.0781],[-73.2161,44.0693],[-73.1928,44.0718],[-73.1778,44.0618],[-73.1683,44.0633],[-73.1764,44.0823],[-73.1753,44.1128],[-73.1828,44.1229],[-73.1845,44.1356],[-73.1737,44.1536],[-73.1968,44.2666],[-73.2704,44.2601],[-73.3133,44.2641],[-73.3237,44.2442],[-73.3434,44.2382],[-73.3623,44.2085],[-73.3906,44.1911],[-73.3898,44.1818],[-73.3972,44.1738],[-73.403,44.145],[-73.4161,44.1324],[-73.4115,44.1119],[-73.4297,44.0786],[-73.4377,44.0461]]]},"properties":{"geoid":"50A-3","state":"50","district":"Addison-3","name":"Addison-3 State House District","chamber":"House"}},{"type":"Feature","geometry":{"type":"Polygon","coordinates":[[[-73.1968,44.2666],[-73.1771,44.1739],[-73.1496,44.1767],[-73.1446,44.1492],[-73.112,44.1441],[-73.0955,44.0544],[-73.0647,44.0576],[-73.0633,44.0422],[-73.0322,44.045],[-73.0326,44.0366],[-72.9059,44.0365],[-72.9052,44.0544],[-72.9102,44.0725],[-72.9168,44.0719],[-72.9341,44.1628],[-72.9522,44.1614],[-72.9759,44.295],[-73.0204,44.3037],[-73.0165,44.2854],[-73.07,44.2799],[-73.0706,44.2839],[-73.1968,44.2666]]]},"properties":{"geoid":"50A-4","state":"50","district":"Addison-4","name":"Addison-4 State House District","chamber":"House"}},{"type":"Feature","geometry":{"type":"Polygon","coordinates":[[[-73.4125,43.9822],[-73.4057,43.9559],[-73.4081,43.9304],[-73.2593,43.9472],[-73.2567,44.012],[-73.182,44.0195],[-73.1716,44.0114],[-73.1617,44.037],[-73.1639,44.0478],[-73.0955,44.0544],[-73.112,44.1441],[-73.1446,44.1492],[-73.1496,44.1767],[-73.1771,44.1739],[-73.1737,44.1536],[-73.1845,44.1356],[-73.1828,44.1229],[-73.1753,44.1128],[-73.1764,44.0823],[-73.1683,44.0633],[-73.1778,44.0618],[-73.1928,44.0718],[-73.2161,44.0693],[-73.2391,44.0781],[-73.2496,44.0882],[-73.2505,44.0797],[-73.2797,44.0706],[-73.2762,44.0531],[-73.2723,44.0535],[-73.2706,44.0419],[-73.2633,44.0344],[-73.4076,44.0211],[-73.4125,43.9822]]]},"properties":{"geoid":"50A-5","state":"50","district":"Addison-5","name":"Addison-5 State House District","chamber":"House"}},{"type":"Feature","geometry":{"type":"Polygon","coordinates":[[[-73.4081,43.9304],[-73.3962,43.9033],[-73.3742,43.8762],[-73.3823,43.8561],[-73.3726,43.8454],[-73.3882,43.8327],[-73.3928,43.8228],[-73.3796,43.8092],[-73.3768,43.7992],[-73.3582,43.7865],[-73.351,43.7724],[-73.3628,43.7531],[-73.2308,43.7645],[-73.2372,43.6802],[-73.1082,43.676],[-73.1614,43.8652],[-73.1707,43.863],[-73.1767,43.8681],[-73.1741,43.8831],[-73.1887,43.8938],[-73.1793,43.9084],[-73.2417,43.9048],[-73.2593,43.9472],[-73.4081,43.9304]]]},"properties":{"geoid":"50A-R","state":"50","district":"Addison-Rutland","name":"Addison-Rutland State House District","chamber":"House"}},{"type":"Feature","geometry":{"type":"Polygon","coordinates":[[[-73.2909,42.8019],[-73.2764,42.746],[-72.9301,42.7393],[-72.9238,42.9274],[-73.146,42.931],[-73.1523,42.8366],[-73.1371,42.8356],[-73.1396,42.7936],[-73.1882,42.8018],[-73.1947,42.796],[-73.2227,42.7948],[-73.1989,42.8376],[-73.2783,42.8374],[-73.2787,42.8334],[-73.2854,42.8341],[-73.2837,42.8139],[-73.2909,42.8019]]]},"properties":{"geoid":"50B-1","state":"50","district":"Bennington-1","name":"Bennington-1 State House District","chamber":"House"}},{"type":"Feature","geometry":{"type":"Polygon","coordinates":[[[-73.2783,42.8376],[-73.1989,42.8376],[-73.2095,42.8672],[-73.2022,42.8806],[-73.1931,42.8816],[-73.1926,42.8893],[-73.1802,42.8829],[-73.1498,42.8832],[-73.146,42.931],[-73.2747,42.9344],[-73.2783,42.8376]]]},"properties":{"geoid":"50B-2","state":"50","district":"Bennington-2","name":"Bennington-2 State House District","chamber":"House"}},{"type":"Feature","geometry":{"type":"Polygon","coordinates":[[[-73.2747,42.9344],[-73.0081,42.9306],[-72.9973,43.1154],[-73.089,43.1191],[-73.1034,43.1135],[-73.1111,43.0981],[-73.1141,43.0843],[-73.1108,43.083],[-73.1212,43.072],[-73.1257,43.0583],[-73.1386,43.0593],[-73.1406,43.0258],[-73.2701,43.03],[-73.2747,42.9344]]]},"properties":{"geoid":"50B-3","state":"50","district":"Bennington-3","name":"Bennington-3 State House District","chamber":"House"}},{"type":"Feature","geometry":{"type":"Polygon","coordinates":[[[-73.27,43.0307],[-73.1406,43.0258],[-73.1386,43.0593],[-73.1257,43.0583],[-73.1212,43.072],[-73.1108,43.083],[-73.1141,43.0843],[-73.1111,43.0981],[-73.1034,43.1135],[-73.089,43.1191],[-73.0075,43.1166],[-73.0017,43.2109],[-73.2592,43.2168],[-73.27,43.0307]]]},"properties":{"geoid":"50B-4","state":"50","district":"Bennington-4","name":"Bennington-4 State House District","chamber":"House"}},{"type":"Feature","geometry":{"type":"Polygon","coordinates":[[[-73.2226,42.795],[-73.1947,42.796],[-73.1882,42.8018],[-73.1396,42.7936],[-73.1371,42.8356],[-73.1523,42.8366],[-73.1498,42.8832],[-73.1802,42.8829],[-73.1926,42.8893],[-73.1931,42.8816],[-73.2022,42.8806],[-73.2095,42.8672],[-73.1992,42.8357],[-73.2226,42.795]]]},"properties":{"geoid":"50B-5","state":"50","district":"Bennington-5","name":"Bennington-5 State House District","chamber":"House"}},{"type":"Feature","geometry":{"type":"Polygon","coordinates":[[[-73.1301,43.2137],[-72.8516,43.2048],[-72.8481,43.2628],[-72.8196,43.256],[-72.8199,43.2994],[-72.8686,43.3005],[-72.865,43.3487],[-72.8547,43.3493],[-72.8536,43.3936],[-73.1209,43.403],[-73.1233,43.2598],[-73.1301,43.2137]]]},"properties":{"geoid":"50B-R","state":"50","district":"Bennington-Rutland","name":"Bennington-Rutland State House District","chamber":"House"}},{"type":"Feature","geometry":{"type":"Polygon","coordinates":[[[-73.0811,44.3709],[-73.0354,44.375],[-73.0328,44.3625],[-72.9521,44.3454],[-72.9362,44.3753],[-72.9187,44.4291],[-73.0207,44.4336],[-73.0423,44.422],[-73.0518,44.4248],[-73.0811,44.3709]]]},"properties":{"geoid":"50C-1","state":"50","district":"Chittenden-1","name":"Chittenden-1 State House District","chamber":"House"}},{"type":"Feature","geometry":{"type":"Polygon","coordinates":[[[-73.1399,44.4497],[-73.1355,44.4422],[-73.1152,44.4392],[-73.1213,44.4278],[-73.0883,44.4177],[-73.0977,44.3829],[-73.0893,44.3695],[-73.0814,44.3703],[-73.0518,44.4248],[-73.0423,44.422],[-73.0206,44.4336],[-73.0333,44.4394],[-73.0204,44.4421],[-73.019,44.451],[-73.0246,44.4547],[-73.0214,44.4601],[-73.0274,44.4676],[-73.048,44.471],[-73.0504,44.476],[-73.0569,44.473],[-73.076,44.4824],[-73.0855,44.4783],[-73.0919,44.4809],[-73.1009,44.4719],[-73.1125,44.4832],[-73.1367,44.4748],[-73.1387,44.4651],[-73.1348,44.4572],[-73.1399,44.4497]]]},"properties":{"geoid":"50C-2","state":"50","district":"Chittenden-2","name":"Chittenden-2 State House District","chamber":"House"}},{"type":"Feature","geometry":{"type":"Polygon","coordinates":[[[-73.0333,44.4394],[-73.0206,44.4336],[-72.9187,44.4291],[-72.8882,44.4703],[-72.8383,44.4593],[-72.8036,44.5063],[-72.8308,44.5164],[-72.81,44.5467],[-72.827,44.5507],[-72.91,44.6312],[-73.032,44.4682],[-73.0214,44.4601],[-73.0246,44.4547],[-73.019,44.451],[-73.0204,44.4421],[-73.0333,44.4394]]]},"properties":{"geoid":"50C-3","state":"50","district":"Chittenden-3","name":"Chittenden-3 State House District","chamber":"House"}},{"type":"Feature","geometry":{"type":"Polygon","coordinates":[[[-73.1653,44.3622],[-73.1524,44.3072],[-73.1331,44.3127],[-73.1331,44.2751],[-73.0706,44.2839],[-73.07,44.2799],[-73.0165,44.2854],[-73.0354,44.375],[-73.1653,44.3622]]]},"properties":{"geoid":"50C-4","state":"50","district":"Chittenden-4","name":"Chittenden-4 State House District","chamber":"House"}},{"type":"Feature","geometry":{"type":"Polygon","coordinates":[[[-73.327,44.3434],[-73.323,44.305],[-73.3109,44.2743],[-73.3133,44.2641],[-73.2704,44.2601],[-73.1331,44.2751],[-73.1331,44.3127],[-73.1524,44.3072],[-73.1653,44.3622],[-73.327,44.3434]]]},"properties":{"geoid":"50C-5","state":"50","district":"Chittenden-5","name":"Chittenden-5 State House District","chamber":"House"}},{"type":"Feature","geometry":{"type":"Polygon","coordinates":[[[-73.335,44.3644],[-73.327,44.3434],[-73.1962,44.3586],[-73.2015,44.3672],[-73.2009,44.3898],[-73.2092,44.3862],[-73.2181,44.3947],[-73.2176,44.4073],[-73.223,44.4082],[-73.2172,44.4256],[-73.221,44.4418],[-73.2499,44.4478],[-73.2688,44.4475],[-73.2761,44.4387],[-73.2942,44.436],[-73.315,44.3885],[-73.3336,44.3723],[-73.335,44.3644]]]},"properties":{"geoid":"50C-6","state":"50","district":"Chittenden-6","name":"Chittenden-6 State House District","chamber":"House"}},{"type":"Feature","geometry":{"type":"Polygon","coordinates":[[[-73.223,44.4086],[-73.2176,44.4073],[-73.2181,44.3947],[-73.2092,44.3862],[-73.2009,44.3898],[-73.2015,44.3672],[-73.1962,44.3586],[-73.0893,44.3695],[-73.1165,44.3951],[-73.2183,44.4225],[-73.223,44.4086]]]},"properties":{"geoid":"50C-7","state":"50","district":"Chittenden-7","name":"Chittenden-7 State House District","chamber":"House"}},{"type":"Feature","geometry":{"type":"Polygon","coordinates":[[[-73.2121,44.4209],[-73.1165,44.3951],[-73.0929,44.3729],[-73.0977,44.3832],[-73.087,44.4147],[-73.1213,44.4278],[-73.1152,44.4392],[-73.1578,44.4479],[-73.157,44.436],[-73.1641,44.4377],[-73.1671,44.4446],[-73.1763,44.4385],[-73.1749,44.4294],[-73.193,44.4313],[-73.1961,44.4207],[-73.2121,44.4209]]]},"properties":{"geoid":"50C-8","state":"50","district":"Chittenden-8","name":"Chittenden-8 State House District","chamber":"House"}},{"type":"Feature","geometry":{"type":"Polygon","coordinates":[[[-73.1787,44.4529],[-73.1763,44.4385],[-73.1671,44.4446],[-73.1641,44.4377],[-73.157,44.436],[-73.1578,44.4479],[-73.1353,44.4425],[-73.1399,44.4497],[-73.1348,44.4573],[-73.1551,44.4633],[-73.1714,44.467],[-73.1649,44.4544],[-73.1787,44.4529]]]},"properties":{"geoid":"50C-9","state":"50","district":"Chittenden-9","name":"Chittenden-9 State House District","chamber":"House"}},{"type":"Feature","geometry":{"type":"Polygon","coordinates":[[[-73.1984,44.6078],[-73.1284,44.5819],[-73.131,44.5925],[-73.1202,44.6183],[-73.1112,44.6148],[-73.112,44.6262],[-73.0909,44.6559],[-73.0819,44.6802],[-73.0954,44.6842],[-73.1078,44.6949],[-73.1064,44.699],[-73.1206,44.694],[-73.1374,44.6636],[-73.1407,44.6371],[-73.1452,44.6448],[-73.1578,44.6424],[-73.173,44.6304],[-73.178,44.6152],[-73.1957,44.613],[-73.1984,44.6078]]]},"properties":{"geoid":"50C-F","state":"50","district":"Chittenden-Franklin","name":"Chittenden-Franklin State House District","chamber":"House"}},{"type":"Feature","geometry":{"type":"Polygon","coordinates":[[[-73.19,44.4725],[-73.1811,44.4692],[-73.1787,44.4529],[-73.1649,44.4544],[-73.1714,44.467],[-73.136,44.4583],[-73.1363,44.4775],[-73.1446,44.4824],[-73.1371,44.5005],[-73.1479,44.4933],[-73.1439,44.49],[-73.1679,44.4865],[-73.169,44.4903],[-73.19,44.4725]]]},"properties":{"geoid":"50C10","state":"50","district":"Chittenden-10","name":"Chittenden-10 State House District","chamber":"House"}},{"type":"Feature","geometry":{"type":"Polygon","coordinates":[[[-73.2094,44.446],[-73.1771,44.4432],[-73.1811,44.4692],[-73.1938,44.4742],[-73.19,44.4541],[-73.2086,44.4552],[-73.2094,44.446]]]},"properties":{"geoid":"50C11","state":"50","district":"Chittenden-11","name":"Chittenden-11 State House District","chamber":"House"}},{"type":"Feature","geometry":{"type":"Polygon","coordinates":[[[-73.3212,44.5149],[-73.3067,44.5003],[-73.2942,44.436],[-73.2761,44.4387],[-73.2688,44.4475],[-73.2499,44.4478],[-73.2212,44.442],[-73.2183,44.4225],[-73.2121,44.4208],[-73.1961,44.4207],[-73.193,44.4313],[-73.1749,44.4294],[-73.1771,44.4432],[-73.2315,44.4469],[-73.2739,44.4972],[-73.277,44.5062],[-73.269,44.5162],[-73.276,44.5299],[-73.3212,44.5149]]]},"properties":{"geoid":"50C12","state":"50","district":"Chittenden-12","name":"Chittenden-12 State House District","chamber":"House"}},{"type":"Feature","geometry":{"type":"Polygon","coordinates":[[[-73.2553,44.4752],[-73.2315,44.4469],[-73.2094,44.4459],[-73.2086,44.4552],[-73.19,44.4541],[-73.1924,44.4668],[-73.2012,44.4659],[-73.2004,44.4698],[-73.2107,44.4738],[-73.2553,44.4752]]]},"properties":{"geoid":"50C13","state":"50","district":"Chittenden-13","name":"Chittenden-13 State House District","chamber":"House"}},{"type":"Feature","geometry":{"type":"Polygon","coordinates":[[[-73.2111,44.4791],[-73.2086,44.4706],[-73.1924,44.4668],[-73.1938,44.4742],[-73.2057,44.4807],[-73.2111,44.4791]]]},"properties":{"geoid":"50C14","state":"50","district":"Chittenden-14","name":"Chittenden-14 State House District","chamber":"House"}},{"type":"Feature","geometry":{"type":"Polygon","coordinates":[[[-73.2115,44.4848],[-73.2112,44.4805],[-73.19,44.4725],[-73.1762,44.4846],[-73.2046,44.4912],[-73.2059,44.4849],[-73.2115,44.4848]]]},"properties":{"geoid":"50C15","state":"50","district":"Chittenden-15","name":"Chittenden-15 State House District","chamber":"House"}},{"type":"Feature","geometry":{"type":"Polygon","coordinates":[[[-73.2286,44.4767],[-73.2272,44.4733],[-73.2107,44.4738],[-73.2115,44.4848],[-73.2059,44.4849],[-73.2046,44.4912],[-73.2178,44.4912],[-73.2149,44.4883],[-73.2194,44.4875],[-73.2188,44.4769],[-73.2286,44.4767]]]},"properties":{"geoid":"50C16","state":"50","district":"Chittenden-16","name":"Chittenden-16 State House District","chamber":"House"}},{"type":"Feature","geometry":{"type":"Polygon","coordinates":[[[-73.2739,44.4972],[-73.2553,44.4752],[-73.2188,44.4769],[-73.2194,44.4875],[-73.2149,44.4883],[-73.2178,44.4912],[-73.2017,44.4911],[-73.2012,44.4948],[-73.2165,44.5106],[-73.2276,44.5079],[-73.2278,44.5124],[-73.2192,44.516],[-73.2324,44.5131],[-73.2393,44.5172],[-73.2369,44.5219],[-73.2421,44.529],[-73.2503,44.5226],[-73.2555,44.5248],[-73.2413,44.5176],[-73.2452,44.5099],[-73.242,44.5065],[-73.271,44.5039],[-73.2739,44.4972]]]},"properties":{"geoid":"50C17","state":"50","district":"Chittenden-17","name":"Chittenden-17 State House District","chamber":"House"}},{"type":"Feature","geometry":{"type":"Polygon","coordinates":[[[-73.277,44.5061],[-73.2739,44.4972],[-73.271,44.5039],[-73.2565,44.5026],[-73.247,44.5085],[-73.2431,44.5056],[-73.2413,44.5176],[-73.2651,44.5248],[-73.2628,44.5377],[-73.2716,44.5395],[-73.2702,44.5319],[-73.2759,44.5298],[-73.269,44.5157],[-73.277,44.5061]]]},"properties":{"geoid":"50C18","state":"50","district":"Chittenden-18","name":"Chittenden-18 State House District","chamber":"House"}},{"type":"Feature","geometry":{"type":"Polygon","coordinates":[[[-73.3629,44.5643],[-73.3388,44.548],[-73.3297,44.5296],[-73.322,44.5253],[-73.3212,44.5149],[-73.2707,44.5313],[-73.2741,44.5377],[-73.2666,44.5398],[-73.2626,44.5371],[-73.2651,44.5248],[-73.2503,44.5226],[-73.2414,44.5288],[-73.2369,44.5219],[-73.2393,44.5172],[-73.2324,44.5131],[-73.219,44.5158],[-73.2276,44.5126],[-73.2279,44.5083],[-73.215,44.5097],[-73.2033,44.501],[-73.2021,44.4927],[-73.1921,44.506],[-73.1736,44.4992],[-73.1899,44.5104],[-73.1931,44.5235],[-73.1729,44.5221],[-73.172,44.5289],[-73.1953,44.5304],[-73.1994,44.5374],[-73.1814,44.5596],[-73.178,44.5718],[-73.2208,44.5724],[-73.2706,44.5926],[-73.3629,44.5643]]]},"properties":{"geoid":"50C19","state":"50","district":"Chittenden-19","name":"Chittenden-19 State House District","chamber":"House"}},{"type":"Feature","geometry":{"type":"Polygon","coordinates":[[[-73.2699,44.5929],[-73.2208,44.5724],[-73.178,44.5718],[-73.1814,44.5596],[-73.1994,44.5372],[-73.1953,44.5304],[-73.172,44.5289],[-73.1729,44.5221],[-73.1931,44.5235],[-73.189,44.5095],[-73.1736,44.4992],[-73.166,44.4993],[-73.1712,44.4932],[-73.1684,44.4865],[-73.1584,44.4898],[-73.0979,44.5705],[-73.1985,44.6077],[-73.2027,44.6034],[-73.2171,44.6052],[-73.2326,44.6135],[-73.2545,44.6107],[-73.2586,44.6012],[-73.2699,44.5929]]]},"properties":{"geoid":"50C20","state":"50","district":"Chittenden-20","name":"Chittenden-20 State House District","chamber":"House"}},{"type":"Feature","geometry":{"type":"Polygon","coordinates":[[[-73.2023,44.4924],[-73.1776,44.4842],[-73.166,44.4993],[-73.1921,44.506],[-73.2023,44.4924]]]},"properties":{"geoid":"50C21","state":"50","district":"Chittenden-21","name":"Chittenden-21 State House District","chamber":"House"}},{"type":"Feature","geometry":{"type":"Polygon","coordinates":[[[-73.1445,44.4826],[-73.1342,44.4744],[-73.1122,44.4832],[-73.0994,44.472],[-73.0893,44.4807],[-73.0815,44.4975],[-73.0921,44.5004],[-73.0943,44.4951],[-73.0982,44.4994],[-73.1064,44.4944],[-73.1155,44.5038],[-73.1268,44.5033],[-73.1297,44.4991],[-73.1357,44.5029],[-73.1445,44.4826]]]},"properties":{"geoid":"50C22","state":"50","district":"Chittenden-22","name":"Chittenden-22 State House District","chamber":"House"}},{"type":"Feature","geometry":{"type":"Polygon","coordinates":[[[-73.1584,44.4898],[-73.1439,44.49],[-73.1479,44.4933],[-73.1412,44.5003],[-73.1357,44.5029],[-73.1297,44.4991],[-73.12,44.5043],[-73.1064,44.4944],[-73.0982,44.4994],[-73.0943,44.4951],[-73.0921,44.5004],[-73.0815,44.4975],[-73.0877,44.4788],[-73.076,44.4824],[-73.0493,44.479],[-73.0498,44.494],[-73.0385,44.5046],[-73.0594,44.5119],[-73.0884,44.5071],[-73.1211,44.5166],[-73.1291,44.5284],[-73.1584,44.4898]]]},"properties":{"geoid":"50C23","state":"50","district":"Chittenden-23","name":"Chittenden-23 State House District","chamber":"House"}},{"type":"Feature","geometry":{"type":"Polygon","coordinates":[[[-73.1291,44.5284],[-73.1211,44.5166],[-73.0884,44.5071],[-73.0594,44.5119],[-73.0385,44.5046],[-73.0498,44.494],[-73.0493,44.479],[-73.0686,44.4789],[-73.032,44.468],[-72.9713,44.5504],[-73.0979,44.5705],[-73.1291,44.5284]]]},"properties":{"geoid":"50C24","state":"50","district":"Chittenden-24","name":"Chittenden-24 State House District","chamber":"House"}},{"type":"Feature","geometry":{"type":"Polygon","coordinates":[[[-73.131,44.5923],[-73.1284,44.5819],[-73.0979,44.5705],[-72.9713,44.5504],[-72.91,44.6312],[-73.0381,44.6512],[-73.0859,44.6696],[-73.112,44.6262],[-73.1112,44.6148],[-73.1202,44.6183],[-73.131,44.5923]]]},"properties":{"geoid":"50C25","state":"50","district":"Chittenden-25","name":"Chittenden-25 State House District","chamber":"House"}},{"type":"Feature","geometry":{"type":"MultiPolygon","coordinates":[[[[-72.1881,44.2766],[-72.1663,44.1908],[-72.0436,44.1571],[-72.0423,44.162],[-72.0518,44.1665],[-72.0662,44.1901],[-72.0477,44.239],[-72.0615,44.2611],[-72.0583,44.2701],[-72.0685,44.2708],[-72.0586,44.2865],[-72.0329,44.3022],[-72.0328,44.3205],[-72.0091,44.3222],[-71.9881,44.3301],[-71.9814,44.3374],[-71.934,44.336],[-71.9124,44.3481],[-71.8716,44.3367],[-71.8379,44.348],[-71.9332,44.4411],[-72.0353,44.3885],[-72.0451,44.399],[-72.1881,44.2766]]],[[[-72.0419,44.1567],[-72.0389,44.1563],[-72.0396,44.1572],[-72.0419,44.1567]]]]},"properties":{"geoid":"50CA1","state":"50","district":"Caledonia-1","name":"Caledonia-1 State House District","chamber":"House"}},{"type":"Feature","geometry":{"type":"Polygon","coordinates":[[[-72.4341,44.506],[-72.2106,44.4197],[-72.1378,44.5186],[-72.2372,44.5767],[-72.2629,44.5425],[-72.3739,44.5842],[-72.4341,44.506]]]},"properties":{"geoid":"50CA2","state":"50","district":"Caledonia-2","name":"Caledonia-2 State House District","chamber":"House"}},{"type":"Feature","geometry":{"type":"Polygon","coordinates":[[[-72.237,44.5771],[-72.1378,44.5186],[-71.9582,44.4913],[-71.9316,44.5802],[-71.9998,44.5902],[-71.9733,44.6793],[-71.9102,44.6468],[-71.8371,44.7164],[-71.9393,44.7694],[-72.0115,44.6988],[-72.1144,44.7498],[-72.0893,44.6851],[-72.146,44.7045],[-72.237,44.5771]]]},"properties":{"geoid":"50CA3","state":"50","district":"Caledonia-3","name":"Caledonia-3 State House District","chamber":"House"}},{"type":"Feature","geometry":{"type":"Polygon","coordinates":[[[-72.0835,44.5104],[-72.0477,44.4048],[-72.0353,44.3885],[-71.9332,44.4411],[-71.8379,44.348],[-71.813,44.3557],[-71.8144,44.3819],[-71.8006,44.384],[-71.8035,44.3919],[-71.7945,44.399],[-71.7784,44.3998],[-71.762,44.407],[-71.7437,44.401],[-71.7387,44.4075],[-71.7959,44.5051],[-71.8333,44.4878],[-71.8539,44.4989],[-71.8567,44.4963],[-71.9089,44.5479],[-71.8983,44.5579],[-71.9206,44.5697],[-71.9337,44.572],[-71.9582,44.4913],[-72.0835,44.5104]]]},"properties":{"geoid":"50CAE","state":"50","district":"Caledonia-Essex","name":"Caledonia-Essex State House District","chamber":"House"}},{"type":"Feature","geometry":{"type":"Polygon","coordinates":[[[-72.3849,44.3855],[-72.2701,44.3404],[-72.3168,44.2988],[-72.1881,44.2766],[-72.0451,44.399],[-72.0835,44.5104],[-72.1378,44.5186],[-72.2106,44.4197],[-72.3214,44.4632],[-72.3799,44.3843],[-72.3849,44.3855]]]},"properties":{"geoid":"50CAW","state":"50","district":"Caledonia-Washington","name":"Caledonia-Washington State House District","chamber":"House"}},{"type":"Feature","geometry":{"type":"Polygon","coordinates":[[[-71.999,44.5929],[-71.9316,44.5802],[-71.9337,44.572],[-71.8983,44.5579],[-71.9089,44.5479],[-71.8567,44.4963],[-71.8539,44.4989],[-71.8333,44.4878],[-71.7959,44.5051],[-71.7387,44.4075],[-71.713,44.4098],[-71.6775,44.4266],[-71.6793,44.4343],[-71.6609,44.4399],[-71.6533,44.4598],[-71.6393,44.4639],[-71.6473,44.4704],[-71.6457,44.4745],[-71.6324,44.4841],[-71.6246,44.4824],[-71.6345,44.4785],[-71.6297,44.4739],[-71.6178,44.4858],[-71.5993,44.4863],[-71.5939,44.501],[-71.5861,44.4991],[-71.5878,44.5067],[-71.577,44.5021],[-71.5941,44.5216],[-71.5807,44.5246],[-71.5719,44.5379],[-71.5986,44.5548],[-71.5949,44.5629],[-71.5597,44.564],[-71.5577,44.5704],[-71.5477,44.5714],[-71.5548,44.5794],[-71.5524,44.5844],[-71.5458,44.5779],[-71.5349,44.5877],[-71.5401,44.5885],[-71.5385,44.5942],[-71.5469,44.5908],[-71.546,44.5971],[-71.5552,44.5933],[-71.5509,44.601],[-71.5621,44.6012],[-71.5536,44.6061],[-71.5551,44.6252],[-71.5463,44.623],[-71.557,44.6295],[-71.5468,44.6298],[-71.5637,44.6372],[-71.5578,44.642],[-71.5628,44.6524],[-71.5771,44.6507],[-71.5801,44.6521],[-71.5752,44.6558],[-71.5874,44.6597],[-71.5879,44.6699],[-71.5815,44.6732],[-71.5966,44.6781],[-71.594,44.6834],[-71.5979,44.6922],[-71.5939,44.6964],[-71.6008,44.699],[-71.5994,44.7053],[-71.6186,44.7222],[-71.6171,44.7287],[-71.6261,44.7285],[-71.6251,44.7434],[-71.6322,44.751],[-71.6167,44.7563],[-71.5925,44.7827],[-71.5792,44.7849],[-71.5728,44.7909],[-71.5684,44.807],[-71.5769,44.8152],[-71.5732,44.8208],[-71.5612,44.8242],[-71.6635,44.8792],[-71.7305,44.8004],[-71.7659,44.8191],[-71.8103,44.7796],[-71.8072,44.7741],[-71.8575,44.7269],[-71.8371,44.7164],[-71.9102,44.6468],[-71.9733,44.6793],[-71.999,44.5929]]]},"properties":{"geoid":"50E-C","state":"50","district":"Essex-Caledonia","name":"Essex-Caledonia State House District","chamber":"House"}},{"type":"Feature","geometry":{"type":"Polygon","coordinates":[[[-72.119,44.8648],[-71.8575,44.7269],[-71.8072,44.7741],[-71.8103,44.7796],[-71.7659,44.8191],[-71.7305,44.8004],[-71.6635,44.8792],[-71.5612,44.8242],[-71.5508,44.8377],[-71.5558,44.8486],[-71.5475,44.8554],[-71.5495,44.8621],[-71.5292,44.8731],[-71.5108,44.8902],[-71.5136,44.8946],[-71.5005,44.9047],[-71.4951,44.9041],[-71.493,44.9106],[-71.4999,44.9112],[-71.5157,44.9272],[-71.5162,44.9352],[-71.5228,44.9399],[-71.5171,44.9391],[-71.5148,44.9437],[-71.5192,44.9496],[-71.5163,44.9645],[-71.5236,44.9641],[-71.518,44.9677],[-71.5229,44.9662],[-71.5413,44.9853],[-71.5331,44.9909],[-71.536,44.9949],[-71.5245,45.0021],[-71.5046,45.0083],[-71.4882,45.0008],[-71.465,45.0136],[-72.0513,45.0063],[-72.0658,44.931],[-72.0975,44.9303],[-72.0674,44.9144],[-72.119,44.8648]]]},"properties":{"geoid":"50E-O","state":"50","district":"Essex-Orleans","name":"Essex-Orleans State House District","chamber":"House"}},{"type":"Feature","geometry":{"type":"Polygon","coordinates":[[[-73.2289,44.7229],[-73.1276,44.6853],[-73.121,44.6937],[-73.1064,44.699],[-73.1078,44.6949],[-73.0954,44.6842],[-73.0819,44.6802],[-73.0859,44.6696],[-73.0381,44.6512],[-72.9238,44.6332],[-72.9273,44.6457],[-72.9226,44.6501],[-73.0047,44.7606],[-73.0848,44.773],[-73.1491,44.7963],[-73.1687,44.7757],[-73.2042,44.7509],[-73.2289,44.7229]]]},"properties":{"geoid":"50F-1","state":"50","district":"Franklin-1","name":"Franklin-1 State House District","chamber":"House"}},{"type":"Feature","geometry":{"type":"Polygon","coordinates":[[[-73.259,44.7714],[-73.2553,44.7581],[-73.2289,44.7229],[-73.2042,44.7509],[-73.1687,44.7757],[-73.1491,44.7963],[-73.1054,44.7804],[-73.0906,44.7996],[-73.1014,44.8083],[-73.0977,44.8194],[-73.0901,44.8242],[-73.0753,44.8239],[-73.0682,44.8191],[-73.0701,44.813],[-73.0639,44.8134],[-73.0747,44.7762],[-72.9754,44.8078],[-73.1939,44.8868],[-73.2071,44.8519],[-73.2026,44.8361],[-73.208,44.8246],[-73.237,44.8097],[-73.2573,44.7819],[-73.259,44.7714]]]},"properties":{"geoid":"50F-2","state":"50","district":"Franklin-2","name":"Franklin-2 State House District","chamber":"House"}},{"type":"Feature","geometry":{"type":"Polygon","coordinates":[[[-73.1011,44.8115],[-73.0966,44.8066],[-73.0935,44.8112],[-73.0835,44.8108],[-73.0858,44.8054],[-73.0822,44.8045],[-73.0805,44.8096],[-73.0722,44.8063],[-73.0682,44.8191],[-73.0753,44.8239],[-73.0901,44.8242],[-73.1011,44.8115]]]},"properties":{"geoid":"50F-3","state":"50","district":"Franklin-3","name":"Franklin-3 State House District","chamber":"House"}},{"type":"Feature","geometry":{"type":"Polygon","coordinates":[[[-73.2409,44.9489],[-73.2249,44.9185],[-73.1923,44.9083],[-73.1939,44.8868],[-72.9968,44.816],[-72.9891,44.825],[-73.0089,44.8522],[-73.0029,44.8825],[-72.8393,44.8564],[-72.8148,44.9191],[-72.8997,44.9347],[-73.0554,44.9107],[-73.1613,44.9507],[-73.1682,44.9717],[-73.1545,44.9814],[-73.1499,44.995],[-73.1704,45.0138],[-73.1923,45.0134],[-73.2247,44.9649],[-73.2409,44.9489]]]},"properties":{"geoid":"50F-4","state":"50","district":"Franklin-4","name":"Franklin-4 State House District","chamber":"House"}},{"type":"Feature","geometry":{"type":"Polygon","coordinates":[[[-73.1702,45.014],[-73.1499,44.995],[-73.1545,44.9814],[-73.1682,44.9717],[-73.1613,44.9507],[-73.0554,44.9107],[-72.8997,44.9347],[-72.8224,44.9205],[-72.8226,44.9252],[-72.6762,44.9284],[-72.6724,44.9215],[-72.5365,44.9261],[-72.5539,45.008],[-72.7026,45.0156],[-73.1702,45.014]]]},"properties":{"geoid":"50F-5","state":"50","district":"Franklin-5","name":"Franklin-5 State House District","chamber":"House"}},{"type":"Feature","geometry":{"type":"Polygon","coordinates":[[[-73.0848,44.773],[-73.0047,44.7606],[-72.9226,44.6501],[-72.9043,44.646],[-72.8919,44.6557],[-72.8508,44.7111],[-72.7932,44.6907],[-72.7794,44.7438],[-72.7744,44.7432],[-72.7686,44.765],[-72.7586,44.7636],[-72.755,44.777],[-72.7458,44.7759],[-72.7468,44.7901],[-72.7291,44.804],[-72.6784,44.8025],[-72.6784,44.8394],[-72.8395,44.8382],[-72.8345,44.8555],[-73.0029,44.8825],[-73.0089,44.8522],[-72.9891,44.825],[-72.9968,44.816],[-72.9754,44.8078],[-73.0848,44.773]]]},"properties":{"geoid":"50F-6","state":"50","district":"Franklin-6","name":"Franklin-6 State House District","chamber":"House"}},{"type":"Feature","geometry":{"type":"Polygon","coordinates":[[[-72.8368,44.8474],[-72.8395,44.8382],[-72.6784,44.8394],[-72.6784,44.8025],[-72.6136,44.8004],[-72.6167,44.7958],[-72.5979,44.7871],[-72.5944,44.7903],[-72.5791,44.7809],[-72.5333,44.8341],[-72.5414,44.926],[-72.6724,44.9215],[-72.6762,44.9284],[-72.8226,44.9252],[-72.8224,44.9205],[-72.8148,44.9191],[-72.8393,44.8564],[-72.8345,44.8555],[-72.8368,44.8474]]]},"properties":{"geoid":"50F-7","state":"50","district":"Franklin-7","name":"Franklin-7 State House District","chamber":"House"}},{"type":"Feature","geometry":{"type":"Polygon","coordinates":[[[-73.1052,44.7808],[-73.0848,44.773],[-73.0747,44.7762],[-73.0639,44.8134],[-73.0701,44.813],[-73.0722,44.8063],[-73.0805,44.8096],[-73.0822,44.8045],[-73.0858,44.8054],[-73.0835,44.8108],[-73.0935,44.8112],[-73.0961,44.8036],[-73.0906,44.7996],[-73.1052,44.7808]]]},"properties":{"geoid":"50F-8","state":"50","district":"Franklin-8","name":"Franklin-8 State House District","chamber":"House"}},{"type":"Feature","geometry":{"type":"Polygon","coordinates":[[[-73.39,44.6196],[-73.3768,44.5996],[-73.3818,44.5893],[-73.3629,44.5643],[-73.2793,44.5886],[-73.2619,44.5975],[-73.2545,44.6107],[-73.2326,44.6135],[-73.2171,44.6052],[-73.2016,44.6038],[-73.1957,44.613],[-73.178,44.6152],[-73.173,44.6304],[-73.1578,44.6424],[-73.1452,44.6448],[-73.1407,44.6371],[-73.1379,44.6618],[-73.1282,44.6855],[-73.2289,44.7228],[-73.2588,44.7681],[-73.2573,44.7819],[-73.2429,44.8033],[-73.2264,44.817],[-73.2099,44.8227],[-73.2028,44.8349],[-73.2071,44.8519],[-73.1964,44.8754],[-73.1917,44.907],[-73.2249,44.9185],[-73.2409,44.9489],[-73.2247,44.9649],[-73.1923,45.0134],[-73.3432,45.0107],[-73.3546,44.9874],[-73.3382,44.9648],[-73.339,44.9177],[-73.3562,44.9045],[-73.3691,44.8667],[-73.3798,44.857],[-73.3816,44.8494],[-73.3795,44.838],[-73.335,44.8041],[-73.3332,44.7888],[-73.3656,44.7418],[-73.366,44.6976],[-73.3613,44.6945],[-73.3701,44.6849],[-73.3697,44.6635],[-73.3845,44.6467],[-73.3786,44.6415],[-73.3868,44.6364],[-73.39,44.6196]]]},"properties":{"geoid":"50GIC","state":"50","district":"Grand Isle-Chittenden","name":"Grand Isle-Chittenden State House District","chamber":"House"}},{"type":"Feature","geometry":{"type":"Polygon","coordinates":[[[-72.8372,44.4607],[-72.7656,44.4428],[-72.6543,44.3983],[-72.5973,44.4794],[-72.6335,44.4908],[-72.6274,44.4853],[-72.6262,44.4717],[-72.6427,44.4685],[-72.6733,44.4713],[-72.6759,44.4741],[-72.6662,44.479],[-72.6588,44.5008],[-72.7076,44.5236],[-72.6924,44.545],[-72.7697,44.5634],[-72.7844,44.5411],[-72.81,44.5467],[-72.8308,44.5164],[-72.8036,44.5063],[-72.8372,44.4607]]]},"properties":{"geoid":"50L-1","state":"50","district":"Lamoille-1","name":"Lamoille-1 State House District","chamber":"House"}},{"type":"Feature","geometry":{"type":"Polygon","coordinates":[[[-72.7636,44.6373],[-72.7265,44.6243],[-72.7497,44.5918],[-72.6825,44.5765],[-72.6625,44.6025],[-72.6534,44.5994],[-72.6502,44.6039],[-72.6369,44.6004],[-72.6327,44.5935],[-72.6275,44.5979],[-72.6293,44.5908],[-72.6252,44.5865],[-72.6118,44.5894],[-72.5679,44.5734],[-72.5589,44.5844],[-72.5256,44.5726],[-72.5377,44.5521],[-72.4298,44.512],[-72.3684,44.5928],[-72.4828,44.6341],[-72.4769,44.6421],[-72.5932,44.6846],[-72.5969,44.6793],[-72.6614,44.7019],[-72.5979,44.7871],[-72.6167,44.7958],[-72.6136,44.8004],[-72.7291,44.804],[-72.7468,44.7901],[-72.7434,44.7324],[-72.7069,44.7185],[-72.7636,44.6373]]]},"properties":{"geoid":"50L-2","state":"50","district":"Lamoille-2","name":"Lamoille-2 State House District","chamber":"House"}},{"type":"Feature","geometry":{"type":"Polygon","coordinates":[[[-72.9273,44.6457],[-72.9238,44.6419],[-72.9264,44.6351],[-72.91,44.6312],[-72.827,44.5507],[-72.7844,44.5411],[-72.7265,44.6243],[-72.7636,44.6373],[-72.7069,44.7185],[-72.7434,44.7324],[-72.7458,44.7759],[-72.755,44.777],[-72.7586,44.7636],[-72.7686,44.765],[-72.7744,44.7432],[-72.7794,44.7438],[-72.7932,44.6907],[-72.8508,44.7111],[-72.8919,44.6557],[-72.903,44.6464],[-72.9163,44.6458],[-72.9226,44.6501],[-72.9273,44.6457]]]},"properties":{"geoid":"50L-3","state":"50","district":"Lamoille-3","name":"Lamoille-3 State House District","chamber":"House"}},{"type":"Feature","geometry":{"type":"Polygon","coordinates":[[[-72.7697,44.5634],[-72.6924,44.545],[-72.7076,44.5236],[-72.6588,44.5008],[-72.6662,44.479],[-72.6759,44.4741],[-72.6733,44.4713],[-72.6427,44.4685],[-72.6262,44.4717],[-72.6274,44.4853],[-72.6335,44.4908],[-72.5973,44.4794],[-72.6543,44.3983],[-72.5508,44.3454],[-72.4932,44.4258],[-72.3808,44.3834],[-72.3855,44.385],[-72.3799,44.3843],[-72.3214,44.4632],[-72.4347,44.5052],[-72.4298,44.512],[-72.5377,44.5521],[-72.5256,44.5726],[-72.5589,44.5844],[-72.5679,44.5734],[-72.6118,44.5894],[-72.6252,44.5865],[-72.6293,44.5908],[-72.6275,44.5979],[-72.6327,44.5935],[-72.6369,44.6004],[-72.6502,44.6039],[-72.6534,44.5994],[-72.6625,44.6025],[-72.6825,44.5765],[-72.7497,44.5918],[-72.7697,44.5634]]]},"properties":{"geoid":"50L-W","state":"50","district":"Lamoille-Washington","name":"Lamoille-Washington State House District","chamber":"House"}},{"type":"Feature","geometry":{"type":"Polygon","coordinates":[[[-72.2427,45.0047],[-72.2467,45.0046],[-72.2318,44.9856],[-72.2264,44.9536],[-72.2022,44.9662],[-72.1926,44.9631],[-72.1916,44.9509],[-72.18,44.951],[-72.1802,44.9462],[-72.1696,44.9484],[-72.1755,44.9355],[-72.1941,44.9325],[-72.1986,44.9236],[-72.1967,44.9117],[-72.1841,44.9046],[-72.188,44.9009],[-72.1194,44.8644],[-72.0674,44.9144],[-72.0975,44.9303],[-72.0658,44.931],[-72.0513,45.0063],[-72.2427,45.0047]]]},"properties":{"geoid":"50O-1","state":"50","district":"Orleans-1","name":"Orleans-1 State House District","chamber":"House"}},{"type":"Feature","geometry":{"type":"Polygon","coordinates":[[[-72.2437,44.9367],[-72.2393,44.9344],[-72.2432,44.9306],[-72.188,44.9009],[-72.1841,44.9046],[-72.1967,44.9117],[-72.1986,44.9236],[-72.1941,44.9325],[-72.1755,44.9355],[-72.1696,44.9484],[-72.1802,44.9462],[-72.18,44.951],[-72.1916,44.9509],[-72.1926,44.9631],[-72.2022,44.9662],[-72.2074,44.9603],[-72.2416,44.9515],[-72.2419,44.9445],[-72.2384,44.9439],[-72.2437,44.9367]]]},"properties":{"geoid":"50O-2","state":"50","district":"Orleans-2","name":"Orleans-2 State House District","chamber":"House"}},{"type":"Feature","geometry":{"type":"Polygon","coordinates":[[[-72.2585,44.7446],[-72.0893,44.6851],[-72.1144,44.7498],[-72.0115,44.6988],[-71.9393,44.7694],[-72.1612,44.8869],[-72.2585,44.7446]]]},"properties":{"geoid":"50O-3","state":"50","district":"Orleans-3","name":"Orleans-3 State House District","chamber":"House"}},{"type":"Feature","geometry":{"type":"Polygon","coordinates":[[[-72.4827,44.6342],[-72.3684,44.5928],[-72.3739,44.5842],[-72.2629,44.5425],[-72.1466,44.7035],[-72.2589,44.7441],[-72.2526,44.7527],[-72.3652,44.7946],[-72.4827,44.6342]]]},"properties":{"geoid":"50O-4","state":"50","district":"Orleans-4","name":"Orleans-4 State House District","chamber":"House"}},{"type":"Feature","geometry":{"type":"Polygon","coordinates":[[[-72.6614,44.7019],[-72.5969,44.6793],[-72.5932,44.6846],[-72.4769,44.6421],[-72.3652,44.7946],[-72.2526,44.7527],[-72.1612,44.8869],[-72.2432,44.9306],[-72.2384,44.9439],[-72.2419,44.9445],[-72.2416,44.9515],[-72.2264,44.9536],[-72.2318,44.9856],[-72.2467,45.0046],[-72.5539,45.008],[-72.5365,44.9261],[-72.5414,44.926],[-72.5333,44.8341],[-72.5791,44.7809],[-72.5944,44.7903],[-72.5979,44.7871],[-72.6614,44.7019]]]},"properties":{"geoid":"50O-L","state":"50","district":"Orleans-Lamoille","name":"Orleans-Lamoille State House District","chamber":"House"}},{"type":"Feature","geometry":{"type":"Polygon","coordinates":[[[-72.4999,44.0551],[-72.5024,44.0504],[-72.3819,44.0081],[-72.3942,43.929],[-72.2847,43.9032],[-72.1916,44.0616],[-72.3314,44.0924],[-72.3052,44.1831],[-72.4192,44.2208],[-72.4434,44.1288],[-72.4555,44.1333],[-72.4999,44.0551]]]},"properties":{"geoid":"50OR1","state":"50","district":"Orange-1","name":"Orange-1 State House District","chamber":"House"}},{"type":"Feature","geometry":{"type":"Polygon","coordinates":[[[-72.2845,43.9036],[-72.169,43.8717],[-72.1725,43.8846],[-72.1597,43.8877],[-72.1505,43.9021],[-72.1205,43.9196],[-72.1183,43.9465],[-72.1057,43.9498],[-72.099,43.9576],[-72.1007,43.963],[-72.0909,43.9658],[-72.1144,43.9681],[-72.112,43.986],[-72.117,43.9942],[-72.1041,44.0024],[-72.1028,44.0146],[-72.0907,44.0097],[-72.0954,44.0218],[-72.0833,44.0214],[-72.0792,44.0298],[-72.1916,44.0616],[-72.2845,43.9036]]]},"properties":{"geoid":"50OR2","state":"50","district":"Orange-2","name":"Orange-2 State House District","chamber":"House"}},{"type":"Feature","geometry":{"type":"Polygon","coordinates":[[[-72.6291,44.0878],[-72.5382,44.0625],[-72.5103,43.9662],[-72.3942,43.929],[-72.3819,44.0081],[-72.5024,44.0504],[-72.4678,44.1121],[-72.5153,44.1252],[-72.507,44.1479],[-72.5597,44.1629],[-72.564,44.1548],[-72.5866,44.1603],[-72.6291,44.0878]]]},"properties":{"geoid":"50OR3","state":"50","district":"Orange-3","name":"Orange-3 State House District","chamber":"House"}},{"type":"Feature","geometry":{"type":"Polygon","coordinates":[[[-72.3633,44.2113],[-72.3689,44.2039],[-72.3052,44.1831],[-72.3314,44.0924],[-72.2248,44.0708],[-72.0792,44.0298],[-72.0748,44.0324],[-72.0783,44.0434],[-72.0618,44.0498],[-72.0681,44.0574],[-72.0573,44.0583],[-72.0486,44.0692],[-72.0529,44.0763],[-72.0318,44.0785],[-72.0453,44.0873],[-72.0333,44.0905],[-72.0313,44.1004],[-72.0395,44.1035],[-72.0479,44.0966],[-72.0554,44.1109],[-72.0531,44.1195],[-72.0373,44.1249],[-72.0333,44.1314],[-72.042,44.137],[-72.0396,44.156],[-72.1663,44.1908],[-72.1881,44.2766],[-72.3168,44.2988],[-72.3167,44.2722],[-72.3633,44.2113]]]},"properties":{"geoid":"50ORC","state":"50","district":"Orange-Caledonia","name":"Orange-Caledonia State House District","chamber":"House"}},{"type":"Feature","geometry":{"type":"Polygon","coordinates":[[[-72.9122,43.9656],[-72.81,43.9361],[-72.791,43.9622],[-72.787,43.9608],[-72.7918,43.954],[-72.7852,43.9522],[-72.79,43.9453],[-72.7711,43.9391],[-72.7751,43.9337],[-72.7689,43.9316],[-72.7735,43.9245],[-72.7123,43.908],[-72.7093,43.9112],[-72.5735,43.8731],[-72.5103,43.9662],[-72.5382,44.0625],[-72.7705,44.1267],[-72.819,44.0519],[-72.8969,44.0737],[-72.9102,44.0725],[-72.9052,44.0544],[-72.9077,43.9718],[-72.9122,43.9656]]]},"properties":{"geoid":"50OWA","state":"50","district":"Orange-Washington-Addison","name":"Orange-Washington-Addison State House District","chamber":"House"}},{"type":"Feature","geometry":{"type":"Polygon","coordinates":[[[-73.2508,43.4087],[-73.2262,43.4078],[-73.2206,43.4147],[-73.2037,43.4171],[-73.1988,43.4221],[-73.1948,43.4397],[-73.2035,43.447],[-73.2059,43.4641],[-73.1795,43.4659],[-73.1785,43.4962],[-73.1684,43.496],[-73.1334,43.5253],[-73.1353,43.5336],[-73.104,43.5381],[-73.0855,43.4952],[-73.0508,43.4942],[-73.035,43.5707],[-73.0777,43.5702],[-73.0955,43.6327],[-73.111,43.6323],[-73.1171,43.5852],[-73.2433,43.5876],[-73.2457,43.5417],[-73.2414,43.5323],[-73.2477,43.5232],[-73.2508,43.4087]]]},"properties":{"geoid":"50R-1","state":"50","district":"Rutland-1","name":"Rutland-1 State House District","chamber":"House"}},{"type":"Feature","geometry":{"type":"Polygon","coordinates":[[[-73.1045,43.6634],[-73.0777,43.5702],[-73.035,43.5707],[-73.0508,43.4942],[-73.0053,43.4927],[-73.0072,43.4481],[-73.0144,43.4451],[-73.0217,43.3993],[-72.8761,43.3943],[-72.8708,43.4797],[-72.9287,43.4779],[-72.9374,43.6348],[-72.9537,43.6215],[-72.9462,43.618],[-72.9464,43.594],[-72.9916,43.5867],[-73.0113,43.5997],[-73.0026,43.6021],[-73.0115,43.6073],[-73.0057,43.6086],[-73.0069,43.6297],[-72.9885,43.6299],[-73.0031,43.6669],[-73.0136,43.6664],[-73.0141,43.6612],[-73.019,43.6642],[-73.0188,43.6589],[-73.0086,43.6588],[-73.0079,43.6495],[-73.0167,43.6467],[-73.0151,43.6377],[-73.0232,43.6377],[-73.0244,43.6255],[-73.0319,43.6251],[-73.0305,43.6197],[-73.0254,43.6223],[-73.0275,43.6152],[-73.0215,43.6176],[-73.0246,43.6108],[-73.0474,43.6147],[-73.044,43.6272],[-73.0496,43.6302],[-73.0476,43.6434],[-73.0516,43.6432],[-73.0503,43.6566],[-73.0553,43.6651],[-73.1045,43.6634]]]},"properties":{"geoid":"50R-2","state":"50","district":"Rutland-2","name":"Rutland-2 State House District","chamber":"House"}},{"type":"Feature","geometry":{"type":"Polygon","coordinates":[[[-73.2432,43.5881],[-73.1171,43.5852],[-73.111,43.6323],[-73.0955,43.6327],[-73.1082,43.676],[-73.2372,43.6802],[-73.2432,43.5881]]]},"properties":{"geoid":"50R-3","state":"50","district":"Rutland-3","name":"Rutland-3 State House District","chamber":"House"}},{"type":"Feature","geometry":{"type":"Polygon","coordinates":[[[-73.0031,43.6669],[-72.9885,43.6299],[-72.9763,43.6306],[-72.9739,43.6174],[-72.9786,43.6179],[-72.9778,43.6081],[-72.9561,43.6186],[-72.9375,43.6349],[-72.94,43.6695],[-73.0031,43.6669]]]},"properties":{"geoid":"50R-4","state":"50","district":"Rutland-4","name":"Rutland-4 State House District","chamber":"House"}},{"type":"Feature","geometry":{"type":"Polygon","coordinates":[[[-72.9711,43.6022],[-72.9637,43.5911],[-72.9464,43.594],[-72.9477,43.6218],[-72.9698,43.6113],[-72.9673,43.6029],[-72.9711,43.6022]]]},"properties":{"geoid":"50R-5","state":"50","district":"Rutland-5","name":"Rutland-5 State House District","chamber":"House"}},{"type":"Feature","geometry":{"type":"Polygon","coordinates":[[[-73.0113,43.5997],[-72.9916,43.5867],[-72.9637,43.5911],[-72.9699,43.5959],[-72.9698,43.6113],[-73.0074,43.6043],[-73.0026,43.6021],[-73.0113,43.5997]]]},"properties":{"geoid":"50R-6","state":"50","district":"Rutland-6","name":"Rutland-6 State House District","chamber":"House"}},{"type":"Feature","geometry":{"type":"Polygon","coordinates":[[[-73.0115,43.6073],[-73.0025,43.6042],[-72.9778,43.6081],[-72.9786,43.6179],[-72.9739,43.6174],[-72.9763,43.6306],[-73.0069,43.6297],[-73.0057,43.6086],[-73.0115,43.6073]]]},"properties":{"geoid":"50R-7","state":"50","district":"Rutland-7","name":"Rutland-7 State House District","chamber":"House"}},{"type":"Feature","geometry":{"type":"Polygon","coordinates":[[[-73.1315,43.7523],[-73.1045,43.6634],[-73.0553,43.6651],[-73.0503,43.6566],[-73.0516,43.6432],[-73.0476,43.6434],[-73.0496,43.6302],[-73.044,43.6272],[-73.0474,43.6147],[-73.0373,43.6107],[-73.0202,43.6141],[-73.0229,43.6186],[-73.0275,43.6152],[-73.0254,43.6225],[-73.0301,43.6196],[-73.0323,43.6236],[-73.0244,43.6255],[-73.0232,43.6377],[-73.0151,43.6377],[-73.0167,43.6467],[-73.0079,43.6495],[-73.0086,43.6588],[-73.0188,43.6589],[-73.019,43.6642],[-73.0141,43.6612],[-73.0136,43.6664],[-72.94,43.6695],[-73.0028,43.757],[-73.0564,43.7552],[-73.06,43.7507],[-73.0776,43.7589],[-73.0802,43.7544],[-73.1315,43.7523]]]},"properties":{"geoid":"50R-8","state":"50","district":"Rutland-8","name":"Rutland-8 State House District","chamber":"House"}},{"type":"Feature","geometry":{"type":"Polygon","coordinates":[[[-73.1562,43.8423],[-73.1315,43.7523],[-73.0802,43.7544],[-73.0776,43.7589],[-73.06,43.7507],[-73.0564,43.7552],[-73.0035,43.7569],[-73.0268,43.8421],[-73.0331,43.8442],[-73.0299,43.8467],[-73.1562,43.8423]]]},"properties":{"geoid":"50R-9","state":"50","district":"Rutland-9","name":"Rutland-9 State House District","chamber":"House"}},{"type":"Feature","geometry":{"type":"Polygon","coordinates":[[[-73.2588,43.2274],[-73.2592,43.2168],[-73.1276,43.2151],[-73.1209,43.403],[-73.0217,43.3993],[-73.0144,43.4451],[-73.0072,43.4481],[-73.0053,43.4927],[-73.0855,43.4952],[-73.104,43.5381],[-73.1198,43.5386],[-73.1201,43.5334],[-73.1353,43.5336],[-73.1334,43.5253],[-73.1684,43.496],[-73.1785,43.4962],[-73.1795,43.4659],[-73.2059,43.4641],[-73.2035,43.447],[-73.1948,43.4397],[-73.1987,43.4222],[-73.2037,43.4171],[-73.2206,43.4147],[-73.2262,43.4078],[-73.2509,43.4086],[-73.2588,43.2274]]]},"properties":{"geoid":"50R-B","state":"50","district":"Rutland-Bennington","name":"Rutland-Bennington State House District","chamber":"House"}},{"type":"Feature","geometry":{"type":"Polygon","coordinates":[[[-72.9341,43.5748],[-72.9287,43.4779],[-72.8708,43.4797],[-72.8761,43.3943],[-72.8536,43.3936],[-72.8524,43.3763],[-72.822,43.3757],[-72.8219,43.3806],[-72.6814,43.3224],[-72.6792,43.352],[-72.6625,43.3511],[-72.6608,43.4536],[-72.7714,43.4786],[-72.7691,43.4915],[-72.7899,43.4945],[-72.7735,43.5798],[-72.9341,43.5748]]]},"properties":{"geoid":"50R-W","state":"50","district":"Rutland-Windsor","name":"Rutland-Windsor State House District","chamber":"House"}},{"type":"Feature","geometry":{"type":"Polygon","coordinates":[[[-73.431,43.5891],[-73.4286,43.584],[-73.3958,43.5681],[-73.3833,43.5772],[-73.3825,43.5866],[-73.3869,43.5908],[-73.3725,43.6048],[-73.3764,43.6088],[-73.3698,43.6194],[-73.3719,43.6245],[-73.3543,43.6262],[-73.3488,43.6215],[-73.3342,43.628],[-73.3179,43.6285],[-73.3112,43.6241],[-73.3064,43.6283],[-73.3004,43.6178],[-73.3028,43.6098],[-73.298,43.61],[-73.291,43.5992],[-73.2969,43.5873],[-73.2921,43.5845],[-73.2973,43.5794],[-73.2675,43.572],[-73.2486,43.5539],[-73.2501,43.5434],[-73.2456,43.5395],[-73.2308,43.7645],[-73.3628,43.7531],[-73.3699,43.7439],[-73.3706,43.7253],[-73.4047,43.6902],[-73.4041,43.6813],[-73.4155,43.6525],[-73.4265,43.6426],[-73.4284,43.6355],[-73.4177,43.6217],[-73.4237,43.6124],[-73.4216,43.603],[-73.431,43.5891]]]},"properties":{"geoid":"50R10","state":"50","district":"Rutland-10","name":"Rutland-10 State House District","chamber":"House"}},{"type":"Feature","geometry":{"type":"Polygon","coordinates":[[[-73.0171,43.8049],[-73.0035,43.7569],[-72.94,43.6695],[-72.9342,43.5748],[-72.7735,43.5798],[-72.7715,43.5911],[-72.7579,43.5874],[-72.6998,43.6846],[-72.82,43.7167],[-72.8039,43.741],[-72.8193,43.7463],[-72.7829,43.804],[-72.7883,43.8064],[-72.7844,43.8138],[-72.7921,43.8165],[-72.7943,43.8212],[-72.7905,43.8233],[-72.7969,43.8292],[-72.8307,43.8391],[-72.8383,43.8293],[-72.8739,43.8396],[-72.8745,43.8581],[-73.0171,43.8049]]]},"properties":{"geoid":"50R11","state":"50","district":"Rutland-11","name":"Rutland-11 State House District","chamber":"House"}},{"type":"Feature","geometry":{"type":"Polygon","coordinates":[[[-72.6856,42.735],[-72.4584,42.7269],[-72.4734,42.7462],[-72.477,42.7608],[-72.4905,42.7727],[-72.4977,42.7734],[-72.5084,42.7644],[-72.5155,42.7656],[-72.509,42.78],[-72.5415,42.8071],[-72.5463,42.8242],[-72.6806,42.8273],[-72.6856,42.735]]]},"properties":{"geoid":"50W-1","state":"50","district":"Windham-1","name":"Windham-1 State House District","chamber":"House"}},{"type":"Feature","geometry":{"type":"Polygon","coordinates":[[[-73.0081,42.9306],[-72.777,42.9223],[-72.7085,43.1258],[-72.8648,43.1662],[-72.8682,43.1139],[-72.996,43.1187],[-73.0081,42.9306]]]},"properties":{"geoid":"50W-2","state":"50","district":"Windham-2","name":"Windham-2 State House District","chamber":"House"}},{"type":"Feature","geometry":{"type":"Polygon","coordinates":[[[-72.6509,43.0148],[-72.6405,43.007],[-72.6388,42.9961],[-72.6326,42.9945],[-72.6314,42.9831],[-72.6451,42.9785],[-72.6471,42.9695],[-72.608,42.9684],[-72.6059,42.9908],[-72.5994,42.9903],[-72.5883,43.0235],[-72.4594,43.0204],[-72.4632,43.0277],[-72.4605,43.0419],[-72.4678,43.053],[-72.434,43.0845],[-72.4432,43.1028],[-72.4335,43.1106],[-72.4328,43.1202],[-72.4423,43.1293],[-72.4408,43.1366],[-72.4521,43.1386],[-72.4574,43.1475],[-72.4521,43.1532],[-72.4528,43.1728],[-72.4439,43.1798],[-72.4505,43.1926],[-72.4385,43.2016],[-72.441,43.2182],[-72.4346,43.2333],[-72.5555,43.2353],[-72.5568,43.1278],[-72.5729,43.0709],[-72.6055,43.0721],[-72.6212,43.0179],[-72.6507,43.0193],[-72.6509,43.0148]]]},"properties":{"geoid":"50W-3","state":"50","district":"Windham-3","name":"Windham-3 State House District","chamber":"House"}},{"type":"Feature","geometry":{"type":"Polygon","coordinates":[[[-72.6773,42.9024],[-72.5328,42.8959],[-72.5304,42.9111],[-72.5241,42.9174],[-72.5269,42.9414],[-72.5344,42.9494],[-72.5322,42.9547],[-72.5184,42.9631],[-72.4922,42.9677],[-72.4816,42.974],[-72.4737,42.9721],[-72.4617,42.9829],[-72.4654,42.9896],[-72.4625,42.9974],[-72.4494,43.0003],[-72.4432,43.0091],[-72.4594,43.0204],[-72.5883,43.0235],[-72.5994,42.9903],[-72.6059,42.9908],[-72.608,42.9684],[-72.6355,42.9692],[-72.6514,42.9216],[-72.6762,42.9224],[-72.6773,42.9024]]]},"properties":{"geoid":"50W-4","state":"50","district":"Windham-4","name":"Windham-4 State House District","chamber":"House"}},{"type":"Feature","geometry":{"type":"Polygon","coordinates":[[[-72.8029,42.8295],[-72.6806,42.8273],[-72.6762,42.9224],[-72.6514,42.9216],[-72.6355,42.9692],[-72.6471,42.9695],[-72.6469,42.9753],[-72.6314,42.9831],[-72.6326,42.9945],[-72.6388,42.9961],[-72.64,43.0061],[-72.6507,43.0139],[-72.6507,43.0193],[-72.6209,43.0184],[-72.5962,43.1046],[-72.642,43.1065],[-72.6382,43.1379],[-72.6909,43.1317],[-72.6921,43.1219],[-72.7085,43.1258],[-72.7721,42.9319],[-72.777,42.9223],[-72.7977,42.9223],[-72.8029,42.8295]]]},"properties":{"geoid":"50W-5","state":"50","district":"Windham-5","name":"Windham-5 State House District","chamber":"House"}},{"type":"Feature","geometry":{"type":"Polygon","coordinates":[[[-72.9301,42.7394],[-72.6858,42.7332],[-72.6806,42.8273],[-72.8029,42.8291],[-72.7977,42.9223],[-72.9238,42.9274],[-72.9301,42.7394]]]},"properties":{"geoid":"50W-6","state":"50","district":"Windham-6","name":"Windham-6 State House District","chamber":"House"}},{"type":"Feature","geometry":{"type":"Polygon","coordinates":[[[-72.6804,42.8321],[-72.6806,42.8273],[-72.5887,42.8249],[-72.5848,42.8368],[-72.5811,42.8348],[-72.5802,42.8457],[-72.5857,42.8494],[-72.5894,42.877],[-72.5953,42.8814],[-72.6025,42.8742],[-72.6222,42.8982],[-72.6774,42.8997],[-72.6804,42.8321]]]},"properties":{"geoid":"50W-7","state":"50","district":"Windham-7","name":"Windham-7 State House District","chamber":"House"}},{"type":"Feature","geometry":{"type":"Polygon","coordinates":[[[-72.5894,42.826],[-72.5463,42.8242],[-72.5471,42.8389],[-72.5566,42.8519],[-72.5816,42.8464],[-72.5856,42.8495],[-72.5802,42.8457],[-72.5809,42.8354],[-72.5848,42.8368],[-72.5894,42.826]]]},"properties":{"geoid":"50W-8","state":"50","district":"Windham-8","name":"Windham-8 State House District","chamber":"House"}},{"type":"Feature","geometry":{"type":"Polygon","coordinates":[[[-72.6222,42.8982],[-72.6022,42.874],[-72.5921,42.8812],[-72.5816,42.8464],[-72.5571,42.8512],[-72.5526,42.885],[-72.5328,42.8959],[-72.6222,42.8982]]]},"properties":{"geoid":"50W-9","state":"50","district":"Windham-9","name":"Windham-9 State House District","chamber":"House"}},{"type":"Feature","geometry":{"type":"Polygon","coordinates":[[[-72.7824,44.1309],[-72.6291,44.0878],[-72.5866,44.1603],[-72.564,44.1548],[-72.5198,44.2411],[-72.5246,44.2379],[-72.5473,44.2417],[-72.5533,44.2349],[-72.5903,44.2437],[-72.588,44.2486],[-72.6011,44.252],[-72.6017,44.2575],[-72.6151,44.2591],[-72.6391,44.272],[-72.6837,44.1853],[-72.7378,44.213],[-72.7484,44.2012],[-72.7408,44.1971],[-72.7547,44.1804],[-72.7493,44.1767],[-72.771,44.1538],[-72.7639,44.1498],[-72.7824,44.1309]]]},"properties":{"geoid":"50WA1","state":"50","district":"Washington-1","name":"Washington-1 State House District","chamber":"House"}},{"type":"Feature","geometry":{"type":"Polygon","coordinates":[[[-72.9513,44.1633],[-72.9341,44.1628],[-72.9168,44.0719],[-72.8969,44.0737],[-72.819,44.0519],[-72.7705,44.1267],[-72.7831,44.1303],[-72.7639,44.1498],[-72.771,44.1538],[-72.7493,44.1767],[-72.7547,44.1804],[-72.7408,44.1971],[-72.7484,44.2012],[-72.7378,44.213],[-72.6837,44.1853],[-72.6391,44.272],[-72.6591,44.2751],[-72.6702,44.2895],[-72.6957,44.2987],[-72.6956,44.3105],[-72.7008,44.3135],[-72.7174,44.3127],[-72.7441,44.3277],[-72.7564,44.3294],[-72.7634,44.3344],[-72.7621,44.3421],[-72.7727,44.3436],[-72.7763,44.3512],[-72.7985,44.3554],[-72.803,44.3601],[-72.8229,44.3574],[-72.8613,44.3669],[-72.906,44.2806],[-72.895,44.2781],[-72.9513,44.1633]]]},"properties":{"geoid":"50WA2","state":"50","district":"Washington-2","name":"Washington-2 State House District","chamber":"House"}},{"type":"Feature","geometry":{"type":"Polygon","coordinates":[[[-72.5379,44.2054],[-72.5048,44.1821],[-72.4962,44.1801],[-72.4937,44.1845],[-72.483,44.1852],[-72.4869,44.1897],[-72.4828,44.1995],[-72.496,44.2057],[-72.4922,44.2139],[-72.5022,44.2162],[-72.5031,44.2114],[-72.5143,44.2119],[-72.5325,44.2161],[-72.5379,44.2054]]]},"properties":{"geoid":"50WA3","state":"50","district":"Washington-3","name":"Washington-3 State House District","chamber":"House"}},{"type":"Feature","geometry":{"type":"Polygon","coordinates":[[[-72.6123,44.2588],[-72.588,44.2486],[-72.5903,44.2437],[-72.5533,44.2349],[-72.5473,44.2417],[-72.5318,44.2402],[-72.5251,44.2492],[-72.5405,44.2554],[-72.5361,44.2614],[-72.5573,44.2693],[-72.5571,44.2778],[-72.5657,44.2809],[-72.5618,44.2958],[-72.5719,44.2997],[-72.5643,44.3098],[-72.574,44.3133],[-72.6123,44.2588]]]},"properties":{"geoid":"50WA4","state":"50","district":"Washington-4","name":"Washington-4 State House District","chamber":"House"}},{"type":"Feature","geometry":{"type":"Polygon","coordinates":[[[-72.7167,44.3129],[-72.7008,44.3135],[-72.6956,44.3105],[-72.6957,44.2987],[-72.6702,44.2895],[-72.6591,44.2751],[-72.636,44.2709],[-72.6124,44.2586],[-72.574,44.3133],[-72.5643,44.3098],[-72.5719,44.2997],[-72.5618,44.2958],[-72.5657,44.2809],[-72.5571,44.2778],[-72.5573,44.2693],[-72.5361,44.2614],[-72.5405,44.2554],[-72.5251,44.2492],[-72.5318,44.2402],[-72.4802,44.2339],[-72.4293,44.3006],[-72.5508,44.3454],[-72.6543,44.3983],[-72.6712,44.3759],[-72.6632,44.3728],[-72.6686,44.3662],[-72.6603,44.3636],[-72.6717,44.3474],[-72.6782,44.3497],[-72.6954,44.3245],[-72.7052,44.3284],[-72.7167,44.3129]]]},"properties":{"geoid":"50WA5","state":"50","district":"Washington-5","name":"Washington-5 State House District","chamber":"House"}},{"type":"Feature","geometry":{"type":"Polygon","coordinates":[[[-72.5506,44.3456],[-72.4293,44.3006],[-72.4802,44.2339],[-72.4271,44.2234],[-72.3689,44.2039],[-72.3167,44.2722],[-72.3168,44.2988],[-72.2701,44.3404],[-72.4932,44.4258],[-72.5506,44.3456]]]},"properties":{"geoid":"50WA6","state":"50","district":"Washington-6","name":"Washington-6 State House District","chamber":"House"}},{"type":"Feature","geometry":{"type":"Polygon","coordinates":[[[-73.0328,44.3625],[-73.0204,44.3037],[-72.9759,44.295],[-72.9522,44.1614],[-72.895,44.2781],[-72.906,44.2806],[-72.8613,44.3669],[-72.8229,44.3574],[-72.803,44.3601],[-72.7985,44.3554],[-72.7776,44.3517],[-72.7727,44.3436],[-72.7621,44.3421],[-72.7629,44.3336],[-72.7166,44.3125],[-72.7052,44.3284],[-72.6954,44.3245],[-72.6782,44.3497],[-72.6717,44.3474],[-72.6603,44.3636],[-72.6686,44.3662],[-72.6632,44.3728],[-72.6712,44.3759],[-72.6543,44.3983],[-72.7656,44.4428],[-72.8882,44.4703],[-72.9187,44.4291],[-72.9362,44.3753],[-72.9521,44.3454],[-73.0328,44.3625]]]},"properties":{"geoid":"50WAC","state":"50","district":"Washington-Chittenden","name":"Washington-Chittenden State House District","chamber":"House"}},{"type":"Feature","geometry":{"type":"Polygon","coordinates":[[[-72.5597,44.1629],[-72.507,44.1479],[-72.5153,44.1252],[-72.4678,44.1121],[-72.4555,44.1333],[-72.4434,44.1288],[-72.4192,44.2208],[-72.5195,44.2417],[-72.5327,44.2162],[-72.5143,44.2119],[-72.5031,44.2114],[-72.5022,44.2162],[-72.4922,44.2139],[-72.496,44.2057],[-72.4828,44.1995],[-72.4869,44.1897],[-72.483,44.1852],[-72.4937,44.1845],[-72.4962,44.1801],[-72.5048,44.1821],[-72.5384,44.205],[-72.5597,44.1629]]]},"properties":{"geoid":"50WAO","state":"50","district":"Washington-Orange","name":"Washington-Orange State House District","chamber":"House"}},{"type":"Feature","geometry":{"type":"Polygon","coordinates":[[[-73.0073,43.1202],[-73.0062,43.1159],[-72.9973,43.1154],[-72.996,43.1187],[-72.8682,43.1139],[-72.8648,43.1662],[-72.7714,43.1417],[-72.7733,43.1539],[-72.7654,43.1696],[-72.7654,43.1809],[-72.7346,43.2076],[-72.7382,43.2153],[-72.7276,43.2265],[-72.7302,43.2333],[-72.6854,43.2226],[-72.6814,43.3224],[-72.8219,43.3806],[-72.822,43.3757],[-72.8524,43.3763],[-72.8547,43.3493],[-72.865,43.3487],[-72.8686,43.3005],[-72.8199,43.2994],[-72.8196,43.256],[-72.8481,43.2628],[-72.8516,43.2048],[-73.0017,43.2109],[-73.0073,43.1202]]]},"properties":{"geoid":"50WWB","state":"50","district":"Windham-Windsor-Bennington","name":"Windham-Windsor-Bennington State House District","chamber":"House"}},{"type":"Feature","geometry":{"type":"Polygon","coordinates":[[[-72.5328,43.5339],[-72.5304,43.4436],[-72.3961,43.4286],[-72.3903,43.4516],[-72.3926,43.4669],[-72.3825,43.4759],[-72.3799,43.4912],[-72.3989,43.5127],[-72.3943,43.5274],[-72.3807,43.5404],[-72.3802,43.5734],[-72.3288,43.6007],[-72.3284,43.6057],[-72.4662,43.6311],[-72.5293,43.533],[-72.5328,43.5339]]]},"properties":{"geoid":"50Y-1","state":"50","district":"Windsor-1","name":"Windsor-1 State House District","chamber":"House"}},{"type":"Feature","geometry":{"type":"Polygon","coordinates":[[[-72.6624,43.3596],[-72.6625,43.3511],[-72.4063,43.3378],[-72.3898,43.356],[-72.4031,43.3577],[-72.4153,43.3659],[-72.4152,43.3803],[-72.4035,43.3916],[-72.3961,43.4286],[-72.6606,43.4571],[-72.6624,43.3596]]]},"properties":{"geoid":"50Y-2","state":"50","district":"Windsor-2","name":"Windsor-2 State House District","chamber":"House"}},{"type":"Feature","geometry":{"type":"Polygon","coordinates":[[[-72.5491,43.236],[-72.4346,43.2333],[-72.4396,43.2447],[-72.4371,43.2561],[-72.416,43.2702],[-72.3953,43.3127],[-72.4105,43.3307],[-72.4062,43.3382],[-72.5454,43.3453],[-72.5491,43.236]]]},"properties":{"geoid":"50Y-3","state":"50","district":"Windsor-3","name":"Windsor-3 State House District","chamber":"House"}},{"type":"Feature","geometry":{"type":"Polygon","coordinates":[[[-72.7579,43.5874],[-72.6381,43.558],[-72.5768,43.6591],[-72.5683,43.6571],[-72.5653,43.6613],[-72.4739,43.6391],[-72.469,43.6319],[-72.4574,43.6298],[-72.457,43.6351],[-72.4425,43.6414],[-72.4435,43.6506],[-72.4369,43.657],[-72.4172,43.6459],[-72.4031,43.6618],[-72.3892,43.6669],[-72.3918,43.6702],[-72.3865,43.6763],[-72.3994,43.6883],[-72.3887,43.6895],[-72.3846,43.6966],[-72.3623,43.7088],[-72.4222,43.7262],[-72.4302,43.723],[-72.4353,43.7293],[-72.4583,43.7367],[-72.6594,43.7944],[-72.716,43.7002],[-72.6939,43.6933],[-72.7579,43.5874]]]},"properties":{"geoid":"50Y-4","state":"50","district":"Windsor-4","name":"Windsor-4 State House District","chamber":"House"}},{"type":"Feature","geometry":{"type":"Polygon","coordinates":[[[-72.7899,43.4948],[-72.7691,43.4915],[-72.7714,43.4786],[-72.6608,43.4536],[-72.6606,43.4571],[-72.5304,43.4436],[-72.5328,43.5339],[-72.5293,43.533],[-72.4662,43.6311],[-72.4739,43.6391],[-72.5653,43.6613],[-72.5683,43.6571],[-72.5768,43.6591],[-72.6381,43.558],[-72.7715,43.5911],[-72.7899,43.4948]]]},"properties":{"geoid":"50Y-5","state":"50","district":"Windsor-5","name":"Windsor-5 State House District","chamber":"House"}},{"type":"Feature","geometry":{"type":"Polygon","coordinates":[[[-72.458,43.6297],[-72.3284,43.6057],[-72.3348,43.618],[-72.3274,43.6307],[-72.3291,43.6355],[-72.3147,43.6419],[-72.3136,43.6569],[-72.3031,43.6686],[-72.3051,43.6923],[-72.3623,43.7088],[-72.3846,43.6966],[-72.3887,43.6895],[-72.3994,43.6883],[-72.3865,43.6763],[-72.3918,43.6702],[-72.3892,43.6669],[-72.4031,43.6618],[-72.4172,43.6459],[-72.4369,43.657],[-72.4435,43.6506],[-72.4425,43.6414],[-72.457,43.6351],[-72.458,43.6297]]]},"properties":{"geoid":"50Y-6","state":"50","district":"Windsor-6","name":"Windsor-6 State House District","chamber":"House"}},{"type":"Feature","geometry":{"type":"Polygon","coordinates":[[[-73.0013,43.8891],[-72.9801,43.8829],[-72.9802,43.864],[-72.9729,43.8668],[-72.9597,43.8261],[-72.8745,43.8581],[-72.8739,43.8396],[-72.8383,43.8293],[-72.8307,43.8391],[-72.7969,43.8292],[-72.7905,43.8233],[-72.7943,43.8212],[-72.7921,43.8165],[-72.7844,43.8138],[-72.7883,43.8064],[-72.7829,43.804],[-72.8193,43.7463],[-72.8039,43.741],[-72.82,43.7167],[-72.6985,43.6842],[-72.6939,43.6933],[-72.716,43.7002],[-72.6594,43.7944],[-72.6447,43.7901],[-72.5736,43.873],[-72.7093,43.9112],[-72.7123,43.908],[-72.7735,43.9245],[-72.7689,43.9316],[-72.7751,43.9337],[-72.7711,43.9391],[-72.79,43.9453],[-72.7852,43.9522],[-72.7918,43.954],[-72.787,43.9608],[-72.791,43.9622],[-72.81,43.9361],[-72.9462,43.9742],[-73.0013,43.8891]]]},"properties":{"geoid":"50Y-A","state":"50","district":"Windsor-Addison","name":"Windsor-Addison State House District","chamber":"House"}},{"type":"Feature","geometry":{"type":"Polygon","coordinates":[[[-72.7733,43.1539],[-72.7714,43.1417],[-72.6921,43.1219],[-72.6909,43.1317],[-72.6382,43.1379],[-72.642,43.1065],[-72.5962,43.1046],[-72.6055,43.0721],[-72.5729,43.0709],[-72.5568,43.1278],[-72.5567,43.2202],[-72.5555,43.2353],[-72.5491,43.2359],[-72.5454,43.3452],[-72.6792,43.352],[-72.6854,43.2226],[-72.7302,43.2333],[-72.7276,43.2265],[-72.7382,43.2153],[-72.7346,43.2076],[-72.764,43.1828],[-72.7733,43.1539]]]},"properties":{"geoid":"50Y-W","state":"50","district":"Windsor-Windham","name":"Windsor-Windham State House District","chamber":"House"}},{"type":"Feature","geometry":{"type":"Polygon","coordinates":[[[-72.6445,43.7903],[-72.5283,43.7565],[-72.4595,43.8381],[-72.3942,43.929],[-72.5103,43.9662],[-72.5735,43.8731],[-72.6445,43.7903]]]},"properties":{"geoid":"50YO1","state":"50","district":"Windsor-Orange-1","name":"Windsor-Orange-1 State House District","chamber":"House"}},{"type":"Feature","geometry":{"type":"Polygon","coordinates":[[[-72.5283,43.7565],[-72.4353,43.7293],[-72.4302,43.723],[-72.4222,43.7262],[-72.3051,43.6923],[-72.2997,43.7061],[-72.2718,43.7334],[-72.2342,43.746],[-72.2185,43.7655],[-72.2052,43.7709],[-72.2055,43.7846],[-72.1835,43.809],[-72.1889,43.8212],[-72.1824,43.8341],[-72.1879,43.8564],[-72.1841,43.8648],[-72.1681,43.8702],[-72.3942,43.929],[-72.4595,43.8381],[-72.5283,43.7565]]]},"properties":{"geoid":"50YO2","state":"50","district":"Windsor-Orange-2","name":"Windsor-Orange-2 State House District","chamber":"House"}}]}