{"type":"FeatureCollection","features":[{"type":"Feature","geometry":{"type":"Polygon","coordinates":[[[-73.4377,44.0461],[-73.4104,44.0265],[-73.4061,44.0164],[-73.4125,43.9822],[-73.4057,43.9559],[-73.4086,43.9319],[-73.3962,43.9033],[-73.3741,43.8759],[-73.3823,43.8561],[-73.3726,43.8454],[-73.3882,43.8327],[-73.3928,43.8228],[-73.3796,43.8092],[-73.3768,43.7992],[-73.3582,43.7865],[-73.351,43.7724],[-73.3628,43.7531],[-73.2063,43.7668],[-73.219,43.8373],[-73.0299,43.8467],[-73.0331,43.8442],[-73.0268,43.8421],[-73.0171,43.8049],[-72.8745,43.8581],[-72.8739,43.8396],[-72.8383,43.8293],[-72.8307,43.8391],[-72.7969,43.8292],[-72.7905,43.8233],[-72.7943,43.8212],[-72.7921,43.8165],[-72.7844,43.8138],[-72.7883,43.8064],[-72.7829,43.804],[-72.771,43.8246],[-72.7661,43.8233],[-72.7123,43.908],[-72.7735,43.9245],[-72.7689,43.9316],[-72.7751,43.9337],[-72.7711,43.9391],[-72.79,43.9453],[-72.7852,43.9522],[-72.7918,43.954],[-72.787,43.9608],[-72.791,43.9622],[-72.7422,44.0296],[-72.8969,44.0737],[-72.9168,44.0719],[-72.9341,44.1628],[-72.9522,44.1614],[-72.895,44.2781],[-72.906,44.2806],[-72.8804,44.3299],[-73.0328,44.3625],[-73.0165,44.2854],[-73.07,44.2799],[-73.0706,44.2839],[-73.2704,44.2601],[-73.3133,44.2641],[-73.3237,44.2442],[-73.3434,44.2382],[-73.3623,44.2085],[-73.3906,44.1911],[-73.3898,44.1818],[-73.3972,44.1738],[-73.403,44.145],[-73.4161,44.1324],[-73.4115,44.1119],[-73.4297,44.0786],[-73.4377,44.0461]]]},"properties":{"geoid":"50ADD","state":"50","district":"Addison","name":"Addison Senatorial District","chamber":"Senate"}},{"type":"Feature","geometry":{"type":"Polygon","coordinates":[[[-73.2909,42.8019],[-73.2764,42.746],[-72.9301,42.7393],[-72.9274,42.8298],[-72.8031,42.8267],[-72.7977,42.9223],[-72.9238,42.9274],[-72.9202,42.9927],[-72.8794,42.991],[-72.8648,43.1662],[-72.7714,43.1417],[-72.7733,43.1539],[-72.7654,43.1696],[-72.7654,43.1809],[-72.7346,43.2076],[-72.7382,43.2153],[-72.7276,43.2265],[-72.7293,43.2325],[-72.8196,43.256],[-72.8199,43.2994],[-72.9753,43.3042],[-72.9759,43.2906],[-72.9923,43.2907],[-72.9876,43.305],[-73.2546,43.3145],[-73.2783,42.8376],[-73.2787,42.8334],[-73.2854,42.8341],[-73.2837,42.8139],[-73.2909,42.8019]]]},"properties":{"geoid":"50BEN","state":"50","district":"Bennington","name":"Bennington Senatorial District","chamber":"Senate"}},{"type":"Feature","geometry":{"type":"Polygon","coordinates":[[[-72.4341,44.506],[-72.2238,44.4249],[-72.229,44.4202],[-72.2223,44.4231],[-72.222,44.4142],[-72.2171,44.4113],[-72.27,44.3405],[-72.3168,44.2988],[-72.3167,44.2722],[-72.3689,44.2039],[-72.3052,44.1831],[-72.1707,44.192],[-72.2076,44.066],[-72.0792,44.0298],[-72.0748,44.0324],[-72.0783,44.0434],[-72.0618,44.0498],[-72.0681,44.0574],[-72.0573,44.0583],[-72.0486,44.0692],[-72.0529,44.0763],[-72.0316,44.0792],[-72.0453,44.0873],[-72.0333,44.0905],[-72.0313,44.1004],[-72.0395,44.1035],[-72.0479,44.0966],[-72.0554,44.1108],[-72.0531,44.1195],[-72.0373,44.1249],[-72.0333,44.1317],[-72.042,44.137],[-72.039,44.1568],[-72.0518,44.1665],[-72.0662,44.1901],[-72.0477,44.239],[-72.0615,44.2611],[-72.0583,44.2701],[-72.0684,44.2705],[-72.0602,44.2848],[-72.0329,44.3022],[-72.0328,44.3205],[-72.0091,44.3222],[-71.9881,44.3301],[-71.9822,44.3372],[-71.9353,44.3358],[-71.9084,44.3484],[-71.8716,44.3367],[-71.8379,44.348],[-71.9332,44.4411],[-71.9582,44.4913],[-72.0835,44.5104],[-72.0577,44.5984],[-72.0664,44.6235],[-72.0948,44.5846],[-72.2025,44.6241],[-72.2629,44.5425],[-72.3739,44.5842],[-72.4341,44.506]]]},"properties":{"geoid":"50CAL","state":"50","district":"Caledonia","name":"Caledonia Senatorial District","chamber":"Senate"}},{"type":"Feature","geometry":{"type":"Polygon","coordinates":[[[-73.277,44.5061],[-73.2553,44.4752],[-73.2107,44.4738],[-73.2004,44.4698],[-73.2001,44.4658],[-73.1924,44.4668],[-73.1938,44.4742],[-73.19,44.4725],[-73.169,44.4903],[-73.1679,44.4865],[-73.1439,44.49],[-73.1479,44.4933],[-73.1379,44.501],[-73.1444,44.4801],[-73.1349,44.4744],[-73.1125,44.4832],[-73.1006,44.4719],[-73.0914,44.4811],[-73.0493,44.479],[-73.0498,44.494],[-73.0385,44.5046],[-73.0594,44.5119],[-73.0884,44.5071],[-73.1218,44.5183],[-73.1291,44.5284],[-73.1559,44.4998],[-73.1793,44.5111],[-73.1824,44.5025],[-73.1921,44.506],[-73.2021,44.4927],[-73.2033,44.501],[-73.215,44.5097],[-73.2279,44.5083],[-73.2276,44.5126],[-73.219,44.5158],[-73.2324,44.5131],[-73.2393,44.5172],[-73.2369,44.5219],[-73.2414,44.5288],[-73.2503,44.5226],[-73.2651,44.5248],[-73.2626,44.5371],[-73.2679,44.5399],[-73.2742,44.5374],[-73.2702,44.5322],[-73.2759,44.5298],[-73.269,44.5162],[-73.277,44.5061]]]},"properties":{"geoid":"50CHC","state":"50","district":"Chittenden Central","name":"Chittenden Central Senatorial District","chamber":"Senate"}},{"type":"Feature","geometry":{"type":"Polygon","coordinates":[[[-73.2563,44.6297],[-73.2545,44.6107],[-73.2326,44.6135],[-73.204,44.6034],[-73.1985,44.6077],[-73.0979,44.5705],[-73.1291,44.5284],[-73.1218,44.5183],[-73.0884,44.5071],[-73.0594,44.5119],[-73.0385,44.5046],[-73.0498,44.494],[-73.0493,44.479],[-73.0686,44.4789],[-73.032,44.468],[-72.91,44.6312],[-72.9264,44.6351],[-72.9238,44.6419],[-72.9272,44.6466],[-72.9226,44.6501],[-73.0047,44.7606],[-73.0848,44.773],[-73.038,44.6512],[-73.2289,44.7228],[-73.2331,44.6499],[-73.2511,44.6415],[-73.2563,44.6297]]]},"properties":{"geoid":"50CHN","state":"50","district":"Chittenden North","name":"Chittenden North Senatorial District","chamber":"Senate"}},{"type":"Feature","geometry":{"type":"Polygon","coordinates":[[[-73.335,44.3644],[-73.324,44.3338],[-73.3222,44.3015],[-73.3109,44.2743],[-73.3133,44.2641],[-73.2704,44.2601],[-73.0706,44.2839],[-73.07,44.2799],[-73.0165,44.2854],[-73.0328,44.3625],[-72.8804,44.3299],[-72.8613,44.3669],[-72.826,44.359],[-72.8024,44.3886],[-72.8398,44.4035],[-72.8049,44.4519],[-72.8383,44.4593],[-72.8036,44.5063],[-72.8308,44.5164],[-72.81,44.5467],[-72.827,44.5507],[-72.91,44.6312],[-73.032,44.468],[-73.048,44.471],[-73.0504,44.476],[-73.0569,44.473],[-73.0742,44.4824],[-73.0855,44.4783],[-73.0916,44.4811],[-73.1,44.4719],[-73.1125,44.4832],[-73.1351,44.4745],[-73.1444,44.4801],[-73.1379,44.501],[-73.1479,44.4933],[-73.1439,44.49],[-73.1679,44.4865],[-73.169,44.4903],[-73.19,44.4725],[-73.1938,44.4742],[-73.1924,44.4668],[-73.2008,44.4658],[-73.2004,44.4698],[-73.2107,44.4738],[-73.2553,44.4752],[-73.2739,44.4972],[-73.277,44.5062],[-73.269,44.5162],[-73.276,44.5299],[-73.3212,44.5149],[-73.3067,44.5003],[-73.2992,44.4729],[-73.3001,44.4547],[-73.2936,44.4389],[-73.315,44.3885],[-73.3336,44.3723],[-73.335,44.3644]]]},"properties":{"geoid":"50CHS","state":"50","district":"Chittenden South East","name":"Chittenden South East Senatorial District","chamber":"Senate"}},{"type":"Feature","geometry":{"type":"Polygon","coordinates":[[[-72.2427,45.0047],[-72.2467,45.0046],[-72.2318,44.9856],[-72.2264,44.9536],[-72.2416,44.9515],[-72.2419,44.9445],[-72.2384,44.9439],[-72.2432,44.9306],[-72.1194,44.8644],[-72.0674,44.9144],[-71.92,44.8369],[-71.9748,44.7872],[-71.8371,44.7164],[-71.9102,44.6468],[-71.8424,44.6109],[-71.8983,44.5579],[-71.9337,44.572],[-71.9316,44.5802],[-72.0577,44.5984],[-72.0835,44.5104],[-71.9582,44.4913],[-71.9332,44.4411],[-71.8379,44.348],[-71.813,44.3557],[-71.8144,44.3819],[-71.8006,44.384],[-71.8035,44.3919],[-71.7945,44.399],[-71.7784,44.3998],[-71.762,44.407],[-71.7437,44.401],[-71.7354,44.41],[-71.7026,44.4135],[-71.6827,44.4273],[-71.677,44.4268],[-71.678,44.4353],[-71.6609,44.4399],[-71.6542,44.4588],[-71.639,44.4644],[-71.6468,44.4732],[-71.6328,44.4838],[-71.6247,44.4817],[-71.6345,44.4756],[-71.6262,44.4745],[-71.6178,44.4858],[-71.5986,44.4868],[-71.5939,44.501],[-71.5859,44.4994],[-71.5881,44.5066],[-71.577,44.5021],[-71.5941,44.5216],[-71.5807,44.5246],[-71.5719,44.5379],[-71.5986,44.5548],[-71.597,44.5595],[-71.5896,44.5657],[-71.5597,44.564],[-71.5577,44.5704],[-71.5477,44.5714],[-71.5548,44.5794],[-71.5524,44.5844],[-71.5458,44.5779],[-71.5349,44.5879],[-71.5401,44.5885],[-71.5385,44.5942],[-71.5469,44.5908],[-71.546,44.5971],[-71.5552,44.5933],[-71.5509,44.601],[-71.5621,44.6012],[-71.5536,44.6061],[-71.5551,44.6252],[-71.5463,44.623],[-71.557,44.6295],[-71.5468,44.6298],[-71.5637,44.6372],[-71.5578,44.642],[-71.5628,44.6524],[-71.5771,44.6507],[-71.5801,44.6521],[-71.5752,44.6558],[-71.5874,44.6597],[-71.5879,44.6699],[-71.5815,44.6732],[-71.5966,44.6781],[-71.594,44.6834],[-71.5979,44.6922],[-71.5939,44.6964],[-71.6008,44.699],[-71.5994,44.7053],[-71.6186,44.7222],[-71.6171,44.7287],[-71.6261,44.7285],[-71.6251,44.7434],[-71.632,44.7521],[-71.6167,44.7563],[-71.5925,44.7827],[-71.5792,44.7849],[-71.5728,44.7909],[-71.5684,44.807],[-71.5769,44.8152],[-71.5732,44.8208],[-71.5618,44.8236],[-71.5511,44.837],[-71.5558,44.8486],[-71.5475,44.8554],[-71.5495,44.8621],[-71.5161,44.8845],[-71.5107,44.8904],[-71.5139,44.8943],[-71.5074,44.8995],[-71.4949,44.9043],[-71.4932,44.9114],[-71.4999,44.9112],[-71.5228,44.9399],[-71.5171,44.9391],[-71.5148,44.9437],[-71.5192,44.9496],[-71.5163,44.9644],[-71.5236,44.9641],[-71.518,44.9677],[-71.5229,44.9662],[-71.5368,44.9839],[-71.5413,44.9839],[-71.5331,44.9909],[-71.537,44.9935],[-71.5085,45.0079],[-71.4888,45.0008],[-71.4808,45.0023],[-71.4763,45.0094],[-71.465,45.0136],[-72.2427,45.0047]]]},"properties":{"geoid":"50ESX","state":"50","district":"Essex","name":"Essex Senatorial District","chamber":"Senate"}},{"type":"Feature","geometry":{"type":"Polygon","coordinates":[[[-73.3546,44.9874],[-73.3382,44.9648],[-73.3386,44.9194],[-73.3427,44.9137],[-73.3239,44.9111],[-73.3115,44.8974],[-73.3204,44.8443],[-73.2925,44.8413],[-73.2716,44.8974],[-73.2506,44.9245],[-73.231,44.9279],[-73.2238,44.9179],[-73.1923,44.9083],[-73.1964,44.8754],[-73.2071,44.8519],[-73.2032,44.8336],[-73.2099,44.8227],[-73.237,44.8097],[-73.2587,44.7751],[-73.256,44.7593],[-73.2289,44.7228],[-73.0381,44.6512],[-73.0848,44.773],[-72.7837,44.7284],[-72.7686,44.765],[-72.7586,44.7636],[-72.755,44.777],[-72.7458,44.7759],[-72.7468,44.7901],[-72.7291,44.804],[-72.6784,44.8025],[-72.6784,44.8394],[-72.6616,44.8401],[-72.6724,44.9215],[-72.5365,44.9261],[-72.5539,45.008],[-72.6043,45.0131],[-73.0653,45.016],[-73.3432,45.0107],[-73.3546,44.9874]]]},"properties":{"geoid":"50FRA","state":"50","district":"Franklin","name":"Franklin Senatorial District","chamber":"Senate"}},{"type":"Feature","geometry":{"type":"Polygon","coordinates":[[[-73.39,44.6196],[-73.3768,44.5996],[-73.3818,44.5893],[-73.375,44.5758],[-73.3568,44.5579],[-73.3388,44.548],[-73.3297,44.5296],[-73.322,44.5253],[-73.3212,44.5149],[-73.2707,44.5313],[-73.2741,44.5377],[-73.266,44.5397],[-73.2626,44.5371],[-73.2651,44.5248],[-73.2503,44.5226],[-73.2414,44.5288],[-73.2369,44.5219],[-73.2393,44.5172],[-73.2324,44.5131],[-73.219,44.5158],[-73.2276,44.5126],[-73.2279,44.5083],[-73.215,44.5097],[-73.2033,44.501],[-73.2021,44.4927],[-73.1921,44.506],[-73.1824,44.5025],[-73.1793,44.5111],[-73.1576,44.4993],[-73.145,44.5075],[-73.0979,44.5705],[-73.1985,44.6077],[-73.204,44.6034],[-73.2326,44.6135],[-73.2545,44.6107],[-73.2532,44.6385],[-73.2331,44.6499],[-73.2289,44.7229],[-73.256,44.7593],[-73.2587,44.7751],[-73.237,44.8097],[-73.2099,44.8227],[-73.2032,44.8336],[-73.2075,44.8488],[-73.192,44.8925],[-73.1941,44.91],[-73.2238,44.9179],[-73.231,44.9279],[-73.2518,44.9237],[-73.2716,44.8974],[-73.2773,44.8741],[-73.2949,44.84],[-73.3204,44.8443],[-73.3114,44.8933],[-73.3137,44.9012],[-73.3239,44.9111],[-73.3371,44.9139],[-73.3562,44.9045],[-73.3691,44.8667],[-73.3798,44.857],[-73.3813,44.8447],[-73.3696,44.8291],[-73.3354,44.8046],[-73.3332,44.7888],[-73.3656,44.7418],[-73.366,44.6976],[-73.3613,44.6945],[-73.3701,44.6849],[-73.3697,44.6635],[-73.3845,44.6467],[-73.3786,44.6415],[-73.3868,44.6364],[-73.39,44.6196]]]},"properties":{"geoid":"50GRI","state":"50","district":"Grand Isle","name":"Grand Isle Senatorial District","chamber":"Senate"}},{"type":"Feature","geometry":{"type":"Polygon","coordinates":[[[-73.0047,44.7606],[-72.9226,44.6501],[-72.9272,44.6466],[-72.9238,44.6419],[-72.9264,44.6351],[-72.91,44.6312],[-72.827,44.5507],[-72.7844,44.5411],[-72.7697,44.5634],[-72.6924,44.545],[-72.7076,44.5236],[-72.5973,44.4794],[-72.4936,44.424],[-72.3684,44.5928],[-72.4828,44.6341],[-72.4173,44.7229],[-72.5791,44.7809],[-72.5944,44.7903],[-72.5979,44.7871],[-72.6167,44.7958],[-72.6136,44.8004],[-72.7291,44.804],[-72.7468,44.7901],[-72.7458,44.7759],[-72.755,44.777],[-72.7586,44.7636],[-72.7686,44.765],[-72.7837,44.7284],[-73.0047,44.7606]]]},"properties":{"geoid":"50LAM","state":"50","district":"Lamoille","name":"Lamoille Senatorial District","chamber":"Senate"}},{"type":"Feature","geometry":{"type":"Polygon","coordinates":[[[-72.7027,43.9096],[-72.4616,43.8369],[-72.3393,43.8104],[-72.2715,43.8998],[-72.169,43.8717],[-72.1725,43.8846],[-72.1597,43.8877],[-72.1505,43.9021],[-72.1205,43.9196],[-72.1183,43.9465],[-72.1057,43.9498],[-72.099,43.9576],[-72.1007,43.963],[-72.0909,43.9658],[-72.1144,43.9681],[-72.112,43.986],[-72.117,43.9942],[-72.1041,44.0024],[-72.1028,44.0146],[-72.0907,44.0097],[-72.0954,44.0218],[-72.0833,44.0214],[-72.0792,44.0298],[-72.2076,44.066],[-72.1707,44.192],[-72.3052,44.1831],[-72.3314,44.0924],[-72.5597,44.1629],[-72.564,44.1548],[-72.5866,44.1603],[-72.6291,44.0878],[-72.6345,44.0893],[-72.6829,44.0128],[-72.6373,44.0007],[-72.7027,43.9096]]]},"properties":{"geoid":"50ORA","state":"50","district":"Orange","name":"Orange Senatorial District","chamber":"Senate"}},{"type":"Feature","geometry":{"type":"Polygon","coordinates":[[[-72.6784,44.8394],[-72.6784,44.8025],[-72.6136,44.8004],[-72.6167,44.7958],[-72.5979,44.7871],[-72.5944,44.7903],[-72.5791,44.7809],[-72.4173,44.7229],[-72.4828,44.6341],[-72.3684,44.5928],[-72.3739,44.5842],[-72.2629,44.5425],[-72.2025,44.6241],[-72.0948,44.5846],[-72.0664,44.6235],[-72.0577,44.5984],[-71.9316,44.5802],[-71.9337,44.572],[-71.8983,44.5579],[-71.8424,44.6109],[-71.9102,44.6468],[-71.8371,44.7164],[-71.9748,44.7872],[-71.92,44.8369],[-72.0674,44.9144],[-72.1194,44.8644],[-72.2432,44.9306],[-72.2384,44.9439],[-72.2419,44.9445],[-72.2416,44.9515],[-72.2264,44.9536],[-72.2318,44.9856],[-72.2467,45.0046],[-72.5539,45.008],[-72.5365,44.9261],[-72.6724,44.9215],[-72.6616,44.8401],[-72.6784,44.8394]]]},"properties":{"geoid":"50ORL","state":"50","district":"Orleans","name":"Orleans Senatorial District","chamber":"Senate"}},{"type":"Feature","geometry":{"type":"Polygon","coordinates":[[[-73.431,43.5891],[-73.4286,43.584],[-73.3958,43.5681],[-73.3833,43.5772],[-73.3825,43.5866],[-73.3869,43.5908],[-73.3725,43.6048],[-73.3764,43.6088],[-73.3698,43.6194],[-73.3719,43.6245],[-73.3543,43.6262],[-73.3488,43.6215],[-73.3441,43.6264],[-73.3179,43.6285],[-73.3106,43.6241],[-73.3067,43.6284],[-73.3004,43.6178],[-73.3028,43.6098],[-73.298,43.61],[-73.291,43.5992],[-73.2969,43.5877],[-73.2921,43.5849],[-73.2957,43.5771],[-73.2849,43.5793],[-73.2809,43.5736],[-73.2679,43.5722],[-73.2486,43.5539],[-73.2501,43.5434],[-73.2414,43.5323],[-73.2477,43.5232],[-73.2546,43.3145],[-72.9876,43.305],[-72.9923,43.2907],[-72.9759,43.2906],[-72.9753,43.3042],[-72.8686,43.3005],[-72.865,43.3487],[-72.8547,43.3493],[-72.8524,43.3763],[-72.822,43.3757],[-72.8219,43.3806],[-72.7585,43.3533],[-72.7624,43.3714],[-72.7384,43.417],[-72.7226,43.4601],[-72.7274,43.4611],[-72.7242,43.4682],[-72.7714,43.4786],[-72.7691,43.4915],[-72.7899,43.4945],[-72.7819,43.5439],[-72.7715,43.5911],[-72.7579,43.5874],[-72.6998,43.6846],[-72.8359,43.7194],[-72.8261,43.7377],[-72.8724,43.8051],[-72.8745,43.8581],[-73.0171,43.8049],[-73.0268,43.8421],[-73.0331,43.8442],[-73.0299,43.8467],[-73.219,43.8373],[-73.2063,43.7668],[-73.3628,43.7531],[-73.3699,43.7439],[-73.3706,43.7253],[-73.4047,43.6902],[-73.4041,43.6813],[-73.4155,43.6525],[-73.4265,43.6426],[-73.4284,43.6355],[-73.4177,43.6217],[-73.4237,43.6124],[-73.4216,43.603],[-73.431,43.5891]]]},"properties":{"geoid":"50RUT","state":"50","district":"Rutland","name":"Rutland Senatorial District","chamber":"Senate"}},{"type":"Feature","geometry":{"type":"Polygon","coordinates":[[[-72.9513,44.1633],[-72.9341,44.1628],[-72.9168,44.0719],[-72.8969,44.0737],[-72.7422,44.0296],[-72.791,43.9622],[-72.787,43.9608],[-72.7918,43.954],[-72.7852,43.9522],[-72.79,43.9453],[-72.7711,43.9391],[-72.7751,43.9337],[-72.7689,43.9316],[-72.7735,43.9245],[-72.7123,43.908],[-72.7028,43.9094],[-72.6373,44.0007],[-72.6829,44.0128],[-72.6345,44.0893],[-72.6291,44.0878],[-72.5866,44.1603],[-72.564,44.1548],[-72.5597,44.1629],[-72.3314,44.0924],[-72.3052,44.1831],[-72.3689,44.2039],[-72.3167,44.2722],[-72.3168,44.2988],[-72.27,44.3405],[-72.2171,44.4113],[-72.2226,44.4161],[-72.2201,44.4212],[-72.2282,44.4193],[-72.2238,44.4249],[-72.4343,44.5061],[-72.4936,44.424],[-72.5973,44.4794],[-72.7076,44.5236],[-72.6924,44.545],[-72.7697,44.5634],[-72.7844,44.5411],[-72.81,44.5467],[-72.8308,44.5164],[-72.8036,44.5063],[-72.8383,44.4593],[-72.8049,44.4519],[-72.8398,44.4035],[-72.8024,44.3886],[-72.826,44.359],[-72.8613,44.3669],[-72.906,44.2806],[-72.895,44.2781],[-72.9513,44.1633]]]},"properties":{"geoid":"50WAS","state":"50","district":"Washington","name":"Washington Senatorial District","chamber":"Senate"}},{"type":"Feature","geometry":{"type":"Polygon","coordinates":[[[-72.9301,42.7394],[-72.4584,42.7269],[-72.4734,42.7462],[-72.477,42.7608],[-72.4905,42.7727],[-72.4977,42.7734],[-72.5084,42.7644],[-72.5155,42.7656],[-72.5087,42.7795],[-72.5415,42.8071],[-72.5474,42.8395],[-72.5571,42.8532],[-72.5526,42.885],[-72.5334,42.8953],[-72.5304,42.9111],[-72.5245,42.9151],[-72.5269,42.9414],[-72.5338,42.9526],[-72.5184,42.9631],[-72.4922,42.9677],[-72.4816,42.974],[-72.4737,42.9721],[-72.4617,42.9829],[-72.4654,42.9896],[-72.4625,42.9974],[-72.4494,43.0003],[-72.4433,43.0076],[-72.4626,43.0258],[-72.4604,43.0414],[-72.4679,43.0525],[-72.434,43.0845],[-72.4432,43.1028],[-72.4335,43.1106],[-72.4328,43.1202],[-72.4423,43.1293],[-72.4408,43.1366],[-72.4521,43.1386],[-72.4574,43.1475],[-72.4521,43.1532],[-72.4528,43.1728],[-72.4439,43.1798],[-72.4505,43.1926],[-72.4385,43.2016],[-72.441,43.2182],[-72.4346,43.2333],[-72.5491,43.2359],[-72.6854,43.2226],[-72.7302,43.2333],[-72.7276,43.2265],[-72.7382,43.2153],[-72.7346,43.2076],[-72.7654,43.1809],[-72.7654,43.1696],[-72.7733,43.1539],[-72.7714,43.1417],[-72.8648,43.1662],[-72.8794,42.991],[-72.9202,42.9927],[-72.9238,42.9274],[-72.7977,42.9223],[-72.8031,42.8267],[-72.9274,42.8298],[-72.9301,42.7394]]]},"properties":{"geoid":"50WDH","state":"50","district":"Windham","name":"Windham Senatorial District","chamber":"Senate"}},{"type":"Feature","geometry":{"type":"Polygon","coordinates":[[[-72.8744,43.8383],[-72.8724,43.8051],[-72.8261,43.7377],[-72.8359,43.7194],[-72.6998,43.6846],[-72.7579,43.5874],[-72.7715,43.5911],[-72.7819,43.5439],[-72.7899,43.4945],[-72.7691,43.4915],[-72.7714,43.4786],[-72.7242,43.4682],[-72.7274,43.4611],[-72.7226,43.4601],[-72.7384,43.417],[-72.7624,43.3714],[-72.7585,43.3533],[-72.8219,43.3806],[-72.822,43.3757],[-72.8524,43.3763],[-72.8547,43.3493],[-72.865,43.3487],[-72.8686,43.3005],[-72.8199,43.2994],[-72.8196,43.256],[-72.6854,43.2226],[-72.5491,43.2359],[-72.4346,43.2333],[-72.4396,43.2447],[-72.4371,43.2561],[-72.416,43.2702],[-72.3953,43.3127],[-72.4106,43.3311],[-72.3899,43.3566],[-72.4126,43.3623],[-72.416,43.3772],[-72.4035,43.3916],[-72.3904,43.4509],[-72.3926,43.4669],[-72.3815,43.48],[-72.3811,43.494],[-72.3989,43.5127],[-72.3943,43.5274],[-72.3807,43.5404],[-72.3802,43.5734],[-72.3283,43.6011],[-72.3348,43.618],[-72.3274,43.6307],[-72.3291,43.6355],[-72.3147,43.6419],[-72.3136,43.6569],[-72.3031,43.6686],[-72.3051,43.6953],[-72.2996,43.7063],[-72.2711,43.7339],[-72.2342,43.746],[-72.2185,43.7655],[-72.2052,43.7709],[-72.2055,43.7846],[-72.1835,43.809],[-72.1889,43.8212],[-72.1824,43.8341],[-72.1879,43.8564],[-72.1841,43.8648],[-72.1687,43.8712],[-72.2715,43.8998],[-72.3393,43.8104],[-72.4616,43.8369],[-72.7093,43.9112],[-72.7829,43.804],[-72.7883,43.8064],[-72.7844,43.8138],[-72.7921,43.8165],[-72.7943,43.8212],[-72.7905,43.8233],[-72.7969,43.8292],[-72.8307,43.8391],[-72.8383,43.8293],[-72.8744,43.8383]]]},"properties":{"geoid":"50WSR","state":"50","district":"Windsor","name":"Windsor Senatorial District","chamber":"Senate"}}]}