{"type":"FeatureCollection","features":[{"type":"Feature","geometry":{"type":"Polygon","coordinates":[[[-80.7502,39.7902],[-80.7471,39.7766],[-80.728,39.7613],[-80.7311,39.7213],[-80.5193,39.7214],[-80.519,40.6388],[-80.5511,40.6288],[-80.5767,40.6142],[-80.5988,40.6253],[-80.6272,40.6199],[-80.6678,40.5835],[-80.6644,40.57],[-80.6275,40.5358],[-80.618,40.502],[-80.5954,40.4753],[-80.596,40.4634],[-80.6122,40.4348],[-80.6123,40.4028],[-80.6327,40.3905],[-80.6314,40.3857],[-80.6097,40.3749],[-80.6128,40.3477],[-80.5999,40.3177],[-80.6149,40.292],[-80.6193,40.2652],[-80.6521,40.245],[-80.6615,40.2298],[-80.6681,40.1997],[-80.7056,40.1535],[-80.7102,40.1383],[-80.7095,40.1003],[-80.7388,40.0767],[-80.7313,40.0489],[-80.7339,40.0333],[-80.6914,40.0301],[-80.6971,40.0215],[-80.6812,40.0042],[-80.6813,39.9922],[-80.662,39.9701],[-80.6553,39.9517],[-80.6809,39.9409],[-80.701,39.9384],[-80.6998,39.9297],[-80.728,39.913],[-80.7182,39.9141],[-80.7226,39.9083],[-80.7216,39.8949],[-80.7016,39.8676],[-80.7084,39.8588],[-80.708,39.8457],[-80.7159,39.8428],[-80.7042,39.8391],[-80.6962,39.8272],[-80.7209,39.8305],[-80.7243,39.8171],[-80.7446,39.8053],[-80.7443,39.7888],[-80.7502,39.7902]]]},"properties":{"geoid":"54001","state":"54","district":"1","name":"State Senate District 1","chamber":"Senate"}},{"type":"Feature","geometry":{"type":"Polygon","coordinates":[[[-81.1215,39.4578],[-81.1069,39.4636],[-81.0956,39.4572],[-81.0789,39.4676],[-81.0567,39.4634],[-81.0542,39.468],[-81.0613,39.4764],[-81.0255,39.4638],[-81.0067,39.3447],[-81.0022,39.3405],[-80.9867,39.3473],[-80.9577,39.3401],[-80.9419,39.3628],[-80.9428,39.3784],[-80.9341,39.3886],[-80.919,39.3842],[-80.9107,39.3751],[-80.9044,39.3781],[-80.9034,39.373],[-80.8975,39.3733],[-80.8825,39.3584],[-80.8839,39.3327],[-80.8925,39.3252],[-80.8914,39.3149],[-80.884,39.3078],[-80.8898,39.3007],[-80.8887,39.2943],[-80.9138,39.2729],[-80.813,39.1094],[-80.701,39.0903],[-80.6876,39.1097],[-80.6812,39.112],[-80.6817,39.1212],[-80.6644,39.1297],[-80.6629,39.1378],[-80.6569,39.1411],[-80.6443,39.1369],[-80.6296,39.1392],[-80.6171,39.1541],[-80.5998,39.1597],[-80.5897,39.171],[-80.5918,39.1827],[-80.5756,39.1752],[-80.5615,39.1787],[-80.5544,39.1922],[-80.5479,39.1866],[-80.5382,39.1954],[-80.5284,39.1961],[-80.5324,39.2007],[-80.5256,39.209],[-80.5293,39.212],[-80.5461,39.2165],[-80.5544,39.2142],[-80.5662,39.221],[-80.5654,39.2314],[-80.5515,39.2267],[-80.5471,39.2348],[-80.5874,39.2611],[-80.5881,39.267],[-80.5775,39.2763],[-80.5778,39.2822],[-80.6043,39.286],[-80.5926,39.3038],[-80.5862,39.3035],[-80.5824,39.3164],[-80.5651,39.3199],[-80.5448,39.3518],[-80.5335,39.355],[-80.5326,39.3612],[-80.5444,39.3677],[-80.5382,39.3867],[-80.5474,39.3966],[-80.5477,39.4037],[-80.5391,39.4103],[-80.5376,39.4197],[-80.5448,39.4285],[-80.5156,39.4377],[-80.5194,39.4464],[-80.5141,39.4578],[-80.494,39.4611],[-80.4941,39.4696],[-80.2908,39.4358],[-80.2898,39.4322],[-80.2825,39.4357],[-80.2037,39.3966],[-80.207,39.4107],[-80.1984,39.4287],[-80.206,39.4281],[-80.2036,39.4337],[-80.2083,39.4382],[-80.2364,39.4372],[-80.2455,39.4479],[-80.2274,39.4532],[-80.2249,39.4653],[-80.2123,39.4665],[-80.2053,39.4561],[-80.188,39.4595],[-80.1828,39.4664],[-80.1856,39.4711],[-80.1776,39.4681],[-80.1734,39.4728],[-80.1795,39.4735],[-80.1731,39.4754],[-80.1751,39.4835],[-80.17,39.4845],[-80.1735,39.4868],[-80.1334,39.5065],[-80.1334,39.5225],[-80.1428,39.5228],[-80.1547,39.5347],[-80.1385,39.5372],[-80.1369,39.531],[-80.1323,39.5381],[-80.1031,39.5451],[-80.0885,39.5569],[-80.0417,39.5197],[-80.0154,39.52],[-79.9852,39.5428],[-79.9819,39.5667],[-79.9755,39.5761],[-79.9798,39.5926],[-79.9928,39.6048],[-80.0024,39.6072],[-80.0093,39.6172],[-80.0309,39.6192],[-80.0342,39.6235],[-80.0293,39.6499],[-80.0162,39.6529],[-80.0202,39.6578],[-80.0105,39.6639],[-79.9938,39.6582],[-79.9731,39.6808],[-79.9701,39.6713],[-79.9452,39.6675],[-79.9441,39.6726],[-79.9381,39.6713],[-79.9283,39.6774],[-79.9219,39.6883],[-79.9149,39.6619],[-79.9007,39.6645],[-79.9015,39.6529],[-79.8893,39.6537],[-79.9035,39.6272],[-79.8857,39.6299],[-79.8829,39.6168],[-79.8749,39.6167],[-79.868,39.6191],[-79.8623,39.6313],[-79.8407,39.6439],[-79.8123,39.6272],[-79.8067,39.6162],[-79.8,39.6152],[-79.7893,39.6238],[-79.7854,39.6573],[-79.7638,39.6969],[-79.7638,39.7208],[-80.7311,39.7213],[-80.728,39.7613],[-80.7471,39.7766],[-80.7502,39.7902],[-80.7443,39.7888],[-80.7446,39.8053],[-80.7243,39.8171],[-80.7209,39.8305],[-80.6962,39.8272],[-80.7042,39.8391],[-80.7159,39.8428],[-80.708,39.8457],[-80.7084,39.8588],[-80.7016,39.8676],[-80.7216,39.8949],[-80.7226,39.9083],[-80.7182,39.9141],[-80.7282,39.9124],[-80.6998,39.9297],[-80.701,39.9384],[-80.6809,39.9409],[-80.6553,39.9517],[-80.662,39.9701],[-80.6813,39.9922],[-80.6812,40.0042],[-80.6971,40.0215],[-80.6914,40.0301],[-80.7339,40.0333],[-80.7422,40.0086],[-80.7401,39.9708],[-80.7642,39.9506],[-80.7561,39.9134],[-80.7634,39.9086],[-80.787,39.9184],[-80.8068,39.9163],[-80.8092,39.9039],[-80.794,39.8828],[-80.7908,39.8673],[-80.8243,39.8472],[-80.827,39.8417],[-80.8222,39.8117],[-80.8261,39.7986],[-80.863,39.7752],[-80.8703,39.7632],[-80.8606,39.7482],[-80.8455,39.7381],[-80.8298,39.7118],[-80.8339,39.7035],[-80.8637,39.6917],[-80.8663,39.6545],[-80.8766,39.6259],[-80.8922,39.6168],[-80.9176,39.6187],[-80.9333,39.6148],[-80.9735,39.5884],[-81.0706,39.516],[-81.1008,39.4872],[-81.1215,39.4578]]]},"properties":{"geoid":"54002","state":"54","district":"2","name":"State Senate District 2","chamber":"Senate"}},{"type":"Feature","geometry":{"type":"Polygon","coordinates":[[[-81.7564,39.178],[-81.7428,39.1427],[-81.7424,39.1113],[-81.7473,39.0954],[-81.5322,39.0058],[-81.5372,38.9902],[-81.5296,38.9775],[-81.5453,38.9715],[-81.55,38.9603],[-81.5388,38.9447],[-81.5338,38.9459],[-81.5194,38.9361],[-81.5162,38.9308],[-81.5204,38.9258],[-81.5144,38.9251],[-81.5129,38.9188],[-81.5012,38.918],[-81.4934,38.9256],[-81.4674,38.9275],[-81.4481,38.9416],[-81.4151,38.9207],[-81.3439,38.8956],[-81.2747,38.9174],[-81.2775,38.9243],[-81.2664,38.9262],[-81.2727,38.9363],[-81.1555,39.0402],[-81.1361,39.0452],[-81.1287,39.0451],[-81.1248,39.0398],[-81.116,39.0425],[-81.1122,39.0307],[-81.1025,39.0215],[-81.0943,39.0223],[-81.0939,39.0156],[-81.081,39.0166],[-81.075,39.01],[-81.0597,39.0079],[-81.0384,39.0128],[-81.0336,39.0096],[-81.0248,39.0125],[-81.0231,39.0082],[-81.0025,39.0096],[-80.9903,39.0206],[-80.9821,39.0202],[-80.9821,39.0261],[-80.9672,39.029],[-80.9602,39.038],[-80.9362,39.0448],[-80.9186,39.0435],[-80.8981,39.0556],[-80.8975,39.0628],[-80.8774,39.0687],[-80.877,39.0739],[-80.8629,39.0713],[-80.8518,39.0797],[-80.854,39.0842],[-80.835,39.0824],[-80.8281,39.0921],[-80.8188,39.0916],[-80.8089,39.1043],[-80.9138,39.2729],[-80.8887,39.2943],[-80.8898,39.3007],[-80.884,39.3078],[-80.8914,39.3149],[-80.8925,39.3252],[-80.8847,39.3307],[-80.885,39.3413],[-80.8807,39.3457],[-80.8857,39.3515],[-80.8837,39.3607],[-80.8975,39.3733],[-80.9034,39.373],[-80.9044,39.3781],[-80.9103,39.3749],[-80.919,39.3842],[-80.9321,39.3891],[-80.9428,39.3784],[-80.9419,39.3628],[-80.9577,39.3401],[-80.9867,39.3473],[-81.0022,39.3405],[-81.0067,39.3447],[-81.0255,39.4638],[-81.0599,39.4764],[-81.054,39.4674],[-81.0567,39.4634],[-81.0791,39.4675],[-81.0956,39.4572],[-81.1069,39.4636],[-81.1215,39.4578],[-81.1344,39.4451],[-81.1799,39.4351],[-81.2082,39.4071],[-81.2173,39.3876],[-81.2444,39.3904],[-81.2707,39.3859],[-81.3569,39.3432],[-81.3846,39.3434],[-81.3938,39.3517],[-81.4127,39.3946],[-81.4356,39.4085],[-81.4561,39.4093],[-81.5575,39.3388],[-81.5652,39.2762],[-81.5702,39.2677],[-81.6084,39.276],[-81.6776,39.2742],[-81.6964,39.257],[-81.6924,39.2264],[-81.7256,39.2159],[-81.7369,39.1926],[-81.752,39.1855],[-81.7564,39.178]]]},"properties":{"geoid":"54003","state":"54","district":"3","name":"State Senate District 3","chamber":"Senate"}},{"type":"Feature","geometry":{"type":"Polygon","coordinates":[[[-82.3236,38.4502],[-82.3162,38.447],[-82.3038,38.4588],[-82.3009,38.4685],[-82.2833,38.4707],[-82.2564,38.4477],[-82.2394,38.4412],[-82.2362,38.4339],[-82.2236,38.4468],[-82.2253,38.4411],[-82.2196,38.4421],[-82.222,38.4359],[-82.2171,38.4379],[-82.2155,38.4319],[-82.203,38.4281],[-82.2319,38.4154],[-82.2492,38.4164],[-82.2401,38.395],[-82.2507,38.3761],[-82.239,38.3576],[-82.2239,38.3636],[-82.2154,38.3423],[-82.2176,38.3344],[-82.2068,38.3369],[-82.1975,38.3292],[-82.2119,38.3236],[-82.2038,38.3233],[-82.199,38.3178],[-82.1831,38.3297],[-82.1776,38.3398],[-82.1685,38.3353],[-82.1255,38.3468],[-82.117,38.3442],[-82.1103,38.3585],[-82.1026,38.3571],[-82.0974,38.3674],[-82.0791,38.3688],[-82.0647,38.3768],[-82.0471,38.3744],[-82.0431,38.3373],[-82.0489,38.2903],[-82.0283,38.2794],[-82.0189,38.2818],[-82.0162,38.2718],[-82.0018,38.2716],[-81.9974,38.2666],[-81.9918,38.2691],[-81.9912,38.2758],[-81.9821,38.2767],[-81.9152,38.3256],[-81.9002,38.3986],[-81.8508,38.4219],[-81.8477,38.4411],[-81.8255,38.4544],[-81.8164,38.4703],[-81.8377,38.4939],[-81.8467,38.5138],[-81.8729,38.5394],[-81.888,38.5432],[-81.9121,38.527],[-81.9264,38.5264],[-81.9895,38.5721],[-82.0039,38.5917],[-82.0008,38.6035],[-81.9772,38.6247],[-81.9558,38.6574],[-81.7728,38.6808],[-81.8135,38.7148],[-81.7777,38.7475],[-81.773,38.745],[-81.7743,38.7363],[-81.7596,38.7361],[-81.7411,38.7447],[-81.7368,38.7725],[-81.7045,38.7812],[-81.6862,38.7791],[-81.68,38.7857],[-81.6695,38.7833],[-81.6671,38.7923],[-81.6538,38.7889],[-81.6511,38.7959],[-81.6548,38.8028],[-81.6465,38.801],[-81.6434,38.8095],[-81.635,38.8069],[-81.6367,38.8132],[-81.6314,38.8228],[-81.6271,38.8224],[-81.6257,38.8154],[-81.6174,38.8196],[-81.6133,38.8346],[-81.6219,38.8447],[-81.6212,38.8533],[-81.6123,38.8615],[-81.5895,38.8606],[-81.574,38.8788],[-81.5899,38.8963],[-81.6123,38.8907],[-81.6239,38.8976],[-81.6157,38.917],[-81.5387,39.0085],[-81.7473,39.0954],[-81.7756,39.0784],[-81.8107,39.0833],[-81.8139,39.0687],[-81.8081,39.0538],[-81.7643,39.0153],[-81.7652,39.0026],[-81.7751,38.9914],[-81.7816,38.9623],[-81.7561,38.9335],[-81.7627,38.9241],[-81.7741,38.923],[-81.7934,38.9302],[-81.8142,38.9462],[-81.8274,38.9459],[-81.8445,38.9287],[-81.8453,38.9101],[-81.856,38.8927],[-81.8928,38.8739],[-81.9103,38.8793],[-81.928,38.8935],[-81.9267,38.9013],[-81.8985,38.9296],[-81.9332,38.9877],[-81.9514,38.996],[-81.9794,38.9932],[-81.9914,39.0184],[-82.0045,39.0289],[-82.0219,39.0295],[-82.0377,39.0239],[-82.0516,38.9944],[-82.0916,38.9738],[-82.1091,38.9456],[-82.1117,38.9326],[-82.1112,38.9366],[-82.1294,38.9079],[-82.1432,38.8981],[-82.1454,38.8842],[-82.1392,38.865],[-82.1455,38.8397],[-82.1636,38.8234],[-82.1912,38.8151],[-82.2114,38.8012],[-82.2216,38.7872],[-82.2196,38.7723],[-82.1989,38.7577],[-82.188,38.7331],[-82.1869,38.7223],[-82.1931,38.7377],[-82.1825,38.7088],[-82.1909,38.6804],[-82.1725,38.6288],[-82.1753,38.6071],[-82.1888,38.595],[-82.201,38.5921],[-82.2621,38.5982],[-82.2913,38.579],[-82.2957,38.5385],[-82.304,38.5177],[-82.3042,38.4963],[-82.3236,38.4502]]]},"properties":{"geoid":"54004","state":"54","district":"4","name":"State Senate District 4","chamber":"Senate"}},{"type":"Feature","geometry":{"type":"Polygon","coordinates":[[[-82.6446,38.1659],[-82.6386,38.1559],[-82.637,38.1387],[-82.6286,38.1353],[-82.6143,38.1522],[-82.609,38.1462],[-82.5984,38.1774],[-82.597,38.1747],[-82.5864,38.1904],[-82.5545,38.1966],[-82.5416,38.1907],[-82.5017,38.2154],[-82.5038,38.2198],[-82.4971,38.2224],[-82.4764,38.2011],[-82.4719,38.2035],[-82.4674,38.198],[-82.4512,38.2045],[-82.4454,38.2137],[-82.4403,38.2127],[-82.4305,38.1828],[-82.4181,38.1926],[-82.4059,38.1928],[-82.4049,38.1848],[-82.3873,38.1778],[-82.3889,38.1737],[-82.3793,38.1661],[-82.4046,38.1599],[-82.4115,38.1532],[-82.4266,38.1554],[-82.4383,38.1429],[-82.4397,38.146],[-82.4603,38.1413],[-82.4728,38.1314],[-82.464,38.1283],[-82.4539,38.1149],[-82.4366,38.1169],[-82.4301,38.1248],[-82.427,38.1228],[-82.4187,38.0976],[-82.4227,38.0878],[-82.4363,38.0787],[-82.4275,38.0646],[-82.4351,38.0577],[-82.4227,38.0434],[-82.4309,38.0367],[-82.4273,38.0327],[-82.4353,38.0312],[-82.4314,38.0219],[-82.4183,38.015],[-82.4092,37.9984],[-82.4025,38.0007],[-82.3867,37.9878],[-82.3796,37.9931],[-82.375,37.9876],[-82.3558,37.9849],[-82.3599,37.9794],[-82.3568,37.9693],[-82.3424,37.9647],[-82.3384,37.9568],[-82.3388,37.9484],[-82.3458,37.9464],[-82.3438,37.9337],[-82.3251,37.9282],[-82.2435,38.0008],[-82.2175,38.0201],[-82.2039,38.0236],[-82.2064,38.029],[-82.1923,38.0463],[-82.1926,38.0511],[-82.2094,38.052],[-82.2118,38.0572],[-82.2069,38.0582],[-82.2058,38.0668],[-82.2278,38.0689],[-82.2279,38.0762],[-82.2354,38.0762],[-82.2409,38.0972],[-82.2463,38.1021],[-82.253,38.1009],[-82.2686,38.1151],[-82.2569,38.1326],[-82.2825,38.1414],[-82.2863,38.149],[-82.28,38.1525],[-82.2717,38.1694],[-82.2775,38.1739],[-82.2713,38.1785],[-82.2778,38.2057],[-82.2664,38.2106],[-82.27,38.218],[-82.2574,38.235],[-82.26,38.2462],[-82.2452,38.2541],[-82.2478,38.2619],[-82.2426,38.2703],[-82.216,38.2807],[-82.2076,38.2887],[-82.212,38.2912],[-82.2065,38.3018],[-82.2208,38.3106],[-82.1974,38.311],[-82.203,38.3229],[-82.2119,38.3236],[-82.1978,38.3298],[-82.2068,38.3369],[-82.2176,38.3344],[-82.2154,38.3423],[-82.2239,38.3636],[-82.2386,38.3575],[-82.2463,38.3638],[-82.2507,38.3761],[-82.2401,38.3951],[-82.2492,38.4164],[-82.2319,38.4154],[-82.203,38.4281],[-82.2155,38.4319],[-82.2171,38.4379],[-82.222,38.4359],[-82.2196,38.4421],[-82.2253,38.4411],[-82.2236,38.4468],[-82.2362,38.4339],[-82.2394,38.4412],[-82.2564,38.4477],[-82.2834,38.4707],[-82.3009,38.4685],[-82.3038,38.4588],[-82.3162,38.447],[-82.324,38.4493],[-82.3406,38.4409],[-82.3818,38.4348],[-82.4049,38.4393],[-82.5377,38.4042],[-82.5734,38.4057],[-82.5888,38.4136],[-82.5935,38.4218],[-82.5971,38.4108],[-82.5946,38.3983],[-82.5995,38.3908],[-82.5927,38.3768],[-82.5981,38.3459],[-82.5767,38.3285],[-82.5718,38.3172],[-82.583,38.2968],[-82.5741,38.2746],[-82.5746,38.2639],[-82.5833,38.2468],[-82.6046,38.2477],[-82.6122,38.2363],[-82.6086,38.2235],[-82.5983,38.2174],[-82.5991,38.1972],[-82.6116,38.1713],[-82.6389,38.1711],[-82.6446,38.1659]]]},"properties":{"geoid":"54005","state":"54","district":"5","name":"State Senate District 5","chamber":"Senate"}},{"type":"Feature","geometry":{"type":"Polygon","coordinates":[[[-82.6285,38.136],[-82.6214,38.1328],[-82.6192,38.1205],[-82.6053,38.1205],[-82.5861,38.1079],[-82.5845,38.0915],[-82.5746,38.0824],[-82.5504,38.0701],[-82.5371,38.0447],[-82.5387,38.0374],[-82.5263,38.027],[-82.5251,38.0175],[-82.5155,38.0066],[-82.5192,38.0011],[-82.4887,37.9989],[-82.4836,37.9838],[-82.4646,37.9839],[-82.4689,37.9732],[-82.4844,37.9709],[-82.4845,37.9636],[-82.4718,37.9587],[-82.4856,37.9458],[-82.4972,37.9462],[-82.4893,37.9382],[-82.5024,37.9335],[-82.4959,37.927],[-82.4807,37.9262],[-82.4883,37.9177],[-82.4756,37.9118],[-82.4744,37.9],[-82.4684,37.9032],[-82.468,37.9139],[-82.463,37.9148],[-82.4199,37.8849],[-82.4176,37.8703],[-82.4075,37.8673],[-82.4246,37.8614],[-82.4147,37.856],[-82.4205,37.8464],[-82.4129,37.8448],[-82.3993,37.8295],[-82.4013,37.8095],[-82.3867,37.8182],[-82.3766,37.8022],[-82.3401,37.7856],[-82.3375,37.7749],[-82.3239,37.775],[-82.3334,37.7644],[-82.3115,37.7646],[-82.3342,37.7428],[-82.3189,37.7337],[-82.3077,37.708],[-82.2964,37.7022],[-82.3029,37.6936],[-82.2959,37.6862],[-82.3043,37.6761],[-82.295,37.6781],[-82.2946,37.6704],[-82.2881,37.6681],[-82.2825,37.6759],[-82.2581,37.6569],[-82.2361,37.6596],[-82.2168,37.6416],[-82.2205,37.6348],[-82.2145,37.6254],[-82.1872,37.627],[-82.1911,37.6446],[-82.1751,37.6478],[-82.1776,37.6408],[-82.1724,37.6326],[-82.1817,37.6271],[-82.1812,37.6215],[-82.1767,37.6182],[-82.1642,37.6203],[-82.1688,37.6091],[-82.1567,37.609],[-82.1569,37.5927],[-82.1484,37.5907],[-82.1399,37.595],[-82.1273,37.5865],[-82.1262,37.5737],[-82.1449,37.5677],[-82.1344,37.5629],[-82.1332,37.5528],[-82.1234,37.5515],[-82.118,37.559],[-82.1048,37.5602],[-82.104,37.5529],[-82.0752,37.5559],[-82.0639,37.5431],[-82.0648,37.5372],[-82.0503,37.5354],[-82.0466,37.528],[-82.0414,37.5483],[-82.0296,37.5378],[-82.0196,37.5406],[-82.0108,37.5329],[-81.9983,37.5433],[-81.9941,37.5377],[-81.9701,37.5467],[-81.9649,37.5429],[-81.9677,37.5331],[-81.9575,37.5355],[-81.9542,37.5281],[-81.944,37.5313],[-81.9476,37.5267],[-81.9447,37.5136],[-81.9378,37.5136],[-81.9337,37.5195],[-81.9267,37.5131],[-81.9531,37.5013],[-81.9533,37.4918],[-81.965,37.4935],[-81.9776,37.4846],[-81.9898,37.4849],[-81.9966,37.4767],[-81.987,37.4549],[-81.9762,37.4572],[-81.9688,37.4515],[-81.9704,37.4477],[-81.9576,37.4491],[-81.9356,37.4384],[-81.9389,37.422],[-81.923,37.4114],[-81.93,37.4053],[-81.9288,37.3938],[-81.9367,37.3807],[-81.9311,37.3758],[-81.9334,37.3693],[-81.926,37.3655],[-81.9285,37.3605],[-81.9177,37.3492],[-81.8996,37.3416],[-81.8939,37.33],[-81.8794,37.3325],[-81.8725,37.3224],[-81.8605,37.3159],[-81.8657,37.3095],[-81.8596,37.3048],[-81.8545,37.3066],[-81.8541,37.29],[-81.8499,37.2852],[-81.8344,37.2854],[-81.8258,37.2791],[-81.8007,37.2857],[-81.7931,37.2812],[-81.7824,37.2823],[-81.7732,37.2739],[-81.7571,37.2761],[-81.7576,37.2686],[-81.7461,37.2637],[-81.7409,37.2543],[-81.7444,37.2433],[-81.7401,37.2378],[-81.7231,37.2405],[-81.7157,37.2288],[-81.6951,37.2136],[-81.6836,37.2116],[-81.6782,37.2015],[-81.5547,37.208],[-81.5456,37.2202],[-81.5076,37.2337],[-81.4991,37.258],[-81.4923,37.251],[-81.4801,37.2511],[-81.4477,37.2722],[-81.416,37.2736],[-81.4023,37.2958],[-81.4051,37.2988],[-81.3968,37.3045],[-81.3987,37.3102],[-81.3943,37.3164],[-81.3727,37.3202],[-81.3645,37.338],[-81.3201,37.2993],[-81.2251,37.2349],[-81.167,37.2629],[-81.1041,37.2806],[-80.9796,37.3023],[-80.9822,37.296],[-80.977,37.2918],[-80.9442,37.2966],[-80.8992,37.3157],[-80.869,37.3386],[-80.8495,37.3469],[-80.8832,37.3839],[-80.863,37.4115],[-80.8653,37.4201],[-80.8595,37.4295],[-81.0937,37.5881],[-81.1081,37.5939],[-81.1189,37.5883],[-81.1354,37.5979],[-81.1428,37.5968],[-81.1489,37.5908],[-81.1553,37.5928],[-81.1725,37.5863],[-81.1776,37.5799],[-81.1844,37.5821],[-81.1989,37.5755],[-81.1988,37.5594],[-81.2045,37.5527],[-81.2,37.5395],[-81.2104,37.5306],[-81.207,37.5247],[-81.2139,37.5083],[-81.2276,37.51],[-81.2585,37.4988],[-81.2781,37.4725],[-81.2948,37.4694],[-81.2968,37.4621],[-81.3074,37.4595],[-81.3056,37.4501],[-81.2943,37.4419],[-81.2826,37.4209],[-81.2925,37.4132],[-81.3291,37.4352],[-81.3464,37.4335],[-81.3741,37.4432],[-81.3854,37.4613],[-81.393,37.4598],[-81.3996,37.4646],[-81.4033,37.4588],[-81.4169,37.4556],[-81.4261,37.4613],[-81.4322,37.4487],[-81.439,37.4586],[-81.4551,37.4662],[-81.4502,37.4762],[-81.4612,37.4836],[-81.4914,37.481],[-81.4991,37.4737],[-81.5193,37.4783],[-81.5273,37.4756],[-81.5346,37.4853],[-81.5534,37.4918],[-81.5706,37.4873],[-81.5757,37.4909],[-81.583,37.4874],[-81.5872,37.4945],[-81.5959,37.4907],[-81.6076,37.5024],[-81.6034,37.5089],[-81.6128,37.5105],[-81.6175,37.5213],[-81.6302,37.5162],[-81.6284,37.512],[-81.6339,37.51],[-81.6411,37.5154],[-81.6465,37.5133],[-81.6544,37.5233],[-81.6721,37.5164],[-81.6821,37.5176],[-81.6888,37.5136],[-81.6849,37.5057],[-81.7018,37.5017],[-81.7076,37.4953],[-81.7359,37.4956],[-81.7522,37.5066],[-81.763,37.5026],[-81.7762,37.5051],[-81.7799,37.501],[-81.7929,37.5035],[-81.7952,37.5097],[-81.8179,37.5066],[-81.829,37.5137],[-81.8233,37.5227],[-81.8251,37.5344],[-81.8346,37.5361],[-81.8427,37.549],[-81.8559,37.5489],[-81.8578,37.5543],[-81.8532,37.5639],[-81.8343,37.5692],[-81.8381,37.5752],[-81.8279,37.5877],[-81.83,37.5969],[-81.813,37.6015],[-81.8197,37.6081],[-81.8177,37.6127],[-81.8119,37.6138],[-81.8113,37.607],[-81.8015,37.6153],[-81.8015,37.6251],[-81.7955,37.6315],[-81.8024,37.6423],[-81.8025,37.6602],[-81.8084,37.6618],[-81.8166,37.656],[-81.8343,37.6719],[-81.8503,37.6644],[-81.8706,37.6801],[-81.8748,37.6701],[-81.9023,37.6612],[-81.9117,37.6701],[-81.9134,37.68],[-81.9276,37.6823],[-81.9448,37.6712],[-81.9554,37.675],[-81.9666,37.6645],[-81.9794,37.6681],[-81.9854,37.6589],[-81.9918,37.6583],[-81.9873,37.6506],[-81.9932,37.6408],[-81.9998,37.6442],[-82.001,37.6625],[-82.0226,37.6682],[-82.024,37.6823],[-82.0318,37.6858],[-82.0413,37.7016],[-82.0557,37.7015],[-82.0569,37.7058],[-82.0826,37.7016],[-82.0808,37.7059],[-82.0859,37.7071],[-82.0838,37.7139],[-82.0883,37.7176],[-82.0856,37.7217],[-82.092,37.7225],[-82.0852,37.7298],[-82.094,37.7347],[-82.0912,37.7422],[-82.1056,37.7505],[-82.117,37.7476],[-82.1093,37.7593],[-82.111,37.7662],[-82.1004,37.7669],[-82.1041,37.771],[-82.0999,37.787],[-82.1071,37.7887],[-82.1021,37.7979],[-82.1229,37.8047],[-82.1249,37.8108],[-82.1335,37.8104],[-82.1336,37.8263],[-82.1462,37.8379],[-82.1348,37.8466],[-82.1128,37.8531],[-82.1123,37.8597],[-82.1199,37.8582],[-82.1288,37.8779],[-82.1185,37.8818],[-82.1202,37.8924],[-82.1279,37.9008],[-82.1444,37.9009],[-82.1598,37.9075],[-82.1635,37.9235],[-82.1733,37.9293],[-82.1722,37.9365],[-82.1858,37.9425],[-82.1811,37.9509],[-82.1972,37.9627],[-82.1907,37.9748],[-82.3064,37.9436],[-82.3251,37.9282],[-82.3364,37.929],[-82.3438,37.9337],[-82.3459,37.9453],[-82.3388,37.9484],[-82.3384,37.9568],[-82.3424,37.9647],[-82.3568,37.9693],[-82.3599,37.9794],[-82.3558,37.9849],[-82.375,37.9876],[-82.3796,37.9931],[-82.3867,37.9878],[-82.4025,38.0007],[-82.4092,37.9984],[-82.4183,38.015],[-82.431,38.0212],[-82.4353,38.0312],[-82.4273,38.0327],[-82.4309,38.0367],[-82.4227,38.0434],[-82.4351,38.0577],[-82.4275,38.0646],[-82.4363,38.0787],[-82.4227,38.0879],[-82.4194,38.1054],[-82.4296,38.1245],[-82.4366,38.1169],[-82.4539,38.1149],[-82.464,38.1283],[-82.4728,38.1314],[-82.4603,38.1413],[-82.4397,38.146],[-82.4383,38.1429],[-82.4266,38.1554],[-82.4115,38.1532],[-82.4046,38.1599],[-82.3793,38.1661],[-82.3889,38.1737],[-82.3873,38.1778],[-82.4049,38.1848],[-82.4059,38.1928],[-82.4181,38.1926],[-82.4305,38.1828],[-82.4403,38.2127],[-82.4454,38.2137],[-82.4512,38.2045],[-82.4674,38.198],[-82.4719,38.2035],[-82.4764,38.2011],[-82.4971,38.2224],[-82.5038,38.2198],[-82.5017,38.2154],[-82.5416,38.1907],[-82.5545,38.1966],[-82.5864,38.1904],[-82.597,38.1747],[-82.5984,38.1774],[-82.609,38.1462],[-82.6143,38.1522],[-82.6285,38.136]]]},"properties":{"geoid":"54006","state":"54","district":"6","name":"State Senate District 6","chamber":"Senate"}},{"type":"Feature","geometry":{"type":"Polygon","coordinates":[[[-82.306,37.9439],[-82.1907,37.9748],[-82.1972,37.9627],[-82.1811,37.9509],[-82.1858,37.9425],[-82.1722,37.9365],[-82.1733,37.9293],[-82.1635,37.9235],[-82.1598,37.9075],[-82.1444,37.9009],[-82.1279,37.9008],[-82.1202,37.8924],[-82.1185,37.8818],[-82.1288,37.8779],[-82.1199,37.8582],[-82.1123,37.8597],[-82.1128,37.8531],[-82.1348,37.8466],[-82.1462,37.8379],[-82.1336,37.8263],[-82.1335,37.8104],[-82.1249,37.8108],[-82.1229,37.8047],[-82.1021,37.7979],[-82.1071,37.7887],[-82.0999,37.787],[-82.1041,37.771],[-82.1004,37.7669],[-82.111,37.7662],[-82.1093,37.7593],[-82.117,37.7476],[-82.1056,37.7505],[-82.0912,37.7422],[-82.094,37.7347],[-82.0852,37.7298],[-82.092,37.7225],[-82.0856,37.7217],[-82.0883,37.7176],[-82.0838,37.7139],[-82.0859,37.7071],[-82.0808,37.7059],[-82.0826,37.7016],[-82.0569,37.7058],[-82.0557,37.7015],[-82.0413,37.7016],[-82.0318,37.6858],[-82.024,37.6823],[-82.0226,37.6682],[-82.001,37.6625],[-81.9998,37.6442],[-81.9932,37.6408],[-81.9873,37.6506],[-81.9918,37.6583],[-81.9854,37.6589],[-81.9794,37.6681],[-81.9666,37.6645],[-81.9554,37.675],[-81.9448,37.6712],[-81.9276,37.6823],[-81.9134,37.68],[-81.9117,37.6701],[-81.9023,37.6612],[-81.8748,37.6701],[-81.8688,37.68],[-81.8503,37.6644],[-81.8337,37.6717],[-81.8144,37.6553],[-81.793,37.6709],[-81.78,37.6725],[-81.7777,37.678],[-81.7651,37.6777],[-81.7556,37.6857],[-81.7469,37.6796],[-81.7369,37.6826],[-81.7332,37.6932],[-81.7164,37.7009],[-81.7017,37.7014],[-81.7645,37.7517],[-81.7619,37.7566],[-81.7549,37.7555],[-81.7433,37.7644],[-81.7406,37.7598],[-81.7078,37.7634],[-81.6938,37.7741],[-81.6751,37.7727],[-81.6697,37.7789],[-81.6657,37.775],[-81.6571,37.7798],[-81.638,37.7776],[-81.6275,37.7857],[-81.6237,37.7825],[-81.6059,37.7891],[-81.5841,37.7773],[-81.5765,37.7633],[-81.5357,37.7829],[-81.5304,37.7897],[-81.52,37.7861],[-81.5148,37.7905],[-81.5211,37.8001],[-81.5168,37.8186],[-81.542,37.8289],[-81.5523,37.8247],[-81.5614,37.8417],[-81.5627,37.8653],[-81.5676,37.8675],[-81.5581,37.8772],[-81.5634,37.8863],[-81.5538,37.8943],[-81.5642,37.9027],[-81.5619,37.9194],[-81.5713,37.9281],[-81.5588,37.9362],[-81.5616,37.9443],[-81.5549,37.9461],[-81.5558,37.9543],[-81.5444,37.9611],[-81.5414,37.9695],[-81.5262,37.9713],[-81.5072,37.9884],[-81.4887,37.981],[-81.4828,37.9867],[-81.4596,37.9897],[-81.4558,37.9858],[-81.4596,37.9796],[-81.4431,37.9742],[-81.4379,37.9679],[-81.4309,37.9719],[-81.4181,37.9676],[-81.4126,37.9743],[-81.3976,37.9673],[-81.3808,37.9691],[-81.3268,38.1745],[-81.3293,38.1824],[-81.3167,38.1841],[-81.3426,38.1818],[-81.3537,38.1852],[-81.3719,38.1935],[-81.3829,38.213],[-81.4092,38.2033],[-81.4215,38.2034],[-81.4396,38.2211],[-81.4759,38.2011],[-81.5074,38.1993],[-81.5248,38.2188],[-81.5785,38.2618],[-81.5797,38.2677],[-81.5894,38.2739],[-81.5868,38.2834],[-81.5901,38.2896],[-81.6026,38.2824],[-81.5925,38.2956],[-81.6071,38.2912],[-81.6349,38.2929],[-81.6524,38.3041],[-81.6672,38.3026],[-81.6706,38.3083],[-81.6774,38.3027],[-81.7032,38.3122],[-81.7182,38.3055],[-81.7251,38.3049],[-81.7279,38.3098],[-81.7403,38.2996],[-81.7332,38.2984],[-81.7372,38.2936],[-81.7435,38.2978],[-81.7448,38.2896],[-81.7498,38.2949],[-81.753,38.2908],[-81.7606,38.2918],[-81.7557,38.298],[-81.7805,38.2905],[-81.7884,38.2964],[-81.7918,38.311],[-81.805,38.3229],[-81.8014,38.3313],[-81.8098,38.3374],[-81.8075,38.3473],[-81.8166,38.3526],[-81.8121,38.3617],[-81.8398,38.3794],[-81.8411,38.3967],[-81.8466,38.4026],[-81.8508,38.4219],[-81.9002,38.3986],[-81.9152,38.3256],[-81.9821,38.2767],[-81.9912,38.2758],[-81.9918,38.2691],[-81.9968,38.2667],[-82.0018,38.2716],[-82.0165,38.272],[-82.0189,38.2818],[-82.0283,38.2794],[-82.0489,38.2903],[-82.0431,38.3373],[-82.0471,38.3744],[-82.0647,38.3768],[-82.0791,38.3688],[-82.1006,38.3658],[-82.1022,38.3574],[-82.1101,38.3587],[-82.117,38.3442],[-82.1255,38.3468],[-82.1685,38.3353],[-82.1787,38.3393],[-82.1831,38.3297],[-82.1968,38.3228],[-82.1975,38.3107],[-82.2208,38.3106],[-82.2065,38.3018],[-82.212,38.2912],[-82.2076,38.2887],[-82.216,38.2807],[-82.2426,38.2703],[-82.2478,38.2619],[-82.2452,38.2541],[-82.26,38.2462],[-82.2574,38.235],[-82.27,38.218],[-82.2664,38.2106],[-82.2778,38.2057],[-82.2713,38.1785],[-82.2775,38.1739],[-82.2717,38.1694],[-82.2857,38.1449],[-82.2578,38.1336],[-82.2686,38.1151],[-82.253,38.1009],[-82.2463,38.1021],[-82.2409,38.0972],[-82.2395,38.0821],[-82.2354,38.0762],[-82.2279,38.0762],[-82.2278,38.0689],[-82.2058,38.0668],[-82.2069,38.0582],[-82.2118,38.0572],[-82.2078,38.0505],[-82.1919,38.0485],[-82.2064,38.029],[-82.2039,38.0236],[-82.2175,38.0201],[-82.2435,38.0008],[-82.306,37.9439]]]},"properties":{"geoid":"54007","state":"54","district":"7","name":"State Senate District 7","chamber":"Senate"}},{"type":"Feature","geometry":{"type":"Polygon","coordinates":[[[-82.0038,38.5927],[-81.9895,38.5721],[-81.9264,38.5264],[-81.9168,38.525],[-81.8839,38.5434],[-81.8729,38.5394],[-81.8508,38.5188],[-81.8377,38.4939],[-81.8164,38.4703],[-81.8255,38.4544],[-81.8442,38.4444],[-81.8511,38.4351],[-81.8481,38.407],[-81.84,38.3959],[-81.7694,38.3738],[-81.7459,38.3565],[-81.726,38.3592],[-81.7004,38.374],[-81.6806,38.3726],[-81.6199,38.336],[-81.5797,38.3301],[-81.5723,38.3388],[-81.5856,38.3514],[-81.5933,38.3486],[-81.5952,38.3658],[-81.6067,38.3668],[-81.6209,38.3609],[-81.6065,38.3757],[-81.6205,38.3911],[-81.6174,38.4009],[-81.6259,38.4106],[-81.6471,38.4136],[-81.6637,38.4048],[-81.6763,38.4121],[-81.6859,38.403],[-81.7106,38.3961],[-81.7079,38.3875],[-81.7139,38.3818],[-81.7313,38.4149],[-81.7442,38.4264],[-81.7429,38.4325],[-81.7357,38.4336],[-81.7304,38.4411],[-81.7543,38.4558],[-81.7276,38.466],[-81.7224,38.4654],[-81.7249,38.4587],[-81.7216,38.4566],[-81.7139,38.4742],[-81.7038,38.4747],[-81.6891,38.4953],[-81.6811,38.4943],[-81.6849,38.5009],[-81.6787,38.5065],[-81.6823,38.5128],[-81.6782,38.5168],[-81.6652,38.5219],[-81.6572,38.5139],[-81.6516,38.5215],[-81.6439,38.5168],[-81.6482,38.5262],[-81.6446,38.5265],[-81.6448,38.5357],[-81.6328,38.5544],[-81.5782,38.5771],[-81.5222,38.6127],[-81.5075,38.5827],[-81.4717,38.5463],[-81.4654,38.5499],[-81.3493,38.5413],[-81.3035,38.5348],[-81.2743,38.5218],[-81.2206,38.5318],[-81.1941,38.5276],[-81.2839,38.472],[-81.2544,38.3751],[-81.2314,38.2637],[-80.9114,38.4148],[-80.8174,38.4786],[-80.8253,38.4944],[-80.8787,38.504],[-80.8915,38.5369],[-80.9177,38.5448],[-80.9128,38.5477],[-80.913,38.5632],[-80.925,38.5718],[-80.9263,38.5793],[-80.9551,38.5922],[-80.9577,38.5973],[-80.97,38.5932],[-80.9711,38.6107],[-80.979,38.6145],[-80.976,38.6251],[-81.0317,38.6678],[-81.0837,38.612],[-81.0847,38.6235],[-81.0966,38.6286],[-81.1021,38.639],[-81.1237,38.6309],[-81.1316,38.6383],[-81.1586,38.644],[-81.1625,38.6522],[-81.1583,38.6584],[-81.1662,38.6608],[-81.1619,38.6728],[-81.174,38.6809],[-81.1667,38.6951],[-81.1722,38.7074],[-81.1714,38.7206],[-81.1759,38.7231],[-81.1689,38.7305],[-81.1718,38.7398],[-81.1888,38.7522],[-81.204,38.7761],[-81.2122,38.7797],[-81.2074,38.7845],[-81.2203,38.7848],[-81.2231,38.7871],[-81.2191,38.7895],[-81.2276,38.7928],[-81.2177,38.7986],[-81.2259,38.8041],[-81.2208,38.811],[-81.227,38.8138],[-81.2208,38.8177],[-81.2246,38.8255],[-81.2152,38.8245],[-81.215,38.8309],[-81.2208,38.8436],[-81.2284,38.8466],[-81.2281,38.8523],[-81.2388,38.8473],[-81.2463,38.8525],[-81.2455,38.8586],[-81.2355,38.8615],[-81.2433,38.8651],[-81.2378,38.8686],[-81.2424,38.8729],[-81.2372,38.8741],[-81.2412,38.8782],[-81.2383,38.8814],[-81.2596,38.8921],[-81.2489,38.8968],[-81.26,38.9014],[-81.2583,38.907],[-81.2626,38.9108],[-81.2708,38.9061],[-81.2704,38.9142],[-81.2784,38.9149],[-81.3439,38.8956],[-81.4151,38.9207],[-81.4481,38.9416],[-81.4674,38.9275],[-81.4934,38.9256],[-81.5012,38.918],[-81.5129,38.9188],[-81.5144,38.9251],[-81.5204,38.9258],[-81.5162,38.9308],[-81.5194,38.9361],[-81.5338,38.9459],[-81.5388,38.9447],[-81.55,38.9603],[-81.5453,38.9715],[-81.5295,38.9776],[-81.5372,38.9902],[-81.5322,39.0058],[-81.5387,39.0085],[-81.6157,38.917],[-81.6239,38.8976],[-81.6123,38.8907],[-81.5899,38.8963],[-81.574,38.8788],[-81.5895,38.8606],[-81.6123,38.8615],[-81.6212,38.8533],[-81.6219,38.8447],[-81.6133,38.8346],[-81.6174,38.8196],[-81.6257,38.8154],[-81.6271,38.8224],[-81.6314,38.8228],[-81.6367,38.8132],[-81.635,38.8069],[-81.6434,38.8095],[-81.6465,38.801],[-81.6548,38.8028],[-81.6511,38.7959],[-81.6538,38.7889],[-81.6671,38.7923],[-81.6695,38.7833],[-81.68,38.7857],[-81.6862,38.7791],[-81.7045,38.7812],[-81.7369,38.7725],[-81.7411,38.7447],[-81.7577,38.7369],[-81.7744,38.7363],[-81.7731,38.7451],[-81.7785,38.7471],[-81.8135,38.7148],[-81.7728,38.6808],[-81.9558,38.6574],[-81.9772,38.6247],[-82.0008,38.6035],[-82.0038,38.5927]]]},"properties":{"geoid":"54008","state":"54","district":"8","name":"State Senate District 8","chamber":"Senate"}},{"type":"Feature","geometry":{"type":"Polygon","coordinates":[[[-81.8576,37.5548],[-81.8559,37.5489],[-81.8427,37.549],[-81.8346,37.5361],[-81.8246,37.5338],[-81.8233,37.5227],[-81.829,37.5137],[-81.8179,37.5066],[-81.7952,37.5097],[-81.7929,37.5035],[-81.7799,37.501],[-81.7762,37.5051],[-81.763,37.5026],[-81.7522,37.5066],[-81.7359,37.4956],[-81.7076,37.4953],[-81.7018,37.5017],[-81.6849,37.5057],[-81.6888,37.5136],[-81.6821,37.5176],[-81.6721,37.5164],[-81.6544,37.5233],[-81.6465,37.5133],[-81.6411,37.5154],[-81.6339,37.51],[-81.6284,37.512],[-81.6302,37.5162],[-81.6175,37.5213],[-81.6128,37.5105],[-81.6034,37.5089],[-81.6076,37.5024],[-81.5959,37.4907],[-81.5872,37.4945],[-81.583,37.4874],[-81.5757,37.4909],[-81.5706,37.4873],[-81.5534,37.4918],[-81.5346,37.4853],[-81.5273,37.4756],[-81.5193,37.4783],[-81.4991,37.4737],[-81.4914,37.481],[-81.4612,37.4836],[-81.4502,37.4762],[-81.4551,37.4662],[-81.439,37.4586],[-81.4322,37.4487],[-81.4261,37.4613],[-81.4169,37.4556],[-81.4033,37.4588],[-81.3996,37.4646],[-81.393,37.4598],[-81.3854,37.4613],[-81.3741,37.4432],[-81.3464,37.4335],[-81.3291,37.4352],[-81.2925,37.4132],[-81.2826,37.4209],[-81.2943,37.4419],[-81.3056,37.4501],[-81.3074,37.4595],[-81.2968,37.4621],[-81.2948,37.4694],[-81.2781,37.4725],[-81.2585,37.4988],[-81.2276,37.51],[-81.2139,37.5083],[-81.207,37.5247],[-81.2104,37.5306],[-81.2,37.5395],[-81.2045,37.5527],[-81.1988,37.5594],[-81.1989,37.5755],[-81.1357,37.5979],[-81.1194,37.5884],[-81.1089,37.5939],[-81.0937,37.5887],[-81.0874,37.598],[-81.0771,37.5997],[-81.0642,37.6113],[-81.0692,37.6288],[-81.0743,37.6318],[-81.0653,37.6359],[-81.0687,37.6405],[-81.0276,37.6586],[-81.0294,37.6621],[-81.0217,37.6696],[-81.0075,37.6732],[-81.0052,37.6791],[-80.9891,37.6856],[-80.9842,37.6941],[-80.9742,37.6961],[-80.9803,37.7064],[-80.9767,37.7149],[-80.9619,37.712],[-80.9452,37.7153],[-80.9314,37.7109],[-80.929,37.7053],[-80.9087,37.7004],[-80.8978,37.69],[-80.9002,37.6757],[-80.8946,37.6724],[-80.8931,37.6771],[-80.8795,37.6827],[-80.8779,37.6921],[-80.89,37.7015],[-80.8969,37.7277],[-80.9233,37.7422],[-80.918,37.7519],[-80.9019,37.7567],[-80.8936,37.7717],[-80.9016,37.7817],[-80.9214,37.7934],[-80.9263,37.8097],[-80.9665,37.8321],[-81.0246,37.8293],[-81.0554,37.8343],[-81.0591,37.8408],[-81.049,37.8507],[-81.0511,37.8583],[-81.0901,37.8496],[-81.1004,37.855],[-81.0986,37.86],[-81.0732,37.8604],[-81.0731,37.8764],[-81.0617,37.8825],[-81.0644,37.8938],[-81.0286,37.9033],[-81.0249,37.909],[-81.0563,37.9199],[-81.0658,37.9427],[-81.0838,37.9608],[-81.0704,37.979],[-81.0634,37.9793],[-81.0691,37.981],[-81.0678,37.9876],[-81.0824,37.9857],[-81.0859,37.992],[-81.0962,37.9909],[-81.1078,37.9841],[-81.1141,37.988],[-81.118,37.9824],[-81.1346,37.9808],[-81.1202,37.9863],[-81.1274,37.9898],[-81.1284,37.9992],[-81.1177,38.006],[-81.1133,38.0153],[-81.1065,38.0105],[-81.0972,38.0127],[-81.0971,38.0199],[-81.1213,38.0155],[-81.1251,38.0186],[-81.1279,38.0133],[-81.1378,38.0132],[-81.1359,38.0093],[-81.1433,38.0021],[-81.1645,38.0013],[-81.1695,37.9925],[-81.1772,37.9983],[-81.1801,37.9898],[-81.1757,37.9808],[-81.2283,37.9655],[-81.251,37.9708],[-81.2589,37.9829],[-81.2847,37.9732],[-81.3,37.98],[-81.3099,37.967],[-81.3217,37.9709],[-81.3189,37.9769],[-81.3321,37.9673],[-81.3429,37.9698],[-81.3471,37.9767],[-81.3863,37.9672],[-81.4126,37.9743],[-81.4235,37.9675],[-81.4309,37.9719],[-81.4385,37.968],[-81.4431,37.9742],[-81.4585,37.9786],[-81.4558,37.9858],[-81.4596,37.9897],[-81.4828,37.9867],[-81.4887,37.981],[-81.5072,37.9884],[-81.5262,37.9713],[-81.5414,37.9695],[-81.5444,37.9611],[-81.5558,37.9543],[-81.5549,37.9461],[-81.5616,37.9443],[-81.5588,37.9362],[-81.5715,37.9277],[-81.5619,37.9194],[-81.5642,37.9027],[-81.5538,37.8943],[-81.5634,37.8863],[-81.5581,37.8772],[-81.5676,37.8675],[-81.5627,37.8653],[-81.5614,37.8417],[-81.5523,37.8247],[-81.542,37.8289],[-81.5168,37.8186],[-81.5211,37.8001],[-81.5142,37.7912],[-81.52,37.7861],[-81.5304,37.7897],[-81.5357,37.7829],[-81.5765,37.7633],[-81.5841,37.7773],[-81.6059,37.7891],[-81.6237,37.7825],[-81.6275,37.7857],[-81.638,37.7776],[-81.6571,37.7798],[-81.6657,37.775],[-81.6697,37.7789],[-81.6751,37.7727],[-81.6938,37.7741],[-81.7078,37.7634],[-81.7406,37.7598],[-81.7433,37.7644],[-81.7549,37.7555],[-81.7619,37.7566],[-81.7645,37.7517],[-81.7017,37.7014],[-81.7164,37.7009],[-81.7332,37.6932],[-81.7369,37.6826],[-81.7469,37.6796],[-81.7556,37.6857],[-81.7651,37.6777],[-81.7777,37.678],[-81.78,37.6725],[-81.793,37.6709],[-81.8023,37.6629],[-81.8024,37.6423],[-81.7955,37.6315],[-81.8015,37.6251],[-81.8015,37.6153],[-81.8113,37.607],[-81.8119,37.6138],[-81.8177,37.6127],[-81.8197,37.6081],[-81.813,37.6015],[-81.83,37.5969],[-81.8279,37.5877],[-81.8381,37.5752],[-81.8343,37.5692],[-81.8532,37.5639],[-81.8576,37.5548]]]},"properties":{"geoid":"54009","state":"54","district":"9","name":"State Senate District 9","chamber":"Senate"}},{"type":"Feature","geometry":{"type":"Polygon","coordinates":[[[-81.3808,37.9691],[-81.3471,37.9767],[-81.3429,37.9698],[-81.3321,37.9673],[-81.3189,37.9769],[-81.3217,37.9709],[-81.3099,37.967],[-81.3,37.98],[-81.2847,37.9732],[-81.2589,37.9829],[-81.251,37.9708],[-81.2215,37.9661],[-81.2143,37.972],[-81.2013,37.9717],[-81.1881,37.9797],[-81.175,37.9813],[-81.1801,37.9898],[-81.1772,37.9983],[-81.1695,37.9925],[-81.1645,38.0013],[-81.1433,38.0021],[-81.1359,38.0093],[-81.1378,38.0132],[-81.1279,38.0133],[-81.1251,38.0186],[-81.1213,38.0155],[-81.0971,38.0199],[-81.0972,38.0127],[-81.1065,38.0105],[-81.1133,38.0153],[-81.1177,38.006],[-81.1284,37.9992],[-81.1274,37.9898],[-81.1202,37.9863],[-81.1346,37.9808],[-81.118,37.9824],[-81.1141,37.988],[-81.1078,37.9841],[-81.0962,37.9909],[-81.0859,37.992],[-81.0824,37.9857],[-81.0678,37.9876],[-81.0691,37.981],[-81.0634,37.9793],[-81.0704,37.979],[-81.0838,37.9608],[-81.0658,37.9427],[-81.0563,37.9199],[-81.0249,37.909],[-81.0286,37.9033],[-81.0644,37.8938],[-81.0617,37.8825],[-81.0731,37.8764],[-81.0732,37.8604],[-81.0986,37.86],[-81.1004,37.855],[-81.0901,37.8496],[-81.0511,37.8583],[-81.049,37.8507],[-81.0591,37.8408],[-81.0554,37.8343],[-81.0246,37.8293],[-80.9665,37.8321],[-80.9263,37.8097],[-80.9214,37.7934],[-80.9016,37.7817],[-80.8936,37.7717],[-80.9019,37.7567],[-80.918,37.7519],[-80.9233,37.7422],[-80.8969,37.7277],[-80.89,37.7015],[-80.8774,37.6876],[-80.8946,37.6724],[-80.9002,37.6757],[-80.8978,37.69],[-80.9087,37.7004],[-80.929,37.7053],[-80.9314,37.7109],[-80.9452,37.7153],[-80.9619,37.712],[-80.9767,37.7149],[-80.9803,37.7064],[-80.9742,37.6961],[-80.9842,37.6941],[-80.9891,37.6856],[-81.0052,37.6791],[-81.0075,37.6732],[-81.0217,37.6696],[-81.0294,37.6621],[-81.0276,37.6586],[-81.0687,37.6405],[-81.0653,37.6359],[-81.0743,37.6318],[-81.0692,37.6288],[-81.0642,37.6113],[-81.0771,37.5997],[-81.0874,37.598],[-81.0946,37.5887],[-80.8574,37.4272],[-80.8377,37.4257],[-80.8086,37.4065],[-80.8057,37.398],[-80.7842,37.3946],[-80.7701,37.3724],[-80.7163,37.3887],[-80.6344,37.4312],[-80.6227,37.4333],[-80.552,37.4736],[-80.5114,37.4817],[-80.493,37.4577],[-80.4973,37.4448],[-80.4949,37.4351],[-80.4755,37.423],[-80.372,37.4741],[-80.3632,37.48],[-80.3668,37.4849],[-80.3271,37.4954],[-80.2998,37.5083],[-80.2824,37.5335],[-80.2917,37.5365],[-80.3093,37.5274],[-80.3304,37.5363],[-80.3122,37.5462],[-80.3285,37.5643],[-80.2589,37.5955],[-80.2403,37.607],[-80.221,37.6278],[-80.2675,37.6462],[-80.2794,37.6571],[-80.2961,37.6918],[-80.2522,37.7273],[-80.2628,37.7383],[-80.2574,37.7561],[-80.2509,37.7555],[-80.2484,37.7683],[-80.2414,37.7681],[-80.2305,37.7783],[-80.2166,37.776],[-80.2159,37.782],[-80.2235,37.7824],[-80.2295,37.7923],[-80.2277,37.7979],[-80.2186,37.8098],[-80.2065,37.816],[-80.193,37.8347],[-80.1794,37.8398],[-80.1828,37.8514],[-80.1767,37.8528],[-80.1622,37.8751],[-80.149,37.8869],[-80.1415,37.8824],[-80.1298,37.8942],[-80.1177,37.8977],[-80.119,37.9036],[-80.1029,37.9189],[-80.0966,37.9181],[-80.0745,37.9422],[-79.9994,37.9949],[-79.9955,38.0071],[-79.9716,38.0352],[-79.9739,38.04],[-79.9598,38.0637],[-80.1069,38.0558],[-80.1691,38.0361],[-80.1978,38.0429],[-80.2104,38.0371],[-80.2222,38.0438],[-80.2647,38.0466],[-80.3633,38.1143],[-80.36,38.2258],[-80.6095,38.3586],[-80.6128,38.367],[-80.6255,38.3544],[-80.6334,38.3751],[-80.6617,38.4125],[-80.6407,38.4242],[-80.6783,38.5035],[-80.6508,38.5266],[-80.6885,38.5317],[-80.6972,38.5373],[-80.7009,38.5334],[-80.7164,38.5369],[-80.7191,38.5323],[-80.7239,38.5362],[-80.7373,38.5324],[-80.7363,38.5245],[-80.7505,38.5255],[-80.7603,38.5415],[-80.7773,38.548],[-80.7797,38.5562],[-80.7852,38.5576],[-80.8812,38.507],[-80.8646,38.5001],[-80.8253,38.4944],[-80.8174,38.4786],[-80.9114,38.4148],[-81.2314,38.2637],[-81.315,38.1805],[-81.3293,38.1824],[-81.3268,38.1745],[-81.3808,37.9691]]]},"properties":{"geoid":"54010","state":"54","district":"10","name":"State Senate District 10","chamber":"Senate"}},{"type":"Feature","geometry":{"type":"Polygon","coordinates":[[[-81.0287,38.6711],[-81.0317,38.6678],[-80.976,38.6251],[-80.979,38.6145],[-80.9711,38.6107],[-80.97,38.5932],[-80.9577,38.5973],[-80.9551,38.5922],[-80.9263,38.5793],[-80.925,38.5718],[-80.913,38.5632],[-80.9128,38.5477],[-80.9177,38.5448],[-80.8915,38.5369],[-80.8812,38.507],[-80.7852,38.5576],[-80.7797,38.5562],[-80.7773,38.548],[-80.7603,38.5415],[-80.7505,38.5255],[-80.7363,38.5245],[-80.7373,38.5324],[-80.7239,38.5362],[-80.7191,38.5323],[-80.7164,38.5369],[-80.7009,38.5334],[-80.6972,38.5373],[-80.6885,38.5317],[-80.6508,38.5266],[-80.6783,38.5035],[-80.6407,38.4242],[-80.6617,38.4125],[-80.6334,38.3751],[-80.6255,38.3544],[-80.6128,38.367],[-80.6095,38.3586],[-80.36,38.2258],[-80.3632,38.1143],[-80.2647,38.0466],[-80.2222,38.0438],[-80.2104,38.0371],[-80.1978,38.0429],[-80.1691,38.0361],[-80.1069,38.0558],[-79.9596,38.0639],[-79.9616,38.0674],[-79.9544,38.0804],[-79.9263,38.1068],[-79.9389,38.1116],[-79.9453,38.1322],[-79.9327,38.1362],[-79.9187,38.1548],[-79.9195,38.1626],[-79.9149,38.1677],[-79.9201,38.1825],[-79.8973,38.1934],[-79.8903,38.2059],[-79.8746,38.213],[-79.8452,38.2411],[-79.8351,38.2419],[-79.8309,38.2497],[-79.8196,38.2482],[-79.812,38.2604],[-79.8063,38.2592],[-79.7892,38.2684],[-79.7865,38.2746],[-79.7954,38.2902],[-79.8028,38.2921],[-79.8087,38.3094],[-79.7966,38.3235],[-79.7731,38.3355],[-79.7644,38.3565],[-79.7422,38.3532],[-79.7256,38.3638],[-79.7317,38.3734],[-79.7295,38.3812],[-79.7066,38.4157],[-79.6897,38.4315],[-79.6884,38.4569],[-79.6991,38.4703],[-79.6934,38.4802],[-79.6976,38.4872],[-79.683,38.5013],[-79.6804,38.5106],[-79.6705,38.5077],[-79.6622,38.5152],[-79.673,38.5287],[-79.6669,38.5383],[-79.6709,38.541],[-79.6698,38.5503],[-79.6651,38.5609],[-79.6593,38.5624],[-79.6629,38.5704],[-79.6491,38.5915],[-79.5369,38.5509],[-79.5215,38.5341],[-79.4766,38.4572],[-79.3123,38.4119],[-79.2907,38.421],[-79.2829,38.4181],[-79.2797,38.4237],[-79.2828,38.4317],[-79.2673,38.4383],[-79.2545,38.4559],[-79.2427,38.4542],[-79.2399,38.4701],[-79.2257,38.4765],[-79.2106,38.4929],[-79.2059,38.5245],[-79.171,38.5681],[-79.1583,38.5931],[-79.1515,38.6202],[-79.1298,38.655],[-79.1205,38.6602],[-79.1064,38.6562],[-79.0928,38.6598],[-79.0843,38.6865],[-79.093,38.7017],[-79.0873,38.7201],[-79.0724,38.7478],[-79.0573,38.7614],[-79.3622,38.9665],[-79.4725,38.978],[-79.4956,38.9774],[-79.5038,38.9699],[-79.5088,38.9752],[-79.7857,39.0374],[-79.777,39.0465],[-79.7792,39.0558],[-79.774,39.0631],[-79.7796,39.0844],[-79.7994,39.108],[-79.816,39.1125],[-79.8212,39.1183],[-79.8251,39.1158],[-79.8309,39.1194],[-79.8292,39.1258],[-79.8381,39.131],[-79.833,39.1542],[-79.8275,39.1604],[-79.8286,39.178],[-79.8222,39.1865],[-79.8268,39.1948],[-79.8142,39.2094],[-79.8167,39.2186],[-79.8089,39.2238],[-79.8093,39.2358],[-79.8503,39.2465],[-79.8526,39.2707],[-79.8593,39.2739],[-79.862,39.2855],[-79.8722,39.2947],[-79.8871,39.298],[-79.8887,39.3029],[-79.8929,39.2989],[-79.9032,39.3033],[-79.9086,39.2993],[-79.9076,39.2894],[-79.916,39.2947],[-79.9323,39.2895],[-79.936,39.2968],[-79.9415,39.2969],[-79.95,39.282],[-79.9561,39.282],[-79.9611,39.2688],[-80.0234,39.2479],[-80.15,39.2383],[-80.1664,39.2423],[-80.2247,39.171],[-80.2272,39.1128],[-80.2404,39.1131],[-80.2488,39.1008],[-80.3002,39.1039],[-80.3051,39.0615],[-80.318,39.0134],[-80.3345,38.9966],[-80.3175,38.9586],[-80.3484,38.9399],[-80.3384,38.9349],[-80.3498,38.9205],[-80.3481,38.9157],[-80.3625,38.9068],[-80.3608,38.9013],[-80.3678,38.8946],[-80.3678,38.8866],[-80.3836,38.8855],[-80.387,38.8748],[-80.4095,38.7683],[-80.3947,38.726],[-80.4019,38.7299],[-80.4069,38.7228],[-80.4137,38.7245],[-80.4123,38.7284],[-80.4274,38.7311],[-80.4361,38.7256],[-80.4457,38.7271],[-80.4573,38.7392],[-80.4508,38.7501],[-80.4532,38.761],[-80.4494,38.7694],[-80.4422,38.7716],[-80.4441,38.7758],[-80.4585,38.7761],[-80.4637,38.7838],[-80.4584,38.7877],[-80.4631,38.7959],[-80.4745,38.7943],[-80.4855,38.8003],[-80.4738,38.8332],[-80.4798,38.8332],[-80.4908,38.8453],[-80.5007,38.8447],[-80.5072,38.854],[-80.5238,38.8628],[-80.5415,38.8539],[-80.558,38.8676],[-80.5835,38.8589],[-80.5933,38.8704],[-80.591,38.8837],[-80.5992,38.8918],[-80.597,38.896],[-80.6088,38.905],[-80.6312,38.8976],[-80.641,38.8848],[-80.6521,38.8897],[-80.6659,38.8818],[-80.6726,38.889],[-80.6699,38.8928],[-80.7015,38.879],[-80.9849,38.7179],[-81.0287,38.6711]]]},"properties":{"geoid":"54011","state":"54","district":"11","name":"State Senate District 11","chamber":"Senate"}},{"type":"Feature","geometry":{"type":"Polygon","coordinates":[[[-81.2794,38.9134],[-81.2705,38.9144],[-81.2708,38.9061],[-81.2629,38.911],[-81.2583,38.907],[-81.26,38.9014],[-81.2489,38.8968],[-81.26,38.893],[-81.2386,38.8819],[-81.2412,38.8782],[-81.2372,38.8741],[-81.2424,38.8729],[-81.2378,38.8686],[-81.2433,38.8651],[-81.2354,38.8625],[-81.2455,38.8586],[-81.2463,38.8525],[-81.2388,38.8473],[-81.2281,38.8523],[-81.2284,38.8466],[-81.2208,38.8436],[-81.215,38.8309],[-81.2152,38.8245],[-81.2246,38.8255],[-81.2208,38.8177],[-81.227,38.8138],[-81.2208,38.811],[-81.2259,38.8041],[-81.2177,38.7986],[-81.2276,38.7928],[-81.2191,38.7895],[-81.2231,38.7871],[-81.2203,38.7848],[-81.2074,38.7845],[-81.2122,38.7797],[-81.204,38.7761],[-81.1888,38.7522],[-81.1718,38.7398],[-81.1689,38.7305],[-81.1759,38.7231],[-81.1714,38.7206],[-81.1722,38.7074],[-81.1667,38.6951],[-81.174,38.6809],[-81.1619,38.6728],[-81.1662,38.6608],[-81.1583,38.6584],[-81.1625,38.6522],[-81.1586,38.644],[-81.1316,38.6383],[-81.1237,38.6309],[-81.1021,38.639],[-81.0966,38.6286],[-81.0847,38.6235],[-81.0837,38.612],[-80.9849,38.7179],[-80.7015,38.879],[-80.6699,38.8928],[-80.6726,38.889],[-80.6659,38.8818],[-80.6521,38.8897],[-80.641,38.8848],[-80.6312,38.8976],[-80.6088,38.905],[-80.597,38.896],[-80.5992,38.8918],[-80.591,38.8837],[-80.5933,38.8704],[-80.5835,38.8589],[-80.558,38.8676],[-80.5415,38.8539],[-80.5238,38.8628],[-80.5072,38.854],[-80.5007,38.8447],[-80.4908,38.8453],[-80.4798,38.8332],[-80.4738,38.8332],[-80.4855,38.8003],[-80.4745,38.7943],[-80.4631,38.7959],[-80.4584,38.7877],[-80.4637,38.7838],[-80.4585,38.7761],[-80.4461,38.7775],[-80.4421,38.7718],[-80.4498,38.7689],[-80.4508,38.7501],[-80.4573,38.7391],[-80.4452,38.7268],[-80.4361,38.7256],[-80.4269,38.7311],[-80.4061,38.7228],[-80.4019,38.7299],[-80.3931,38.7276],[-80.4095,38.7683],[-80.387,38.8748],[-80.3818,38.8815],[-80.3843,38.8848],[-80.3678,38.8866],[-80.3678,38.8946],[-80.3608,38.9013],[-80.3625,38.9067],[-80.3481,38.9157],[-80.3498,38.9205],[-80.3384,38.9349],[-80.3486,38.9396],[-80.3175,38.9586],[-80.3345,38.9966],[-80.318,39.0134],[-80.3051,39.0615],[-80.3002,39.1039],[-80.2488,39.1008],[-80.2404,39.1131],[-80.2272,39.1128],[-80.2247,39.171],[-80.1664,39.2423],[-80.15,39.2383],[-80.0234,39.2479],[-79.9772,39.2629],[-80.0119,39.2701],[-80.0163,39.2836],[-80.0264,39.2894],[-80.0333,39.3153],[-80.0198,39.3258],[-80.0213,39.3224],[-80.0323,39.3304],[-80.0321,39.3237],[-80.0401,39.3263],[-80.0359,39.3321],[-80.0428,39.3427],[-80.0406,39.3518],[-80.0546,39.3541],[-80.062,39.3608],[-80.0444,39.3683],[-80.042,39.3735],[-80.0681,39.3862],[-80.0873,39.3862],[-80.1071,39.4098],[-80.1206,39.4012],[-80.1963,39.3927],[-80.2825,39.4357],[-80.2898,39.4322],[-80.2908,39.4358],[-80.4941,39.4696],[-80.494,39.4611],[-80.5141,39.4578],[-80.5194,39.4464],[-80.5156,39.4377],[-80.5186,39.435],[-80.5447,39.4286],[-80.5376,39.4197],[-80.5391,39.4103],[-80.5477,39.4037],[-80.5474,39.3966],[-80.5382,39.3867],[-80.5444,39.3677],[-80.5326,39.3612],[-80.5335,39.355],[-80.5448,39.3518],[-80.5651,39.3199],[-80.5824,39.3164],[-80.5862,39.3035],[-80.5926,39.3038],[-80.6037,39.291],[-80.6025,39.284],[-80.5778,39.2822],[-80.5775,39.2763],[-80.5881,39.267],[-80.5874,39.2611],[-80.5471,39.2348],[-80.5515,39.2267],[-80.5654,39.2314],[-80.5662,39.221],[-80.5544,39.2142],[-80.5461,39.2165],[-80.5293,39.212],[-80.5256,39.209],[-80.5324,39.2007],[-80.5288,39.1957],[-80.5382,39.1954],[-80.5479,39.1866],[-80.5544,39.1922],[-80.5615,39.1787],[-80.5756,39.1752],[-80.5918,39.1827],[-80.5897,39.171],[-80.5998,39.1597],[-80.6171,39.1541],[-80.6296,39.1392],[-80.6443,39.1369],[-80.6569,39.1411],[-80.6629,39.1378],[-80.6644,39.1297],[-80.6817,39.1212],[-80.6812,39.112],[-80.6876,39.1097],[-80.701,39.0903],[-80.813,39.1094],[-80.8089,39.1043],[-80.811,39.0989],[-80.8177,39.097],[-80.8188,39.0916],[-80.8281,39.0921],[-80.835,39.0824],[-80.854,39.0842],[-80.8518,39.0797],[-80.8629,39.0713],[-80.877,39.0739],[-80.8774,39.0687],[-80.8975,39.0628],[-80.8981,39.0556],[-80.9186,39.0435],[-80.9362,39.0448],[-80.9602,39.038],[-80.9672,39.029],[-80.9821,39.0261],[-80.9821,39.0202],[-80.9903,39.0206],[-81.0025,39.0096],[-81.0231,39.0082],[-81.0248,39.0125],[-81.0336,39.0096],[-81.0384,39.0128],[-81.0597,39.0079],[-81.075,39.01],[-81.081,39.0166],[-81.0939,39.0156],[-81.0943,39.0223],[-81.1025,39.0215],[-81.1122,39.0307],[-81.116,39.0425],[-81.1248,39.0398],[-81.1287,39.0451],[-81.1361,39.0452],[-81.1552,39.0403],[-81.2727,38.9363],[-81.2664,38.9262],[-81.2775,38.9243],[-81.274,38.9187],[-81.2794,38.9134]]]},"properties":{"geoid":"54012","state":"54","district":"12","name":"State Senate District 12","chamber":"Senate"}},{"type":"Feature","geometry":{"type":"Polygon","coordinates":[[[-80.2455,39.4478],[-80.2364,39.4372],[-80.2083,39.4382],[-80.2036,39.4337],[-80.206,39.4281],[-80.1984,39.4287],[-80.2038,39.4242],[-80.2001,39.4218],[-80.2069,39.4075],[-80.2037,39.3966],[-80.1963,39.3927],[-80.1206,39.4012],[-80.1104,39.4102],[-80.0981,39.4025],[-80.0873,39.3862],[-80.025,39.4014],[-80.011,39.4176],[-79.9389,39.4525],[-79.8947,39.4356],[-79.8997,39.4819],[-79.794,39.6177],[-79.8067,39.6162],[-79.8123,39.6272],[-79.8407,39.6439],[-79.864,39.6297],[-79.868,39.6191],[-79.8829,39.6168],[-79.8857,39.6299],[-79.9035,39.6272],[-79.8893,39.6537],[-79.9015,39.6529],[-79.9007,39.6645],[-79.9149,39.6619],[-79.9202,39.6874],[-79.9364,39.6721],[-79.9441,39.6726],[-79.9452,39.6675],[-79.9701,39.6713],[-79.9731,39.6808],[-79.9938,39.6582],[-80.0105,39.6639],[-80.0202,39.6578],[-80.0162,39.6529],[-80.0291,39.6502],[-80.0293,39.634],[-80.033,39.6311],[-80.0309,39.6192],[-80.0093,39.6172],[-80.0024,39.6072],[-79.9928,39.6048],[-79.9795,39.5921],[-79.9755,39.5761],[-79.9819,39.5667],[-79.9846,39.5441],[-79.9972,39.5321],[-80.0138,39.5202],[-80.0417,39.5197],[-80.0885,39.5569],[-80.1031,39.5451],[-80.1323,39.5381],[-80.1369,39.531],[-80.1385,39.5372],[-80.1507,39.5361],[-80.1547,39.5347],[-80.1527,39.5299],[-80.1427,39.5227],[-80.1334,39.5225],[-80.1334,39.5065],[-80.1735,39.4868],[-80.17,39.4845],[-80.1751,39.4835],[-80.1731,39.4754],[-80.1795,39.4735],[-80.1734,39.4728],[-80.1776,39.4681],[-80.1856,39.4711],[-80.1828,39.4664],[-80.188,39.4595],[-80.2053,39.4561],[-80.2123,39.4665],[-80.2249,39.4653],[-80.2274,39.4532],[-80.2455,39.4478]]]},"properties":{"geoid":"54013","state":"54","district":"13","name":"State Senate District 13","chamber":"Senate"}},{"type":"Feature","geometry":{"type":"Polygon","coordinates":[[[-80.0873,39.3862],[-80.0681,39.3862],[-80.042,39.3735],[-80.0444,39.3683],[-80.062,39.3608],[-80.0546,39.3541],[-80.0406,39.3518],[-80.0428,39.3427],[-80.0359,39.3321],[-80.0401,39.3263],[-80.0321,39.3237],[-80.0323,39.3304],[-80.0213,39.3224],[-80.0198,39.3258],[-80.0316,39.3187],[-80.0336,39.3121],[-80.0264,39.2894],[-80.0163,39.2836],[-80.0119,39.2701],[-79.9726,39.2637],[-79.9611,39.2688],[-79.9561,39.282],[-79.95,39.282],[-79.9423,39.2902],[-79.9426,39.2965],[-79.936,39.2968],[-79.9323,39.2895],[-79.916,39.2947],[-79.9079,39.2893],[-79.905,39.303],[-79.8929,39.2989],[-79.8887,39.3029],[-79.8868,39.2979],[-79.8722,39.2947],[-79.8585,39.2804],[-79.8601,39.2754],[-79.8524,39.2699],[-79.8503,39.2466],[-79.8093,39.2358],[-79.8089,39.2238],[-79.8167,39.2186],[-79.8142,39.2094],[-79.8268,39.1948],[-79.8222,39.1865],[-79.8286,39.178],[-79.8275,39.1604],[-79.833,39.1542],[-79.8381,39.131],[-79.8292,39.1258],[-79.8309,39.1194],[-79.8251,39.1158],[-79.8212,39.1183],[-79.816,39.1125],[-79.7994,39.108],[-79.7796,39.0844],[-79.774,39.0631],[-79.7792,39.0558],[-79.777,39.0465],[-79.7857,39.0374],[-79.5088,38.9752],[-79.5038,38.9699],[-79.4956,38.9774],[-79.4725,38.978],[-79.3622,38.9665],[-79.0573,38.7614],[-79.0513,38.7736],[-79.055,38.7857],[-79.0466,38.7921],[-79.0273,38.7921],[-79.0195,38.8179],[-79.0066,38.8237],[-79.0003,38.8454],[-78.994,38.8501],[-78.869,38.7631],[-78.786,38.8872],[-78.7591,38.9005],[-78.7391,38.9271],[-78.7171,38.936],[-78.7193,38.9052],[-78.7043,38.9152],[-78.6974,38.9144],[-78.6883,38.9248],[-78.6805,38.9253],[-78.6707,38.9338],[-78.6466,38.9681],[-78.6384,38.9668],[-78.6278,38.9818],[-78.6205,38.9826],[-78.6187,38.9741],[-78.6112,38.9761],[-78.6017,38.9646],[-78.5705,39.0016],[-78.5505,39.0181],[-78.5719,39.032],[-78.5227,39.0711],[-78.5081,39.0886],[-78.5613,39.1314],[-78.6023,39.1404],[-78.6236,39.1185],[-78.6399,39.127],[-78.6569,39.1257],[-78.6914,39.1466],[-78.733,39.1499],[-78.899,39.1989],[-78.9799,39.2376],[-78.9567,39.2627],[-78.9461,39.2649],[-78.9266,39.2789],[-78.919,39.297],[-78.8837,39.3284],[-78.8669,39.3259],[-78.8509,39.3309],[-78.8413,39.3516],[-78.8342,39.3523],[-78.8107,39.3766],[-78.7938,39.4046],[-78.7896,39.4246],[-78.7735,39.4429],[-78.7666,39.4475],[-78.7576,39.4436],[-78.7497,39.4553],[-78.7393,39.4572],[-78.7368,39.4639],[-78.7298,39.4632],[-78.7036,39.4975],[-78.6904,39.5028],[-78.6571,39.5351],[-78.7246,39.5639],[-78.7335,39.5865],[-78.7402,39.5864],[-78.7463,39.5798],[-78.7671,39.5875],[-78.7768,39.6041],[-78.7552,39.6104],[-78.747,39.6056],[-78.7331,39.6147],[-78.7368,39.6222],[-78.7468,39.6267],[-78.7634,39.6188],[-78.778,39.6223],[-78.766,39.6484],[-78.776,39.6453],[-78.7812,39.6368],[-78.7953,39.6368],[-78.8016,39.6277],[-78.7965,39.6059],[-78.809,39.6082],[-78.8119,39.598],[-78.8255,39.5895],[-78.8262,39.5773],[-78.8149,39.5713],[-78.8158,39.5629],[-78.8219,39.5606],[-78.8392,39.567],[-78.851,39.5601],[-78.8521,39.551],[-78.8614,39.541],[-78.8707,39.5388],[-78.8694,39.5318],[-78.8751,39.5227],[-78.8931,39.524],[-78.8924,39.5133],[-78.9055,39.5115],[-78.9041,39.5041],[-78.9167,39.4863],[-78.9343,39.4863],[-78.9425,39.4806],[-78.9385,39.4746],[-78.9425,39.4689],[-78.9589,39.4628],[-78.9543,39.4547],[-78.9605,39.451],[-78.956,39.4478],[-78.9566,39.4403],[-78.9657,39.4385],[-79.018,39.4677],[-79.0309,39.4653],[-79.037,39.4767],[-79.047,39.4833],[-79.0527,39.4817],[-79.0569,39.4707],[-79.0663,39.48],[-79.0693,39.474],[-79.083,39.4715],[-79.1024,39.4764],[-79.1044,39.4708],[-79.0945,39.4648],[-79.1079,39.4612],[-79.1083,39.4571],[-79.1018,39.4572],[-79.1028,39.4505],[-79.1169,39.4389],[-79.1108,39.4319],[-79.124,39.4332],[-79.129,39.4295],[-79.1274,39.4182],[-79.1418,39.4171],[-79.1438,39.4052],[-79.15,39.4061],[-79.1512,39.417],[-79.1595,39.417],[-79.1594,39.4095],[-79.1667,39.4009],[-79.1623,39.3881],[-79.1792,39.3965],[-79.177,39.389],[-79.1856,39.3852],[-79.1977,39.3884],[-79.2143,39.3635],[-79.231,39.3649],[-79.235,39.3587],[-79.2563,39.3572],[-79.2538,39.3371],[-79.2687,39.3362],[-79.2704,39.3289],[-79.2821,39.3233],[-79.2904,39.2995],[-79.3139,39.3047],[-79.346,39.294],[-79.3449,39.285],[-79.3513,39.2851],[-79.3575,39.2763],[-79.3873,39.2678],[-79.4122,39.2402],[-79.4252,39.2345],[-79.4257,39.2253],[-79.4533,39.2105],[-79.4674,39.2088],[-79.473,39.2021],[-79.4869,39.2059],[-79.4877,39.2799],[-79.4767,39.7211],[-79.7638,39.7208],[-79.7638,39.6969],[-79.7854,39.6573],[-79.7893,39.6238],[-79.8997,39.4819],[-79.8947,39.4356],[-79.9389,39.4525],[-80.011,39.4176],[-80.025,39.4014],[-80.0873,39.3862]]]},"properties":{"geoid":"54014","state":"54","district":"14","name":"State Senate District 14","chamber":"Senate"}},{"type":"Feature","geometry":{"type":"Polygon","coordinates":[[[-78.9799,39.2376],[-78.899,39.1989],[-78.733,39.1499],[-78.6914,39.1466],[-78.6569,39.1257],[-78.6399,39.127],[-78.6236,39.1185],[-78.6023,39.1404],[-78.5613,39.1314],[-78.5081,39.0886],[-78.4843,39.1074],[-78.4599,39.1134],[-78.4394,39.1321],[-78.4273,39.1527],[-78.4037,39.1675],[-78.4263,39.1828],[-78.4249,39.1933],[-78.4387,39.1981],[-78.4056,39.2312],[-78.3997,39.2439],[-78.4194,39.2575],[-78.4029,39.2786],[-78.3934,39.283],[-78.3672,39.3101],[-78.3641,39.3188],[-78.36,39.3178],[-78.3474,39.3434],[-78.3393,39.3486],[-78.3404,39.3536],[-78.3669,39.3593],[-78.3432,39.3888],[-78.3509,39.391],[-78.3494,39.3973],[-78.3599,39.409],[-78.3467,39.4276],[-78.3532,39.4368],[-78.3465,39.4426],[-78.3471,39.466],[-78.1481,39.3378],[-78.0641,39.4567],[-78.0559,39.4747],[-78.0585,39.4877],[-78.0658,39.4942],[-78.0577,39.5119],[-78.039,39.5161],[-78.0285,39.509],[-78.0176,39.5163],[-78.0188,39.508],[-78.0094,39.4943],[-77.9659,39.4796],[-77.963,39.4691],[-77.9725,39.4461],[-77.9369,39.4242],[-77.9207,39.4228],[-77.8639,39.4336],[-77.8471,39.4466],[-77.8251,39.4932],[-77.8454,39.4981],[-77.8477,39.5027],[-77.8262,39.5163],[-77.824,39.5271],[-77.837,39.5321],[-77.8419,39.5184],[-77.8648,39.5159],[-77.8653,39.5384],[-77.8889,39.5568],[-77.878,39.5635],[-77.8364,39.5664],[-77.8298,39.5869],[-77.8319,39.6008],[-77.8406,39.6068],[-77.8849,39.6158],[-77.8812,39.601],[-77.8925,39.5978],[-77.9227,39.6047],[-77.9382,39.6192],[-77.9448,39.6164],[-77.9353,39.6066],[-77.9373,39.5902],[-77.9433,39.5846],[-77.9505,39.5884],[-77.9506,39.6038],[-77.955,39.6081],[-77.9672,39.6071],[-77.9772,39.5997],[-78.006,39.6012],[-78.0373,39.637],[-78.0783,39.6693],[-78.1053,39.6817],[-78.1758,39.696],[-78.191,39.6903],[-78.2022,39.6769],[-78.2326,39.6736],[-78.2238,39.6605],[-78.2541,39.6402],[-78.2661,39.6191],[-78.3553,39.6407],[-78.3593,39.6372],[-78.3535,39.6306],[-78.3555,39.6261],[-78.3738,39.6304],[-78.3824,39.6278],[-78.3834,39.6229],[-78.372,39.6119],[-78.3756,39.6083],[-78.4295,39.6237],[-78.4337,39.6198],[-78.4315,39.6145],[-78.397,39.5902],[-78.3953,39.5841],[-78.4109,39.579],[-78.445,39.5915],[-78.4568,39.5876],[-78.4582,39.5806],[-78.4494,39.5703],[-78.4258,39.5588],[-78.4173,39.5496],[-78.4188,39.546],[-78.4377,39.5534],[-78.4346,39.5422],[-78.4384,39.5386],[-78.4504,39.5498],[-78.4609,39.5509],[-78.4605,39.5462],[-78.4486,39.54],[-78.4624,39.5364],[-78.4618,39.5223],[-78.4719,39.5159],[-78.5231,39.5249],[-78.5661,39.5194],[-78.5876,39.5277],[-78.5921,39.537],[-78.6026,39.532],[-78.6231,39.5397],[-78.6579,39.535],[-78.6904,39.5028],[-78.7036,39.4975],[-78.7298,39.4632],[-78.7368,39.4639],[-78.7393,39.4572],[-78.7497,39.4553],[-78.7576,39.4436],[-78.7666,39.4475],[-78.7735,39.4429],[-78.7896,39.4246],[-78.7938,39.4046],[-78.8107,39.3766],[-78.8342,39.3523],[-78.8413,39.3516],[-78.8509,39.3309],[-78.8669,39.3259],[-78.8837,39.3284],[-78.919,39.297],[-78.9266,39.2789],[-78.9461,39.2649],[-78.9567,39.2627],[-78.9799,39.2376]]]},"properties":{"geoid":"54015","state":"54","district":"15","name":"State Senate District 15","chamber":"Senate"}},{"type":"Feature","geometry":{"type":"Polygon","coordinates":[[[-78.1481,39.3378],[-77.8283,39.1324],[-77.8221,39.1401],[-77.8214,39.1524],[-77.806,39.1717],[-77.7927,39.2114],[-77.7714,39.2365],[-77.7672,39.249],[-77.7709,39.2494],[-77.7701,39.2564],[-77.7584,39.2651],[-77.7384,39.3082],[-77.7195,39.3213],[-77.7557,39.3339],[-77.7609,39.34],[-77.7437,39.3592],[-77.753,39.3817],[-77.7357,39.3895],[-77.7529,39.423],[-77.7614,39.4279],[-77.7943,39.4309],[-77.8032,39.4371],[-77.7853,39.4454],[-77.7983,39.4561],[-77.798,39.4608],[-77.7776,39.4623],[-77.7954,39.4712],[-77.7972,39.4801],[-77.7673,39.4913],[-77.7677,39.4973],[-77.7822,39.499],[-77.7973,39.4895],[-77.8256,39.4933],[-77.8471,39.4466],[-77.8639,39.4336],[-77.9259,39.4229],[-77.9376,39.4244],[-77.9694,39.4422],[-77.9674,39.4451],[-77.9725,39.4461],[-77.963,39.4691],[-77.9651,39.4785],[-78.0094,39.4943],[-78.0188,39.508],[-78.0177,39.5163],[-78.0285,39.509],[-78.0398,39.5162],[-78.0593,39.5102],[-78.0658,39.4936],[-78.0585,39.4877],[-78.0559,39.4747],[-78.0641,39.4567],[-78.1481,39.3378]]]},"properties":{"geoid":"54016","state":"54","district":"16","name":"State Senate District 16","chamber":"Senate"}},{"type":"Feature","geometry":{"type":"Polygon","coordinates":[[[-81.8412,38.3946],[-81.8396,38.3791],[-81.8121,38.3617],[-81.8166,38.3526],[-81.8075,38.3473],[-81.8098,38.3374],[-81.8014,38.3313],[-81.805,38.3229],[-81.7918,38.311],[-81.7884,38.2964],[-81.7805,38.2905],[-81.7557,38.298],[-81.7606,38.2918],[-81.753,38.2908],[-81.7498,38.2949],[-81.7448,38.2896],[-81.7435,38.2978],[-81.7372,38.2936],[-81.7332,38.2984],[-81.7403,38.2996],[-81.7279,38.3098],[-81.7251,38.3049],[-81.7182,38.3055],[-81.7032,38.3122],[-81.6774,38.3027],[-81.6706,38.3083],[-81.6672,38.3026],[-81.6524,38.3041],[-81.6349,38.2929],[-81.6071,38.2912],[-81.5925,38.2956],[-81.6026,38.2824],[-81.5901,38.2896],[-81.5868,38.2834],[-81.5894,38.2739],[-81.5797,38.2677],[-81.5785,38.2618],[-81.5248,38.2188],[-81.5077,38.1994],[-81.4759,38.2011],[-81.4396,38.2211],[-81.4221,38.2036],[-81.4092,38.2033],[-81.3825,38.2129],[-81.3696,38.1922],[-81.3448,38.1821],[-81.3231,38.1853],[-81.315,38.1805],[-81.2314,38.2638],[-81.2544,38.3751],[-81.2839,38.472],[-81.1941,38.5276],[-81.2206,38.5318],[-81.2743,38.5218],[-81.3035,38.5348],[-81.3493,38.5413],[-81.4654,38.5499],[-81.4717,38.5463],[-81.5075,38.5827],[-81.5222,38.6127],[-81.5782,38.5771],[-81.6328,38.5544],[-81.6448,38.5357],[-81.6446,38.5265],[-81.6482,38.5262],[-81.6439,38.5168],[-81.6516,38.5215],[-81.6572,38.5139],[-81.6652,38.5219],[-81.6782,38.5168],[-81.6823,38.5128],[-81.6787,38.5065],[-81.6849,38.5009],[-81.6811,38.4943],[-81.6891,38.4953],[-81.7038,38.4747],[-81.7139,38.4742],[-81.7216,38.4566],[-81.7249,38.4587],[-81.7224,38.4654],[-81.7276,38.466],[-81.7543,38.4558],[-81.7304,38.4411],[-81.7357,38.4336],[-81.7429,38.4325],[-81.7442,38.4264],[-81.7313,38.4149],[-81.7157,38.3827],[-81.7079,38.3874],[-81.7106,38.3961],[-81.6859,38.403],[-81.6767,38.4119],[-81.6637,38.4048],[-81.6475,38.4135],[-81.6305,38.4128],[-81.6178,38.4018],[-81.6206,38.3913],[-81.6066,38.376],[-81.6209,38.3609],[-81.5962,38.3664],[-81.5933,38.3486],[-81.5858,38.3514],[-81.5813,38.3453],[-81.576,38.3463],[-81.5721,38.338],[-81.5749,38.3328],[-81.6174,38.3351],[-81.6687,38.3672],[-81.6905,38.3742],[-81.7057,38.3721],[-81.7277,38.3586],[-81.7508,38.3572],[-81.7694,38.3738],[-81.8412,38.3946]]]},"properties":{"geoid":"54017","state":"54","district":"17","name":"State Senate District 17","chamber":"Senate"}}]}