{"type":"FeatureCollection","features":[{"type":"Feature","geometry":{"type":"Polygon","coordinates":[[[-105.0862,44.5277],[-105.0827,44.5276],[-105.0845,44.2166],[-105.0793,44.1762],[-105.0807,43.7399],[-104.8383,43.7441],[-104.8387,43.8291],[-104.598,43.8302],[-104.5977,43.8565],[-104.582,43.8538],[-104.5633,43.8617],[-104.5401,43.8445],[-104.5348,43.8462],[-104.5245,43.8396],[-104.5194,43.8046],[-104.4604,43.8009],[-104.467,43.7795],[-104.4547,43.7799],[-104.3625,43.8047],[-104.3199,43.811],[-104.2989,43.8213],[-104.2585,43.8552],[-104.2672,43.8604],[-104.2594,43.8643],[-104.263,43.8814],[-104.2576,43.8838],[-104.2638,43.8919],[-104.2576,43.8946],[-104.2602,43.9058],[-104.1932,43.874],[-104.1883,43.8821],[-104.1749,43.8781],[-104.176,43.874],[-104.1669,43.8687],[-104.1779,43.8662],[-104.1486,43.8433],[-104.1556,43.831],[-104.1426,43.8216],[-104.0956,43.8088],[-104.0552,43.7616],[-104.0579,44.9976],[-105.0766,44.9999],[-105.0769,44.7862],[-105.0855,44.7868],[-105.0862,44.5277]]]},"properties":{"geoid":"56001","state":"56","district":"1","name":"State House District 1","chamber":"House"}},{"type":"Feature","geometry":{"type":"Polygon","coordinates":[[[-105.0818,43.5921],[-105.0798,43.4984],[-104.8999,43.4996],[-104.8994,42.8045],[-104.8985,42.783],[-104.8935,42.7828],[-104.8924,42.6089],[-104.6556,42.6095],[-104.6548,42.435],[-104.5586,42.437],[-104.5574,42.3628],[-104.4792,42.3612],[-104.4787,42.2752],[-104.4509,42.2754],[-104.4493,42.2644],[-104.4395,42.2545],[-104.4398,42.1786],[-104.3518,42.1372],[-104.3503,42.1452],[-104.3428,42.145],[-104.3455,42.1395],[-104.3404,42.1369],[-104.3412,42.1319],[-104.1987,42.0686],[-104.1946,42.0742],[-104.1888,42.0727],[-104.1921,42.0818],[-104.1983,42.0819],[-104.1982,42.0884],[-104.179,42.0799],[-104.179,42.0746],[-104.1691,42.0739],[-104.1691,42.0664],[-104.1648,42.0644],[-104.1654,42.0684],[-104.1495,42.0675],[-104.1497,42.0745],[-104.1392,42.0745],[-104.1398,42.0676],[-104.1446,42.0676],[-104.1417,42.058],[-104.1638,42.0622],[-104.1633,42.0529],[-104.184,42.0551],[-104.1554,42.0428],[-104.1839,42.0351],[-104.1874,42.0268],[-104.2051,42.0181],[-104.2103,42.0021],[-104.2356,41.9728],[-104.1109,41.9726],[-104.0966,41.9807],[-104.0996,41.9925],[-104.0901,41.9838],[-104.0597,41.983],[-104.0529,41.976],[-104.0552,43.7616],[-104.0956,43.8088],[-104.1426,43.8216],[-104.1556,43.831],[-104.1486,43.8433],[-104.1779,43.8662],[-104.1669,43.8687],[-104.176,43.874],[-104.1749,43.8781],[-104.1883,43.8821],[-104.1932,43.874],[-104.2602,43.9058],[-104.2576,43.8946],[-104.2638,43.8919],[-104.2576,43.8838],[-104.263,43.8814],[-104.2594,43.8643],[-104.2672,43.8604],[-104.2585,43.8552],[-104.2995,43.8209],[-104.3199,43.811],[-104.3625,43.8047],[-104.4561,43.7797],[-104.467,43.7795],[-104.4604,43.8009],[-104.5194,43.8046],[-104.5245,43.8396],[-104.5348,43.8462],[-104.5401,43.8445],[-104.5629,43.8617],[-104.582,43.8538],[-104.5977,43.8565],[-104.598,43.8302],[-104.8387,43.8291],[-104.8383,43.7441],[-105.0807,43.7399],[-105.0818,43.5921]]]},"properties":{"geoid":"56002","state":"56","district":"2","name":"State House District 2","chamber":"House"}},{"type":"Feature","geometry":{"type":"Polygon","coordinates":[[[-106.0188,43.6286],[-106.0174,43.495],[-105.0798,43.4984],[-105.0808,43.9662],[-105.1033,43.9628],[-105.126,43.9694],[-105.1817,43.9702],[-105.1982,43.9805],[-105.2014,44.001],[-105.2123,43.9996],[-105.2192,44.0077],[-105.2237,44.0247],[-105.2328,44.0339],[-105.228,44.0382],[-105.2305,44.0458],[-105.2447,44.0573],[-105.2419,44.0602],[-105.2468,44.0716],[-105.2434,44.0751],[-105.2482,44.0798],[-105.3022,44.0959],[-105.3114,44.1026],[-105.3337,44.1036],[-105.3301,44.1106],[-105.307,44.1234],[-105.2801,44.1303],[-105.282,44.1428],[-105.2768,44.1524],[-105.2842,44.1829],[-105.2821,44.2004],[-105.3028,44.2243],[-105.3123,44.2279],[-105.3073,44.2224],[-105.3475,44.2221],[-105.3475,44.2258],[-105.3679,44.2263],[-105.3792,44.233],[-105.4579,44.2283],[-105.4621,44.2361],[-105.4591,44.2399],[-105.4641,44.2383],[-105.4897,44.2556],[-105.4997,44.2539],[-105.4997,44.2469],[-105.515,44.2468],[-105.5151,44.2506],[-105.5201,44.2505],[-105.5201,44.2615],[-105.5506,44.2544],[-105.5515,44.2467],[-105.5558,44.2466],[-105.5557,44.2539],[-105.5709,44.2497],[-105.5708,44.2569],[-105.5466,44.2613],[-105.5466,44.2651],[-105.5707,44.2642],[-105.5706,44.2948],[-105.5392,44.294],[-105.5951,44.2968],[-105.6163,44.303],[-105.6367,44.2955],[-105.6595,44.3068],[-105.6665,44.3161],[-105.6866,44.3187],[-105.6951,44.3248],[-105.6961,44.332],[-105.6848,44.3357],[-105.6969,44.3539],[-105.6954,44.3645],[-105.702,44.3727],[-105.658,44.386],[-105.6456,44.3944],[-105.661,44.3997],[-105.6619,44.4257],[-105.6855,44.439],[-105.6887,44.4526],[-105.6822,44.4606],[-105.6867,44.4786],[-105.6832,44.4887],[-105.7161,44.4982],[-105.74,44.4878],[-105.7689,44.5057],[-105.7781,44.52],[-105.7875,44.5241],[-105.7948,44.5267],[-105.798,44.5206],[-105.8034,44.5208],[-105.826,44.5343],[-105.8333,44.5292],[-105.847,44.5363],[-105.8745,44.5348],[-105.8768,44.5306],[-105.9016,44.5524],[-105.9546,44.5462],[-105.9526,44.5237],[-105.8925,44.4774],[-105.8645,44.448],[-105.894,44.4776],[-106.0098,44.5699],[-106.0085,44.5211],[-106.0145,44.521],[-106.0167,44.3045],[-106.0165,44.1697],[-106.0114,44.1697],[-106.0096,44.0836],[-106.0092,43.8216],[-106.0176,43.8215],[-106.0188,43.6286]]]},"properties":{"geoid":"56003","state":"56","district":"3","name":"State House District 3","chamber":"House"}},{"type":"Feature","geometry":{"type":"Polygon","coordinates":[[[-105.2865,42.6058],[-105.2811,42.0889],[-105.2738,42.0888],[-105.2717,41.9861],[-105.2718,41.742],[-105.279,41.742],[-105.2806,41.331],[-105.1839,41.3232],[-105.1494,41.332],[-105.1269,41.3304],[-105.0962,41.3357],[-105.0822,41.3412],[-105.0811,41.3469],[-105.059,41.3474],[-105.0585,41.3622],[-105.0466,41.3639],[-104.9881,41.3642],[-104.9,41.3493],[-104.8683,41.3491],[-104.8746,41.4077],[-104.8726,41.393],[-104.6401,41.3882],[-104.6056,41.3941],[-104.5948,41.3918],[-104.5925,41.5647],[-104.653,41.565],[-104.6556,42.6095],[-105.2865,42.6058]]]},"properties":{"geoid":"56004","state":"56","district":"4","name":"State House District 4","chamber":"House"}},{"type":"Feature","geometry":{"type":"Polygon","coordinates":[[[-104.6553,42.3748],[-104.653,41.565],[-104.0525,41.5643],[-104.0529,41.976],[-104.0597,41.983],[-104.0901,41.9838],[-104.0996,41.9925],[-104.0966,41.9807],[-104.1109,41.9726],[-104.2356,41.9728],[-104.2103,42.0021],[-104.2051,42.0181],[-104.1874,42.0268],[-104.1839,42.0351],[-104.1554,42.0428],[-104.184,42.0551],[-104.1633,42.0529],[-104.1638,42.0622],[-104.1417,42.058],[-104.1446,42.0676],[-104.1398,42.0676],[-104.1392,42.0745],[-104.1497,42.0745],[-104.1495,42.0675],[-104.1654,42.0684],[-104.1648,42.0644],[-104.1691,42.0664],[-104.1691,42.0739],[-104.179,42.0746],[-104.179,42.0799],[-104.1982,42.0884],[-104.1983,42.0819],[-104.1921,42.0818],[-104.1888,42.0727],[-104.1946,42.0742],[-104.1987,42.0686],[-104.3412,42.1319],[-104.3404,42.1369],[-104.3455,42.1395],[-104.3428,42.145],[-104.3503,42.1452],[-104.3518,42.1372],[-104.4398,42.1786],[-104.4395,42.2545],[-104.4493,42.2644],[-104.4509,42.2754],[-104.4787,42.2752],[-104.4789,42.3607],[-104.5574,42.3628],[-104.5586,42.437],[-104.6548,42.435],[-104.6553,42.3748]]]},"properties":{"geoid":"56005","state":"56","district":"5","name":"State House District 5","chamber":"House"}},{"type":"Feature","geometry":{"type":"Polygon","coordinates":[[[-105.7727,42.721],[-105.7672,42.4316],[-105.556,42.4306],[-105.5562,42.4063],[-105.5755,42.4062],[-105.5756,42.3773],[-105.6147,42.3774],[-105.6139,42.3045],[-105.5994,42.3048],[-105.5994,42.2975],[-105.5267,42.2961],[-105.5264,42.2889],[-105.3755,42.2901],[-105.3787,42.319],[-105.3586,42.3193],[-105.3617,42.3763],[-105.3522,42.3764],[-105.352,42.4049],[-105.3421,42.4049],[-105.3421,42.4191],[-105.3325,42.4191],[-105.3326,42.4311],[-105.2823,42.4313],[-105.2865,42.6058],[-104.8924,42.6089],[-104.8935,42.7828],[-104.8985,42.783],[-104.8994,42.8045],[-104.8999,43.4996],[-105.685,43.4958],[-105.6849,43.4741],[-105.6793,43.4741],[-105.6797,43.3883],[-105.5605,43.3887],[-105.5614,43.2155],[-105.68,43.2154],[-105.6728,42.9539],[-105.6535,42.954],[-105.6529,42.9105],[-105.6726,42.9102],[-105.6726,42.8233],[-105.6925,42.8224],[-105.6946,42.7208],[-105.7727,42.721]]]},"properties":{"geoid":"56006","state":"56","district":"6","name":"State House District 6","chamber":"House"}},{"type":"Feature","geometry":{"type":"Polygon","coordinates":[[[-104.8477,41.1762],[-104.8429,41.1749],[-104.8429,41.1678],[-104.8289,41.1605],[-104.8287,41.1641],[-104.8189,41.1641],[-104.8092,41.1603],[-104.8086,41.1753],[-104.8155,41.1753],[-104.8168,41.1857],[-104.8308,41.1836],[-104.838,41.1894],[-104.838,41.1837],[-104.8434,41.1832],[-104.8477,41.1874],[-104.8477,41.1762]]]},"properties":{"geoid":"56007","state":"56","district":"7","name":"State House District 7","chamber":"House"}},{"type":"Feature","geometry":{"type":"Polygon","coordinates":[[[-104.8382,41.1857],[-104.838,41.1894],[-104.8308,41.1836],[-104.8168,41.1857],[-104.8155,41.1753],[-104.8086,41.1753],[-104.8073,41.1586],[-104.791,41.1575],[-104.79,41.1747],[-104.7785,41.1749],[-104.7564,41.1708],[-104.7491,41.1626],[-104.7401,41.1635],[-104.7444,41.1617],[-104.7421,41.1563],[-104.6941,41.1595],[-104.6939,41.1742],[-104.7131,41.1742],[-104.7128,41.203],[-104.7033,41.2032],[-104.6933,41.2175],[-104.6741,41.2174],[-104.6662,41.2299],[-104.674,41.2375],[-104.6716,41.2411],[-104.6928,41.2454],[-104.6932,41.2716],[-104.6985,41.2658],[-104.7127,41.263],[-104.7287,41.2626],[-104.7363,41.2693],[-104.7542,41.2624],[-104.7631,41.2647],[-104.7728,41.25],[-104.78,41.2487],[-104.7868,41.2486],[-104.7888,41.2617],[-104.8362,41.2337],[-104.8382,41.1857]]]},"properties":{"geoid":"56008","state":"56","district":"8","name":"State House District 8","chamber":"House"}},{"type":"Feature","geometry":{"type":"Polygon","coordinates":[[[-104.7913,41.1705],[-104.7893,41.1602],[-104.7565,41.16],[-104.7459,41.1536],[-104.7426,41.1537],[-104.7444,41.1617],[-104.7401,41.1617],[-104.7516,41.1636],[-104.7564,41.1708],[-104.7682,41.1745],[-104.79,41.1747],[-104.7913,41.1705]]]},"properties":{"geoid":"56009","state":"56","district":"9","name":"State House District 9","chamber":"House"}},{"type":"Feature","geometry":{"type":"Polygon","coordinates":[[[-104.8746,41.4077],[-104.8674,41.3406],[-104.8387,41.2547],[-104.8376,41.2288],[-104.8346,41.2353],[-104.7888,41.2617],[-104.7868,41.2486],[-104.78,41.2487],[-104.7728,41.25],[-104.7631,41.2647],[-104.7542,41.2624],[-104.7363,41.2693],[-104.7287,41.2626],[-104.7127,41.263],[-104.6985,41.2658],[-104.6932,41.2716],[-104.6928,41.2454],[-104.6716,41.2411],[-104.674,41.2375],[-104.6661,41.2288],[-104.6741,41.2174],[-104.6933,41.2175],[-104.7033,41.2032],[-104.7128,41.203],[-104.7131,41.1742],[-104.6939,41.1742],[-104.6937,41.1521],[-104.6847,41.1492],[-104.6749,41.1538],[-104.6944,41.1401],[-104.6501,41.1577],[-104.5604,41.158],[-104.5652,41.1575],[-104.5653,41.1375],[-104.5607,41.1375],[-104.5607,41.1303],[-104.5228,41.1266],[-104.5232,41.1012],[-104.5612,41.1009],[-104.5595,41.0578],[-104.6003,41.0579],[-104.5995,41.0015],[-104.0532,41.0014],[-104.0525,41.5643],[-104.5925,41.5647],[-104.5948,41.3918],[-104.6056,41.3941],[-104.6401,41.3882],[-104.8726,41.393],[-104.8746,41.4077]]]},"properties":{"geoid":"56010","state":"56","district":"10","name":"State House District 10","chamber":"House"}},{"type":"Feature","geometry":{"type":"Polygon","coordinates":[[[-104.8624,41.1198],[-104.857,41.116],[-104.8599,41.1146],[-104.8048,41.1349],[-104.7663,41.1289],[-104.7631,41.1365],[-104.7952,41.1382],[-104.7986,41.1434],[-104.8064,41.1404],[-104.8094,41.1459],[-104.8388,41.1463],[-104.8404,41.1369],[-104.8371,41.1352],[-104.8407,41.1369],[-104.8511,41.1189],[-104.8624,41.1198]]]},"properties":{"geoid":"56011","state":"56","district":"11","name":"State House District 11","chamber":"House"}},{"type":"Feature","geometry":{"type":"Polygon","coordinates":[[[-104.9063,40.9982],[-104.773,40.9998],[-104.7854,41.0392],[-104.7989,41.0631],[-104.8,41.0801],[-104.7903,41.0947],[-104.7875,41.1095],[-104.79,41.1167],[-104.7972,41.1186],[-104.7937,41.1211],[-104.8057,41.1159],[-104.8017,41.1131],[-104.8095,41.1097],[-104.8095,41.1024],[-104.8379,41.0986],[-104.8607,41.0735],[-104.8841,41.0565],[-104.9021,41.0238],[-104.9063,40.9982]]]},"properties":{"geoid":"56012","state":"56","district":"12","name":"State House District 12","chamber":"House"}},{"type":"Feature","geometry":{"type":"Polygon","coordinates":[[[-105.5801,41.2937],[-105.5698,41.2952],[-105.5733,41.2989],[-105.5382,41.2939],[-105.5358,41.2988],[-105.5289,41.2973],[-105.5282,41.3027],[-105.5382,41.304],[-105.5383,41.3136],[-105.5772,41.3133],[-105.5801,41.2937]]]},"properties":{"geoid":"56013","state":"56","district":"13","name":"State House District 13","chamber":"House"}},{"type":"Feature","geometry":{"type":"Polygon","coordinates":[[[-106.0749,42.1264],[-106.0709,41.5326],[-106.0189,41.5455],[-106.0035,41.557],[-106.004,41.5454],[-106.0208,41.5367],[-106.0006,41.5336],[-105.9846,41.5385],[-105.9838,41.527],[-105.9618,41.5318],[-105.9467,41.518],[-105.9201,41.5061],[-105.9057,41.5133],[-105.8737,41.5144],[-105.8243,41.5395],[-105.8081,41.5244],[-105.7303,41.5262],[-105.7126,41.531],[-105.6988,41.5282],[-105.7139,41.5215],[-105.7129,41.508],[-105.7234,41.5106],[-105.7187,41.5024],[-105.7265,41.5074],[-105.7409,41.4975],[-105.7367,41.4953],[-105.7477,41.4849],[-105.745,41.4775],[-105.7248,41.4726],[-105.724,41.4776],[-105.7142,41.4738],[-105.7113,41.4776],[-105.6984,41.4684],[-105.6951,41.4716],[-105.6866,41.4671],[-105.6842,41.4715],[-105.6823,41.4651],[-105.6754,41.472],[-105.6761,41.4662],[-105.668,41.4667],[-105.6692,41.4629],[-105.6636,41.462],[-105.6685,41.4593],[-105.6503,41.4469],[-105.6518,41.4417],[-105.6479,41.4399],[-105.6528,41.4363],[-105.6416,41.4338],[-105.6427,41.4255],[-105.6334,41.4256],[-105.6275,41.4204],[-105.6298,41.4171],[-105.6128,41.4134],[-105.607,41.3978],[-105.5989,41.3905],[-105.602,41.3866],[-105.5958,41.3884],[-105.5903,41.3742],[-105.5961,41.3668],[-105.593,41.3563],[-105.5989,41.3454],[-105.5995,41.3286],[-105.5768,41.3249],[-105.5772,41.3133],[-105.5383,41.3136],[-105.5381,41.3311],[-105.4436,41.3266],[-105.311,41.3299],[-105.3113,41.325],[-105.2973,41.322],[-105.2945,41.3263],[-105.2982,41.3304],[-105.2806,41.3314],[-105.279,41.742],[-105.2718,41.742],[-105.2717,41.9861],[-105.2738,42.0888],[-105.2811,42.0889],[-105.2839,42.4314],[-105.3326,42.4311],[-105.3325,42.4191],[-105.3421,42.4191],[-105.3421,42.4049],[-105.352,42.4049],[-105.3522,42.3764],[-105.3617,42.3763],[-105.3586,42.3193],[-105.3787,42.319],[-105.3755,42.2901],[-105.5264,42.2889],[-105.5267,42.2961],[-105.5994,42.2975],[-105.5994,42.3048],[-105.6139,42.3045],[-105.6147,42.3774],[-105.5756,42.3773],[-105.5755,42.4062],[-105.5562,42.4063],[-105.556,42.4306],[-106.0734,42.4332],[-106.0749,42.1264]]]},"properties":{"geoid":"56014","state":"56","district":"14","name":"State House District 14","chamber":"House"}},{"type":"Feature","geometry":{"type":"Polygon","coordinates":[[[-107.6364,42.1958],[-107.6403,42.1953],[-107.6331,42.1861],[-107.6328,42.1744],[-107.5228,42.1745],[-107.5223,42.088],[-107.5038,42.088],[-107.5055,41.7405],[-107.5101,41.7405],[-107.5097,41.6575],[-107.5862,41.6576],[-107.5841,41.3978],[-107.5737,41.3978],[-107.5736,41.3084],[-107.2334,41.3089],[-107.2384,41.3968],[-107.1294,41.3965],[-107.1303,41.569],[-107.0185,41.5694],[-107.0191,41.6558],[-106.9019,41.6561],[-106.903,41.7398],[-106.9262,41.7398],[-106.9268,41.8267],[-106.6945,41.8264],[-106.695,42.0855],[-106.8218,42.0862],[-106.8214,42.1719],[-106.9387,42.1719],[-106.941,42.4334],[-107.5229,42.4344],[-107.5227,42.2618],[-107.6351,42.2614],[-107.6334,42.1979],[-107.6364,42.1958]]]},"properties":{"geoid":"56015","state":"56","district":"15","name":"State House District 15","chamber":"House"}},{"type":"Feature","geometry":{"type":"Polygon","coordinates":[[[-110.8135,43.4656],[-110.8134,43.4584],[-110.7883,43.4582],[-110.7885,43.4659],[-110.7824,43.4655],[-110.7824,43.4691],[-110.7377,43.469],[-110.7376,43.4726],[-110.7426,43.4726],[-110.7424,43.4797],[-110.7675,43.4796],[-110.7909,43.4764],[-110.7985,43.464],[-110.8135,43.4656]]]},"properties":{"geoid":"56016","state":"56","district":"16","name":"State House District 16","chamber":"House"}},{"type":"Feature","geometry":{"type":"Polygon","coordinates":[[[-109.2714,41.573],[-109.2355,41.5771],[-109.2165,41.5672],[-109.1944,41.5674],[-109.1939,41.5744],[-109.185,41.5745],[-109.1846,41.5886],[-109.1943,41.5885],[-109.194,41.6033],[-109.2034,41.6033],[-109.2027,41.5917],[-109.2167,41.5839],[-109.2213,41.5865],[-109.2141,41.5926],[-109.2252,41.5923],[-109.2271,41.5877],[-109.2443,41.5982],[-109.2521,41.5957],[-109.2535,41.5831],[-109.2714,41.573]]]},"properties":{"geoid":"56017","state":"56","district":"17","name":"State House District 17","chamber":"House"}},{"type":"Feature","geometry":{"type":"Polygon","coordinates":[[[-111.0473,42.193],[-111.0468,41.2482],[-111.0189,41.2473],[-110.9958,41.2564],[-111.0006,41.2567],[-111.0001,41.2606],[-111.0049,41.2565],[-110.9908,41.2761],[-110.9768,41.2767],[-110.9768,41.2857],[-110.9481,41.2857],[-110.948,41.282],[-110.9561,41.2809],[-110.9577,41.2713],[-110.8907,41.2623],[-110.8574,41.2726],[-110.8365,41.2677],[-110.8066,41.2734],[-110.7759,41.295],[-110.7367,41.309],[-110.6905,41.2949],[-110.6759,41.2994],[-110.5591,41.2974],[-110.5452,41.3007],[-110.5441,41.4058],[-110.5806,41.4059],[-110.5796,41.5792],[-110.048,41.578],[-110.0485,40.9973],[-109.5611,41.0009],[-109.5597,41.0124],[-109.5667,41.0247],[-109.5505,41.0382],[-109.5638,41.0564],[-109.5477,41.0687],[-109.5404,41.0934],[-109.5299,41.1051],[-109.5321,41.117],[-109.5539,41.1355],[-109.5529,41.1565],[-109.5345,41.1736],[-109.5442,41.2074],[-109.5899,41.2246],[-109.5689,41.2548],[-109.5312,41.2824],[-109.5352,41.3089],[-109.53,41.3238],[-109.5097,41.3261],[-109.4941,41.3209],[-109.4686,41.3246],[-109.4582,41.3354],[-109.4536,41.3539],[-109.4369,41.3567],[-109.4291,41.3669],[-109.4294,41.3744],[-109.4488,41.3809],[-109.4513,41.4062],[-109.4407,41.4114],[-109.4245,41.4041],[-109.4162,41.4063],[-109.4093,41.4223],[-109.4238,41.4369],[-109.3906,41.4447],[-109.3857,41.4543],[-109.3865,41.4725],[-109.3948,41.4779],[-109.4034,41.4739],[-109.4174,41.476],[-109.4189,41.4799],[-109.414,41.4817],[-109.4232,41.4917],[-109.4787,41.4888],[-109.4837,41.4852],[-109.4841,41.4743],[-109.5024,41.4744],[-109.5024,41.4878],[-109.4836,41.4887],[-109.4833,41.508],[-109.4739,41.5163],[-109.4792,41.5178],[-109.4798,41.5279],[-109.4728,41.5309],[-109.4525,41.5213],[-109.4254,41.5283],[-109.4254,41.5321],[-109.4447,41.5322],[-109.4447,41.5394],[-109.4635,41.5393],[-109.4627,41.5426],[-109.4482,41.5481],[-109.3883,41.5546],[-109.3229,41.5798],[-109.3153,41.5923],[-109.2915,41.5874],[-109.2721,41.6003],[-109.2721,41.6258],[-109.2524,41.6255],[-109.2526,41.6292],[-109.2722,41.6295],[-109.2721,41.6403],[-109.2812,41.6404],[-109.2832,41.6546],[-109.2591,41.652],[-109.2282,41.6572],[-109.2346,41.6851],[-109.2803,41.7329],[-109.309,41.7437],[-109.3325,41.7421],[-109.4014,41.7542],[-109.4269,41.7483],[-109.4183,41.745],[-109.4238,41.7414],[-109.5926,41.7438],[-109.5911,42.0079],[-110.0464,42.0069],[-110.0544,42.007],[-110.0544,42.011],[-110.2348,42.0111],[-110.2348,41.9821],[-110.2542,41.9822],[-110.2506,41.8794],[-110.2879,41.8792],[-110.2882,41.8502],[-110.3075,41.8503],[-110.3075,41.923],[-110.2915,41.9229],[-110.2915,41.9521],[-110.2721,41.952],[-110.2724,42.0677],[-110.5201,42.068],[-110.5186,42.0886],[-110.5227,42.1007],[-110.563,42.1011],[-110.562,42.1738],[-110.6008,42.1743],[-110.6006,42.1902],[-110.5427,42.1902],[-110.5433,42.4485],[-111.047,42.4479],[-111.0473,42.193]]]},"properties":{"geoid":"56018","state":"56","district":"18","name":"State House District 18","chamber":"House"}},{"type":"Feature","geometry":{"type":"Polygon","coordinates":[[[-111.0468,41.156],[-111.0468,40.9979],[-110.0485,40.9973],[-110.048,41.578],[-110.5796,41.5792],[-110.5806,41.4059],[-110.5441,41.4058],[-110.5452,41.3007],[-110.5591,41.2974],[-110.6759,41.2994],[-110.6905,41.2949],[-110.7367,41.309],[-110.7759,41.295],[-110.805,41.2739],[-110.834,41.2679],[-110.8574,41.2726],[-110.8943,41.2624],[-110.9577,41.2713],[-110.9673,41.2583],[-110.9488,41.2611],[-110.9355,41.242],[-110.9481,41.2421],[-110.9481,41.2384],[-110.9768,41.2421],[-110.9816,41.2326],[-110.9862,41.2326],[-110.9864,41.2369],[-111.0055,41.2369],[-111.0056,41.2422],[-110.9958,41.2422],[-110.9958,41.2564],[-111.0189,41.2473],[-111.0468,41.2482],[-111.0468,41.156]]]},"properties":{"geoid":"56019","state":"56","district":"19","name":"State House District 19","chamber":"House"}},{"type":"Feature","geometry":{"type":"Polygon","coordinates":[[[-110.6238,42.7519],[-110.6235,42.7102],[-110.5901,42.71],[-110.5901,42.4484],[-110.5433,42.4485],[-110.5427,42.1902],[-110.6006,42.1902],[-110.6008,42.1743],[-110.562,42.1738],[-110.563,42.1011],[-110.5227,42.1007],[-110.5186,42.0886],[-110.5201,42.068],[-110.2724,42.0677],[-110.2721,41.952],[-110.2915,41.9521],[-110.2915,41.9229],[-110.3075,41.923],[-110.3075,41.8503],[-110.2882,41.8502],[-110.2879,41.8792],[-110.2506,41.8794],[-110.2542,41.9822],[-110.2348,41.9821],[-110.2348,42.0111],[-110.0544,42.011],[-110.0537,42.2707],[-109.4968,42.2633],[-109.0439,42.2637],[-109.0438,42.4336],[-109.0695,42.4335],[-109.0729,42.6935],[-109.1345,42.6943],[-109.1377,42.7051],[-109.1284,42.7084],[-109.1479,42.7276],[-109.1433,42.7332],[-109.1333,42.7331],[-109.1323,42.7375],[-109.1795,42.751],[-109.1787,42.7547],[-109.1953,42.7685],[-109.2098,42.7704],[-109.2174,42.76],[-109.2366,42.7688],[-109.2374,42.7767],[-109.2259,42.7909],[-109.2103,42.7931],[-109.2136,42.7992],[-109.2369,42.8095],[-109.248,42.8062],[-109.2695,42.8251],[-109.2812,42.843],[-109.2789,42.846],[-109.2917,42.8458],[-109.3194,42.8592],[-109.3305,42.875],[-109.3319,42.8954],[-109.3395,42.8988],[-109.3454,42.9189],[-109.3564,42.9247],[-109.3703,42.9456],[-109.3841,42.9393],[-109.3978,42.9392],[-109.4048,42.9506],[-109.4288,42.9607],[-109.4324,42.9682],[-109.4541,42.97],[-109.4632,42.9813],[-109.4594,42.9871],[-109.4667,42.992],[-109.4924,42.9956],[-109.5024,43.0105],[-109.5146,43.0071],[-109.529,43.0139],[-109.5526,43.0125],[-109.5557,43.0276],[-109.5487,43.0367],[-109.5606,43.0396],[-109.5598,43.0478],[-109.5708,43.0493],[-109.5532,43.0586],[-109.553,43.0723],[-109.5616,43.0778],[-109.5601,43.0828],[-109.5702,43.0916],[-109.5704,43.0997],[-109.5812,43.1015],[-109.5957,43.1183],[-109.6216,43.1265],[-109.6309,43.1487],[-109.6301,43.1633],[-109.6437,43.1621],[-109.6515,43.167],[-109.6586,43.2015],[-109.6761,43.2153],[-109.6758,43.2241],[-109.6701,43.2287],[-109.6777,43.2359],[-109.6738,43.248],[-109.6927,43.265],[-109.6787,43.2732],[-109.6857,43.2857],[-109.6736,43.2967],[-109.6721,43.3087],[-109.6797,43.3182],[-109.6942,43.3248],[-109.7004,43.335],[-109.6941,43.3654],[-109.7108,43.3744],[-109.734,43.3656],[-109.7545,43.3659],[-109.7547,43.4632],[-110.0575,43.4648],[-110.0573,43.3778],[-110.3442,43.3779],[-110.344,43.2912],[-110.5784,43.2916],[-110.5786,43.1263],[-110.588,43.1261],[-110.5877,42.7792],[-110.6234,42.7792],[-110.6238,42.7519]]]},"properties":{"geoid":"56020","state":"56","district":"20","name":"State House District 20","chamber":"House"}},{"type":"Feature","geometry":{"type":"Polygon","coordinates":[[[-111.0472,42.4691],[-111.047,42.4479],[-110.7924,42.448],[-110.7739,42.498],[-110.8024,42.5419],[-110.7623,42.5857],[-110.7723,42.6219],[-110.7783,42.7089],[-110.7648,42.7271],[-110.8035,42.7957],[-110.8105,42.8495],[-110.8096,42.8927],[-110.8203,42.9218],[-110.8405,42.9534],[-110.9926,42.9534],[-110.9926,42.9824],[-110.9827,42.9823],[-110.9826,42.9969],[-110.9926,42.9969],[-110.9923,43.0332],[-111.0121,43.0333],[-111.012,43.0442],[-111.044,43.0445],[-111.0472,42.4691]]]},"properties":{"geoid":"56021","state":"56","district":"21","name":"State House District 21","chamber":"House"}},{"type":"Feature","geometry":{"type":"Polygon","coordinates":[[[-111.0455,43.5107],[-111.044,43.0445],[-111.012,43.0442],[-111.0121,43.0333],[-110.9923,43.0332],[-110.9926,42.9969],[-110.9826,42.9969],[-110.9827,42.9823],[-110.9926,42.9824],[-110.9926,42.9534],[-110.8405,42.9534],[-110.8203,42.9218],[-110.8096,42.8927],[-110.8105,42.8495],[-110.8035,42.7957],[-110.7648,42.7271],[-110.7783,42.7089],[-110.7723,42.6219],[-110.7623,42.5857],[-110.8024,42.5419],[-110.7739,42.498],[-110.7924,42.448],[-110.5901,42.4485],[-110.5901,42.71],[-110.6235,42.7102],[-110.6234,42.7792],[-110.5877,42.7792],[-110.588,43.1261],[-110.5786,43.1263],[-110.5787,43.2352],[-110.7261,43.2351],[-110.727,43.2763],[-110.7055,43.2986],[-110.7051,43.3179],[-110.6997,43.3196],[-110.6951,43.3317],[-110.7028,43.3447],[-110.6864,43.3429],[-110.6685,43.3318],[-110.6557,43.333],[-110.6512,43.3396],[-110.6729,43.3558],[-110.6675,43.3606],[-110.6752,43.3675],[-110.6719,43.3833],[-110.6931,43.3833],[-110.6988,43.3923],[-110.7479,43.3938],[-110.7731,43.4147],[-110.8078,43.4163],[-110.8058,43.4274],[-110.8012,43.4274],[-110.8034,43.4365],[-110.7884,43.4365],[-110.7884,43.4401],[-110.7863,43.4371],[-110.7932,43.4582],[-110.8134,43.4584],[-110.8135,43.4656],[-110.8425,43.4656],[-110.8425,43.4839],[-110.8512,43.4852],[-110.8394,43.4991],[-110.8513,43.4982],[-110.8466,43.5089],[-110.8622,43.5089],[-110.8612,43.5273],[-110.848,43.5379],[-110.8401,43.5653],[-110.8426,43.5697],[-110.8375,43.5745],[-110.8597,43.5787],[-110.8714,43.5865],[-110.8833,43.5966],[-110.8779,43.6059],[-110.8846,43.6142],[-110.9237,43.6195],[-110.9244,43.6127],[-110.9306,43.6154],[-110.9386,43.6107],[-110.9533,43.6152],[-110.971,43.6074],[-110.993,43.6093],[-111.0347,43.5941],[-111.0367,43.5855],[-111.0454,43.5831],[-111.0455,43.5107]]]},"properties":{"geoid":"56022","state":"56","district":"22","name":"State House District 22","chamber":"House"}},{"type":"Feature","geometry":{"type":"Polygon","coordinates":[[[-111.0534,44.6663],[-111.0524,44.4784],[-111.049,44.4741],[-111.0454,43.5831],[-111.0367,43.5855],[-111.0344,43.5943],[-110.9945,43.6091],[-110.971,43.6074],[-110.9533,43.6152],[-110.9386,43.6107],[-110.9306,43.6154],[-110.9244,43.6127],[-110.9244,43.6191],[-110.917,43.6202],[-110.9005,43.6136],[-110.8846,43.6142],[-110.8779,43.6059],[-110.8833,43.5966],[-110.8714,43.5865],[-110.8597,43.5787],[-110.8375,43.5745],[-110.8426,43.5697],[-110.8401,43.5653],[-110.848,43.5379],[-110.8599,43.5299],[-110.8618,43.5184],[-110.8622,43.5089],[-110.8466,43.5089],[-110.8513,43.4982],[-110.8394,43.4991],[-110.8512,43.4852],[-110.8425,43.4839],[-110.8425,43.4656],[-110.7987,43.464],[-110.7909,43.4764],[-110.7424,43.4797],[-110.7426,43.4726],[-110.7377,43.469],[-110.7885,43.4659],[-110.7883,43.4582],[-110.7932,43.4583],[-110.7863,43.4371],[-110.7884,43.4401],[-110.7884,43.4365],[-110.8034,43.4365],[-110.8012,43.4274],[-110.8058,43.4274],[-110.8079,43.4165],[-110.7731,43.4147],[-110.7479,43.3938],[-110.6988,43.3923],[-110.6931,43.3833],[-110.6719,43.3833],[-110.6752,43.3675],[-110.6675,43.3606],[-110.6729,43.3558],[-110.6506,43.3362],[-110.6724,43.3323],[-110.6864,43.3429],[-110.7028,43.3447],[-110.6951,43.3317],[-110.6997,43.3196],[-110.7051,43.3179],[-110.7055,43.2986],[-110.727,43.2763],[-110.7261,43.2351],[-110.5787,43.2352],[-110.5784,43.2916],[-110.344,43.2912],[-110.3442,43.3779],[-110.0573,43.3778],[-110.0575,43.4648],[-110.0516,43.4648],[-110.0512,43.5087],[-110.0534,44.1326],[-110.1196,44.1326],[-110.1159,44.1357],[-110.1269,44.1428],[-110.1247,44.1495],[-110.1282,44.1512],[-110.1237,44.153],[-110.1278,44.1592],[-110.1161,44.1682],[-110.1228,44.175],[-110.1092,44.1784],[-110.1054,44.1846],[-110.1176,44.1812],[-110.1199,44.1864],[-110.1145,44.1895],[-110.1238,44.1925],[-110.1089,44.1933],[-110.112,44.1999],[-110.1191,44.1987],[-110.1235,44.2038],[-110.1097,44.2101],[-110.1149,44.2165],[-110.1237,44.2115],[-110.133,44.2256],[-110.1311,44.2298],[-110.138,44.2368],[-110.1317,44.25],[-110.1434,44.254],[-110.1399,44.2632],[-110.1505,44.2705],[-110.1412,44.274],[-110.1448,44.2832],[-110.1622,44.299],[-110.1714,44.2962],[-110.1758,44.2985],[-110.1744,44.3045],[-110.1834,44.3019],[-110.1821,44.3094],[-110.1893,44.3004],[-110.2038,44.3056],[-110.2098,44.3144],[-110.2032,44.3133],[-110.2064,44.3184],[-110.2002,44.3202],[-110.2025,44.3278],[-110.2202,44.3328],[-110.2253,44.3388],[-110.2288,44.3747],[-110.2427,44.3872],[-110.2539,44.3898],[-110.2549,44.4048],[-110.26,44.4094],[-110.278,44.4139],[-110.2963,44.4304],[-110.2888,44.4515],[-110.291,44.4703],[-110.2822,44.4766],[-110.2843,44.4897],[-110.278,44.4985],[-110.2765,44.5158],[-110.2858,44.5263],[-110.2985,44.5301],[-110.2901,44.5427],[-110.3132,44.5558],[-110.331,44.5537],[-110.3335,44.5477],[-110.3845,44.5638],[-110.3727,44.5709],[-110.3753,44.583],[-110.6679,44.5828],[-110.6679,44.6663],[-111.0534,44.6663]]]},"properties":{"geoid":"56023","state":"56","district":"23","name":"State House District 23","chamber":"House"}},{"type":"Feature","geometry":{"type":"Polygon","coordinates":[[[-111.0546,44.9997],[-111.0534,44.6663],[-110.6679,44.6663],[-110.6679,44.5828],[-110.3753,44.583],[-110.3727,44.5709],[-110.3845,44.5638],[-110.3393,44.5484],[-110.3153,44.5561],[-110.2957,44.5475],[-110.2892,44.5397],[-110.2985,44.5301],[-110.2858,44.5263],[-110.2765,44.5158],[-110.278,44.4985],[-110.2843,44.4897],[-110.2822,44.4766],[-110.291,44.4703],[-110.2888,44.4515],[-110.2963,44.4304],[-110.278,44.4139],[-110.26,44.4094],[-110.2549,44.4048],[-110.2539,44.3898],[-110.2427,44.3872],[-110.2288,44.3747],[-110.2253,44.3388],[-110.2202,44.3328],[-110.2025,44.3278],[-110.2002,44.3202],[-110.2064,44.3184],[-110.2032,44.3133],[-110.2098,44.3144],[-110.2038,44.3056],[-110.1893,44.3004],[-110.1821,44.3094],[-110.1834,44.3019],[-110.1744,44.3045],[-110.1758,44.2985],[-110.1714,44.2962],[-110.1622,44.299],[-110.1448,44.2832],[-110.1412,44.274],[-110.1505,44.2705],[-110.1399,44.2632],[-110.1434,44.254],[-110.1317,44.25],[-110.138,44.2368],[-110.1311,44.2298],[-110.133,44.2256],[-110.1237,44.2115],[-110.1149,44.2165],[-110.1097,44.2101],[-110.1235,44.2038],[-110.1191,44.1987],[-110.112,44.1999],[-110.1089,44.1933],[-110.1238,44.1925],[-110.1145,44.1895],[-110.1199,44.1864],[-110.1176,44.1812],[-110.1054,44.1846],[-110.1092,44.1784],[-110.1228,44.175],[-110.1161,44.1682],[-110.1278,44.1592],[-110.1237,44.153],[-110.1282,44.1512],[-110.1247,44.1495],[-110.1269,44.1428],[-110.1159,44.1357],[-110.1196,44.1326],[-110.0534,44.1326],[-110.0532,44.008],[-110.0316,44.001],[-110.0327,43.9964],[-110.0189,43.9799],[-110.0186,43.9682],[-110.0017,43.9668],[-110.002,43.9554],[-109.9939,43.9496],[-109.972,43.9556],[-109.9589,43.9646],[-109.9393,43.9582],[-109.9221,43.9461],[-109.8844,43.9486],[-109.8588,43.958],[-109.8549,43.9503],[-109.8584,43.942],[-109.8736,43.9302],[-109.8519,43.9266],[-109.8479,43.9081],[-109.8593,43.9008],[-109.8326,43.8951],[-109.8308,43.8898],[-109.8176,43.8833],[-109.8319,43.8718],[-109.8138,43.8618],[-109.8552,43.8483],[-109.8565,43.8417],[-109.8498,43.8371],[-109.8551,43.8351],[-109.8565,43.8284],[-109.8417,43.8193],[-109.8275,43.8244],[-109.8259,43.8162],[-109.7874,43.8012],[-109.78,43.8117],[-109.7639,43.8206],[-109.7527,43.8174],[-109.7426,43.8275],[-109.7225,43.833],[-109.7198,43.8376],[-109.7091,43.8357],[-109.7026,43.841],[-109.6896,43.8395],[-109.6857,43.8442],[-109.6655,43.8459],[-109.6658,43.8571],[-109.6725,43.8681],[-109.6668,43.8806],[-109.6594,43.8793],[-109.653,43.8868],[-109.6544,43.9071],[-109.6418,43.9228],[-109.6137,43.9275],[-109.6054,43.9388],[-109.6055,43.948],[-109.5843,43.9379],[-109.5669,43.9548],[-109.5423,43.9614],[-109.532,43.9495],[-109.5123,43.9391],[-109.5119,44.0626],[-109.4944,44.0626],[-109.4941,44.1638],[-109.4003,44.1689],[-109.4,44.258],[-109.2781,44.2556],[-109.2779,44.2989],[-109.1769,44.299],[-109.1771,44.4003],[-109.0561,44.4009],[-109.0566,44.4982],[-109.0492,44.4983],[-109.0462,44.5401],[-109.0576,44.5409],[-109.0624,44.5352],[-109.0697,44.5382],[-109.1038,44.5654],[-109.1466,44.6236],[-109.1749,44.6199],[-109.1755,44.6073],[-109.2017,44.6052],[-109.2352,44.62],[-109.2506,44.6198],[-109.2542,44.615],[-109.2866,44.6162],[-109.3401,44.6304],[-109.3627,44.6211],[-109.3663,44.6249],[-109.3605,44.629],[-109.3634,44.6345],[-109.3848,44.6489],[-109.8475,44.6512],[-109.8476,44.6829],[-109.8281,44.6999],[-109.826,44.7092],[-109.8377,44.7251],[-109.8592,44.7241],[-109.8675,44.7348],[-109.8831,44.7413],[-109.8871,44.7554],[-109.908,44.7663],[-109.9297,44.792],[-109.9581,44.8022],[-109.9548,44.8044],[-109.9567,44.8189],[-109.9283,44.8372],[-109.9398,44.854],[-109.9354,44.8694],[-109.938,44.8806],[-109.9297,44.8947],[-109.9268,44.932],[-109.9402,44.9371],[-109.97,44.9728],[-109.9958,44.9715],[-110.0024,44.9755],[-110.0015,45.0034],[-110.1058,45.0035],[-110.1832,44.997],[-110.4071,44.9995],[-110.4457,44.9937],[-110.507,44.9925],[-110.7045,44.9922],[-110.7901,45.0009],[-111.0546,44.9997]]]},"properties":{"geoid":"56024","state":"56","district":"24","name":"State House District 24","chamber":"House"}},{"type":"Feature","geometry":{"type":"Polygon","coordinates":[[[-108.8266,44.6798],[-108.8139,44.6818],[-108.7722,44.6652],[-108.7381,44.6689],[-108.7274,44.6619],[-108.6734,44.683],[-108.6738,44.7121],[-108.67,44.7163],[-108.6801,44.7163],[-108.6816,44.7224],[-108.6628,44.727],[-108.6582,44.7392],[-108.6786,44.7393],[-108.6788,44.7609],[-108.699,44.761],[-108.6989,44.8116],[-108.7193,44.8115],[-108.7192,44.826],[-108.7299,44.8262],[-108.7337,44.8308],[-108.7398,44.826],[-108.7873,44.8254],[-108.7999,44.8117],[-108.8188,44.811],[-108.8206,44.7683],[-108.8154,44.7676],[-108.8213,44.7606],[-108.8202,44.701],[-108.7927,44.6983],[-108.8107,44.6959],[-108.8107,44.6899],[-108.8267,44.6853],[-108.8235,44.6833],[-108.8266,44.6798]]]},"properties":{"geoid":"56025","state":"56","district":"25","name":"State House District 25","chamber":"House"}},{"type":"Feature","geometry":{"type":"Polygon","coordinates":[[[-108.926,44.9998],[-108.9259,44.9582],[-108.8647,44.9582],[-108.8644,44.8714],[-108.8347,44.8714],[-108.8349,44.8305],[-108.8225,44.822],[-108.8111,44.8217],[-108.8118,44.8153],[-108.8188,44.811],[-108.7999,44.8117],[-108.796,44.8196],[-108.7802,44.8266],[-108.7398,44.826],[-108.7337,44.8308],[-108.7299,44.8262],[-108.7192,44.826],[-108.7193,44.8115],[-108.6989,44.8116],[-108.699,44.761],[-108.6788,44.7609],[-108.6786,44.7393],[-108.6582,44.7392],[-108.6628,44.727],[-108.6816,44.7224],[-108.6801,44.7163],[-108.67,44.7163],[-108.6737,44.6947],[-108.5923,44.6946],[-108.5925,44.5209],[-108.5734,44.5208],[-108.5734,44.4616],[-108.5223,44.4604],[-108.4421,44.4921],[-108.4224,44.5058],[-108.4227,44.5151],[-108.4164,44.5134],[-108.387,44.5278],[-108.3653,44.5302],[-108.3455,44.526],[-108.3176,44.5282],[-108.2895,44.512],[-108.2325,44.5042],[-108.1081,44.5107],[-108.0625,44.506],[-108.0594,44.4984],[-108.0742,44.4937],[-108.0701,44.4743],[-108.1032,44.4505],[-108.0893,44.4505],[-108.0893,44.4433],[-108.0505,44.4434],[-108.0509,44.4603],[-107.9249,44.4583],[-107.9235,44.3727],[-107.6009,44.3714],[-107.6013,44.4338],[-107.4791,44.4343],[-107.479,44.4289],[-107.3614,44.4282],[-107.2065,44.4294],[-107.2036,44.4332],[-107.2067,44.4356],[-107.2036,44.4436],[-107.2169,44.4452],[-107.243,44.4365],[-107.261,44.4477],[-107.2787,44.4508],[-107.2747,44.4557],[-107.2786,44.4592],[-107.3006,44.4591],[-107.3044,44.464],[-107.2997,44.4763],[-107.3052,44.4833],[-107.2985,44.4846],[-107.2985,44.4962],[-107.2942,44.5007],[-107.3271,44.5221],[-107.3229,44.5305],[-107.3301,44.5361],[-107.3303,44.5438],[-107.3377,44.5396],[-107.3538,44.5422],[-107.3714,44.5569],[-107.3747,44.5816],[-107.3849,44.5892],[-107.3835,44.5954],[-107.4188,44.6008],[-107.4243,44.6114],[-107.4352,44.612],[-107.4328,44.6077],[-107.4431,44.6056],[-107.4696,44.6123],[-107.4876,44.6271],[-107.4949,44.642],[-107.5123,44.6334],[-107.5272,44.6343],[-107.5351,44.6485],[-107.5193,44.6607],[-107.5298,44.6662],[-107.5489,44.667],[-107.5492,44.6788],[-107.5737,44.683],[-107.58,44.6895],[-107.5897,44.6884],[-107.5957,44.695],[-107.6159,44.7013],[-107.6226,44.693],[-107.6507,44.6923],[-107.6567,44.6838],[-107.6697,44.6796],[-107.6842,44.6927],[-107.6828,44.7061],[-107.6948,44.7083],[-107.6983,44.705],[-107.7282,44.7165],[-107.7435,44.7154],[-107.7513,44.7235],[-107.7445,44.729],[-107.7436,44.7415],[-107.7489,44.746],[-107.7456,44.7543],[-107.7541,44.758],[-107.7544,44.7706],[-107.7805,44.7727],[-107.8128,44.7893],[-107.8323,44.7902],[-107.8316,44.7998],[-107.8182,44.8092],[-107.8163,44.8175],[-107.8293,44.8216],[-107.8256,44.8253],[-107.8327,44.8251],[-107.8277,44.8315],[-107.8318,44.845],[-107.8406,44.8498],[-107.8444,44.8606],[-107.865,44.8736],[-107.861,44.8943],[-107.8485,44.8985],[-107.8525,44.9156],[-107.8819,44.9334],[-107.8765,44.9633],[-107.8819,44.9859],[-107.9115,45.0007],[-108.926,44.9998]]]},"properties":{"geoid":"56026","state":"56","district":"26","name":"State House District 26","chamber":"House"}},{"type":"Feature","geometry":{"type":"Polygon","coordinates":[[[-108.5508,44.1277],[-108.5508,44.0794],[-108.4903,44.0798],[-108.4894,43.9919],[-108.4271,43.9921],[-108.4296,43.9034],[-108.3094,43.9033],[-108.3126,43.8595],[-108.3097,43.8466],[-108.1853,43.8483],[-108.2017,43.8258],[-108.1942,43.8283],[-108.1755,43.8226],[-108.1749,43.819],[-107.9564,43.8187],[-107.9566,43.7334],[-107.7159,43.7333],[-107.7162,43.6458],[-107.5952,43.6464],[-107.5951,43.5014],[-107.1107,43.5003],[-107.1137,43.8161],[-107.1276,43.816],[-107.1286,44.1657],[-107.1468,44.1657],[-107.145,44.324],[-107.1555,44.3223],[-107.1598,44.3258],[-107.1566,44.3321],[-107.1726,44.3352],[-107.1789,44.3457],[-107.1891,44.3475],[-107.1849,44.3588],[-107.1731,44.3605],[-107.1614,44.3686],[-107.1765,44.3766],[-107.1692,44.3935],[-107.1778,44.4024],[-107.1997,44.3996],[-107.2001,44.4213],[-107.2044,44.4261],[-107.2004,44.4331],[-107.2039,44.4357],[-107.202,44.4463],[-107.2186,44.4496],[-107.2272,44.4415],[-107.2521,44.4391],[-107.243,44.4365],[-107.2169,44.4452],[-107.2036,44.4436],[-107.2065,44.4294],[-107.479,44.4289],[-107.4791,44.4343],[-107.6013,44.4338],[-107.6009,44.3714],[-107.9235,44.3727],[-107.9249,44.4583],[-108.0509,44.4603],[-108.0482,44.4106],[-108.0389,44.3765],[-108.0464,44.3765],[-108.0487,44.3615],[-108.0593,44.3626],[-108.0868,44.3481],[-108.0973,44.347],[-108.1073,44.3213],[-108.0935,44.3067],[-108.0804,44.3025],[-108.0813,44.2986],[-108.0905,44.2987],[-108.0908,44.1682],[-108.5506,44.1685],[-108.5508,44.1277]]]},"properties":{"geoid":"56027","state":"56","district":"27","name":"State House District 27","chamber":"House"}},{"type":"Feature","geometry":{"type":"Polygon","coordinates":[[[-109.5123,43.9614],[-109.5123,43.9391],[-109.5032,43.9388],[-109.4897,43.9483],[-109.476,43.9488],[-109.4705,43.9388],[-109.4724,43.9322],[-109.4547,43.9277],[-109.4424,43.9304],[-109.4339,43.914],[-109.4134,43.9093],[-109.405,43.902],[-109.3985,43.8843],[-109.3802,43.8828],[-109.374,43.8774],[-109.3763,43.8709],[-109.3668,43.843],[-109.336,43.8421],[-109.3258,43.8378],[-109.3095,43.8055],[-109.2841,43.8028],[-109.2746,43.7969],[-109.2621,43.7741],[-109.2347,43.7637],[-109.1965,43.7117],[-109.1714,43.6992],[-109.1716,43.6198],[-108.9341,43.6192],[-108.9338,43.6047],[-108.8143,43.6053],[-108.8143,43.5756],[-108.6947,43.5758],[-108.6951,43.5323],[-108.5762,43.5326],[-108.5762,43.5033],[-108.457,43.5032],[-108.457,43.4743],[-108.3378,43.4741],[-108.3379,43.4598],[-108.172,43.4597],[-108.1702,43.4468],[-108.1821,43.4313],[-108.1776,43.4166],[-108.1839,43.416],[-108.1779,43.4109],[-108.1773,43.325],[-108.1952,43.2941],[-108.1825,43.2782],[-108.1835,43.2557],[-108.1788,43.2403],[-108.1859,43.2115],[-108.1833,43.1968],[-108.1886,43.1828],[-108.1851,43.1778],[-108.1959,43.1658],[-108.1931,43.1535],[-108.198,43.1423],[-108.1547,43.1419],[-108.1543,42.9054],[-108.1462,42.9021],[-108.1459,42.8707],[-107.5019,42.8689],[-107.5023,43.1281],[-107.5167,43.128],[-107.517,43.4727],[-107.535,43.4728],[-107.5349,43.5014],[-107.5951,43.5014],[-107.5952,43.6464],[-107.7162,43.6458],[-107.7159,43.7333],[-107.9566,43.7334],[-107.9564,43.8187],[-108.1749,43.819],[-108.1755,43.8226],[-108.1942,43.8283],[-108.2017,43.8258],[-108.1853,43.8483],[-108.3097,43.8466],[-108.3126,43.8595],[-108.3094,43.9033],[-108.4296,43.9034],[-108.4271,43.9921],[-108.4894,43.9919],[-108.4903,44.0798],[-108.5508,44.0794],[-108.5506,44.1685],[-108.0908,44.1682],[-108.0905,44.2987],[-108.0813,44.2986],[-108.0804,44.3025],[-108.0935,44.3067],[-108.1073,44.3206],[-108.1057,44.3323],[-108.0968,44.3473],[-108.0868,44.3481],[-108.0593,44.3626],[-108.0455,44.3636],[-108.0464,44.3765],[-108.0389,44.3765],[-108.0389,44.3852],[-108.0462,44.3976],[-108.0505,44.4434],[-108.0893,44.4433],[-108.0893,44.4505],[-108.1032,44.4505],[-108.0701,44.4743],[-108.0742,44.4937],[-108.0594,44.4984],[-108.0625,44.506],[-108.1081,44.5107],[-108.2325,44.5042],[-108.2895,44.512],[-108.3176,44.5282],[-108.3455,44.526],[-108.3653,44.5302],[-108.387,44.5278],[-108.4164,44.5134],[-108.4227,44.5151],[-108.4224,44.5058],[-108.4421,44.4921],[-108.5227,44.4603],[-108.6167,44.4585],[-108.7149,44.477],[-108.8252,44.4783],[-108.9548,44.5117],[-109.041,44.5122],[-109.0412,44.5012],[-109.0299,44.4974],[-109.0265,44.4898],[-109.0371,44.4934],[-109.0425,44.5021],[-109.0566,44.4982],[-109.0565,44.4],[-109.1771,44.4003],[-109.1769,44.299],[-109.2779,44.2989],[-109.2781,44.2556],[-109.4,44.258],[-109.4003,44.1689],[-109.4941,44.1638],[-109.4944,44.0626],[-109.5119,44.0626],[-109.5123,43.9614]]]},"properties":{"geoid":"56028","state":"56","district":"28","name":"State House District 28","chamber":"House"}},{"type":"Feature","geometry":{"type":"Polygon","coordinates":[[[-107.0145,44.8174],[-107.0145,44.8121],[-107.0093,44.8102],[-106.9732,44.81],[-106.9718,44.7974],[-106.9615,44.7955],[-106.9619,44.7866],[-106.9733,44.7845],[-106.9728,44.7809],[-106.9534,44.7807],[-106.956,44.7906],[-106.9483,44.7922],[-106.9484,44.7994],[-106.9347,44.7919],[-106.9121,44.7918],[-106.9272,44.795],[-106.927,44.8028],[-106.9178,44.8061],[-106.9376,44.8048],[-106.9417,44.8202],[-106.9527,44.8174],[-106.9557,44.8289],[-106.9637,44.832],[-106.9626,44.8366],[-106.9741,44.8514],[-106.9851,44.8469],[-106.9835,44.8432],[-106.9936,44.8433],[-106.9937,44.8351],[-106.9731,44.8353],[-106.9732,44.8251],[-106.9668,44.825],[-106.9627,44.8157],[-106.9862,44.8173],[-106.9884,44.8135],[-106.9989,44.8135],[-106.9989,44.817],[-107.0145,44.8174]]]},"properties":{"geoid":"56029","state":"56","district":"29","name":"State House District 29","chamber":"House"}},{"type":"Feature","geometry":{"type":"MultiPolygon","coordinates":[[[[-107.0534,44.8846],[-107.0533,44.8637],[-107.0327,44.8637],[-107.0349,44.8355],[-107.015,44.8356],[-107.0149,44.8202],[-106.999,44.8239],[-106.9625,44.8181],[-106.9674,44.8255],[-106.9732,44.8251],[-106.9731,44.8353],[-106.9937,44.8351],[-106.9936,44.8433],[-106.9835,44.8432],[-106.9851,44.8469],[-106.9741,44.8514],[-106.9626,44.8366],[-106.9637,44.832],[-106.9557,44.8289],[-106.9527,44.8174],[-106.9417,44.8202],[-106.9376,44.8048],[-106.9178,44.8061],[-106.927,44.8028],[-106.9272,44.795],[-106.9121,44.7947],[-106.9127,44.7914],[-106.9347,44.7919],[-106.9484,44.7994],[-106.9483,44.7922],[-106.956,44.7906],[-106.9534,44.7807],[-106.9728,44.7809],[-106.9782,44.7845],[-106.978,44.7902],[-106.9859,44.7821],[-107,44.7825],[-107.0079,44.7755],[-107.0132,44.7762],[-107.0141,44.7818],[-107.028,44.7783],[-107.0336,44.7734],[-107.0339,44.7336],[-107.0137,44.7338],[-107.0135,44.7191],[-106.9934,44.7191],[-106.993,44.7249],[-106.9625,44.7251],[-106.9612,44.7154],[-106.9447,44.7045],[-106.9729,44.7047],[-106.9728,44.6972],[-106.9627,44.6899],[-106.9424,44.69],[-106.9423,44.661],[-106.8516,44.6586],[-106.8512,44.6447],[-106.864,44.6444],[-106.8474,44.6178],[-106.8465,44.6023],[-106.8177,44.5745],[-106.814,44.5579],[-106.55,44.5569],[-106.5499,44.5624],[-106.5447,44.5624],[-106.5499,44.5667],[-106.5496,44.6006],[-106.6496,44.6001],[-106.6503,44.6787],[-106.6351,44.68],[-106.635,44.687],[-106.6389,44.6871],[-106.6366,44.7052],[-106.6315,44.7053],[-106.6324,44.7008],[-106.6219,44.7016],[-106.6212,44.7088],[-106.5958,44.7048],[-106.5956,44.7193],[-106.6005,44.7193],[-106.601,44.7341],[-106.6061,44.7341],[-106.6067,44.8065],[-106.4892,44.8029],[-106.4919,44.8611],[-106.4383,44.8616],[-106.4408,44.9485],[-106.5652,44.948],[-106.5667,44.9948],[-106.9876,44.9963],[-106.9875,44.9528],[-106.9922,44.9366],[-107.0025,44.9365],[-107.0024,44.9293],[-107.0327,44.9292],[-107.033,44.9224],[-107.0434,44.9225],[-107.0432,44.9079],[-107.0326,44.9072],[-107.0327,44.9006],[-107.0526,44.9007],[-107.0534,44.8846]]],[[[-106.9768,44.7894],[-106.9768,44.7883],[-106.9764,44.7894],[-106.9768,44.7894]]]]},"properties":{"geoid":"56030","state":"56","district":"30","name":"State House District 30","chamber":"House"}},{"type":"Feature","geometry":{"type":"Polygon","coordinates":[[[-105.5097,44.2567],[-105.5096,44.2469],[-105.4997,44.2469],[-105.4997,44.2539],[-105.4434,44.2655],[-105.4489,44.2694],[-105.424,44.269],[-105.4191,44.2781],[-105.4303,44.2851],[-105.4266,44.2951],[-105.4495,44.295],[-105.4524,44.3158],[-105.4893,44.3172],[-105.489,44.2925],[-105.467,44.2901],[-105.4789,44.2798],[-105.4832,44.2693],[-105.497,44.2651],[-105.5096,44.2681],[-105.5097,44.2567]]]},"properties":{"geoid":"56031","state":"56","district":"31","name":"State House District 31","chamber":"House"}},{"type":"Feature","geometry":{"type":"Polygon","coordinates":[[[-105.5759,44.2954],[-105.5392,44.294],[-105.5706,44.2948],[-105.5707,44.2642],[-105.5466,44.2651],[-105.5466,44.2613],[-105.5708,44.2569],[-105.5709,44.2497],[-105.5557,44.2539],[-105.5558,44.2466],[-105.5515,44.2467],[-105.5506,44.2544],[-105.5201,44.2615],[-105.5201,44.2505],[-105.5096,44.2469],[-105.5106,44.2876],[-105.5293,44.2972],[-105.5759,44.2954]]]},"properties":{"geoid":"56032","state":"56","district":"32","name":"State House District 32","chamber":"House"}},{"type":"Feature","geometry":{"type":"Polygon","coordinates":[[[-109.7546,43.4297],[-109.7545,43.3659],[-109.734,43.3656],[-109.7108,43.3744],[-109.6941,43.3654],[-109.7004,43.335],[-109.6942,43.3248],[-109.6797,43.3182],[-109.6721,43.3087],[-109.6736,43.2967],[-109.6857,43.2857],[-109.6787,43.2732],[-109.6927,43.265],[-109.6738,43.248],[-109.6777,43.2359],[-109.6701,43.2287],[-109.6758,43.2241],[-109.6761,43.2153],[-109.6586,43.2015],[-109.6515,43.167],[-109.6437,43.1621],[-109.6301,43.1633],[-109.6309,43.1487],[-109.6216,43.1265],[-109.5957,43.1183],[-109.5812,43.1015],[-109.5704,43.0997],[-109.5702,43.0916],[-109.5601,43.0828],[-109.5616,43.0778],[-109.553,43.0723],[-109.5532,43.0586],[-109.5708,43.0493],[-109.5598,43.0478],[-109.5606,43.0396],[-109.5487,43.0367],[-109.5557,43.0276],[-109.5526,43.0125],[-109.529,43.0139],[-109.5146,43.0071],[-109.5024,43.0105],[-109.4924,42.9956],[-109.4667,42.992],[-109.4594,42.9871],[-109.4632,42.9813],[-109.4541,42.97],[-109.4324,42.9682],[-109.4288,42.9607],[-109.4048,42.9506],[-109.3978,42.9392],[-109.3841,42.9393],[-109.3703,42.9456],[-109.3564,42.9247],[-109.3454,42.9189],[-109.3395,42.8988],[-109.3319,42.8954],[-109.3305,42.875],[-109.3194,42.8592],[-109.2917,42.8458],[-109.2789,42.846],[-109.2812,42.843],[-109.2695,42.8251],[-109.248,42.8062],[-109.2369,42.8095],[-109.2136,42.7992],[-109.2103,42.7931],[-109.2259,42.7909],[-109.2374,42.7767],[-109.2366,42.7688],[-109.2174,42.76],[-109.2098,42.7704],[-109.1953,42.7685],[-109.1787,42.7547],[-109.1795,42.751],[-109.1323,42.7375],[-109.1333,42.7331],[-109.1433,42.7332],[-109.1479,42.7276],[-109.1284,42.7084],[-109.1377,42.7051],[-109.1345,42.6943],[-109.0729,42.6935],[-109.0695,42.4335],[-109.0438,42.4336],[-109.0439,42.2637],[-108.4405,42.2634],[-108.4413,42.4381],[-108.4624,42.4379],[-108.4623,42.4817],[-108.5217,42.4809],[-108.5234,42.6988],[-108.5441,42.6949],[-108.5606,42.7122],[-108.5712,42.7158],[-108.587,42.7105],[-108.6165,42.7371],[-108.6152,42.7436],[-108.6217,42.7504],[-108.6193,42.7553],[-108.6371,42.7654],[-108.638,42.7784],[-108.657,42.7714],[-108.6815,42.7974],[-108.7036,42.8106],[-108.7461,42.8098],[-108.7728,42.7847],[-108.7727,42.7775],[-108.8094,42.7459],[-108.8536,42.7299],[-108.8452,42.7359],[-108.8805,42.7363],[-108.8997,42.7455],[-108.9136,42.761],[-108.8915,42.7822],[-108.9041,42.7929],[-108.8936,42.797],[-108.8987,42.8174],[-108.8936,42.828],[-108.9175,42.8243],[-108.8719,42.8568],[-108.8599,42.8863],[-108.8304,42.8924],[-108.8022,42.8884],[-108.7822,42.8793],[-108.7705,42.884],[-108.768,42.8909],[-108.7328,42.8888],[-108.7214,42.8762],[-108.7178,42.8602],[-108.6995,42.8539],[-108.6924,42.8567],[-108.6838,42.8708],[-108.6676,42.8691],[-108.6682,42.8735],[-108.6628,42.8744],[-108.6432,42.8702],[-108.6284,42.8767],[-108.6312,42.8808],[-108.622,42.8788],[-108.6184,42.8835],[-108.5089,42.8843],[-108.5091,42.9052],[-108.2923,42.9054],[-108.3691,42.9898],[-108.3709,42.9939],[-108.3595,42.9972],[-108.3558,43.0085],[-108.347,43.0109],[-108.3514,43.0158],[-108.3452,43.0171],[-108.3806,43.0194],[-108.3769,43.0112],[-108.3799,43.0085],[-108.3868,43.0142],[-108.3906,43.0105],[-108.4251,43.0113],[-108.4741,43.0185],[-108.4882,43.0322],[-108.485,43.0402],[-108.4535,43.0402],[-108.43,43.0291],[-108.4302,43.0375],[-108.4103,43.0375],[-108.4104,43.0409],[-108.4304,43.0411],[-108.4347,43.0473],[-108.4458,43.0466],[-108.4471,43.0558],[-108.4554,43.0482],[-108.4794,43.0483],[-108.4764,43.0595],[-108.4821,43.07],[-108.5186,43.0851],[-108.5487,43.0917],[-108.5584,43.0928],[-108.5585,43.0829],[-108.5952,43.0843],[-108.6164,43.0882],[-108.6177,43.0989],[-108.6375,43.0988],[-108.6408,43.0912],[-108.6522,43.0984],[-108.6667,43.0984],[-108.6666,43.095],[-108.7159,43.0983],[-108.7162,43.1276],[-108.7212,43.1275],[-108.7212,43.1441],[-108.7396,43.1571],[-108.7388,43.1641],[-108.7516,43.1673],[-108.7514,43.172],[-108.7572,43.1713],[-108.7564,43.1767],[-108.77,43.1802],[-108.7852,43.1928],[-108.8016,43.1921],[-108.8078,43.197],[-108.8144,43.1916],[-108.8341,43.1939],[-108.8575,43.202],[-108.8616,43.2111],[-108.8714,43.216],[-108.8853,43.216],[-108.8977,43.2222],[-108.9353,43.2181],[-108.9415,43.223],[-108.9472,43.2217],[-108.9472,43.214],[-108.9656,43.2132],[-108.9993,43.2216],[-109.0164,43.2375],[-109.0373,43.2384],[-109.0598,43.247],[-109.092,43.2672],[-109.1191,43.2745],[-109.1957,43.3101],[-109.2266,43.3282],[-109.2634,43.3582],[-109.3037,43.3803],[-109.323,43.3976],[-109.3448,43.4058],[-109.3453,43.3598],[-109.4598,43.3605],[-109.4607,43.3738],[-109.5148,43.3769],[-109.5147,43.3844],[-109.638,43.3844],[-109.637,43.4291],[-109.7546,43.4297]]]},"properties":{"geoid":"56033","state":"56","district":"33","name":"State House District 33","chamber":"House"}},{"type":"Feature","geometry":{"type":"Polygon","coordinates":[[[-110.0536,43.8209],[-110.0516,43.4648],[-109.7547,43.4632],[-109.7546,43.4299],[-109.637,43.4291],[-109.638,43.3844],[-109.5147,43.3844],[-109.5148,43.3769],[-109.4607,43.3738],[-109.4598,43.3605],[-109.3453,43.3598],[-109.3448,43.4058],[-109.323,43.3976],[-109.3037,43.3803],[-109.2634,43.3582],[-109.2266,43.3282],[-109.1957,43.3101],[-109.1191,43.2745],[-109.092,43.2672],[-109.0598,43.247],[-109.0373,43.2384],[-109.0164,43.2375],[-108.9993,43.2216],[-108.9656,43.2132],[-108.9472,43.214],[-108.9472,43.2217],[-108.9415,43.223],[-108.9353,43.2181],[-108.8977,43.2222],[-108.8853,43.216],[-108.8714,43.216],[-108.8616,43.2111],[-108.8575,43.202],[-108.8341,43.1939],[-108.8144,43.1916],[-108.8078,43.197],[-108.8016,43.1921],[-108.7852,43.1928],[-108.77,43.1802],[-108.7564,43.1767],[-108.7572,43.1713],[-108.7514,43.172],[-108.7516,43.1673],[-108.7388,43.1641],[-108.7396,43.1571],[-108.7212,43.1441],[-108.7212,43.1275],[-108.7162,43.1276],[-108.7159,43.0983],[-108.6666,43.095],[-108.6667,43.0984],[-108.6522,43.0984],[-108.6408,43.0912],[-108.6375,43.0988],[-108.6177,43.0989],[-108.6164,43.0882],[-108.5952,43.0843],[-108.5585,43.0829],[-108.5584,43.0928],[-108.5487,43.0917],[-108.5186,43.0851],[-108.4821,43.07],[-108.4764,43.0595],[-108.4794,43.0483],[-108.4554,43.0482],[-108.4447,43.0555],[-108.4461,43.0468],[-108.4347,43.0473],[-108.4304,43.0411],[-108.4105,43.0411],[-108.4067,43.0337],[-108.4029,43.0375],[-108.4004,43.0338],[-108.3856,43.0376],[-108.3866,43.0424],[-108.3809,43.0456],[-108.3846,43.0467],[-108.3809,43.0495],[-108.3809,43.0702],[-108.361,43.0665],[-108.361,43.0559],[-108.3709,43.0559],[-108.3709,43.052],[-108.3666,43.0485],[-108.3603,43.0525],[-108.3608,43.0449],[-108.3653,43.0487],[-108.3708,43.0443],[-108.367,43.0424],[-108.3705,43.0412],[-108.3681,43.0302],[-108.3757,43.0286],[-108.3806,43.0194],[-108.3452,43.0171],[-108.3514,43.0158],[-108.3473,43.0103],[-108.3558,43.0085],[-108.3595,42.9972],[-108.3709,42.9939],[-108.3693,42.9903],[-108.2923,42.9054],[-108.5091,42.9052],[-108.5089,42.8843],[-108.6096,42.8835],[-108.6219,42.8509],[-108.6297,42.8452],[-108.6372,42.8294],[-108.6511,42.8278],[-108.6614,42.8011],[-108.6929,42.8035],[-108.6815,42.7974],[-108.657,42.7714],[-108.638,42.7784],[-108.6371,42.7654],[-108.6193,42.7553],[-108.6217,42.7504],[-108.6152,42.7436],[-108.6165,42.7371],[-108.587,42.7105],[-108.5712,42.7158],[-108.5606,42.7122],[-108.5441,42.6949],[-108.5234,42.6988],[-108.5217,42.4809],[-108.4623,42.4817],[-108.4624,42.4379],[-108.4413,42.4381],[-108.4405,42.2634],[-107.5227,42.2618],[-107.5229,42.4344],[-107.542,42.4344],[-107.5435,42.7816],[-107.5014,42.7815],[-107.5019,42.8689],[-108.1459,42.8707],[-108.1462,42.9021],[-108.1543,42.9054],[-108.1547,43.1419],[-108.198,43.1423],[-108.1931,43.1535],[-108.1959,43.1658],[-108.1851,43.1778],[-108.1886,43.1828],[-108.1833,43.1968],[-108.1859,43.2115],[-108.1788,43.2403],[-108.1835,43.2557],[-108.1825,43.2782],[-108.1952,43.2941],[-108.1773,43.325],[-108.1779,43.4109],[-108.1839,43.416],[-108.1776,43.4166],[-108.1821,43.4313],[-108.1702,43.4468],[-108.172,43.4597],[-108.3379,43.4598],[-108.3378,43.4741],[-108.457,43.4743],[-108.457,43.5032],[-108.5762,43.5033],[-108.5762,43.5326],[-108.6951,43.5323],[-108.6947,43.5758],[-108.8143,43.5756],[-108.8143,43.6053],[-108.9338,43.6047],[-108.9341,43.6192],[-109.1716,43.6198],[-109.1714,43.6992],[-109.1965,43.7117],[-109.2299,43.7586],[-109.248,43.7707],[-109.2621,43.7741],[-109.2746,43.7969],[-109.2849,43.803],[-109.3095,43.8055],[-109.3224,43.8354],[-109.336,43.8421],[-109.3668,43.843],[-109.3763,43.8709],[-109.374,43.8774],[-109.3802,43.8828],[-109.3985,43.8843],[-109.405,43.902],[-109.4134,43.9093],[-109.4339,43.914],[-109.4424,43.9304],[-109.4547,43.9277],[-109.4724,43.9322],[-109.4705,43.9388],[-109.476,43.9488],[-109.4897,43.9483],[-109.5106,43.9386],[-109.532,43.9495],[-109.5423,43.9614],[-109.5669,43.9548],[-109.5843,43.9379],[-109.6055,43.948],[-109.6054,43.9388],[-109.6137,43.9275],[-109.6418,43.9228],[-109.6544,43.9071],[-109.653,43.8868],[-109.6594,43.8793],[-109.6668,43.8806],[-109.6725,43.8681],[-109.6658,43.8571],[-109.6655,43.8459],[-109.6857,43.8442],[-109.6896,43.8395],[-109.7026,43.841],[-109.7091,43.8357],[-109.7198,43.8376],[-109.7225,43.833],[-109.7426,43.8275],[-109.7527,43.8174],[-109.7639,43.8206],[-109.78,43.8117],[-109.7874,43.8012],[-109.8259,43.8162],[-109.8275,43.8244],[-109.8417,43.8193],[-109.8565,43.8284],[-109.8551,43.8351],[-109.8498,43.8371],[-109.8565,43.8417],[-109.8552,43.8483],[-109.8138,43.8618],[-109.8319,43.8718],[-109.8176,43.8833],[-109.8308,43.8898],[-109.8326,43.8951],[-109.8593,43.9008],[-109.8479,43.9081],[-109.8519,43.9266],[-109.8736,43.9302],[-109.8584,43.942],[-109.8549,43.9503],[-109.8588,43.958],[-109.8844,43.9486],[-109.9221,43.9461],[-109.9393,43.9582],[-109.9589,43.9646],[-109.972,43.9556],[-109.9939,43.9496],[-110.002,43.9554],[-110.0017,43.9668],[-110.0186,43.9682],[-110.0189,43.9799],[-110.0327,43.9964],[-110.0316,44.001],[-110.0504,44.0092],[-110.0536,43.8209]]]},"properties":{"geoid":"56034","state":"56","district":"34","name":"State House District 34","chamber":"House"}},{"type":"Feature","geometry":{"type":"Polygon","coordinates":[[[-106.3346,42.7882],[-106.3075,42.788],[-106.3026,42.7638],[-106.2575,42.7639],[-106.2581,42.7773],[-106.2664,42.7773],[-106.2673,42.8205],[-106.2585,42.8285],[-106.2503,42.8291],[-106.2474,42.846],[-106.2436,42.8451],[-106.2468,42.8419],[-106.2373,42.8414],[-106.2431,42.8287],[-106.2357,42.8358],[-106.2157,42.8357],[-106.2172,42.8444],[-106.2483,42.8483],[-106.2531,42.8419],[-106.2654,42.8409],[-106.2727,42.8322],[-106.2771,42.8322],[-106.2776,42.8389],[-106.2929,42.8407],[-106.2931,42.8318],[-106.2885,42.8294],[-106.298,42.8281],[-106.3025,42.8207],[-106.3122,42.8207],[-106.3122,42.8266],[-106.3173,42.8282],[-106.3124,42.8062],[-106.3271,42.8062],[-106.327,42.7986],[-106.3346,42.7882]]]},"properties":{"geoid":"56035","state":"56","district":"35","name":"State House District 35","chamber":"House"}},{"type":"Feature","geometry":{"type":"Polygon","coordinates":[[[-106.3125,42.8467],[-106.2776,42.8389],[-106.2771,42.8322],[-106.2727,42.8322],[-106.2654,42.8409],[-106.2531,42.8419],[-106.2483,42.8483],[-106.278,42.8559],[-106.2797,42.8609],[-106.3093,42.861],[-106.3125,42.8467]]]},"properties":{"geoid":"56036","state":"56","district":"36","name":"State House District 36","chamber":"House"}},{"type":"Feature","geometry":{"type":"Polygon","coordinates":[[[-106.5006,42.7522],[-106.4951,42.7537],[-106.4767,42.7413],[-106.4194,42.7241],[-106.4066,42.7159],[-106.4016,42.7083],[-106.3979,42.6811],[-106.3819,42.6959],[-106.3649,42.6991],[-106.3119,42.6969],[-106.3016,42.6926],[-106.2807,42.7081],[-106.252,42.7163],[-106.2677,42.7164],[-106.2625,42.7217],[-106.2246,42.731],[-106.2248,42.764],[-106.3026,42.7638],[-106.3075,42.788],[-106.3346,42.7879],[-106.3316,42.7958],[-106.3438,42.7913],[-106.3448,42.8059],[-106.3355,42.809],[-106.3337,42.8188],[-106.3339,42.8246],[-106.3406,42.8282],[-106.3519,42.8197],[-106.3608,42.8206],[-106.363,42.8255],[-106.3786,42.8179],[-106.3958,42.8275],[-106.3924,42.8179],[-106.3957,42.8189],[-106.3968,42.8127],[-106.3934,42.8123],[-106.401,42.8056],[-106.4111,42.8055],[-106.4145,42.8111],[-106.4319,42.8098],[-106.4414,42.8076],[-106.4449,42.7951],[-106.4611,42.8063],[-106.4719,42.7965],[-106.4816,42.798],[-106.4778,42.7751],[-106.4707,42.7666],[-106.4875,42.7637],[-106.5006,42.7522]]]},"properties":{"geoid":"56037","state":"56","district":"37","name":"State House District 37","chamber":"House"}},{"type":"Feature","geometry":{"type":"Polygon","coordinates":[[[-107.5435,42.75],[-107.542,42.4344],[-106.625,42.4305],[-106.2435,42.4334],[-106.243,42.7257],[-106.2625,42.7217],[-106.2677,42.7164],[-106.252,42.7163],[-106.2807,42.7081],[-106.3016,42.6926],[-106.3119,42.6969],[-106.3649,42.6991],[-106.3819,42.6959],[-106.3979,42.6811],[-106.4016,42.7083],[-106.4066,42.7159],[-106.4194,42.7241],[-106.4767,42.7413],[-106.4951,42.7537],[-106.5006,42.7513],[-106.4875,42.7637],[-106.4707,42.7666],[-106.4778,42.7751],[-106.4816,42.798],[-106.4719,42.7965],[-106.4611,42.8063],[-106.4449,42.7951],[-106.4414,42.8076],[-106.4319,42.8098],[-106.4145,42.8111],[-106.4111,42.8055],[-106.401,42.8056],[-106.3924,42.8196],[-106.4006,42.832],[-106.4078,42.8283],[-106.4131,42.8316],[-106.4246,42.8234],[-106.4289,42.8372],[-106.4477,42.8375],[-106.454,42.8327],[-106.454,42.8252],[-106.51,42.854],[-106.522,42.853],[-106.529,42.8453],[-106.5533,42.8384],[-106.5535,42.8632],[-106.7234,42.8647],[-106.7225,42.8926],[-106.7067,42.893],[-106.6998,42.8984],[-106.709,42.9105],[-106.7197,42.9105],[-106.7262,42.9183],[-106.7122,42.9341],[-106.7154,42.9462],[-106.7021,42.9513],[-106.7307,42.9512],[-106.7312,43.0071],[-106.726,43.0069],[-106.7312,43.0105],[-106.7317,43.1238],[-106.7426,43.1238],[-106.7428,43.2106],[-106.5054,43.2103],[-106.5055,43.4705],[-106.5168,43.4703],[-106.5166,43.4918],[-107.1109,43.4924],[-107.1107,43.5003],[-107.5349,43.5014],[-107.535,43.4728],[-107.517,43.4727],[-107.5167,43.128],[-107.5023,43.1281],[-107.5014,42.7815],[-107.5435,42.7816],[-107.5435,42.75]]]},"properties":{"geoid":"56038","state":"56","district":"38","name":"State House District 38","chamber":"House"}},{"type":"Feature","geometry":{"type":"Polygon","coordinates":[[[-109.4818,41.5255],[-109.4691,41.5171],[-109.4492,41.5188],[-109.4447,41.5126],[-109.4447,41.5177],[-109.4255,41.5176],[-109.4244,41.5269],[-109.4119,41.5224],[-109.3967,41.5238],[-109.3854,41.5325],[-109.3674,41.5313],[-109.3609,41.5258],[-109.3513,41.5278],[-109.3485,41.5424],[-109.2535,41.5831],[-109.2524,41.6255],[-109.2721,41.6258],[-109.2721,41.6003],[-109.2915,41.5874],[-109.3153,41.5923],[-109.3229,41.5798],[-109.3873,41.555],[-109.4482,41.5481],[-109.4637,41.542],[-109.4447,41.5394],[-109.4447,41.5322],[-109.4254,41.5321],[-109.4254,41.5283],[-109.4525,41.5213],[-109.4728,41.5309],[-109.4818,41.5255]]]},"properties":{"geoid":"56039","state":"56","district":"39","name":"State House District 39","chamber":"House"}},{"type":"Feature","geometry":{"type":"Polygon","coordinates":[[[-107.3713,44.5572],[-107.3538,44.5422],[-107.3377,44.5396],[-107.3303,44.5438],[-107.3301,44.5361],[-107.3229,44.5305],[-107.3271,44.5221],[-107.2942,44.5007],[-107.2985,44.4962],[-107.2985,44.4846],[-107.3052,44.4833],[-107.2997,44.4763],[-107.3044,44.464],[-107.3004,44.4589],[-107.2786,44.4592],[-107.2747,44.4557],[-107.2787,44.4508],[-107.2425,44.4384],[-107.2215,44.4436],[-107.2186,44.4496],[-107.202,44.4463],[-107.2039,44.4357],[-107.2004,44.4331],[-107.2044,44.4261],[-107.2001,44.4213],[-107.1997,44.3996],[-107.1778,44.4024],[-107.1692,44.3935],[-107.1765,44.3766],[-107.1614,44.3686],[-107.1731,44.3605],[-107.1849,44.3588],[-107.1891,44.3475],[-107.1789,44.3457],[-107.1726,44.3352],[-107.1566,44.3321],[-107.1598,44.3258],[-107.1555,44.3223],[-107.145,44.324],[-107.1468,44.1657],[-107.1286,44.1657],[-107.1276,43.816],[-107.1137,43.8161],[-107.1109,43.4924],[-106.0174,43.495],[-106.0176,43.8215],[-106.0092,43.8216],[-106.0096,44.0836],[-106.0114,44.1697],[-106.0165,44.1697],[-106.0166,44.375],[-106.0145,44.521],[-106.0085,44.5211],[-106.0107,44.6932],[-106.015,44.7071],[-106.0143,44.8578],[-106.0176,44.8688],[-106.0231,44.8688],[-106.0248,44.9935],[-106.5667,44.9948],[-106.5652,44.948],[-106.4408,44.9485],[-106.4383,44.8616],[-106.4919,44.8611],[-106.4892,44.8029],[-106.6067,44.8065],[-106.6061,44.7341],[-106.601,44.7341],[-106.6005,44.7193],[-106.5956,44.7193],[-106.5958,44.7048],[-106.6212,44.7088],[-106.6219,44.7016],[-106.6324,44.7008],[-106.6315,44.7053],[-106.6366,44.7052],[-106.6389,44.6871],[-106.635,44.687],[-106.6351,44.68],[-106.6503,44.6787],[-106.6496,44.6001],[-106.5496,44.6006],[-106.5499,44.5667],[-106.5447,44.5624],[-106.5499,44.5624],[-106.55,44.5569],[-106.814,44.5579],[-106.8177,44.5745],[-106.8465,44.6023],[-106.8474,44.6178],[-106.864,44.6444],[-106.8714,44.6443],[-106.8717,44.6263],[-106.8837,44.6262],[-106.873,44.6155],[-106.8615,44.6156],[-106.866,44.6048],[-106.8819,44.6047],[-106.8818,44.5938],[-106.8716,44.5939],[-106.8752,44.5796],[-106.8921,44.58],[-106.892,44.5868],[-106.971,44.5862],[-106.9711,44.5725],[-106.9345,44.5726],[-106.9343,44.5585],[-107.3713,44.5572]]]},"properties":{"geoid":"56040","state":"56","district":"40","name":"State House District 40","chamber":"House"}},{"type":"Feature","geometry":{"type":"Polygon","coordinates":[[[-104.8527,41.1601],[-104.8383,41.1592],[-104.8383,41.1461],[-104.8094,41.1459],[-104.8064,41.1404],[-104.7986,41.1434],[-104.7952,41.1382],[-104.7685,41.1385],[-104.7707,41.1601],[-104.8052,41.1584],[-104.8189,41.1641],[-104.8287,41.1641],[-104.8287,41.1605],[-104.8429,41.1678],[-104.8429,41.164],[-104.8527,41.1641],[-104.8527,41.1601]]]},"properties":{"geoid":"56041","state":"56","district":"41","name":"State House District 41","chamber":"House"}},{"type":"Feature","geometry":{"type":"Polygon","coordinates":[[[-105.2807,41.3214],[-105.2769,40.9982],[-104.9063,40.9982],[-104.8957,41.0376],[-104.8841,41.0565],[-104.8617,41.0735],[-104.8935,41.0737],[-104.8993,41.0965],[-104.857,41.116],[-104.8624,41.1198],[-104.8511,41.1189],[-104.8407,41.1369],[-104.8371,41.1352],[-104.8404,41.1369],[-104.8383,41.1592],[-104.8527,41.1593],[-104.8527,41.1641],[-104.8429,41.164],[-104.8477,41.1874],[-104.8476,41.1839],[-104.8382,41.1837],[-104.8382,41.2522],[-104.8683,41.3491],[-104.9,41.3493],[-104.9881,41.3642],[-105.0466,41.3639],[-105.0585,41.3622],[-105.059,41.3474],[-105.0814,41.3468],[-105.0822,41.3412],[-105.1003,41.3349],[-105.1494,41.332],[-105.1839,41.3232],[-105.2806,41.331],[-105.2807,41.3214]]]},"properties":{"geoid":"56042","state":"56","district":"42","name":"State House District 42","chamber":"House"}},{"type":"Feature","geometry":{"type":"Polygon","coordinates":[[[-104.8,41.0801],[-104.7982,41.0605],[-104.7856,41.0398],[-104.773,40.9998],[-104.5995,41.0015],[-104.6003,41.0579],[-104.5595,41.0578],[-104.5612,41.1009],[-104.5232,41.1012],[-104.5228,41.1266],[-104.5607,41.1303],[-104.5607,41.1375],[-104.5653,41.1375],[-104.5652,41.1575],[-104.5604,41.158],[-104.6501,41.1577],[-104.6944,41.1401],[-104.6749,41.1538],[-104.6847,41.1492],[-104.6942,41.1525],[-104.6941,41.1595],[-104.7198,41.1594],[-104.7494,41.149],[-104.7517,41.1287],[-104.7908,41.1312],[-104.7872,41.1257],[-104.7972,41.1186],[-104.79,41.1167],[-104.7887,41.1023],[-104.8,41.0801]]]},"properties":{"geoid":"56043","state":"56","district":"43","name":"State House District 43","chamber":"House"}},{"type":"Feature","geometry":{"type":"Polygon","coordinates":[[[-104.9,41.094],[-104.8935,41.0737],[-104.8607,41.0735],[-104.8379,41.0986],[-104.8095,41.1024],[-104.8095,41.1097],[-104.8017,41.1131],[-104.8057,41.1159],[-104.7872,41.1257],[-104.7906,41.131],[-104.8062,41.1346],[-104.8958,41.0996],[-104.9,41.094]]]},"properties":{"geoid":"56044","state":"56","district":"44","name":"State House District 44","chamber":"House"}},{"type":"Feature","geometry":{"type":"Polygon","coordinates":[[[-105.6085,41.3011],[-105.5803,41.2936],[-105.5768,41.3249],[-105.6078,41.3273],[-105.6029,41.3042],[-105.6085,41.3011]]]},"properties":{"geoid":"56045","state":"56","district":"45","name":"State House District 45","chamber":"House"}},{"type":"Feature","geometry":{"type":"Polygon","coordinates":[[[-106.3233,41.1259],[-106.3212,40.9991],[-105.2769,40.9982],[-105.2806,41.3314],[-105.2982,41.3304],[-105.2945,41.3263],[-105.2973,41.322],[-105.3113,41.325],[-105.311,41.3299],[-105.4436,41.3266],[-105.5381,41.3311],[-105.5382,41.304],[-105.5282,41.3027],[-105.5309,41.2963],[-105.5576,41.294],[-105.5577,41.2978],[-105.5733,41.2989],[-105.5698,41.2952],[-105.5766,41.2926],[-105.6085,41.3011],[-105.6029,41.3042],[-105.6078,41.3273],[-105.5985,41.3291],[-105.5989,41.3454],[-105.593,41.3563],[-105.5961,41.3668],[-105.5903,41.3742],[-105.5958,41.3884],[-105.602,41.3866],[-105.5989,41.3905],[-105.6074,41.3986],[-105.608,41.4086],[-105.6298,41.4171],[-105.6275,41.4204],[-105.6334,41.4256],[-105.6427,41.4255],[-105.6416,41.4338],[-105.6528,41.4363],[-105.6479,41.4399],[-105.6518,41.4417],[-105.6503,41.4469],[-105.6685,41.4593],[-105.6636,41.462],[-105.6692,41.4629],[-105.668,41.4667],[-105.6761,41.4662],[-105.6754,41.472],[-105.6823,41.4651],[-105.6842,41.4715],[-105.6866,41.4671],[-105.6951,41.4716],[-105.6984,41.4684],[-105.7113,41.4776],[-105.7142,41.4738],[-105.724,41.4776],[-105.7248,41.4726],[-105.7446,41.4773],[-105.7477,41.483],[-105.7436,41.4924],[-105.7377,41.4928],[-105.7406,41.4979],[-105.7265,41.5074],[-105.7187,41.5024],[-105.7234,41.5106],[-105.7129,41.508],[-105.7139,41.5215],[-105.6987,41.5281],[-105.7126,41.531],[-105.7303,41.5262],[-105.8081,41.5244],[-105.8243,41.5395],[-105.8737,41.5144],[-105.9057,41.5133],[-105.9201,41.5061],[-105.9467,41.518],[-105.9618,41.5318],[-105.9838,41.527],[-105.9846,41.5385],[-106.0006,41.5336],[-106.0208,41.5367],[-106.004,41.5454],[-106.0037,41.557],[-106.0189,41.5455],[-106.0714,41.533],[-106.0684,41.395],[-106.3229,41.3951],[-106.3233,41.1259]]]},"properties":{"geoid":"56046","state":"56","district":"46","name":"State House District 46","chamber":"House"}},{"type":"Feature","geometry":{"type":"Polygon","coordinates":[[[-110.0544,42.0072],[-109.5911,42.0079],[-109.5926,41.7438],[-109.4238,41.7414],[-109.4183,41.745],[-109.4269,41.7483],[-109.4001,41.7542],[-109.3325,41.7421],[-109.3108,41.7441],[-109.2864,41.7363],[-109.2325,41.6818],[-109.2274,41.6515],[-109.2331,41.6254],[-109.2234,41.6253],[-109.2229,41.6033],[-109.194,41.6033],[-109.1943,41.5885],[-109.1846,41.5886],[-109.185,41.5745],[-109.1939,41.5744],[-109.1944,41.5674],[-109.2165,41.5672],[-109.2355,41.5771],[-109.2623,41.5762],[-109.3485,41.5424],[-109.3513,41.5278],[-109.3609,41.5258],[-109.3674,41.5313],[-109.3854,41.5325],[-109.3967,41.5238],[-109.4119,41.5224],[-109.4244,41.5269],[-109.4255,41.5176],[-109.4447,41.5177],[-109.4448,41.5031],[-109.4255,41.5027],[-109.4255,41.4912],[-109.414,41.4817],[-109.4189,41.4799],[-109.4174,41.476],[-109.4034,41.4739],[-109.3948,41.4779],[-109.3865,41.4725],[-109.3873,41.4466],[-109.4238,41.4369],[-109.4093,41.4223],[-109.4162,41.4063],[-109.4245,41.4041],[-109.4407,41.4114],[-109.4513,41.4062],[-109.4488,41.3809],[-109.4294,41.3744],[-109.4291,41.3669],[-109.4369,41.3567],[-109.4536,41.3539],[-109.4582,41.3354],[-109.4686,41.3246],[-109.4941,41.3209],[-109.5097,41.3261],[-109.53,41.3238],[-109.5352,41.3089],[-109.5312,41.2824],[-109.5689,41.2548],[-109.5899,41.2246],[-109.5442,41.2074],[-109.5344,41.1729],[-109.5499,41.1633],[-109.5539,41.1355],[-109.5321,41.117],[-109.5299,41.1051],[-109.5404,41.0934],[-109.5477,41.0687],[-109.5638,41.0564],[-109.5505,41.0382],[-109.5667,41.0247],[-109.5597,41.0124],[-109.5634,41.005],[-109.5607,41.0015],[-109.5651,40.9984],[-109.2325,41.0021],[-107.0006,41.0034],[-106.3212,40.9991],[-106.3229,41.3951],[-106.0684,41.395],[-106.0749,42.0866],[-106.0734,42.4332],[-106.941,42.4334],[-106.9387,42.1719],[-106.8214,42.1719],[-106.8218,42.0862],[-106.695,42.0855],[-106.6945,41.8264],[-106.9268,41.8267],[-106.9262,41.7398],[-106.903,41.7398],[-106.9019,41.6561],[-107.0191,41.6558],[-107.0185,41.5694],[-107.1303,41.569],[-107.1294,41.3965],[-107.2384,41.3968],[-107.2334,41.3089],[-107.5736,41.3084],[-107.5737,41.3978],[-107.5841,41.3978],[-107.5862,41.6576],[-107.5097,41.6575],[-107.5101,41.7405],[-107.5055,41.7405],[-107.5038,42.088],[-107.5223,42.088],[-107.5228,42.1745],[-107.6328,42.1744],[-107.6331,42.1861],[-107.6403,42.1953],[-107.6334,42.1979],[-107.6351,42.2614],[-109.4968,42.2633],[-110.0537,42.2707],[-110.0544,42.0072]]]},"properties":{"geoid":"56047","state":"56","district":"47","name":"State House District 47","chamber":"House"}},{"type":"Feature","geometry":{"type":"Polygon","coordinates":[[[-109.2832,41.6546],[-109.2812,41.6404],[-109.2721,41.6403],[-109.2722,41.6295],[-109.2526,41.6292],[-109.2521,41.5957],[-109.2443,41.5982],[-109.2271,41.5877],[-109.2252,41.5923],[-109.2141,41.5926],[-109.2213,41.5865],[-109.2187,41.5837],[-109.2072,41.5862],[-109.2016,41.6014],[-109.2229,41.6033],[-109.2234,41.6253],[-109.2331,41.6254],[-109.2282,41.6572],[-109.2591,41.652],[-109.2832,41.6546]]]},"properties":{"geoid":"56048","state":"56","district":"48","name":"State House District 48","chamber":"House"}},{"type":"Feature","geometry":{"type":"Polygon","coordinates":[[[-111.0056,41.2422],[-111.0055,41.2369],[-110.9864,41.2369],[-110.9862,41.2326],[-110.9816,41.2326],[-110.9768,41.2421],[-110.9555,41.2384],[-110.9355,41.242],[-110.9488,41.2611],[-110.9673,41.2583],[-110.958,41.269],[-110.9561,41.2809],[-110.948,41.282],[-110.9481,41.2857],[-110.9768,41.2857],[-110.9768,41.2767],[-110.9911,41.2759],[-111.0049,41.2565],[-111.0001,41.2606],[-111.0006,41.2567],[-110.9958,41.2567],[-110.9958,41.2422],[-111.0056,41.2422]]]},"properties":{"geoid":"56049","state":"56","district":"49","name":"State House District 49","chamber":"House"}},{"type":"Feature","geometry":{"type":"Polygon","coordinates":[[[-110.0024,44.9999],[-110.0007,44.974],[-109.97,44.9728],[-109.9402,44.9371],[-109.9268,44.932],[-109.9297,44.8947],[-109.938,44.8806],[-109.9354,44.8694],[-109.9398,44.854],[-109.9283,44.8372],[-109.9567,44.8189],[-109.9548,44.8044],[-109.9581,44.8022],[-109.9297,44.792],[-109.908,44.7663],[-109.8871,44.7554],[-109.8831,44.7413],[-109.8675,44.7348],[-109.8592,44.7241],[-109.8377,44.7251],[-109.826,44.7092],[-109.8281,44.6999],[-109.8476,44.6829],[-109.8475,44.6512],[-109.3848,44.6489],[-109.3634,44.6345],[-109.3605,44.629],[-109.3663,44.6249],[-109.3627,44.6211],[-109.3401,44.6304],[-109.2866,44.6162],[-109.2542,44.615],[-109.2506,44.6198],[-109.2352,44.62],[-109.2017,44.6052],[-109.1755,44.6073],[-109.1749,44.6199],[-109.1466,44.6236],[-109.1038,44.5654],[-109.0697,44.5382],[-109.0624,44.5352],[-109.0576,44.5409],[-109.0462,44.5401],[-109.0492,44.4983],[-109.0425,44.5021],[-109.032,44.4899],[-109.0265,44.4898],[-109.0266,44.4937],[-109.0412,44.5012],[-109.041,44.5122],[-108.9548,44.5117],[-108.8243,44.4781],[-108.7149,44.477],[-108.6195,44.4586],[-108.5734,44.4616],[-108.5734,44.5208],[-108.5925,44.5209],[-108.5923,44.6946],[-108.6737,44.6947],[-108.6734,44.683],[-108.7274,44.6619],[-108.7381,44.6689],[-108.7722,44.6652],[-108.8139,44.6818],[-108.8268,44.6796],[-108.8235,44.6831],[-108.8267,44.6853],[-108.8107,44.6899],[-108.8107,44.6959],[-108.7927,44.6983],[-108.8203,44.7017],[-108.8213,44.7606],[-108.8154,44.7677],[-108.8206,44.7683],[-108.8209,44.7982],[-108.8165,44.801],[-108.8189,44.8123],[-108.8134,44.8132],[-108.8111,44.8217],[-108.8225,44.822],[-108.8349,44.8305],[-108.8347,44.8714],[-108.8644,44.8714],[-108.8647,44.9582],[-108.9259,44.9582],[-108.926,44.9998],[-109.0819,44.9995],[-109.1032,45.0058],[-110.0015,45.0034],[-110.0024,44.9999]]]},"properties":{"geoid":"56050","state":"56","district":"50","name":"State House District 50","chamber":"House"}},{"type":"Feature","geometry":{"type":"Polygon","coordinates":[[[-107.9115,45.0007],[-107.8819,44.9859],[-107.8765,44.9633],[-107.8819,44.9334],[-107.8525,44.9156],[-107.8485,44.8985],[-107.861,44.8943],[-107.865,44.8736],[-107.8444,44.8606],[-107.8406,44.8498],[-107.8318,44.845],[-107.8277,44.8315],[-107.8327,44.8251],[-107.8256,44.8253],[-107.8293,44.8216],[-107.8163,44.8175],[-107.8182,44.8092],[-107.8316,44.7998],[-107.8323,44.7902],[-107.8128,44.7893],[-107.7805,44.7727],[-107.7544,44.7706],[-107.7541,44.758],[-107.7456,44.7543],[-107.7489,44.746],[-107.7436,44.7415],[-107.7445,44.729],[-107.7513,44.7235],[-107.7435,44.7154],[-107.7282,44.7165],[-107.6983,44.705],[-107.6948,44.7083],[-107.6828,44.7061],[-107.6842,44.6927],[-107.6697,44.6796],[-107.6567,44.6838],[-107.6507,44.6923],[-107.6226,44.693],[-107.6159,44.7013],[-107.5957,44.695],[-107.5897,44.6884],[-107.58,44.6895],[-107.5737,44.683],[-107.5492,44.6788],[-107.5489,44.667],[-107.5298,44.6662],[-107.5193,44.6607],[-107.5351,44.6485],[-107.5282,44.6348],[-107.5123,44.6334],[-107.4949,44.642],[-107.4876,44.6271],[-107.4696,44.6123],[-107.4431,44.6056],[-107.4328,44.6077],[-107.4352,44.612],[-107.4243,44.6114],[-107.4188,44.6008],[-107.3835,44.5954],[-107.3852,44.5898],[-107.3749,44.582],[-107.3696,44.5598],[-106.9343,44.5585],[-106.9345,44.5726],[-106.9711,44.5725],[-106.971,44.5862],[-106.892,44.5868],[-106.8921,44.58],[-106.8752,44.5796],[-106.8716,44.5939],[-106.8818,44.5938],[-106.8819,44.6047],[-106.8614,44.6084],[-106.8615,44.6156],[-106.873,44.6155],[-106.8837,44.6262],[-106.8717,44.6263],[-106.8714,44.6443],[-106.8512,44.6447],[-106.8516,44.6586],[-106.9423,44.661],[-106.9424,44.69],[-106.9627,44.6899],[-106.9728,44.6972],[-106.9729,44.7047],[-106.9447,44.7045],[-106.9612,44.7154],[-106.9625,44.7251],[-106.993,44.7249],[-106.9934,44.7191],[-107.0135,44.7191],[-107.0137,44.7338],[-107.0339,44.7336],[-107.0336,44.7734],[-107.0285,44.778],[-107.0141,44.7818],[-107.0132,44.7762],[-107.0079,44.7755],[-107,44.7825],[-106.9859,44.7821],[-106.978,44.7902],[-106.9782,44.7845],[-106.9619,44.7866],[-106.9615,44.7955],[-106.9718,44.7974],[-106.9732,44.81],[-107.0145,44.8121],[-107.0145,44.8174],[-106.9884,44.8135],[-106.9862,44.8173],[-106.9627,44.8157],[-106.964,44.8204],[-106.999,44.8239],[-107.0149,44.8202],[-107.015,44.8356],[-107.0349,44.8355],[-107.0327,44.8637],[-107.0533,44.8637],[-107.053,44.9001],[-107.0327,44.9006],[-107.0326,44.9072],[-107.0432,44.9079],[-107.0434,44.9225],[-107.033,44.9224],[-107.0327,44.9292],[-107.0024,44.9293],[-107.0025,44.9365],[-106.9922,44.9366],[-106.9875,44.9528],[-106.9876,44.9963],[-107.3149,45.001],[-107.9115,45.0007]],[[-106.9768,44.7887],[-106.9764,44.7894],[-106.9764,44.7884],[-106.9768,44.7887]]]},"properties":{"geoid":"56051","state":"56","district":"51","name":"State House District 51","chamber":"House"}},{"type":"Feature","geometry":{"type":"Polygon","coordinates":[[[-106.0252,44.9796],[-106.0231,44.8688],[-106.0176,44.8688],[-106.0143,44.8578],[-106.015,44.7071],[-106.0107,44.6932],[-106.0082,44.5681],[-105.894,44.4776],[-105.8645,44.448],[-105.8925,44.4774],[-105.9526,44.5237],[-105.9546,44.5462],[-105.9016,44.5524],[-105.8768,44.5306],[-105.8745,44.5348],[-105.847,44.5363],[-105.8333,44.5292],[-105.826,44.5343],[-105.8034,44.5208],[-105.798,44.5206],[-105.7948,44.5267],[-105.7875,44.5241],[-105.7781,44.52],[-105.7689,44.5057],[-105.74,44.4878],[-105.7161,44.4982],[-105.6832,44.4887],[-105.6867,44.4786],[-105.6822,44.4606],[-105.6887,44.4526],[-105.6855,44.439],[-105.6619,44.4257],[-105.661,44.3997],[-105.6456,44.3944],[-105.658,44.386],[-105.702,44.3727],[-105.6954,44.3645],[-105.6969,44.3539],[-105.6848,44.3357],[-105.6961,44.332],[-105.6951,44.3248],[-105.6866,44.3187],[-105.6665,44.3161],[-105.6595,44.3068],[-105.6351,44.2953],[-105.6163,44.303],[-105.5932,44.2966],[-105.5293,44.2972],[-105.5296,44.3055],[-105.5078,44.3022],[-105.4946,44.306],[-105.4945,44.3097],[-105.4891,44.3098],[-105.4893,44.3172],[-105.4524,44.3158],[-105.4495,44.295],[-105.4266,44.2951],[-105.4303,44.2851],[-105.4191,44.2781],[-105.4191,44.2729],[-105.424,44.269],[-105.4489,44.2694],[-105.4434,44.2655],[-105.4489,44.2621],[-105.4692,44.262],[-105.4897,44.2556],[-105.4641,44.2383],[-105.4591,44.2399],[-105.4621,44.2361],[-105.4579,44.2283],[-105.3792,44.233],[-105.3679,44.2263],[-105.3475,44.2258],[-105.3475,44.2221],[-105.3073,44.2224],[-105.3123,44.2279],[-105.3014,44.2234],[-105.2844,44.205],[-105.2818,44.1626],[-105.2768,44.1524],[-105.282,44.1428],[-105.2804,44.1296],[-105.307,44.1234],[-105.3301,44.1106],[-105.3337,44.1036],[-105.3114,44.1026],[-105.3022,44.0959],[-105.2482,44.0798],[-105.2434,44.0751],[-105.2468,44.0716],[-105.2419,44.0602],[-105.2447,44.0573],[-105.2305,44.0458],[-105.228,44.0382],[-105.2328,44.0339],[-105.2237,44.0247],[-105.2192,44.0077],[-105.2123,43.9996],[-105.2014,44.001],[-105.1982,43.9805],[-105.1817,43.9702],[-105.126,43.9694],[-105.1033,43.9628],[-105.0808,43.9662],[-105.0856,44.7691],[-105.0855,44.7868],[-105.0769,44.7862],[-105.0766,44.9999],[-105.9131,45.0002],[-105.9282,44.9935],[-106.0248,44.9935],[-106.0252,44.9796]]]},"properties":{"geoid":"56052","state":"56","district":"52","name":"State House District 52","chamber":"House"}},{"type":"Feature","geometry":{"type":"Polygon","coordinates":[[[-105.5299,44.3047],[-105.5282,44.2946],[-105.5106,44.2876],[-105.5096,44.2681],[-105.503,44.2655],[-105.4832,44.2693],[-105.4789,44.2798],[-105.467,44.2901],[-105.489,44.2925],[-105.4891,44.3098],[-105.5044,44.3059],[-105.5045,44.3023],[-105.5299,44.3047]]]},"properties":{"geoid":"56053","state":"56","district":"53","name":"State House District 53","chamber":"House"}},{"type":"Feature","geometry":{"type":"Polygon","coordinates":[[[-108.9175,42.8243],[-108.8936,42.828],[-108.8987,42.8174],[-108.8936,42.797],[-108.9041,42.7929],[-108.8915,42.7822],[-108.9136,42.761],[-108.8997,42.7455],[-108.8805,42.7363],[-108.8452,42.7359],[-108.8534,42.73],[-108.8094,42.7459],[-108.7727,42.7775],[-108.7728,42.7847],[-108.7461,42.8098],[-108.7036,42.8106],[-108.6929,42.8035],[-108.6618,42.8008],[-108.6511,42.8278],[-108.6372,42.8294],[-108.6297,42.8452],[-108.6219,42.8509],[-108.6096,42.8835],[-108.6184,42.8835],[-108.622,42.8788],[-108.6308,42.881],[-108.6284,42.8767],[-108.6432,42.8702],[-108.6628,42.8744],[-108.6682,42.8735],[-108.6676,42.8691],[-108.6838,42.8708],[-108.6924,42.8567],[-108.6995,42.8539],[-108.7178,42.8602],[-108.7214,42.8762],[-108.7328,42.8888],[-108.768,42.8909],[-108.7705,42.884],[-108.7822,42.8793],[-108.8022,42.8884],[-108.8299,42.8924],[-108.8591,42.8869],[-108.8719,42.8568],[-108.9175,42.8243]]]},"properties":{"geoid":"56054","state":"56","district":"54","name":"State House District 54","chamber":"House"}},{"type":"Feature","geometry":{"type":"MultiPolygon","coordinates":[[[[-108.4881,43.0323],[-108.4741,43.0185],[-108.4251,43.0113],[-108.3906,43.0105],[-108.3868,43.0142],[-108.3799,43.0085],[-108.3769,43.0111],[-108.3806,43.0224],[-108.3681,43.0302],[-108.3705,43.0412],[-108.367,43.0424],[-108.3709,43.0439],[-108.3666,43.0485],[-108.3709,43.0485],[-108.3709,43.0559],[-108.361,43.0559],[-108.361,43.0665],[-108.3809,43.0702],[-108.3809,43.0495],[-108.3846,43.0467],[-108.3809,43.0456],[-108.3943,43.034],[-108.4302,43.0375],[-108.43,43.0291],[-108.4535,43.0402],[-108.4707,43.0373],[-108.4809,43.0415],[-108.4881,43.0323]]],[[[-108.3666,43.0485],[-108.3609,43.0487],[-108.3609,43.0449],[-108.3603,43.0525],[-108.3666,43.0485]]]]},"properties":{"geoid":"56055","state":"56","district":"55","name":"State House District 55","chamber":"House"}},{"type":"Feature","geometry":{"type":"Polygon","coordinates":[[[-106.345,42.8011],[-106.3438,42.7913],[-106.3367,42.7914],[-106.3368,42.7951],[-106.327,42.7986],[-106.3271,42.8062],[-106.3124,42.8062],[-106.312,42.817],[-106.3158,42.817],[-106.3172,42.8355],[-106.3209,42.8375],[-106.3124,42.8375],[-106.3122,42.857],[-106.3336,42.8577],[-106.3375,42.8542],[-106.3337,42.8188],[-106.3355,42.809],[-106.3448,42.8059],[-106.345,42.8011]]]},"properties":{"geoid":"56056","state":"56","district":"56","name":"State House District 56","chamber":"House"}},{"type":"Feature","geometry":{"type":"Polygon","coordinates":[[[-106.3209,42.8357],[-106.3172,42.8355],[-106.3122,42.8207],[-106.3025,42.8207],[-106.298,42.8281],[-106.2885,42.8294],[-106.298,42.8463],[-106.3121,42.8458],[-106.3124,42.8375],[-106.3209,42.8357]]]},"properties":{"geoid":"56057","state":"56","district":"57","name":"State House District 57","chamber":"House"}},{"type":"Feature","geometry":{"type":"Polygon","coordinates":[[[-106.7428,43.2106],[-106.7426,43.1238],[-106.7317,43.1238],[-106.7312,43.0105],[-106.726,43.0069],[-106.7312,43.0071],[-106.7307,42.9512],[-106.7021,42.9513],[-106.7154,42.9462],[-106.7122,42.9341],[-106.7262,42.9183],[-106.7197,42.9105],[-106.709,42.9105],[-106.6998,42.8984],[-106.7067,42.893],[-106.7225,42.8926],[-106.7234,42.8647],[-106.5535,42.8632],[-106.5533,42.8384],[-106.529,42.8453],[-106.522,42.853],[-106.51,42.854],[-106.454,42.8252],[-106.454,42.8327],[-106.4477,42.8375],[-106.4289,42.8372],[-106.4246,42.8234],[-106.4157,42.8262],[-106.4128,42.8322],[-106.4147,42.8427],[-106.4245,42.8415],[-106.4168,42.8493],[-106.4175,42.8631],[-106.3616,42.8636],[-106.364,42.8565],[-106.3563,42.8505],[-106.3643,42.8465],[-106.3564,42.8453],[-106.3613,42.8455],[-106.3614,42.8374],[-106.3448,42.8376],[-106.337,42.8415],[-106.3375,42.8541],[-106.3336,42.8577],[-106.3092,42.857],[-106.3093,42.861],[-106.2975,42.8608],[-106.2973,42.8683],[-106.2998,42.8794],[-106.3432,42.8781],[-106.3315,42.9513],[-106.3363,43.1245],[-106.0738,43.1267],[-106.0739,43.4726],[-106.0782,43.4725],[-106.0781,43.4945],[-106.5166,43.4918],[-106.5168,43.4703],[-106.5055,43.4705],[-106.5054,43.2103],[-106.7428,43.2106]]]},"properties":{"geoid":"56058","state":"56","district":"58","name":"State House District 58","chamber":"House"}},{"type":"Feature","geometry":{"type":"Polygon","coordinates":[[[-106.4245,42.8428],[-106.4147,42.8427],[-106.4087,42.8284],[-106.4022,42.8327],[-106.3786,42.8179],[-106.363,42.8255],[-106.3608,42.8206],[-106.3519,42.8197],[-106.337,42.8273],[-106.337,42.8415],[-106.3614,42.8374],[-106.3613,42.8455],[-106.3564,42.8453],[-106.3643,42.8465],[-106.3563,42.8505],[-106.364,42.8565],[-106.3616,42.8636],[-106.4175,42.8631],[-106.4168,42.8493],[-106.4245,42.8428]]]},"properties":{"geoid":"56059","state":"56","district":"59","name":"State House District 59","chamber":"House"}},{"type":"Feature","geometry":{"type":"Polygon","coordinates":[[[-109.5024,41.478],[-109.5024,41.4744],[-109.4841,41.4743],[-109.4837,41.4852],[-109.4787,41.4888],[-109.4255,41.4886],[-109.4255,41.5027],[-109.4448,41.5031],[-109.4492,41.5188],[-109.4774,41.5202],[-109.4739,41.5163],[-109.4833,41.508],[-109.4836,41.4887],[-109.5024,41.4878],[-109.5024,41.478]]]},"properties":{"geoid":"56060","state":"56","district":"60","name":"State House District 60","chamber":"House"}},{"type":"Feature","geometry":{"type":"Polygon","coordinates":[[[-104.7716,41.1467],[-104.7685,41.1365],[-104.7631,41.1365],[-104.7661,41.1295],[-104.7517,41.1287],[-104.7494,41.149],[-104.7324,41.1562],[-104.747,41.1536],[-104.7565,41.16],[-104.7707,41.1601],[-104.7716,41.1467]]]},"properties":{"geoid":"56061","state":"56","district":"61","name":"State House District 61","chamber":"House"}},{"type":"Feature","geometry":{"type":"Polygon","coordinates":[[[-106.3432,42.8781],[-106.2993,42.8793],[-106.2975,42.8608],[-106.2797,42.8609],[-106.278,42.8559],[-106.2562,42.8496],[-106.2172,42.8444],[-106.2157,42.8357],[-106.2357,42.8358],[-106.2431,42.8287],[-106.2373,42.8414],[-106.2468,42.8419],[-106.2436,42.8451],[-106.2474,42.846],[-106.2503,42.8291],[-106.2585,42.8285],[-106.2673,42.8205],[-106.2664,42.7773],[-106.2581,42.7773],[-106.2575,42.7639],[-106.2248,42.764],[-106.2246,42.731],[-106.243,42.7257],[-106.2435,42.7215],[-106.2435,42.4334],[-105.7672,42.4316],[-105.7727,42.721],[-105.6946,42.7208],[-105.6925,42.8224],[-105.6726,42.8233],[-105.6726,42.9102],[-105.6529,42.9105],[-105.6535,42.954],[-105.6728,42.9539],[-105.68,43.2154],[-105.5614,43.2155],[-105.5605,43.3887],[-105.6797,43.3883],[-105.6793,43.4741],[-105.6849,43.4741],[-105.685,43.4958],[-106.0781,43.4945],[-106.0782,43.4725],[-106.0739,43.4726],[-106.0738,43.1267],[-106.3363,43.1245],[-106.3315,42.9513],[-106.3432,42.8781]]]},"properties":{"geoid":"56062","state":"56","district":"62","name":"State House District 62","chamber":"House"}}]}